{"type": "FeatureCollection", "features": [{"type": "Feature", "geometry": {"type": "LineString", "coordinates": [[77.20143726395804, 69.03871486354029], [77.19537485845376, 69.03788220526414]]}, "properties": {"source": "2586627", "target": "156566"}}, {"type": "Feature", "geometry": {"type": "LineString", "coordinates": [[77.1964708091287, 69.04177936039787], [77.19850263572619, 69.0413906001748]]}, "properties": {"source": "18232225", "target": "1401352"}}, {"type": "Feature", "geometry": {"type": "LineString", "coordinates": [[77.18956514098727, 69.04218271529504], [77.19762154776441, 69.03944610866651]]}, "properties": {"source": "1873468", "target": "3320158"}}, {"type": "Feature", "geometry": {"type": "LineString", "coordinates": [[77.18956514098727, 69.04218271529504], [77.20143726395804, 69.03871486354029]]}, "properties": {"source": "1873468", "target": "2586627"}}, {"type": "Feature", "geometry": {"type": "LineString", "coordinates": [[77.18956514098727, 69.04218271529504], [77.19753231259426, 69.04131549971089]]}, "properties": {"source": "1873468", "target": "3428884"}}, {"type": "Feature", "geometry": {"type": "LineString", "coordinates": [[77.19068093875939, 69.03778560917772], [77.19651793104077, 69.03847975985823]]}, "properties": {"source": "9172707", "target": "17828617"}}, {"type": "Feature", "geometry": {"type": "LineString", "coordinates": [[77.19068093875939, 69.03778560917772], [77.19433979316943, 69.03897240005003]]}, "properties": {"source": "9172707", "target": "17828599"}}, {"type": "Feature", "geometry": {"type": "LineString", "coordinates": [[77.19068093875939, 69.03778560917772], [77.19041392574303, 69.03910968960966]]}, "properties": {"source": "9172707", "target": "23591168"}}, {"type": "Feature", "geometry": {"type": "LineString", "coordinates": [[77.20136260459986, 69.0380168720009], [77.19651793104077, 69.03847975985823]]}, "properties": {"source": "16006611", "target": "17828617"}}, {"type": "Feature", "geometry": {"type": "LineString", "coordinates": [[77.20136260459986, 69.0380168720009], [77.19433979316943, 69.03897240005003]]}, "properties": {"source": "16006611", "target": "17828599"}}, {"type": "Feature", "geometry": {"type": "LineString", "coordinates": [[77.20136260459986, 69.0380168720009], [77.19041392574303, 69.03910968960966]]}, "properties": {"source": "16006611", "target": "23591168"}}, {"type": "Feature", "geometry": {"type": "LineString", "coordinates": [[77.19295421604238, 69.0404149353756], [77.19217674627629, 69.03909280726364]]}, "properties": {"source": "362198", "target": "2761261"}}, {"type": "Feature", "geometry": {"type": "LineString", "coordinates": [[77.19295421604238, 69.0404149353756], [77.19735646359425, 69.04064977596727]]}, "properties": {"source": "362198", "target": "362207"}}, {"type": "Feature", "geometry": {"type": "LineString", "coordinates": [[77.19457427174086, 69.03844923379339], [77.19217674627629, 69.03909280726364]]}, "properties": {"source": "362202", "target": "2761261"}}, {"type": "Feature", "geometry": {"type": "LineString", "coordinates": [[77.19457427174086, 69.03844923379339], [77.19295421604238, 69.0404149353756]]}, "properties": {"source": "362202", "target": "362198"}}, {"type": "Feature", "geometry": {"type": "LineString", "coordinates": [[77.19457427174086, 69.03844923379339], [77.19735646359425, 69.04064977596727]]}, "properties": {"source": "362202", "target": "362207"}}, {"type": "Feature", "geometry": {"type": "LineString", "coordinates": [[77.20261556705827, 69.0399222491871], [77.19733911040368, 69.03817867559297]]}, "properties": {"source": "17683779", "target": "2877255"}}, {"type": "Feature", "geometry": {"type": "LineString", "coordinates": [[77.20261556705827, 69.0399222491871], [77.19838434680736, 69.04086540317934]]}, "properties": {"source": "17683779", "target": "1611715"}}, {"type": "Feature", "geometry": {"type": "LineString", "coordinates": [[77.194127301879, 69.0396273761032], [77.1889633014585, 69.04049820886704]]}, "properties": {"source": "12166692", "target": "1548804"}}, {"type": "Feature", "geometry": {"type": "LineString", "coordinates": [[77.194127301879, 69.0396273761032], [77.19850263572619, 69.0413906001748]]}, "properties": {"source": "12166692", "target": "1401352"}}, {"type": "Feature", "geometry": {"type": "LineString", "coordinates": [[77.194127301879, 69.0396273761032], [77.1964708091287, 69.04177936039787]]}, "properties": {"source": "12166692", "target": "18232225"}}, {"type": "Feature", "geometry": {"type": "LineString", "coordinates": [[77.194127301879, 69.0396273761032], [77.1903028725053, 69.03992257621186]]}, "properties": {"source": "12166692", "target": "2659753"}}, {"type": "Feature", "geometry": {"type": "LineString", "coordinates": [[77.19930316808347, 69.03924686825704], [77.1915410910695, 69.03833433356954]]}, "properties": {"source": "2813957", "target": "2252570"}}, {"type": "Feature", "geometry": {"type": "LineString", "coordinates": [[77.19930316808347, 69.03924686825704], [77.20038903725901, 69.03770487234485]]}, "properties": {"source": "2813957", "target": "1336820"}}, {"type": "Feature", "geometry": {"type": "LineString", "coordinates": [[77.19930316808347, 69.03924686825704], [77.19775839172041, 69.03968453169895]]}, "properties": {"source": "2813957", "target": "2921249"}}, {"type": "Feature", "geometry": {"type": "LineString", "coordinates": [[77.19501165398913, 69.04210987640187], [77.1889633014585, 69.04049820886704]]}, "properties": {"source": "17697796", "target": "1548804"}}, {"type": "Feature", "geometry": {"type": "LineString", "coordinates": [[77.19501165398913, 69.04210987640187], [77.19209060203787, 69.03933764151088]]}, "properties": {"source": "17697796", "target": "17121"}}, {"type": "Feature", "geometry": {"type": "LineString", "coordinates": [[77.19501165398913, 69.04210987640187], [77.194127301879, 69.0396273761032]]}, "properties": {"source": "17697796", "target": "12166692"}}, {"type": "Feature", "geometry": {"type": "LineString", "coordinates": [[77.19501165398913, 69.04210987640187], [77.19850263572619, 69.0413906001748]]}, "properties": {"source": "17697796", "target": "1401352"}}, {"type": "Feature", "geometry": {"type": "LineString", "coordinates": [[77.19501165398913, 69.04210987640187], [77.1964708091287, 69.04177936039787]]}, "properties": {"source": "17697796", "target": "18232225"}}, {"type": "Feature", "geometry": {"type": "LineString", "coordinates": [[77.19100953738229, 69.04078004008147], [77.19521349240313, 69.04215419658013]]}, "properties": {"source": "8755482", "target": "13587540"}}, {"type": "Feature", "geometry": {"type": "LineString", "coordinates": [[77.19100953738229, 69.04078004008147], [77.19852803106801, 69.04157788674536]]}, "properties": {"source": "8755482", "target": "747193"}}, {"type": "Feature", "geometry": {"type": "LineString", "coordinates": [[77.19733911040368, 69.03817867559297], [77.19838434680736, 69.04086540317934]]}, "properties": {"source": "2877255", "target": "1611715"}}, {"type": "Feature", "geometry": {"type": "LineString", "coordinates": [[77.19733911040368, 69.03817867559297], [77.19521349240313, 69.04215419658013]]}, "properties": {"source": "2877255", "target": "13587540"}}, {"type": "Feature", "geometry": {"type": "LineString", "coordinates": [[77.19733911040368, 69.03817867559297], [77.19579982800741, 69.04145578590919]]}, "properties": {"source": "2877255", "target": "508804"}}, {"type": "Feature", "geometry": {"type": "LineString", "coordinates": [[77.19217674627629, 69.03909280726364], [77.1889633014585, 69.04049820886704]]}, "properties": {"source": "2761261", "target": "1548804"}}, {"type": "Feature", "geometry": {"type": "LineString", "coordinates": [[77.19217674627629, 69.03909280726364], [77.19453855733872, 69.03966211620445]]}, "properties": {"source": "2761261", "target": "1863671"}}, {"type": "Feature", "geometry": {"type": "LineString", "coordinates": [[77.19217674627629, 69.03909280726364], [77.18996596361387, 69.03818177352636]]}, "properties": {"source": "2761261", "target": "1955654"}}, {"type": "Feature", "geometry": {"type": "LineString", "coordinates": [[77.19217674627629, 69.03909280726364], [77.19735646359425, 69.04064977596727]]}, "properties": {"source": "2761261", "target": "362207"}}, {"type": "Feature", "geometry": {"type": "LineString", "coordinates": [[77.19217674627629, 69.03909280726364], [77.19703470648119, 69.0407668145138]]}, "properties": {"source": "2761261", "target": "27783"}}, {"type": "Feature", "geometry": {"type": "LineString", "coordinates": [[77.20377698412887, 69.04002656984579], [77.18899426851698, 69.03860735649278]]}, "properties": {"source": "2197999", "target": "189391"}}, {"type": "Feature", "geometry": {"type": "LineString", "coordinates": [[77.20377698412887, 69.04002656984579], [77.19762154776441, 69.03944610866651]]}, "properties": {"source": "2197999", "target": "3320158"}}, {"type": "Feature", "geometry": {"type": "LineString", "coordinates": [[77.20377698412887, 69.04002656984579], [77.19733911040368, 69.03817867559297]]}, "properties": {"source": "2197999", "target": "2877255"}}, {"type": "Feature", "geometry": {"type": "LineString", "coordinates": [[77.20377698412887, 69.04002656984579], [77.2024045309928, 69.03971138204324]]}, "properties": {"source": "2197999", "target": "3081221"}}, {"type": "Feature", "geometry": {"type": "LineString", "coordinates": [[77.20377698412887, 69.04002656984579], [77.19498595504984, 69.04104249156634]]}, "properties": {"source": "2197999", "target": "5608596"}}, {"type": "Feature", "geometry": {"type": "LineString", "coordinates": [[77.20377698412887, 69.04002656984579], [77.19838434680736, 69.04086540317934]]}, "properties": {"source": "2197999", "target": "1611715"}}, {"type": "Feature", "geometry": {"type": "LineString", "coordinates": [[77.20377698412887, 69.04002656984579], [77.19521349240313, 69.04215419658013]]}, "properties": {"source": "2197999", "target": "13587540"}}, {"type": "Feature", "geometry": {"type": "LineString", "coordinates": [[77.20377698412887, 69.04002656984579], [77.19654607027366, 69.0415498349457]]}, "properties": {"source": "2197999", "target": "15942617"}}, {"type": "Feature", "geometry": {"type": "LineString", "coordinates": [[77.1938051655834, 69.03752763558666], [77.1909021036173, 69.03819118168698]]}, "properties": {"source": "6093136", "target": "731103"}}, {"type": "Feature", "geometry": {"type": "LineString", "coordinates": [[77.1938051655834, 69.03752763558666], [77.19453855733872, 69.03966211620445]]}, "properties": {"source": "6093136", "target": "1863671"}}, {"type": "Feature", "geometry": {"type": "LineString", "coordinates": [[77.1938051655834, 69.03752763558666], [77.19601747597022, 69.04112503872355]]}, "properties": {"source": "6093136", "target": "6641739"}}, {"type": "Feature", "geometry": {"type": "LineString", "coordinates": [[77.1938051655834, 69.03752763558666], [77.19393277756922, 69.03839352021933]]}, "properties": {"source": "6093136", "target": "6458580"}}, {"type": "Feature", "geometry": {"type": "LineString", "coordinates": [[77.19826073539468, 69.04187579263956], [77.19521349240313, 69.04215419658013]]}, "properties": {"source": "6085490", "target": "13587540"}}, {"type": "Feature", "geometry": {"type": "LineString", "coordinates": [[77.19826073539468, 69.04187579263956], [77.19852803106801, 69.04157788674536]]}, "properties": {"source": "6085490", "target": "747193"}}, {"type": "Feature", "geometry": {"type": "LineString", "coordinates": [[77.19826073539468, 69.04187579263956], [77.19579982800741, 69.04145578590919]]}, "properties": {"source": "6085490", "target": "508804"}}, {"type": "Feature", "geometry": {"type": "LineString", "coordinates": [[77.19209060203787, 69.03933764151088], [77.1889633014585, 69.04049820886704]]}, "properties": {"source": "17121", "target": "1548804"}}, {"type": "Feature", "geometry": {"type": "LineString", "coordinates": [[77.19209060203787, 69.03933764151088], [77.20038903725901, 69.03770487234485]]}, "properties": {"source": "17121", "target": "1336820"}}, {"type": "Feature", "geometry": {"type": "LineString", "coordinates": [[77.19209060203787, 69.03933764151088], [77.194127301879, 69.0396273761032]]}, "properties": {"source": "17121", "target": "12166692"}}, {"type": "Feature", "geometry": {"type": "LineString", "coordinates": [[77.19209060203787, 69.03933764151088], [77.19850263572619, 69.0413906001748]]}, "properties": {"source": "17121", "target": "1401352"}}, {"type": "Feature", "geometry": {"type": "LineString", "coordinates": [[77.19209060203787, 69.03933764151088], [77.1964708091287, 69.04177936039787]]}, "properties": {"source": "17121", "target": "18232225"}}, {"type": "Feature", "geometry": {"type": "LineString", "coordinates": [[77.19498595504984, 69.04104249156634], [77.19762154776441, 69.03944610866651]]}, "properties": {"source": "5608596", "target": "3320158"}}, {"type": "Feature", "geometry": {"type": "LineString", "coordinates": [[77.19498595504984, 69.04104249156634], [77.19733911040368, 69.03817867559297]]}, "properties": {"source": "5608596", "target": "2877255"}}, {"type": "Feature", "geometry": {"type": "LineString", "coordinates": [[77.1938051655834, 69.03752763558666], [77.18977106822302, 69.03743058444408]]}, "properties": {"source": "6093136", "target": "6080429"}}, {"type": "Feature", "geometry": {"type": "LineString", "coordinates": [[77.19826073539468, 69.04187579263956], [77.19100953738229, 69.04078004008147]]}, "properties": {"source": "6085490", "target": "8755482"}}, {"type": "Feature", "geometry": {"type": "LineString", "coordinates": [[77.18899426851698, 69.03860735649278], [77.19838434680736, 69.04086540317934]]}, "properties": {"source": "189391", "target": "1611715"}}, {"type": "Feature", "geometry": {"type": "LineString", "coordinates": [[77.18899426851698, 69.03860735649278], [77.19521349240313, 69.04215419658013]]}, "properties": {"source": "189391", "target": "13587540"}}, {"type": "Feature", "geometry": {"type": "LineString", "coordinates": [[77.18899426851698, 69.03860735649278], [77.19970438397598, 69.04173928251967]]}, "properties": {"source": "189391", "target": "2313178"}}, {"type": "Feature", "geometry": {"type": "LineString", "coordinates": [[77.18899426851698, 69.03860735649278], [77.19654607027366, 69.0415498349457]]}, "properties": {"source": "189391", "target": "15942617"}}, {"type": "Feature", "geometry": {"type": "LineString", "coordinates": [[77.18899426851698, 69.03860735649278], [77.1915410910695, 69.03833433356954]]}, "properties": {"source": "189391", "target": "2252570"}}, {"type": "Feature", "geometry": {"type": "LineString", "coordinates": [[77.18899426851698, 69.03860735649278], [77.20038903725901, 69.03770487234485]]}, "properties": {"source": "189391", "target": "1336820"}}, {"type": "Feature", "geometry": {"type": "LineString", "coordinates": [[77.18899426851698, 69.03860735649278], [77.19391797632142, 69.03834434479481]]}, "properties": {"source": "189391", "target": "2143356"}}, {"type": "Feature", "geometry": {"type": "LineString", "coordinates": [[77.18899426851698, 69.03860735649278], [77.20261556705827, 69.0399222491871]]}, "properties": {"source": "189391", "target": "17683779"}}, {"type": "Feature", "geometry": {"type": "LineString", "coordinates": [[77.18899426851698, 69.03860735649278], [77.19743807664486, 69.03966374318571]]}, "properties": {"source": "189391", "target": "1623569"}}, {"type": "Feature", "geometry": {"type": "LineString", "coordinates": [[77.1909021036173, 69.03819118168698], [77.19453855733872, 69.03966211620445]]}, "properties": {"source": "731103", "target": "1863671"}}, {"type": "Feature", "geometry": {"type": "LineString", "coordinates": [[77.1909021036173, 69.03819118168698], [77.19601747597022, 69.04112503872355]]}, "properties": {"source": "731103", "target": "6641739"}}, {"type": "Feature", "geometry": {"type": "LineString", "coordinates": [[77.1909021036173, 69.03819118168698], [77.1904983286633, 69.04160237024024]]}, "properties": {"source": "731103", "target": "7653298"}}, {"type": "Feature", "geometry": {"type": "LineString", "coordinates": [[77.1909021036173, 69.03819118168698], [77.19393277756922, 69.03839352021933]]}, "properties": {"source": "731103", "target": "6458580"}}, {"type": "Feature", "geometry": {"type": "LineString", "coordinates": [[77.1889633014585, 69.04049820886704], [77.19850263572619, 69.0413906001748]]}, "properties": {"source": "1548804", "target": "1401352"}}, {"type": "Feature", "geometry": {"type": "LineString", "coordinates": [[77.1909021036173, 69.03819118168698], [77.20278045402512, 69.03855354332697]]}, "properties": {"source": "731103", "target": "890486"}}, {"type": "Feature", "geometry": {"type": "LineString", "coordinates": [[77.1909021036173, 69.03819118168698], [77.18977106822302, 69.03743058444408]]}, "properties": {"source": "731103", "target": "6080429"}}, {"type": "Feature", "geometry": {"type": "LineString", "coordinates": [[77.20377698412887, 69.04002656984579], [77.20261556705827, 69.0399222491871]]}, "properties": {"source": "2197999", "target": "17683779"}}, {"type": "Feature", "geometry": {"type": "LineString", "coordinates": [[77.19517051857144, 69.0388523988658], [77.1889633014585, 69.04049820886704]]}, "properties": {"source": "237964", "target": "1548804"}}, {"type": "Feature", "geometry": {"type": "LineString", "coordinates": [[77.19517051857144, 69.0388523988658], [77.19453855733872, 69.03966211620445]]}, "properties": {"source": "237964", "target": "1863671"}}, {"type": "Feature", "geometry": {"type": "LineString", "coordinates": [[77.19517051857144, 69.0388523988658], [77.19217674627629, 69.03909280726364]]}, "properties": {"source": "237964", "target": "2761261"}}, {"type": "Feature", "geometry": {"type": "LineString", "coordinates": [[77.19517051857144, 69.0388523988658], [77.20362178090363, 69.03932129644377]]}, "properties": {"source": "237964", "target": "1355641"}}, {"type": "Feature", "geometry": {"type": "LineString", "coordinates": [[77.19517051857144, 69.0388523988658], [77.19061248356866, 69.03833682193016]]}, "properties": {"source": "237964", "target": "153713"}}, {"type": "Feature", "geometry": {"type": "LineString", "coordinates": [[77.19517051857144, 69.0388523988658], [77.18996596361387, 69.03818177352636]]}, "properties": {"source": "237964", "target": "1955654"}}, {"type": "Feature", "geometry": {"type": "LineString", "coordinates": [[77.19517051857144, 69.0388523988658], [77.19703470648119, 69.0407668145138]]}, "properties": {"source": "237964", "target": "27783"}}, {"type": "Feature", "geometry": {"type": "LineString", "coordinates": [[77.19517051857144, 69.0388523988658], [77.19013197207175, 69.04126971402343]]}, "properties": {"source": "237964", "target": "297600"}}, {"type": "Feature", "geometry": {"type": "LineString", "coordinates": [[77.19517051857144, 69.0388523988658], [77.19103575986554, 69.04226876900358]]}, "properties": {"source": "237964", "target": "2475927"}}, {"type": "Feature", "geometry": {"type": "LineString", "coordinates": [[77.2012195556469, 69.04219389706307], [77.1909021036173, 69.03819118168698]]}, "properties": {"source": "978664", "target": "731103"}}, {"type": "Feature", "geometry": {"type": "LineString", "coordinates": [[77.2012195556469, 69.04219389706307], [77.1889633014585, 69.04049820886704]]}, "properties": {"source": "978664", "target": "1548804"}}, {"type": "Feature", "geometry": {"type": "LineString", "coordinates": [[77.2012195556469, 69.04219389706307], [77.19453855733872, 69.03966211620445]]}, "properties": {"source": "978664", "target": "1863671"}}, {"type": "Feature", "geometry": {"type": "LineString", "coordinates": [[77.2012195556469, 69.04219389706307], [77.20362178090363, 69.03932129644377]]}, "properties": {"source": "978664", "target": "1355641"}}, {"type": "Feature", "geometry": {"type": "LineString", "coordinates": [[77.2012195556469, 69.04219389706307], [77.19061248356866, 69.03833682193016]]}, "properties": {"source": "978664", "target": "153713"}}, {"type": "Feature", "geometry": {"type": "LineString", "coordinates": [[77.2012195556469, 69.04219389706307], [77.19601747597022, 69.04112503872355]]}, "properties": {"source": "978664", "target": "6641739"}}, {"type": "Feature", "geometry": {"type": "LineString", "coordinates": [[77.19762154776441, 69.03944610866651], [77.19733911040368, 69.03817867559297]]}, "properties": {"source": "3320158", "target": "2877255"}}, {"type": "Feature", "geometry": {"type": "LineString", "coordinates": [[77.19762154776441, 69.03944610866651], [77.2024045309928, 69.03971138204324]]}, "properties": {"source": "3320158", "target": "3081221"}}, {"type": "Feature", "geometry": {"type": "LineString", "coordinates": [[77.19762154776441, 69.03944610866651], [77.19826073539468, 69.04187579263956]]}, "properties": {"source": "3320158", "target": "6085490"}}, {"type": "Feature", "geometry": {"type": "LineString", "coordinates": [[77.19762154776441, 69.03944610866651], [77.19838434680736, 69.04086540317934]]}, "properties": {"source": "3320158", "target": "1611715"}}, {"type": "Feature", "geometry": {"type": "LineString", "coordinates": [[77.19762154776441, 69.03944610866651], [77.20143726395804, 69.03871486354029]]}, "properties": {"source": "3320158", "target": "2586627"}}, {"type": "Feature", "geometry": {"type": "LineString", "coordinates": [[77.19762154776441, 69.03944610866651], [77.19753231259426, 69.04131549971089]]}, "properties": {"source": "3320158", "target": "3428884"}}, {"type": "Feature", "geometry": {"type": "LineString", "coordinates": [[77.19762154776441, 69.03944610866651], [77.19537485845376, 69.03788220526414]]}, "properties": {"source": "3320158", "target": "156566"}}, {"type": "Feature", "geometry": {"type": "LineString", "coordinates": [[77.2022276209762, 69.03973585313949], [77.1909021036173, 69.03819118168698]]}, "properties": {"source": "642572", "target": "731103"}}, {"type": "Feature", "geometry": {"type": "LineString", "coordinates": [[77.2022276209762, 69.03973585313949], [77.1889633014585, 69.04049820886704]]}, "properties": {"source": "642572", "target": "1548804"}}, {"type": "Feature", "geometry": {"type": "LineString", "coordinates": [[77.2022276209762, 69.03973585313949], [77.19453855733872, 69.03966211620445]]}, "properties": {"source": "642572", "target": "1863671"}}, {"type": "Feature", "geometry": {"type": "LineString", "coordinates": [[77.2022276209762, 69.03973585313949], [77.20362178090363, 69.03932129644377]]}, "properties": {"source": "642572", "target": "1355641"}}, {"type": "Feature", "geometry": {"type": "LineString", "coordinates": [[77.2022276209762, 69.03973585313949], [77.19061248356866, 69.03833682193016]]}, "properties": {"source": "642572", "target": "153713"}}, {"type": "Feature", "geometry": {"type": "LineString", "coordinates": [[77.2022276209762, 69.03973585313949], [77.1938051655834, 69.03752763558666]]}, "properties": {"source": "642572", "target": "6093136"}}, {"type": "Feature", "geometry": {"type": "LineString", "coordinates": [[77.2022276209762, 69.03973585313949], [77.19601747597022, 69.04112503872355]]}, "properties": {"source": "642572", "target": "6641739"}}, {"type": "Feature", "geometry": {"type": "LineString", "coordinates": [[77.2022276209762, 69.03973585313949], [77.19393277756922, 69.03839352021933]]}, "properties": {"source": "642572", "target": "6458580"}}, {"type": "Feature", "geometry": {"type": "LineString", "coordinates": [[77.2022276209762, 69.03973585313949], [77.18977106822302, 69.03743058444408]]}, "properties": {"source": "642572", "target": "6080429"}}, {"type": "Feature", "geometry": {"type": "LineString", "coordinates": [[77.2012195556469, 69.04219389706307], [77.1904983286633, 69.04160237024024]]}, "properties": {"source": "978664", "target": "7653298"}}, {"type": "Feature", "geometry": {"type": "LineString", "coordinates": [[77.20362178090363, 69.03932129644377], [77.1909021036173, 69.03819118168698]]}, "properties": {"source": "1355641", "target": "731103"}}, {"type": "Feature", "geometry": {"type": "LineString", "coordinates": [[77.20362178090363, 69.03932129644377], [77.1889633014585, 69.04049820886704]]}, "properties": {"source": "1355641", "target": "1548804"}}, {"type": "Feature", "geometry": {"type": "LineString", "coordinates": [[77.20362178090363, 69.03932129644377], [77.19453855733872, 69.03966211620445]]}, "properties": {"source": "1355641", "target": "1863671"}}, {"type": "Feature", "geometry": {"type": "LineString", "coordinates": [[77.20362178090363, 69.03932129644377], [77.19217674627629, 69.03909280726364]]}, "properties": {"source": "1355641", "target": "2761261"}}, {"type": "Feature", "geometry": {"type": "LineString", "coordinates": [[77.20362178090363, 69.03932129644377], [77.1938051655834, 69.03752763558666]]}, "properties": {"source": "1355641", "target": "6093136"}}, {"type": "Feature", "geometry": {"type": "LineString", "coordinates": [[77.19061248356866, 69.03833682193016], [77.1909021036173, 69.03819118168698]]}, "properties": {"source": "153713", "target": "731103"}}, {"type": "Feature", "geometry": {"type": "LineString", "coordinates": [[77.19061248356866, 69.03833682193016], [77.1889633014585, 69.04049820886704]]}, "properties": {"source": "153713", "target": "1548804"}}, {"type": "Feature", "geometry": {"type": "LineString", "coordinates": [[77.19061248356866, 69.03833682193016], [77.19217674627629, 69.03909280726364]]}, "properties": {"source": "153713", "target": "2761261"}}, {"type": "Feature", "geometry": {"type": "LineString", "coordinates": [[77.19061248356866, 69.03833682193016], [77.1938051655834, 69.03752763558666]]}, "properties": {"source": "153713", "target": "6093136"}}, {"type": "Feature", "geometry": {"type": "LineString", "coordinates": [[77.19061248356866, 69.03833682193016], [77.19354942919801, 69.03788820686785]]}, "properties": {"source": "153713", "target": "24874448"}}, {"type": "Feature", "geometry": {"type": "LineString", "coordinates": [[77.2024045309928, 69.03971138204324], [77.19733911040368, 69.03817867559297]]}, "properties": {"source": "3081221", "target": "2877255"}}, {"type": "Feature", "geometry": {"type": "LineString", "coordinates": [[77.2024045309928, 69.03971138204324], [77.19826073539468, 69.04187579263956]]}, "properties": {"source": "3081221", "target": "6085490"}}, {"type": "Feature", "geometry": {"type": "LineString", "coordinates": [[77.2024045309928, 69.03971138204324], [77.19838434680736, 69.04086540317934]]}, "properties": {"source": "3081221", "target": "1611715"}}, {"type": "Feature", "geometry": {"type": "LineString", "coordinates": [[77.2024045309928, 69.03971138204324], [77.19579982800741, 69.04145578590919]]}, "properties": {"source": "3081221", "target": "508804"}}, {"type": "Feature", "geometry": {"type": "LineString", "coordinates": [[77.2012195556469, 69.04219389706307], [77.20278045402512, 69.03855354332697]]}, "properties": {"source": "978664", "target": "890486"}}, {"type": "Feature", "geometry": {"type": "LineString", "coordinates": [[77.18996596361387, 69.03818177352636], [77.19703470648119, 69.0407668145138]]}, "properties": {"source": "1955654", "target": "27783"}}, {"type": "Feature", "geometry": {"type": "LineString", "coordinates": [[77.19123093420393, 69.04151849530987], [77.19651793104077, 69.03847975985823]]}, "properties": {"source": "17286658", "target": "17828617"}}, {"type": "Feature", "geometry": {"type": "LineString", "coordinates": [[77.19123093420393, 69.04151849530987], [77.19433979316943, 69.03897240005003]]}, "properties": {"source": "17286658", "target": "17828599"}}, {"type": "Feature", "geometry": {"type": "LineString", "coordinates": [[77.20405602440229, 69.04224033892169], [77.19433979316943, 69.03897240005003]]}, "properties": {"source": "458779", "target": "17828599"}}, {"type": "Feature", "geometry": {"type": "LineString", "coordinates": [[77.1977861461088, 69.03817046847155], [77.19654607027366, 69.0415498349457]]}, "properties": {"source": "674438", "target": "15942617"}}, {"type": "Feature", "geometry": {"type": "LineString", "coordinates": [[77.1977861461088, 69.03817046847155], [77.20261556705827, 69.0399222491871]]}, "properties": {"source": "674438", "target": "17683779"}}, {"type": "Feature", "geometry": {"type": "LineString", "coordinates": [[77.19538667861832, 69.0395399447905], [77.19743807664486, 69.03966374318571]]}, "properties": {"source": "1876860", "target": "1623569"}}, {"type": "Feature", "geometry": {"type": "LineString", "coordinates": [[77.19013197207175, 69.04126971402343], [77.19103575986554, 69.04226876900358]]}, "properties": {"source": "297600", "target": "2475927"}}, {"type": "Feature", "geometry": {"type": "LineString", "coordinates": [[77.1920789646615, 69.037677677403], [77.19651793104077, 69.03847975985823]]}, "properties": {"source": "13134033", "target": "17828617"}}, {"type": "Feature", "geometry": {"type": "LineString", "coordinates": [[77.1920789646615, 69.037677677403], [77.19433979316943, 69.03897240005003]]}, "properties": {"source": "13134033", "target": "17828599"}}, {"type": "Feature", "geometry": {"type": "LineString", "coordinates": [[77.1909389167455, 69.03963383506763], [77.19826073539468, 69.04187579263956]]}, "properties": {"source": "939121", "target": "6085490"}}, {"type": "Feature", "geometry": {"type": "LineString", "coordinates": [[77.19293628165616, 69.04135097091475], [77.1903028725053, 69.03992257621186]]}, "properties": {"source": "25987002", "target": "2659753"}}, {"type": "Feature", "geometry": {"type": "LineString", "coordinates": [[77.19788552642234, 69.03804486568302], [77.19743807664486, 69.03966374318571]]}, "properties": {"source": "2564751", "target": "1623569"}}, {"type": "Feature", "geometry": {"type": "LineString", "coordinates": [[77.19788552642234, 69.03804486568302], [77.19538667861832, 69.0395399447905]]}, "properties": {"source": "2564751", "target": "1876860"}}, {"type": "Feature", "geometry": {"type": "LineString", "coordinates": [[77.19578944746706, 69.03957568066124], [77.19100953738229, 69.04078004008147]]}, "properties": {"source": "26179138", "target": "8755482"}}, {"type": "Feature", "geometry": {"type": "LineString", "coordinates": [[77.19498595504984, 69.04104249156634], [77.2024045309928, 69.03971138204324]]}, "properties": {"source": "5608596", "target": "3081221"}}, {"type": "Feature", "geometry": {"type": "LineString", "coordinates": [[77.19498595504984, 69.04104249156634], [77.19826073539468, 69.04187579263956]]}, "properties": {"source": "5608596", "target": "6085490"}}, {"type": "Feature", "geometry": {"type": "LineString", "coordinates": [[77.19498595504984, 69.04104249156634], [77.19521349240313, 69.04215419658013]]}, "properties": {"source": "5608596", "target": "13587540"}}, {"type": "Feature", "geometry": {"type": "LineString", "coordinates": [[77.19498595504984, 69.04104249156634], [77.19852803106801, 69.04157788674536]]}, "properties": {"source": "5608596", "target": "747193"}}, {"type": "Feature", "geometry": {"type": "LineString", "coordinates": [[77.19498595504984, 69.04104249156634], [77.19579982800741, 69.04145578590919]]}, "properties": {"source": "5608596", "target": "508804"}}, {"type": "Feature", "geometry": {"type": "LineString", "coordinates": [[77.19651793104077, 69.03847975985823], [77.19453855733872, 69.03966211620445]]}, "properties": {"source": "17828617", "target": "1863671"}}, {"type": "Feature", "geometry": {"type": "LineString", "coordinates": [[77.19651793104077, 69.03847975985823], [77.19433979316943, 69.03897240005003]]}, "properties": {"source": "17828617", "target": "17828599"}}, {"type": "Feature", "geometry": {"type": "LineString", "coordinates": [[77.19651793104077, 69.03847975985823], [77.20405602440229, 69.04224033892169]]}, "properties": {"source": "17828617", "target": "458779"}}, {"type": "Feature", "geometry": {"type": "LineString", "coordinates": [[77.19433979316943, 69.03897240005003], [77.19453855733872, 69.03966211620445]]}, "properties": {"source": "17828599", "target": "1863671"}}, {"type": "Feature", "geometry": {"type": "LineString", "coordinates": [[77.19838434680736, 69.04086540317934], [77.19521349240313, 69.04215419658013]]}, "properties": {"source": "1611715", "target": "13587540"}}, {"type": "Feature", "geometry": {"type": "LineString", "coordinates": [[77.19041392574303, 69.03910968960966], [77.19453855733872, 69.03966211620445]]}, "properties": {"source": "23591168", "target": "1863671"}}, {"type": "Feature", "geometry": {"type": "LineString", "coordinates": [[77.19041392574303, 69.03910968960966], [77.19651793104077, 69.03847975985823]]}, "properties": {"source": "23591168", "target": "17828617"}}, {"type": "Feature", "geometry": {"type": "LineString", "coordinates": [[77.19041392574303, 69.03910968960966], [77.19433979316943, 69.03897240005003]]}, "properties": {"source": "23591168", "target": "17828599"}}, {"type": "Feature", "geometry": {"type": "LineString", "coordinates": [[77.19041392574303, 69.03910968960966], [77.19123093420393, 69.04151849530987]]}, "properties": {"source": "23591168", "target": "17286658"}}, {"type": "Feature", "geometry": {"type": "LineString", "coordinates": [[77.19041392574303, 69.03910968960966], [77.20405602440229, 69.04224033892169]]}, "properties": {"source": "23591168", "target": "458779"}}, {"type": "Feature", "geometry": {"type": "LineString", "coordinates": [[77.19970438397598, 69.04173928251967], [77.1915410910695, 69.03833433356954]]}, "properties": {"source": "2313178", "target": "2252570"}}, {"type": "Feature", "geometry": {"type": "LineString", "coordinates": [[77.19970438397598, 69.04173928251967], [77.20038903725901, 69.03770487234485]]}, "properties": {"source": "2313178", "target": "1336820"}}, {"type": "Feature", "geometry": {"type": "LineString", "coordinates": [[77.19970438397598, 69.04173928251967], [77.19391797632142, 69.03834434479481]]}, "properties": {"source": "2313178", "target": "2143356"}}, {"type": "Feature", "geometry": {"type": "LineString", "coordinates": [[77.19970438397598, 69.04173928251967], [77.19930316808347, 69.03924686825704]]}, "properties": {"source": "2313178", "target": "2813957"}}, {"type": "Feature", "geometry": {"type": "LineString", "coordinates": [[77.19970438397598, 69.04173928251967], [77.19775839172041, 69.03968453169895]]}, "properties": {"source": "2313178", "target": "2921249"}}, {"type": "Feature", "geometry": {"type": "LineString", "coordinates": [[77.19970438397598, 69.04173928251967], [77.19135096609489, 69.04094506213869]]}, "properties": {"source": "2313178", "target": "295419"}}, {"type": "Feature", "geometry": {"type": "LineString", "coordinates": [[77.19654607027366, 69.0415498349457], [77.19733911040368, 69.03817867559297]]}, "properties": {"source": "15942617", "target": "2877255"}}, {"type": "Feature", "geometry": {"type": "LineString", "coordinates": [[77.19654607027366, 69.0415498349457], [77.2024045309928, 69.03971138204324]]}, "properties": {"source": "15942617", "target": "3081221"}}, {"type": "Feature", "geometry": {"type": "LineString", "coordinates": [[77.19654607027366, 69.0415498349457], [77.19838434680736, 69.04086540317934]]}, "properties": {"source": "15942617", "target": "1611715"}}, {"type": "Feature", "geometry": {"type": "LineString", "coordinates": [[77.19654607027366, 69.0415498349457], [77.20261556705827, 69.0399222491871]]}, "properties": {"source": "15942617", "target": "17683779"}}, {"type": "Feature", "geometry": {"type": "LineString", "coordinates": [[77.1915410910695, 69.03833433356954], [77.20038903725901, 69.03770487234485]]}, "properties": {"source": "2252570", "target": "1336820"}}, {"type": "Feature", "geometry": {"type": "LineString", "coordinates": [[77.1915410910695, 69.03833433356954], [77.19775839172041, 69.03968453169895]]}, "properties": {"source": "2252570", "target": "2921249"}}, {"type": "Feature", "geometry": {"type": "LineString", "coordinates": [[77.20038903725901, 69.03770487234485], [77.19775839172041, 69.03968453169895]]}, "properties": {"source": "1336820", "target": "2921249"}}, {"type": "Feature", "geometry": {"type": "LineString", "coordinates": [[77.19391797632142, 69.03834434479481], [77.19209060203787, 69.03933764151088]]}, "properties": {"source": "2143356", "target": "17121"}}, {"type": "Feature", "geometry": {"type": "LineString", "coordinates": [[77.19391797632142, 69.03834434479481], [77.1915410910695, 69.03833433356954]]}, "properties": {"source": "2143356", "target": "2252570"}}, {"type": "Feature", "geometry": {"type": "LineString", "coordinates": [[77.19391797632142, 69.03834434479481], [77.20038903725901, 69.03770487234485]]}, "properties": {"source": "2143356", "target": "1336820"}}, {"type": "Feature", "geometry": {"type": "LineString", "coordinates": [[77.19391797632142, 69.03834434479481], [77.19930316808347, 69.03924686825704]]}, "properties": {"source": "2143356", "target": "2813957"}}, {"type": "Feature", "geometry": {"type": "LineString", "coordinates": [[77.19046680669527, 69.0414610710188], [77.1909021036173, 69.03819118168698]]}, "properties": {"source": "7119383", "target": "731103"}}, {"type": "Feature", "geometry": {"type": "LineString", "coordinates": [[77.19046680669527, 69.0414610710188], [77.1889633014585, 69.04049820886704]]}, "properties": {"source": "7119383", "target": "1548804"}}, {"type": "Feature", "geometry": {"type": "LineString", "coordinates": [[77.19046680669527, 69.0414610710188], [77.19453855733872, 69.03966211620445]]}, "properties": {"source": "7119383", "target": "1863671"}}, {"type": "Feature", "geometry": {"type": "LineString", "coordinates": [[77.19046680669527, 69.0414610710188], [77.2022276209762, 69.03973585313949]]}, "properties": {"source": "7119383", "target": "642572"}}, {"type": "Feature", "geometry": {"type": "LineString", "coordinates": [[77.19046680669527, 69.0414610710188], [77.2012195556469, 69.04219389706307]]}, "properties": {"source": "7119383", "target": "978664"}}, {"type": "Feature", "geometry": {"type": "LineString", "coordinates": [[77.19046680669527, 69.0414610710188], [77.20362178090363, 69.03932129644377]]}, "properties": {"source": "7119383", "target": "1355641"}}, {"type": "Feature", "geometry": {"type": "LineString", "coordinates": [[77.19046680669527, 69.0414610710188], [77.19061248356866, 69.03833682193016]]}, "properties": {"source": "7119383", "target": "153713"}}, {"type": "Feature", "geometry": {"type": "LineString", "coordinates": [[77.19046680669527, 69.0414610710188], [77.1938051655834, 69.03752763558666]]}, "properties": {"source": "7119383", "target": "6093136"}}, {"type": "Feature", "geometry": {"type": "LineString", "coordinates": [[77.19046680669527, 69.0414610710188], [77.19601747597022, 69.04112503872355]]}, "properties": {"source": "7119383", "target": "6641739"}}, {"type": "Feature", "geometry": {"type": "LineString", "coordinates": [[77.19046680669527, 69.0414610710188], [77.1904983286633, 69.04160237024024]]}, "properties": {"source": "7119383", "target": "7653298"}}, {"type": "Feature", "geometry": {"type": "LineString", "coordinates": [[77.19046680669527, 69.0414610710188], [77.19393277756922, 69.03839352021933]]}, "properties": {"source": "7119383", "target": "6458580"}}, {"type": "Feature", "geometry": {"type": "LineString", "coordinates": [[77.18899426851698, 69.03860735649278], [77.19733911040368, 69.03817867559297]]}, "properties": {"source": "189391", "target": "2877255"}}, {"type": "Feature", "geometry": {"type": "LineString", "coordinates": [[77.18899426851698, 69.03860735649278], [77.2024045309928, 69.03971138204324]]}, "properties": {"source": "189391", "target": "3081221"}}, {"type": "Feature", "geometry": {"type": "LineString", "coordinates": [[77.18899426851698, 69.03860735649278], [77.19209060203787, 69.03933764151088]]}, "properties": {"source": "189391", "target": "17121"}}, {"type": "Feature", "geometry": {"type": "LineString", "coordinates": [[77.19046680669527, 69.0414610710188], [77.20278045402512, 69.03855354332697]]}, "properties": {"source": "7119383", "target": "890486"}}, {"type": "Feature", "geometry": {"type": "LineString", "coordinates": [[77.19046680669527, 69.0414610710188], [77.18977106822302, 69.03743058444408]]}, "properties": {"source": "7119383", "target": "6080429"}}, {"type": "Feature", "geometry": {"type": "LineString", "coordinates": [[77.1904983286633, 69.04160237024024], [77.19601747597022, 69.04112503872355]]}, "properties": {"source": "7653298", "target": "6641739"}}, {"type": "Feature", "geometry": {"type": "LineString", "coordinates": [[77.19393277756922, 69.03839352021933], [77.19601747597022, 69.04112503872355]]}, "properties": {"source": "6458580", "target": "6641739"}}, {"type": "Feature", "geometry": {"type": "LineString", "coordinates": [[77.20278045402512, 69.03855354332697], [77.19601747597022, 69.04112503872355]]}, "properties": {"source": "890486", "target": "6641739"}}, {"type": "Feature", "geometry": {"type": "LineString", "coordinates": [[77.19097968508288, 69.0408128774146], [77.19521349240313, 69.04215419658013]]}, "properties": {"source": "9969575", "target": "13587540"}}, {"type": "Feature", "geometry": {"type": "LineString", "coordinates": [[77.19097968508288, 69.0408128774146], [77.19852803106801, 69.04157788674536]]}, "properties": {"source": "9969575", "target": "747193"}}, {"type": "Feature", "geometry": {"type": "LineString", "coordinates": [[77.19097968508288, 69.0408128774146], [77.19899680839058, 69.04062801720221]]}, "properties": {"source": "9969575", "target": "8576842"}}, {"type": "Feature", "geometry": {"type": "LineString", "coordinates": [[77.19899680839058, 69.04062801720221], [77.19826073539468, 69.04187579263956]]}, "properties": {"source": "8576842", "target": "6085490"}}, {"type": "Feature", "geometry": {"type": "LineString", "coordinates": [[77.19899680839058, 69.04062801720221], [77.19852803106801, 69.04157788674536]]}, "properties": {"source": "8576842", "target": "747193"}}, {"type": "Feature", "geometry": {"type": "LineString", "coordinates": [[77.19743807664486, 69.03966374318571], [77.19209060203787, 69.03933764151088]]}, "properties": {"source": "1623569", "target": "17121"}}, {"type": "Feature", "geometry": {"type": "LineString", "coordinates": [[77.19135096609489, 69.04094506213869], [77.1915410910695, 69.03833433356954]]}, "properties": {"source": "295419", "target": "2252570"}}, {"type": "Feature", "geometry": {"type": "LineString", "coordinates": [[77.19135096609489, 69.04094506213869], [77.19930316808347, 69.03924686825704]]}, "properties": {"source": "295419", "target": "2813957"}}, {"type": "Feature", "geometry": {"type": "LineString", "coordinates": [[77.19135096609489, 69.04094506213869], [77.19775839172041, 69.03968453169895]]}, "properties": {"source": "295419", "target": "2921249"}}, {"type": "Feature", "geometry": {"type": "LineString", "coordinates": [[77.20143726395804, 69.03871486354029], [77.19753231259426, 69.04131549971089]]}, "properties": {"source": "2586627", "target": "3428884"}}, {"type": "Feature", "geometry": {"type": "LineString", "coordinates": [[77.1904983286633, 69.04160237024024], [77.20278045402512, 69.03855354332697]]}, "properties": {"source": "7653298", "target": "890486"}}, {"type": "Feature", "geometry": {"type": "LineString", "coordinates": [[77.19097968508288, 69.0408128774146], [77.19100953738229, 69.04078004008147]]}, "properties": {"source": "9969575", "target": "8755482"}}, {"type": "Feature", "geometry": {"type": "LineString", "coordinates": [[77.19899680839058, 69.04062801720221], [77.19100953738229, 69.04078004008147]]}, "properties": {"source": "8576842", "target": "8755482"}}]}