{"type": "FeatureCollection", "features": [{"type": "Feature", "geometry": {"type": "LineString", "coordinates": [[84.03809444441146, 69.23031720730359], [84.03927645751185, 69.2318806674676]]}, "properties": {"source": "25446519", "target": "23180280"}}, {"type": "Feature", "geometry": {"type": "LineString", "coordinates": [[84.03809444441146, 69.23031720730359], [84.03836081435651, 69.23095291452566]]}, "properties": {"source": "25446519", "target": "24379034"}}, {"type": "Feature", "geometry": {"type": "LineString", "coordinates": [[84.03809444441146, 69.23031720730359], [84.03354695378562, 69.23017505338638]]}, "properties": {"source": "25446519", "target": "23379694"}}, {"type": "Feature", "geometry": {"type": "LineString", "coordinates": [[84.03809444441146, 69.23031720730359], [84.03436439149954, 69.23138050645696]]}, "properties": {"source": "25446519", "target": "23379708"}}, {"type": "Feature", "geometry": {"type": "LineString", "coordinates": [[84.03809444441146, 69.23031720730359], [84.03846330378991, 69.23133346476013]]}, "properties": {"source": "25446519", "target": "25446486"}}, {"type": "Feature", "geometry": {"type": "LineString", "coordinates": [[84.03809444441146, 69.23031720730359], [84.03543957885614, 69.2311212932853]]}, "properties": {"source": "25446519", "target": "25025060"}}, {"type": "Feature", "geometry": {"type": "LineString", "coordinates": [[84.03809444441146, 69.23031720730359], [84.03486230858493, 69.23056534120545]]}, "properties": {"source": "25446519", "target": "25448486"}}, {"type": "Feature", "geometry": {"type": "LineString", "coordinates": [[84.03809444441146, 69.23031720730359], [84.04007457821882, 69.23121199365173]]}, "properties": {"source": "25446519", "target": "23179628"}}, {"type": "Feature", "geometry": {"type": "LineString", "coordinates": [[84.03809444441146, 69.23031720730359], [84.0372111916405, 69.22990685958285]]}, "properties": {"source": "25446519", "target": "25448545"}}, {"type": "Feature", "geometry": {"type": "LineString", "coordinates": [[84.03809444441146, 69.23031720730359], [84.04006007215975, 69.23128288487874]]}, "properties": {"source": "25446519", "target": "25448558"}}, {"type": "Feature", "geometry": {"type": "LineString", "coordinates": [[84.03809444441146, 69.23031720730359], [84.03819227186841, 69.23089749260262]]}, "properties": {"source": "25446519", "target": "25452915"}}, {"type": "Feature", "geometry": {"type": "LineString", "coordinates": [[84.03809444441146, 69.23031720730359], [84.03938324928009, 69.22984498460366]]}, "properties": {"source": "25446519", "target": "25481272"}}, {"type": "Feature", "geometry": {"type": "LineString", "coordinates": [[84.03759724435957, 69.22969539734453], [84.03927645751185, 69.2318806674676]]}, "properties": {"source": "20903369", "target": "23180280"}}, {"type": "Feature", "geometry": {"type": "LineString", "coordinates": [[84.03759724435957, 69.22969539734453], [84.03836081435651, 69.23095291452566]]}, "properties": {"source": "20903369", "target": "24379034"}}, {"type": "Feature", "geometry": {"type": "LineString", "coordinates": [[84.03759724435957, 69.22969539734453], [84.03354695378562, 69.23017505338638]]}, "properties": {"source": "20903369", "target": "23379694"}}, {"type": "Feature", "geometry": {"type": "LineString", "coordinates": [[84.03759724435957, 69.22969539734453], [84.03436439149954, 69.23138050645696]]}, "properties": {"source": "20903369", "target": "23379708"}}, {"type": "Feature", "geometry": {"type": "LineString", "coordinates": [[84.03759724435957, 69.22969539734453], [84.03543957885614, 69.2311212932853]]}, "properties": {"source": "20903369", "target": "25025060"}}, {"type": "Feature", "geometry": {"type": "LineString", "coordinates": [[84.03759724435957, 69.22969539734453], [84.04007457821882, 69.23121199365173]]}, "properties": {"source": "20903369", "target": "23179628"}}, {"type": "Feature", "geometry": {"type": "LineString", "coordinates": [[84.03759724435957, 69.22969539734453], [84.04017522330952, 69.23117742169123]]}, "properties": {"source": "20903369", "target": "22973606"}}, {"type": "Feature", "geometry": {"type": "LineString", "coordinates": [[84.03759724435957, 69.22969539734453], [84.04034686680586, 69.22976738073484]]}, "properties": {"source": "20903369", "target": "22805143"}}, {"type": "Feature", "geometry": {"type": "LineString", "coordinates": [[84.03946306283558, 69.23177653128991], [84.03473019156905, 69.23152068632314]]}, "properties": {"source": "20621913", "target": "23379704"}}, {"type": "Feature", "geometry": {"type": "LineString", "coordinates": [[84.03946306283558, 69.23177653128991], [84.03927645751185, 69.2318806674676]]}, "properties": {"source": "20621913", "target": "23180280"}}, {"type": "Feature", "geometry": {"type": "LineString", "coordinates": [[84.03946306283558, 69.23177653128991], [84.03836081435651, 69.23095291452566]]}, "properties": {"source": "20621913", "target": "24379034"}}, {"type": "Feature", "geometry": {"type": "LineString", "coordinates": [[84.03946306283558, 69.23177653128991], [84.03354695378562, 69.23017505338638]]}, "properties": {"source": "20621913", "target": "23379694"}}, {"type": "Feature", "geometry": {"type": "LineString", "coordinates": [[84.0372111916405, 69.22990685958285], [84.03938324928009, 69.22984498460366]]}, "properties": {"source": "25448545", "target": "25481272"}}, {"type": "Feature", "geometry": {"type": "LineString", "coordinates": [[84.0372111916405, 69.22990685958285], [84.0397143122753, 69.23169525499392]]}, "properties": {"source": "25448545", "target": "25831813"}}, {"type": "Feature", "geometry": {"type": "LineString", "coordinates": [[84.04034686680586, 69.22976738073484], [84.03436439149954, 69.23138050645696]]}, "properties": {"source": "22805143", "target": "23379708"}}, {"type": "Feature", "geometry": {"type": "LineString", "coordinates": [[84.04034686680586, 69.22976738073484], [84.03543957885614, 69.2311212932853]]}, "properties": {"source": "22805143", "target": "25025060"}}, {"type": "Feature", "geometry": {"type": "LineString", "coordinates": [[84.04034686680586, 69.22976738073484], [84.04007457821882, 69.23121199365173]]}, "properties": {"source": "22805143", "target": "23179628"}}, {"type": "Feature", "geometry": {"type": "LineString", "coordinates": [[84.04034686680586, 69.22976738073484], [84.04017522330952, 69.23117742169123]]}, "properties": {"source": "22805143", "target": "22973606"}}, {"type": "Feature", "geometry": {"type": "LineString", "coordinates": [[84.04006007215975, 69.23128288487874], [84.03436439149954, 69.23138050645696]]}, "properties": {"source": "25448558", "target": "23379708"}}, {"type": "Feature", "geometry": {"type": "LineString", "coordinates": [[84.04006007215975, 69.23128288487874], [84.03846330378991, 69.23133346476013]]}, "properties": {"source": "25448558", "target": "25446486"}}, {"type": "Feature", "geometry": {"type": "LineString", "coordinates": [[84.04006007215975, 69.23128288487874], [84.03543957885614, 69.2311212932853]]}, "properties": {"source": "25448558", "target": "25025060"}}, {"type": "Feature", "geometry": {"type": "LineString", "coordinates": [[84.04006007215975, 69.23128288487874], [84.03819227186841, 69.23089749260262]]}, "properties": {"source": "25448558", "target": "25452915"}}, {"type": "Feature", "geometry": {"type": "LineString", "coordinates": [[84.04006007215975, 69.23128288487874], [84.0397143122753, 69.23169525499392]]}, "properties": {"source": "25448558", "target": "25831813"}}, {"type": "Feature", "geometry": {"type": "LineString", "coordinates": [[84.03561332703924, 69.23175324732256], [84.03912553600622, 69.22974336639538]]}, "properties": {"source": "22786748", "target": "25143671"}}, {"type": "Feature", "geometry": {"type": "LineString", "coordinates": [[84.03561332703924, 69.23175324732256], [84.03927645751185, 69.2318806674676]]}, "properties": {"source": "22786748", "target": "23180280"}}, {"type": "Feature", "geometry": {"type": "LineString", "coordinates": [[84.03561332703924, 69.23175324732256], [84.03836081435651, 69.23095291452566]]}, "properties": {"source": "22786748", "target": "24379034"}}, {"type": "Feature", "geometry": {"type": "LineString", "coordinates": [[84.03561332703924, 69.23175324732256], [84.03354695378562, 69.23017505338638]]}, "properties": {"source": "22786748", "target": "23379694"}}, {"type": "Feature", "geometry": {"type": "LineString", "coordinates": [[84.03561332703924, 69.23175324732256], [84.03436439149954, 69.23138050645696]]}, "properties": {"source": "22786748", "target": "23379708"}}, {"type": "Feature", "geometry": {"type": "LineString", "coordinates": [[84.03751052268075, 69.23070587248344], [84.0372111916405, 69.22990685958285]]}, "properties": {"source": "34467372", "target": "25448545"}}, {"type": "Feature", "geometry": {"type": "LineString", "coordinates": [[84.03751052268075, 69.23070587248344], [84.04006007215975, 69.23128288487874]]}, "properties": {"source": "34467372", "target": "25448558"}}, {"type": "Feature", "geometry": {"type": "LineString", "coordinates": [[84.03751052268075, 69.23070587248344], [84.03819227186841, 69.23089749260262]]}, "properties": {"source": "34467372", "target": "25452915"}}, {"type": "Feature", "geometry": {"type": "LineString", "coordinates": [[84.03751052268075, 69.23070587248344], [84.0368999064982, 69.23053832550761]]}, "properties": {"source": "34467372", "target": "25481253"}}, {"type": "Feature", "geometry": {"type": "LineString", "coordinates": [[84.03751052268075, 69.23070587248344], [84.03938324928009, 69.22984498460366]]}, "properties": {"source": "34467372", "target": "25481272"}}, {"type": "Feature", "geometry": {"type": "LineString", "coordinates": [[84.03751052268075, 69.23070587248344], [84.0397143122753, 69.23169525499392]]}, "properties": {"source": "34467372", "target": "25831813"}}, {"type": "Feature", "geometry": {"type": "LineString", "coordinates": [[84.0374594049685, 69.23065995855663], [84.03927645751185, 69.2318806674676]]}, "properties": {"source": "20466197", "target": "23180280"}}, {"type": "Feature", "geometry": {"type": "LineString", "coordinates": [[84.0374594049685, 69.23065995855663], [84.03354695378562, 69.23017505338638]]}, "properties": {"source": "20466197", "target": "23379694"}}, {"type": "Feature", "geometry": {"type": "LineString", "coordinates": [[84.0374594049685, 69.23065995855663], [84.04007457821882, 69.23121199365173]]}, "properties": {"source": "20466197", "target": "23179628"}}, {"type": "Feature", "geometry": {"type": "LineString", "coordinates": [[84.0374594049685, 69.23065995855663], [84.04017522330952, 69.23117742169123]]}, "properties": {"source": "20466197", "target": "22973606"}}, {"type": "Feature", "geometry": {"type": "LineString", "coordinates": [[84.0374594049685, 69.23065995855663], [84.04034686680586, 69.22976738073484]]}, "properties": {"source": "20466197", "target": "22805143"}}, {"type": "Feature", "geometry": {"type": "LineString", "coordinates": [[84.0374594049685, 69.23065995855663], [84.03561332703924, 69.23175324732256]]}, "properties": {"source": "20466197", "target": "22786748"}}, {"type": "Feature", "geometry": {"type": "LineString", "coordinates": [[84.0374594049685, 69.23065995855663], [84.03759724435957, 69.22969539734453]]}, "properties": {"source": "20466197", "target": "20903369"}}, {"type": "Feature", "geometry": {"type": "LineString", "coordinates": [[84.03415807590454, 69.23052207093292], [84.03927645751185, 69.2318806674676]]}, "properties": {"source": "20369341", "target": "23180280"}}, {"type": "Feature", "geometry": {"type": "LineString", "coordinates": [[84.03415807590454, 69.23052207093292], [84.04007457821882, 69.23121199365173]]}, "properties": {"source": "20369341", "target": "23179628"}}, {"type": "Feature", "geometry": {"type": "LineString", "coordinates": [[84.03415807590454, 69.23052207093292], [84.04017522330952, 69.23117742169123]]}, "properties": {"source": "20369341", "target": "22973606"}}, {"type": "Feature", "geometry": {"type": "LineString", "coordinates": [[84.03561332703924, 69.23175324732256], [84.03543957885614, 69.2311212932853]]}, "properties": {"source": "22786748", "target": "25025060"}}, {"type": "Feature", "geometry": {"type": "LineString", "coordinates": [[84.03561332703924, 69.23175324732256], [84.04007457821882, 69.23121199365173]]}, "properties": {"source": "22786748", "target": "23179628"}}, {"type": "Feature", "geometry": {"type": "LineString", "coordinates": [[84.03561332703924, 69.23175324732256], [84.04017522330952, 69.23117742169123]]}, "properties": {"source": "22786748", "target": "22973606"}}, {"type": "Feature", "geometry": {"type": "LineString", "coordinates": [[84.03561332703924, 69.23175324732256], [84.04034686680586, 69.22976738073484]]}, "properties": {"source": "22786748", "target": "22805143"}}, {"type": "Feature", "geometry": {"type": "LineString", "coordinates": [[84.03354695378562, 69.23017505338638], [84.04007457821882, 69.23121199365173]]}, "properties": {"source": "23379694", "target": "23179628"}}, {"type": "Feature", "geometry": {"type": "LineString", "coordinates": [[84.03354695378562, 69.23017505338638], [84.04017522330952, 69.23117742169123]]}, "properties": {"source": "23379694", "target": "22973606"}}, {"type": "Feature", "geometry": {"type": "LineString", "coordinates": [[84.03354695378562, 69.23017505338638], [84.04034686680586, 69.22976738073484]]}, "properties": {"source": "23379694", "target": "22805143"}}, {"type": "Feature", "geometry": {"type": "LineString", "coordinates": [[84.03436439149954, 69.23138050645696], [84.03846330378991, 69.23133346476013]]}, "properties": {"source": "23379708", "target": "25446486"}}, {"type": "Feature", "geometry": {"type": "LineString", "coordinates": [[84.03436439149954, 69.23138050645696], [84.03543957885614, 69.2311212932853]]}, "properties": {"source": "23379708", "target": "25025060"}}, {"type": "Feature", "geometry": {"type": "LineString", "coordinates": [[84.03436439149954, 69.23138050645696], [84.04017522330952, 69.23117742169123]]}, "properties": {"source": "23379708", "target": "22973606"}}, {"type": "Feature", "geometry": {"type": "LineString", "coordinates": [[84.03846330378991, 69.23133346476013], [84.03543957885614, 69.2311212932853]]}, "properties": {"source": "25446486", "target": "25025060"}}, {"type": "Feature", "geometry": {"type": "LineString", "coordinates": [[84.03846330378991, 69.23133346476013], [84.04017522330952, 69.23117742169123]]}, "properties": {"source": "25446486", "target": "22973606"}}, {"type": "Feature", "geometry": {"type": "LineString", "coordinates": [[84.03846330378991, 69.23133346476013], [84.03819227186841, 69.23089749260262]]}, "properties": {"source": "25446486", "target": "25452915"}}, {"type": "Feature", "geometry": {"type": "LineString", "coordinates": [[84.03543957885614, 69.2311212932853], [84.04017522330952, 69.23117742169123]]}, "properties": {"source": "25025060", "target": "22973606"}}, {"type": "Feature", "geometry": {"type": "LineString", "coordinates": [[84.03543957885614, 69.2311212932853], [84.03819227186841, 69.23089749260262]]}, "properties": {"source": "25025060", "target": "25452915"}}, {"type": "Feature", "geometry": {"type": "LineString", "coordinates": [[84.03486230858493, 69.23056534120545], [84.03436439149954, 69.23138050645696]]}, "properties": {"source": "25448486", "target": "23379708"}}, {"type": "Feature", "geometry": {"type": "LineString", "coordinates": [[84.0338170709681, 69.22976633215069], [84.03938324928009, 69.22984498460366]]}, "properties": {"source": "25452935", "target": "25481272"}}, {"type": "Feature", "geometry": {"type": "LineString", "coordinates": [[84.0338170709681, 69.22976633215069], [84.03751052268075, 69.23070587248344]]}, "properties": {"source": "25452935", "target": "34467372"}}, {"type": "Feature", "geometry": {"type": "LineString", "coordinates": [[84.0338170709681, 69.22976633215069], [84.0397143122753, 69.23169525499392]]}, "properties": {"source": "25452935", "target": "25831813"}}, {"type": "Feature", "geometry": {"type": "LineString", "coordinates": [[84.0338170709681, 69.22976633215069], [84.03415573264232, 69.23110848654807]]}, "properties": {"source": "25452935", "target": "3189639"}}, {"type": "Feature", "geometry": {"type": "LineString", "coordinates": [[84.03555966657382, 69.22989871821238], [84.03354695378562, 69.23017505338638]]}, "properties": {"source": "20621892", "target": "23379694"}}, {"type": "Feature", "geometry": {"type": "LineString", "coordinates": [[84.03555966657382, 69.22989871821238], [84.03436439149954, 69.23138050645696]]}, "properties": {"source": "20621892", "target": "23379708"}}, {"type": "Feature", "geometry": {"type": "LineString", "coordinates": [[84.03555966657382, 69.22989871821238], [84.04007457821882, 69.23121199365173]]}, "properties": {"source": "20621892", "target": "23179628"}}, {"type": "Feature", "geometry": {"type": "LineString", "coordinates": [[84.03555966657382, 69.22989871821238], [84.04017522330952, 69.23117742169123]]}, "properties": {"source": "20621892", "target": "22973606"}}, {"type": "Feature", "geometry": {"type": "LineString", "coordinates": [[84.03555966657382, 69.22989871821238], [84.04034686680586, 69.22976738073484]]}, "properties": {"source": "20621892", "target": "22805143"}}, {"type": "Feature", "geometry": {"type": "LineString", "coordinates": [[84.03555966657382, 69.22989871821238], [84.03561332703924, 69.23175324732256]]}, "properties": {"source": "20621892", "target": "22786748"}}, {"type": "Feature", "geometry": {"type": "LineString", "coordinates": [[84.03555966657382, 69.22989871821238], [84.03759724435957, 69.22969539734453]]}, "properties": {"source": "20621892", "target": "20903369"}}, {"type": "Feature", "geometry": {"type": "LineString", "coordinates": [[84.03555966657382, 69.22989871821238], [84.0374594049685, 69.23065995855663]]}, "properties": {"source": "20621892", "target": "20466197"}}, {"type": "Feature", "geometry": {"type": "LineString", "coordinates": [[84.03938324928009, 69.22984498460366], [84.03846330378991, 69.23133346476013]]}, "properties": {"source": "25481272", "target": "25446486"}}, {"type": "Feature", "geometry": {"type": "LineString", "coordinates": [[84.03938324928009, 69.22984498460366], [84.03486230858493, 69.23056534120545]]}, "properties": {"source": "25481272", "target": "25448486"}}, {"type": "Feature", "geometry": {"type": "LineString", "coordinates": [[84.03938324928009, 69.22984498460366], [84.04006007215975, 69.23128288487874]]}, "properties": {"source": "25481272", "target": "25448558"}}, {"type": "Feature", "geometry": {"type": "LineString", "coordinates": [[84.03938324928009, 69.22984498460366], [84.03819227186841, 69.23089749260262]]}, "properties": {"source": "25481272", "target": "25452915"}}, {"type": "Feature", "geometry": {"type": "LineString", "coordinates": [[84.03938324928009, 69.22984498460366], [84.0397143122753, 69.23169525499392]]}, "properties": {"source": "25481272", "target": "25831813"}}, {"type": "Feature", "geometry": {"type": "LineString", "coordinates": [[84.0390402103123, 69.23064019750268], [84.03473019156905, 69.23152068632314]]}, "properties": {"source": "20621767", "target": "23379704"}}, {"type": "Feature", "geometry": {"type": "LineString", "coordinates": [[84.0390402103123, 69.23064019750268], [84.03927645751185, 69.2318806674676]]}, "properties": {"source": "20621767", "target": "23180280"}}, {"type": "Feature", "geometry": {"type": "LineString", "coordinates": [[84.0390402103123, 69.23064019750268], [84.03354695378562, 69.23017505338638]]}, "properties": {"source": "20621767", "target": "23379694"}}, {"type": "Feature", "geometry": {"type": "LineString", "coordinates": [[84.03561332703924, 69.23175324732256], [84.03759724435957, 69.22969539734453]]}, "properties": {"source": "22786748", "target": "20903369"}}, {"type": "Feature", "geometry": {"type": "LineString", "coordinates": [[84.0338170709681, 69.22976633215069], [84.0370624915858, 69.2299453988596]]}, "properties": {"source": "25452935", "target": "25330946"}}, {"type": "Feature", "geometry": {"type": "LineString", "coordinates": [[84.0338170709681, 69.22976633215069], [84.03809444441146, 69.23031720730359]]}, "properties": {"source": "25452935", "target": "25446519"}}, {"type": "Feature", "geometry": {"type": "LineString", "coordinates": [[84.0338170709681, 69.22976633215069], [84.03912553600622, 69.22974336639538]]}, "properties": {"source": "25452935", "target": "25143671"}}, {"type": "Feature", "geometry": {"type": "LineString", "coordinates": [[84.0338170709681, 69.22976633215069], [84.03846330378991, 69.23133346476013]]}, "properties": {"source": "25452935", "target": "25446486"}}, {"type": "Feature", "geometry": {"type": "LineString", "coordinates": [[84.0338170709681, 69.22976633215069], [84.03543957885614, 69.2311212932853]]}, "properties": {"source": "25452935", "target": "25025060"}}, {"type": "Feature", "geometry": {"type": "LineString", "coordinates": [[84.0338170709681, 69.22976633215069], [84.03486230858493, 69.23056534120545]]}, "properties": {"source": "25452935", "target": "25448486"}}, {"type": "Feature", "geometry": {"type": "LineString", "coordinates": [[84.0338170709681, 69.22976633215069], [84.03710231735386, 69.23048111428307]]}, "properties": {"source": "25452935", "target": "25448504"}}, {"type": "Feature", "geometry": {"type": "LineString", "coordinates": [[84.0338170709681, 69.22976633215069], [84.0372111916405, 69.22990685958285]]}, "properties": {"source": "25452935", "target": "25448545"}}, {"type": "Feature", "geometry": {"type": "LineString", "coordinates": [[84.0338170709681, 69.22976633215069], [84.04006007215975, 69.23128288487874]]}, "properties": {"source": "25452935", "target": "25448558"}}, {"type": "Feature", "geometry": {"type": "LineString", "coordinates": [[84.0338170709681, 69.22976633215069], [84.03819227186841, 69.23089749260262]]}, "properties": {"source": "25452935", "target": "25452915"}}, {"type": "Feature", "geometry": {"type": "LineString", "coordinates": [[84.0338170709681, 69.22976633215069], [84.0368999064982, 69.23053832550761]]}, "properties": {"source": "25452935", "target": "25481253"}}, {"type": "Feature", "geometry": {"type": "LineString", "coordinates": [[84.03473019156905, 69.23152068632314], [84.03561332703924, 69.23175324732256]]}, "properties": {"source": "23379704", "target": "22786748"}}, {"type": "Feature", "geometry": {"type": "LineString", "coordinates": [[84.03473019156905, 69.23152068632314], [84.03759724435957, 69.22969539734453]]}, "properties": {"source": "23379704", "target": "20903369"}}, {"type": "Feature", "geometry": {"type": "LineString", "coordinates": [[84.03473019156905, 69.23152068632314], [84.03555966657382, 69.22989871821238]]}, "properties": {"source": "23379704", "target": "20621892"}}, {"type": "Feature", "geometry": {"type": "LineString", "coordinates": [[84.03809444441146, 69.23031720730359], [84.03912553600622, 69.22974336639538]]}, "properties": {"source": "25446519", "target": "25143671"}}, {"type": "Feature", "geometry": {"type": "LineString", "coordinates": [[84.0390402103123, 69.23064019750268], [84.04007457821882, 69.23121199365173]]}, "properties": {"source": "20621767", "target": "23179628"}}, {"type": "Feature", "geometry": {"type": "LineString", "coordinates": [[84.0390402103123, 69.23064019750268], [84.04017522330952, 69.23117742169123]]}, "properties": {"source": "20621767", "target": "22973606"}}, {"type": "Feature", "geometry": {"type": "LineString", "coordinates": [[84.0390402103123, 69.23064019750268], [84.04034686680586, 69.22976738073484]]}, "properties": {"source": "20621767", "target": "22805143"}}, {"type": "Feature", "geometry": {"type": "LineString", "coordinates": [[84.0390402103123, 69.23064019750268], [84.03561332703924, 69.23175324732256]]}, "properties": {"source": "20621767", "target": "22786748"}}, {"type": "Feature", "geometry": {"type": "LineString", "coordinates": [[84.0390402103123, 69.23064019750268], [84.03759724435957, 69.22969539734453]]}, "properties": {"source": "20621767", "target": "20903369"}}, {"type": "Feature", "geometry": {"type": "LineString", "coordinates": [[84.0390402103123, 69.23064019750268], [84.03555966657382, 69.22989871821238]]}, "properties": {"source": "20621767", "target": "20621892"}}, {"type": "Feature", "geometry": {"type": "LineString", "coordinates": [[84.0390402103123, 69.23064019750268], [84.0374594049685, 69.23065995855663]]}, "properties": {"source": "20621767", "target": "20466197"}}, {"type": "Feature", "geometry": {"type": "LineString", "coordinates": [[84.0390402103123, 69.23064019750268], [84.03415807590454, 69.23052207093292]]}, "properties": {"source": "20621767", "target": "20369341"}}, {"type": "Feature", "geometry": {"type": "LineString", "coordinates": [[84.03751052268075, 69.23070587248344], [84.03809444441146, 69.23031720730359]]}, "properties": {"source": "34467372", "target": "25446519"}}, {"type": "Feature", "geometry": {"type": "LineString", "coordinates": [[84.03751052268075, 69.23070587248344], [84.03846330378991, 69.23133346476013]]}, "properties": {"source": "34467372", "target": "25446486"}}, {"type": "Feature", "geometry": {"type": "LineString", "coordinates": [[84.03751052268075, 69.23070587248344], [84.03486230858493, 69.23056534120545]]}, "properties": {"source": "34467372", "target": "25448486"}}, {"type": "Feature", "geometry": {"type": "LineString", "coordinates": [[84.03751052268075, 69.23070587248344], [84.03710231735386, 69.23048111428307]]}, "properties": {"source": "34467372", "target": "25448504"}}, {"type": "Feature", "geometry": {"type": "LineString", "coordinates": [[84.03354695378562, 69.23017505338638], [84.03436439149954, 69.23138050645696]]}, "properties": {"source": "23379694", "target": "23379708"}}, {"type": "Feature", "geometry": {"type": "LineString", "coordinates": [[84.03354695378562, 69.23017505338638], [84.03846330378991, 69.23133346476013]]}, "properties": {"source": "23379694", "target": "25446486"}}, {"type": "Feature", "geometry": {"type": "LineString", "coordinates": [[84.03354695378562, 69.23017505338638], [84.03543957885614, 69.2311212932853]]}, "properties": {"source": "23379694", "target": "25025060"}}, {"type": "Feature", "geometry": {"type": "LineString", "coordinates": [[84.03354695378562, 69.23017505338638], [84.03486230858493, 69.23056534120545]]}, "properties": {"source": "23379694", "target": "25448486"}}, {"type": "Feature", "geometry": {"type": "LineString", "coordinates": [[84.0370624915858, 69.2299453988596], [84.03473019156905, 69.23152068632314]]}, "properties": {"source": "25330946", "target": "23379704"}}, {"type": "Feature", "geometry": {"type": "LineString", "coordinates": [[84.0370624915858, 69.2299453988596], [84.03809444441146, 69.23031720730359]]}, "properties": {"source": "25330946", "target": "25446519"}}, {"type": "Feature", "geometry": {"type": "LineString", "coordinates": [[84.0370624915858, 69.2299453988596], [84.03912553600622, 69.22974336639538]]}, "properties": {"source": "25330946", "target": "25143671"}}, {"type": "Feature", "geometry": {"type": "LineString", "coordinates": [[84.0370624915858, 69.2299453988596], [84.03927645751185, 69.2318806674676]]}, "properties": {"source": "25330946", "target": "23180280"}}, {"type": "Feature", "geometry": {"type": "LineString", "coordinates": [[84.0370624915858, 69.2299453988596], [84.03836081435651, 69.23095291452566]]}, "properties": {"source": "25330946", "target": "24379034"}}, {"type": "Feature", "geometry": {"type": "LineString", "coordinates": [[84.0370624915858, 69.2299453988596], [84.03354695378562, 69.23017505338638]]}, "properties": {"source": "25330946", "target": "23379694"}}, {"type": "Feature", "geometry": {"type": "LineString", "coordinates": [[84.0370624915858, 69.2299453988596], [84.03436439149954, 69.23138050645696]]}, "properties": {"source": "25330946", "target": "23379708"}}, {"type": "Feature", "geometry": {"type": "LineString", "coordinates": [[84.0370624915858, 69.2299453988596], [84.03846330378991, 69.23133346476013]]}, "properties": {"source": "25330946", "target": "25446486"}}, {"type": "Feature", "geometry": {"type": "LineString", "coordinates": [[84.0370624915858, 69.2299453988596], [84.03543957885614, 69.2311212932853]]}, "properties": {"source": "25330946", "target": "25025060"}}, {"type": "Feature", "geometry": {"type": "LineString", "coordinates": [[84.0370624915858, 69.2299453988596], [84.03486230858493, 69.23056534120545]]}, "properties": {"source": "25330946", "target": "25448486"}}, {"type": "Feature", "geometry": {"type": "LineString", "coordinates": [[84.0370624915858, 69.2299453988596], [84.04007457821882, 69.23121199365173]]}, "properties": {"source": "25330946", "target": "23179628"}}, {"type": "Feature", "geometry": {"type": "LineString", "coordinates": [[84.0370624915858, 69.2299453988596], [84.03710231735386, 69.23048111428307]]}, "properties": {"source": "25330946", "target": "25448504"}}, {"type": "Feature", "geometry": {"type": "LineString", "coordinates": [[84.0370624915858, 69.2299453988596], [84.04017522330952, 69.23117742169123]]}, "properties": {"source": "25330946", "target": "22973606"}}, {"type": "Feature", "geometry": {"type": "LineString", "coordinates": [[84.0370624915858, 69.2299453988596], [84.0372111916405, 69.22990685958285]]}, "properties": {"source": "25330946", "target": "25448545"}}, {"type": "Feature", "geometry": {"type": "LineString", "coordinates": [[84.0370624915858, 69.2299453988596], [84.04034686680586, 69.22976738073484]]}, "properties": {"source": "25330946", "target": "22805143"}}, {"type": "Feature", "geometry": {"type": "LineString", "coordinates": [[84.0370624915858, 69.2299453988596], [84.04006007215975, 69.23128288487874]]}, "properties": {"source": "25330946", "target": "25448558"}}, {"type": "Feature", "geometry": {"type": "LineString", "coordinates": [[84.03710231735386, 69.23048111428307], [84.03543957885614, 69.2311212932853]]}, "properties": {"source": "25448504", "target": "25025060"}}, {"type": "Feature", "geometry": {"type": "LineString", "coordinates": [[84.03710231735386, 69.23048111428307], [84.03486230858493, 69.23056534120545]]}, "properties": {"source": "25448504", "target": "25448486"}}, {"type": "Feature", "geometry": {"type": "LineString", "coordinates": [[84.03710231735386, 69.23048111428307], [84.0372111916405, 69.22990685958285]]}, "properties": {"source": "25448504", "target": "25448545"}}, {"type": "Feature", "geometry": {"type": "LineString", "coordinates": [[84.03710231735386, 69.23048111428307], [84.04006007215975, 69.23128288487874]]}, "properties": {"source": "25448504", "target": "25448558"}}, {"type": "Feature", "geometry": {"type": "LineString", "coordinates": [[84.03710231735386, 69.23048111428307], [84.03819227186841, 69.23089749260262]]}, "properties": {"source": "25448504", "target": "25452915"}}, {"type": "Feature", "geometry": {"type": "LineString", "coordinates": [[84.03710231735386, 69.23048111428307], [84.0368999064982, 69.23053832550761]]}, "properties": {"source": "25448504", "target": "25481253"}}, {"type": "Feature", "geometry": {"type": "LineString", "coordinates": [[84.03710231735386, 69.23048111428307], [84.03938324928009, 69.22984498460366]]}, "properties": {"source": "25448504", "target": "25481272"}}, {"type": "Feature", "geometry": {"type": "LineString", "coordinates": [[84.03710231735386, 69.23048111428307], [84.0397143122753, 69.23169525499392]]}, "properties": {"source": "25448504", "target": "25831813"}}, {"type": "Feature", "geometry": {"type": "LineString", "coordinates": [[84.0372111916405, 69.22990685958285], [84.03912553600622, 69.22974336639538]]}, "properties": {"source": "25448545", "target": "25143671"}}, {"type": "Feature", "geometry": {"type": "LineString", "coordinates": [[84.0372111916405, 69.22990685958285], [84.03836081435651, 69.23095291452566]]}, "properties": {"source": "25448545", "target": "24379034"}}, {"type": "Feature", "geometry": {"type": "LineString", "coordinates": [[84.0372111916405, 69.22990685958285], [84.03436439149954, 69.23138050645696]]}, "properties": {"source": "25448545", "target": "23379708"}}, {"type": "Feature", "geometry": {"type": "LineString", "coordinates": [[84.0372111916405, 69.22990685958285], [84.03846330378991, 69.23133346476013]]}, "properties": {"source": "25448545", "target": "25446486"}}, {"type": "Feature", "geometry": {"type": "LineString", "coordinates": [[84.0372111916405, 69.22990685958285], [84.03543957885614, 69.2311212932853]]}, "properties": {"source": "25448545", "target": "25025060"}}, {"type": "Feature", "geometry": {"type": "LineString", "coordinates": [[84.0372111916405, 69.22990685958285], [84.03486230858493, 69.23056534120545]]}, "properties": {"source": "25448545", "target": "25448486"}}, {"type": "Feature", "geometry": {"type": "LineString", "coordinates": [[84.0372111916405, 69.22990685958285], [84.04006007215975, 69.23128288487874]]}, "properties": {"source": "25448545", "target": "25448558"}}, {"type": "Feature", "geometry": {"type": "LineString", "coordinates": [[84.0372111916405, 69.22990685958285], [84.03819227186841, 69.23089749260262]]}, "properties": {"source": "25448545", "target": "25452915"}}, {"type": "Feature", "geometry": {"type": "LineString", "coordinates": [[84.0370624915858, 69.2299453988596], [84.03819227186841, 69.23089749260262]]}, "properties": {"source": "25330946", "target": "25452915"}}, {"type": "Feature", "geometry": {"type": "LineString", "coordinates": [[84.0370624915858, 69.2299453988596], [84.0368999064982, 69.23053832550761]]}, "properties": {"source": "25330946", "target": "25481253"}}, {"type": "Feature", "geometry": {"type": "LineString", "coordinates": [[84.0370624915858, 69.2299453988596], [84.03938324928009, 69.22984498460366]]}, "properties": {"source": "25330946", "target": "25481272"}}, {"type": "Feature", "geometry": {"type": "LineString", "coordinates": [[84.03473019156905, 69.23152068632314], [84.03809444441146, 69.23031720730359]]}, "properties": {"source": "23379704", "target": "25446519"}}, {"type": "Feature", "geometry": {"type": "LineString", "coordinates": [[84.03473019156905, 69.23152068632314], [84.03912553600622, 69.22974336639538]]}, "properties": {"source": "23379704", "target": "25143671"}}, {"type": "Feature", "geometry": {"type": "LineString", "coordinates": [[84.03473019156905, 69.23152068632314], [84.03927645751185, 69.2318806674676]]}, "properties": {"source": "23379704", "target": "23180280"}}, {"type": "Feature", "geometry": {"type": "LineString", "coordinates": [[84.03473019156905, 69.23152068632314], [84.03836081435651, 69.23095291452566]]}, "properties": {"source": "23379704", "target": "24379034"}}, {"type": "Feature", "geometry": {"type": "LineString", "coordinates": [[84.03473019156905, 69.23152068632314], [84.03354695378562, 69.23017505338638]]}, "properties": {"source": "23379704", "target": "23379694"}}, {"type": "Feature", "geometry": {"type": "LineString", "coordinates": [[84.03473019156905, 69.23152068632314], [84.03436439149954, 69.23138050645696]]}, "properties": {"source": "23379704", "target": "23379708"}}, {"type": "Feature", "geometry": {"type": "LineString", "coordinates": [[84.03473019156905, 69.23152068632314], [84.03846330378991, 69.23133346476013]]}, "properties": {"source": "23379704", "target": "25446486"}}, {"type": "Feature", "geometry": {"type": "LineString", "coordinates": [[84.03473019156905, 69.23152068632314], [84.03543957885614, 69.2311212932853]]}, "properties": {"source": "23379704", "target": "25025060"}}, {"type": "Feature", "geometry": {"type": "LineString", "coordinates": [[84.03473019156905, 69.23152068632314], [84.03486230858493, 69.23056534120545]]}, "properties": {"source": "23379704", "target": "25448486"}}, {"type": "Feature", "geometry": {"type": "LineString", "coordinates": [[84.03473019156905, 69.23152068632314], [84.04007457821882, 69.23121199365173]]}, "properties": {"source": "23379704", "target": "23179628"}}, {"type": "Feature", "geometry": {"type": "LineString", "coordinates": [[84.03473019156905, 69.23152068632314], [84.04017522330952, 69.23117742169123]]}, "properties": {"source": "23379704", "target": "22973606"}}, {"type": "Feature", "geometry": {"type": "LineString", "coordinates": [[84.03473019156905, 69.23152068632314], [84.0372111916405, 69.22990685958285]]}, "properties": {"source": "23379704", "target": "25448545"}}, {"type": "Feature", "geometry": {"type": "LineString", "coordinates": [[84.03473019156905, 69.23152068632314], [84.04034686680586, 69.22976738073484]]}, "properties": {"source": "23379704", "target": "22805143"}}, {"type": "Feature", "geometry": {"type": "LineString", "coordinates": [[84.03912553600622, 69.22974336639538], [84.03436439149954, 69.23138050645696]]}, "properties": {"source": "25143671", "target": "23379708"}}, {"type": "Feature", "geometry": {"type": "LineString", "coordinates": [[84.03912553600622, 69.22974336639538], [84.03846330378991, 69.23133346476013]]}, "properties": {"source": "25143671", "target": "25446486"}}, {"type": "Feature", "geometry": {"type": "LineString", "coordinates": [[84.03912553600622, 69.22974336639538], [84.03543957885614, 69.2311212932853]]}, "properties": {"source": "25143671", "target": "25025060"}}, {"type": "Feature", "geometry": {"type": "LineString", "coordinates": [[84.03912553600622, 69.22974336639538], [84.03486230858493, 69.23056534120545]]}, "properties": {"source": "25143671", "target": "25448486"}}, {"type": "Feature", "geometry": {"type": "LineString", "coordinates": [[84.03912553600622, 69.22974336639538], [84.04007457821882, 69.23121199365173]]}, "properties": {"source": "25143671", "target": "23179628"}}, {"type": "Feature", "geometry": {"type": "LineString", "coordinates": [[84.03912553600622, 69.22974336639538], [84.04017522330952, 69.23117742169123]]}, "properties": {"source": "25143671", "target": "22973606"}}, {"type": "Feature", "geometry": {"type": "LineString", "coordinates": [[84.03912553600622, 69.22974336639538], [84.04034686680586, 69.22976738073484]]}, "properties": {"source": "25143671", "target": "22805143"}}, {"type": "Feature", "geometry": {"type": "LineString", "coordinates": [[84.03912553600622, 69.22974336639538], [84.04006007215975, 69.23128288487874]]}, "properties": {"source": "25143671", "target": "25448558"}}, {"type": "Feature", "geometry": {"type": "LineString", "coordinates": [[84.03912553600622, 69.22974336639538], [84.03819227186841, 69.23089749260262]]}, "properties": {"source": "25143671", "target": "25452915"}}, {"type": "Feature", "geometry": {"type": "LineString", "coordinates": [[84.03927645751185, 69.2318806674676], [84.03836081435651, 69.23095291452566]]}, "properties": {"source": "23180280", "target": "24379034"}}, {"type": "Feature", "geometry": {"type": "LineString", "coordinates": [[84.03927645751185, 69.2318806674676], [84.03354695378562, 69.23017505338638]]}, "properties": {"source": "23180280", "target": "23379694"}}, {"type": "Feature", "geometry": {"type": "LineString", "coordinates": [[84.03927645751185, 69.2318806674676], [84.03436439149954, 69.23138050645696]]}, "properties": {"source": "23180280", "target": "23379708"}}, {"type": "Feature", "geometry": {"type": "LineString", "coordinates": [[84.0368999064982, 69.23053832550761], [84.03819227186841, 69.23089749260262]]}, "properties": {"source": "25481253", "target": "25452915"}}, {"type": "Feature", "geometry": {"type": "LineString", "coordinates": [[84.0368999064982, 69.23053832550761], [84.03938324928009, 69.22984498460366]]}, "properties": {"source": "25481253", "target": "25481272"}}, {"type": "Feature", "geometry": {"type": "LineString", "coordinates": [[84.0368999064982, 69.23053832550761], [84.0397143122753, 69.23169525499392]]}, "properties": {"source": "25481253", "target": "25831813"}}, {"type": "Feature", "geometry": {"type": "LineString", "coordinates": [[84.03555966657382, 69.22989871821238], [84.03927645751185, 69.2318806674676]]}, "properties": {"source": "20621892", "target": "23180280"}}, {"type": "Feature", "geometry": {"type": "LineString", "coordinates": [[84.03927645751185, 69.2318806674676], [84.03846330378991, 69.23133346476013]]}, "properties": {"source": "23180280", "target": "25446486"}}, {"type": "Feature", "geometry": {"type": "LineString", "coordinates": [[84.03927645751185, 69.2318806674676], [84.03543957885614, 69.2311212932853]]}, "properties": {"source": "23180280", "target": "25025060"}}, {"type": "Feature", "geometry": {"type": "LineString", "coordinates": [[84.03927645751185, 69.2318806674676], [84.03486230858493, 69.23056534120545]]}, "properties": {"source": "23180280", "target": "25448486"}}, {"type": "Feature", "geometry": {"type": "LineString", "coordinates": [[84.03927645751185, 69.2318806674676], [84.04007457821882, 69.23121199365173]]}, "properties": {"source": "23180280", "target": "23179628"}}, {"type": "Feature", "geometry": {"type": "LineString", "coordinates": [[84.03927645751185, 69.2318806674676], [84.04017522330952, 69.23117742169123]]}, "properties": {"source": "23180280", "target": "22973606"}}, {"type": "Feature", "geometry": {"type": "LineString", "coordinates": [[84.03927645751185, 69.2318806674676], [84.04034686680586, 69.22976738073484]]}, "properties": {"source": "23180280", "target": "22805143"}}, {"type": "Feature", "geometry": {"type": "LineString", "coordinates": [[84.03836081435651, 69.23095291452566], [84.03354695378562, 69.23017505338638]]}, "properties": {"source": "24379034", "target": "23379694"}}, {"type": "Feature", "geometry": {"type": "LineString", "coordinates": [[84.03836081435651, 69.23095291452566], [84.03436439149954, 69.23138050645696]]}, "properties": {"source": "24379034", "target": "23379708"}}, {"type": "Feature", "geometry": {"type": "LineString", "coordinates": [[84.03836081435651, 69.23095291452566], [84.03846330378991, 69.23133346476013]]}, "properties": {"source": "24379034", "target": "25446486"}}, {"type": "Feature", "geometry": {"type": "LineString", "coordinates": [[84.03836081435651, 69.23095291452566], [84.03543957885614, 69.2311212932853]]}, "properties": {"source": "24379034", "target": "25025060"}}, {"type": "Feature", "geometry": {"type": "LineString", "coordinates": [[84.03836081435651, 69.23095291452566], [84.03486230858493, 69.23056534120545]]}, "properties": {"source": "24379034", "target": "25448486"}}, {"type": "Feature", "geometry": {"type": "LineString", "coordinates": [[84.03836081435651, 69.23095291452566], [84.04007457821882, 69.23121199365173]]}, "properties": {"source": "24379034", "target": "23179628"}}, {"type": "Feature", "geometry": {"type": "LineString", "coordinates": [[84.03836081435651, 69.23095291452566], [84.04017522330952, 69.23117742169123]]}, "properties": {"source": "24379034", "target": "22973606"}}, {"type": "Feature", "geometry": {"type": "LineString", "coordinates": [[84.03836081435651, 69.23095291452566], [84.04034686680586, 69.22976738073484]]}, "properties": {"source": "24379034", "target": "22805143"}}, {"type": "Feature", "geometry": {"type": "LineString", "coordinates": [[84.03836081435651, 69.23095291452566], [84.04006007215975, 69.23128288487874]]}, "properties": {"source": "24379034", "target": "25448558"}}, {"type": "Feature", "geometry": {"type": "LineString", "coordinates": [[84.03836081435651, 69.23095291452566], [84.03819227186841, 69.23089749260262]]}, "properties": {"source": "24379034", "target": "25452915"}}, {"type": "Feature", "geometry": {"type": "LineString", "coordinates": [[84.03486230858493, 69.23056534120545], [84.03846330378991, 69.23133346476013]]}, "properties": {"source": "25448486", "target": "25446486"}}, {"type": "Feature", "geometry": {"type": "LineString", "coordinates": [[84.03486230858493, 69.23056534120545], [84.03543957885614, 69.2311212932853]]}, "properties": {"source": "25448486", "target": "25025060"}}, {"type": "Feature", "geometry": {"type": "LineString", "coordinates": [[84.03486230858493, 69.23056534120545], [84.04006007215975, 69.23128288487874]]}, "properties": {"source": "25448486", "target": "25448558"}}, {"type": "Feature", "geometry": {"type": "LineString", "coordinates": [[84.03486230858493, 69.23056534120545], [84.03819227186841, 69.23089749260262]]}, "properties": {"source": "25448486", "target": "25452915"}}, {"type": "Feature", "geometry": {"type": "LineString", "coordinates": [[84.03486230858493, 69.23056534120545], [84.0397143122753, 69.23169525499392]]}, "properties": {"source": "25448486", "target": "25831813"}}, {"type": "Feature", "geometry": {"type": "LineString", "coordinates": [[84.04007457821882, 69.23121199365173], [84.03436439149954, 69.23138050645696]]}, "properties": {"source": "23179628", "target": "23379708"}}, {"type": "Feature", "geometry": {"type": "LineString", "coordinates": [[84.04007457821882, 69.23121199365173], [84.03846330378991, 69.23133346476013]]}, "properties": {"source": "23179628", "target": "25446486"}}, {"type": "Feature", "geometry": {"type": "LineString", "coordinates": [[84.04007457821882, 69.23121199365173], [84.03543957885614, 69.2311212932853]]}, "properties": {"source": "23179628", "target": "25025060"}}, {"type": "Feature", "geometry": {"type": "LineString", "coordinates": [[84.04007457821882, 69.23121199365173], [84.04017522330952, 69.23117742169123]]}, "properties": {"source": "23179628", "target": "22973606"}}, {"type": "Feature", "geometry": {"type": "LineString", "coordinates": [[84.03710231735386, 69.23048111428307], [84.03473019156905, 69.23152068632314]]}, "properties": {"source": "25448504", "target": "23379704"}}, {"type": "Feature", "geometry": {"type": "LineString", "coordinates": [[84.03710231735386, 69.23048111428307], [84.03809444441146, 69.23031720730359]]}, "properties": {"source": "25448504", "target": "25446519"}}, {"type": "Feature", "geometry": {"type": "LineString", "coordinates": [[84.03710231735386, 69.23048111428307], [84.03912553600622, 69.22974336639538]]}, "properties": {"source": "25448504", "target": "25143671"}}, {"type": "Feature", "geometry": {"type": "LineString", "coordinates": [[84.03710231735386, 69.23048111428307], [84.03836081435651, 69.23095291452566]]}, "properties": {"source": "25448504", "target": "24379034"}}, {"type": "Feature", "geometry": {"type": "LineString", "coordinates": [[84.03710231735386, 69.23048111428307], [84.03354695378562, 69.23017505338638]]}, "properties": {"source": "25448504", "target": "23379694"}}, {"type": "Feature", "geometry": {"type": "LineString", "coordinates": [[84.03710231735386, 69.23048111428307], [84.03436439149954, 69.23138050645696]]}, "properties": {"source": "25448504", "target": "23379708"}}, {"type": "Feature", "geometry": {"type": "LineString", "coordinates": [[84.03710231735386, 69.23048111428307], [84.03846330378991, 69.23133346476013]]}, "properties": {"source": "25448504", "target": "25446486"}}, {"type": "Feature", "geometry": {"type": "LineString", "coordinates": [[84.03946306283558, 69.23177653128991], [84.03436439149954, 69.23138050645696]]}, "properties": {"source": "20621913", "target": "23379708"}}, {"type": "Feature", "geometry": {"type": "LineString", "coordinates": [[84.03946306283558, 69.23177653128991], [84.04007457821882, 69.23121199365173]]}, "properties": {"source": "20621913", "target": "23179628"}}, {"type": "Feature", "geometry": {"type": "LineString", "coordinates": [[84.03946306283558, 69.23177653128991], [84.04017522330952, 69.23117742169123]]}, "properties": {"source": "20621913", "target": "22973606"}}, {"type": "Feature", "geometry": {"type": "LineString", "coordinates": [[84.03946306283558, 69.23177653128991], [84.04034686680586, 69.22976738073484]]}, "properties": {"source": "20621913", "target": "22805143"}}, {"type": "Feature", "geometry": {"type": "LineString", "coordinates": [[84.03946306283558, 69.23177653128991], [84.03561332703924, 69.23175324732256]]}, "properties": {"source": "20621913", "target": "22786748"}}, {"type": "Feature", "geometry": {"type": "LineString", "coordinates": [[84.03946306283558, 69.23177653128991], [84.03759724435957, 69.22969539734453]]}, "properties": {"source": "20621913", "target": "20903369"}}, {"type": "Feature", "geometry": {"type": "LineString", "coordinates": [[84.03946306283558, 69.23177653128991], [84.03555966657382, 69.22989871821238]]}, "properties": {"source": "20621913", "target": "20621892"}}, {"type": "Feature", "geometry": {"type": "LineString", "coordinates": [[84.03946306283558, 69.23177653128991], [84.0390402103123, 69.23064019750268]]}, "properties": {"source": "20621913", "target": "20621767"}}, {"type": "Feature", "geometry": {"type": "LineString", "coordinates": [[84.03946306283558, 69.23177653128991], [84.0374594049685, 69.23065995855663]]}, "properties": {"source": "20621913", "target": "20466197"}}, {"type": "Feature", "geometry": {"type": "LineString", "coordinates": [[84.03946306283558, 69.23177653128991], [84.03415807590454, 69.23052207093292]]}, "properties": {"source": "20621913", "target": "20369341"}}, {"type": "Feature", "geometry": {"type": "LineString", "coordinates": [[84.0368999064982, 69.23053832550761], [84.03809444441146, 69.23031720730359]]}, "properties": {"source": "25481253", "target": "25446519"}}, {"type": "Feature", "geometry": {"type": "LineString", "coordinates": [[84.0368999064982, 69.23053832550761], [84.03912553600622, 69.22974336639538]]}, "properties": {"source": "25481253", "target": "25143671"}}, {"type": "Feature", "geometry": {"type": "LineString", "coordinates": [[84.0368999064982, 69.23053832550761], [84.03846330378991, 69.23133346476013]]}, "properties": {"source": "25481253", "target": "25446486"}}, {"type": "Feature", "geometry": {"type": "LineString", "coordinates": [[84.0368999064982, 69.23053832550761], [84.03486230858493, 69.23056534120545]]}, "properties": {"source": "25481253", "target": "25448486"}}, {"type": "Feature", "geometry": {"type": "LineString", "coordinates": [[84.0368999064982, 69.23053832550761], [84.0372111916405, 69.22990685958285]]}, "properties": {"source": "25481253", "target": "25448545"}}, {"type": "Feature", "geometry": {"type": "LineString", "coordinates": [[84.0368999064982, 69.23053832550761], [84.04006007215975, 69.23128288487874]]}, "properties": {"source": "25481253", "target": "25448558"}}, {"type": "Feature", "geometry": {"type": "LineString", "coordinates": [[84.03415807590454, 69.23052207093292], [84.04034686680586, 69.22976738073484]]}, "properties": {"source": "20369341", "target": "22805143"}}, {"type": "Feature", "geometry": {"type": "LineString", "coordinates": [[84.03415807590454, 69.23052207093292], [84.03561332703924, 69.23175324732256]]}, "properties": {"source": "20369341", "target": "22786748"}}, {"type": "Feature", "geometry": {"type": "LineString", "coordinates": [[84.03415807590454, 69.23052207093292], [84.03759724435957, 69.22969539734453]]}, "properties": {"source": "20369341", "target": "20903369"}}, {"type": "Feature", "geometry": {"type": "LineString", "coordinates": [[84.03415807590454, 69.23052207093292], [84.03555966657382, 69.22989871821238]]}, "properties": {"source": "20369341", "target": "20621892"}}, {"type": "Feature", "geometry": {"type": "LineString", "coordinates": [[84.03415807590454, 69.23052207093292], [84.0374594049685, 69.23065995855663]]}, "properties": {"source": "20369341", "target": "20466197"}}, {"type": "Feature", "geometry": {"type": "LineString", "coordinates": [[84.0397143122753, 69.23169525499392], [84.03819227186841, 69.23089749260262]]}, "properties": {"source": "25831813", "target": "25452915"}}, {"type": "Feature", "geometry": {"type": "LineString", "coordinates": [[84.03415573264232, 69.23110848654807], [84.04006007215975, 69.23128288487874]]}, "properties": {"source": "3189639", "target": "25448558"}}, {"type": "Feature", "geometry": {"type": "LineString", "coordinates": [[84.03415573264232, 69.23110848654807], [84.03819227186841, 69.23089749260262]]}, "properties": {"source": "3189639", "target": "25452915"}}, {"type": "Feature", "geometry": {"type": "LineString", "coordinates": [[84.03415573264232, 69.23110848654807], [84.0368999064982, 69.23053832550761]]}, "properties": {"source": "3189639", "target": "25481253"}}, {"type": "Feature", "geometry": {"type": "LineString", "coordinates": [[84.03415573264232, 69.23110848654807], [84.03938324928009, 69.22984498460366]]}, "properties": {"source": "3189639", "target": "25481272"}}, {"type": "Feature", "geometry": {"type": "LineString", "coordinates": [[84.03415573264232, 69.23110848654807], [84.03751052268075, 69.23070587248344]]}, "properties": {"source": "3189639", "target": "34467372"}}, {"type": "Feature", "geometry": {"type": "LineString", "coordinates": [[84.03415573264232, 69.23110848654807], [84.03530181487997, 69.23196165649279]]}, "properties": {"source": "3189639", "target": "2497307"}}, {"type": "Feature", "geometry": {"type": "LineString", "coordinates": [[84.03809444441146, 69.23031720730359], [84.0397143122753, 69.23169525499392]]}, "properties": {"source": "25446519", "target": "25831813"}}, {"type": "Feature", "geometry": {"type": "LineString", "coordinates": [[84.03912553600622, 69.22974336639538], [84.03927645751185, 69.2318806674676]]}, "properties": {"source": "25143671", "target": "23180280"}}, {"type": "Feature", "geometry": {"type": "LineString", "coordinates": [[84.03912553600622, 69.22974336639538], [84.03836081435651, 69.23095291452566]]}, "properties": {"source": "25143671", "target": "24379034"}}, {"type": "Feature", "geometry": {"type": "LineString", "coordinates": [[84.03912553600622, 69.22974336639538], [84.03354695378562, 69.23017505338638]]}, "properties": {"source": "25143671", "target": "23379694"}}]}