{"type": "FeatureCollection", "features": [{"type": "Feature", "geometry": {"type": "LineString", "coordinates": [[-91.67755543638124, 69.03765074945395], [-91.67880467341283, 69.04312702250857]]}, "properties": {"source": "8467233", "target": "14639504"}}, {"type": "Feature", "geometry": {"type": "LineString", "coordinates": [[-91.67755543638124, 69.03765074945395], [-91.68213017736244, 69.04235150577617]]}, "properties": {"source": "8467233", "target": "408924"}}, {"type": "Feature", "geometry": {"type": "LineString", "coordinates": [[-91.67755543638124, 69.03765074945395], [-91.68152477985288, 69.04256469272337]]}, "properties": {"source": "8467233", "target": "31605"}}, {"type": "Feature", "geometry": {"type": "LineString", "coordinates": [[-91.67755543638124, 69.03765074945395], [-91.68831449745117, 69.03769626541623]]}, "properties": {"source": "8467233", "target": "3184792"}}, {"type": "Feature", "geometry": {"type": "LineString", "coordinates": [[-91.67755543638124, 69.03765074945395], [-91.68495495678702, 69.04185014776593]]}, "properties": {"source": "8467233", "target": "261145"}}, {"type": "Feature", "geometry": {"type": "LineString", "coordinates": [[-91.67721164194434, 69.04258753796921], [-91.6827581118784, 69.04015537836838]]}, "properties": {"source": "7114831", "target": "7315481"}}, {"type": "Feature", "geometry": {"type": "LineString", "coordinates": [[-91.67721164194434, 69.04258753796921], [-91.68107506892618, 69.04189907062667]]}, "properties": {"source": "7114831", "target": "467202"}}, {"type": "Feature", "geometry": {"type": "LineString", "coordinates": [[-91.67721164194434, 69.04258753796921], [-91.68796281587355, 69.03942802228204]]}, "properties": {"source": "7114831", "target": "688554"}}, {"type": "Feature", "geometry": {"type": "LineString", "coordinates": [[-91.67721164194434, 69.04258753796921], [-91.68152477985288, 69.04256469272337]]}, "properties": {"source": "7114831", "target": "31605"}}, {"type": "Feature", "geometry": {"type": "LineString", "coordinates": [[-91.67721164194434, 69.04258753796921], [-91.68831449745117, 69.03769626541623]]}, "properties": {"source": "7114831", "target": "3184792"}}, {"type": "Feature", "geometry": {"type": "LineString", "coordinates": [[-91.67721164194434, 69.04258753796921], [-91.68495495678702, 69.04185014776593]]}, "properties": {"source": "7114831", "target": "261145"}}, {"type": "Feature", "geometry": {"type": "LineString", "coordinates": [[-91.67721164194434, 69.04258753796921], [-91.68095673286498, 69.038096381489]]}, "properties": {"source": "7114831", "target": "6940285"}}, {"type": "Feature", "geometry": {"type": "LineString", "coordinates": [[-91.67721164194434, 69.04258753796921], [-91.67773116673926, 69.04129246097628]]}, "properties": {"source": "7114831", "target": "6792906"}}, {"type": "Feature", "geometry": {"type": "LineString", "coordinates": [[-91.68289218241335, 69.03875458656069], [-91.67755543638124, 69.03765074945395]]}, "properties": {"source": "33000490", "target": "8467233"}}, {"type": "Feature", "geometry": {"type": "LineString", "coordinates": [[-91.68289218241335, 69.03875458656069], [-91.68537207851786, 69.03937139929107]]}, "properties": {"source": "33000490", "target": "3916451"}}, {"type": "Feature", "geometry": {"type": "LineString", "coordinates": [[-91.68289218241335, 69.03875458656069], [-91.68792470782542, 69.04067654524866]]}, "properties": {"source": "33000490", "target": "8731900"}}, {"type": "Feature", "geometry": {"type": "LineString", "coordinates": [[-91.67680059641452, 69.04098387418568], [-91.67791903901276, 69.0414869308907]]}, "properties": {"source": "6531881", "target": "5975964"}}, {"type": "Feature", "geometry": {"type": "LineString", "coordinates": [[-91.67680059641452, 69.04098387418568], [-91.68286355571236, 69.0423442109475]]}, "properties": {"source": "6531881", "target": "7739741"}}, {"type": "Feature", "geometry": {"type": "LineString", "coordinates": [[-91.67680059641452, 69.04098387418568], [-91.68452042588608, 69.03957520790036]]}, "properties": {"source": "6531881", "target": "1578129"}}, {"type": "Feature", "geometry": {"type": "LineString", "coordinates": [[-91.67680059641452, 69.04098387418568], [-91.68147285830462, 69.04011025887843]]}, "properties": {"source": "6531881", "target": "797568"}}, {"type": "Feature", "geometry": {"type": "LineString", "coordinates": [[-91.67680059641452, 69.04098387418568], [-91.68213017736244, 69.04235150577617]]}, "properties": {"source": "6531881", "target": "408924"}}, {"type": "Feature", "geometry": {"type": "LineString", "coordinates": [[-91.67680059641452, 69.04098387418568], [-91.68152477985288, 69.04256469272337]]}, "properties": {"source": "6531881", "target": "31605"}}, {"type": "Feature", "geometry": {"type": "LineString", "coordinates": [[-91.67680059641452, 69.04098387418568], [-91.68831449745117, 69.03769626541623]]}, "properties": {"source": "6531881", "target": "3184792"}}, {"type": "Feature", "geometry": {"type": "LineString", "coordinates": [[-91.67680059641452, 69.04098387418568], [-91.68210776631645, 69.04134617849726]]}, "properties": {"source": "6531881", "target": "3060014"}}, {"type": "Feature", "geometry": {"type": "LineString", "coordinates": [[-91.67680059641452, 69.04098387418568], [-91.68495495678702, 69.04185014776593]]}, "properties": {"source": "6531881", "target": "261145"}}, {"type": "Feature", "geometry": {"type": "LineString", "coordinates": [[-91.67755543638124, 69.03765074945395], [-91.67721164194434, 69.04258753796921]]}, "properties": {"source": "8467233", "target": "7114831"}}, {"type": "Feature", "geometry": {"type": "LineString", "coordinates": [[-91.67755543638124, 69.03765074945395], [-91.68537207851786, 69.03937139929107]]}, "properties": {"source": "8467233", "target": "3916451"}}, {"type": "Feature", "geometry": {"type": "LineString", "coordinates": [[-91.67755543638124, 69.03765074945395], [-91.68792470782542, 69.04067654524866]]}, "properties": {"source": "8467233", "target": "8731900"}}, {"type": "Feature", "geometry": {"type": "LineString", "coordinates": [[-91.67755543638124, 69.03765074945395], [-91.69153000286026, 69.03863009898791]]}, "properties": {"source": "8467233", "target": "20639233"}}, {"type": "Feature", "geometry": {"type": "LineString", "coordinates": [[-91.67755543638124, 69.03765074945395], [-91.68107506892618, 69.04189907062667]]}, "properties": {"source": "8467233", "target": "467202"}}, {"type": "Feature", "geometry": {"type": "LineString", "coordinates": [[-91.67755543638124, 69.03765074945395], [-91.68796281587355, 69.03942802228204]]}, "properties": {"source": "8467233", "target": "688554"}}, {"type": "Feature", "geometry": {"type": "LineString", "coordinates": [[-91.67680059641452, 69.04098387418568], [-91.67755543638124, 69.03765074945395]]}, "properties": {"source": "6531881", "target": "8467233"}}, {"type": "Feature", "geometry": {"type": "LineString", "coordinates": [[-91.6749113671858, 69.04019313110899], [-91.68792470782542, 69.04067654524866]]}, "properties": {"source": "9717478", "target": "8731900"}}, {"type": "Feature", "geometry": {"type": "LineString", "coordinates": [[-91.6749113671858, 69.04019313110899], [-91.68107506892618, 69.04189907062667]]}, "properties": {"source": "9717478", "target": "467202"}}, {"type": "Feature", "geometry": {"type": "LineString", "coordinates": [[-91.6749113671858, 69.04019313110899], [-91.68796281587355, 69.03942802228204]]}, "properties": {"source": "9717478", "target": "688554"}}, {"type": "Feature", "geometry": {"type": "LineString", "coordinates": [[-91.6749113671858, 69.04019313110899], [-91.67880467341283, 69.04312702250857]]}, "properties": {"source": "9717478", "target": "14639504"}}, {"type": "Feature", "geometry": {"type": "LineString", "coordinates": [[-91.6749113671858, 69.04019313110899], [-91.67791903901276, 69.0414869308907]]}, "properties": {"source": "9717478", "target": "5975964"}}, {"type": "Feature", "geometry": {"type": "LineString", "coordinates": [[-91.6749113671858, 69.04019313110899], [-91.68286355571236, 69.0423442109475]]}, "properties": {"source": "9717478", "target": "7739741"}}, {"type": "Feature", "geometry": {"type": "LineString", "coordinates": [[-91.6749113671858, 69.04019313110899], [-91.68147285830462, 69.04011025887843]]}, "properties": {"source": "9717478", "target": "797568"}}, {"type": "Feature", "geometry": {"type": "LineString", "coordinates": [[-91.6749113671858, 69.04019313110899], [-91.68213017736244, 69.04235150577617]]}, "properties": {"source": "9717478", "target": "408924"}}, {"type": "Feature", "geometry": {"type": "LineString", "coordinates": [[-91.6749113671858, 69.04019313110899], [-91.68152477985288, 69.04256469272337]]}, "properties": {"source": "9717478", "target": "31605"}}, {"type": "Feature", "geometry": {"type": "LineString", "coordinates": [[-91.6749113671858, 69.04019313110899], [-91.68831449745117, 69.03769626541623]]}, "properties": {"source": "9717478", "target": "3184792"}}, {"type": "Feature", "geometry": {"type": "LineString", "coordinates": [[-91.6749113671858, 69.04019313110899], [-91.68210776631645, 69.04134617849726]]}, "properties": {"source": "9717478", "target": "3060014"}}, {"type": "Feature", "geometry": {"type": "LineString", "coordinates": [[-91.6749113671858, 69.04019313110899], [-91.68495495678702, 69.04185014776593]]}, "properties": {"source": "9717478", "target": "261145"}}, {"type": "Feature", "geometry": {"type": "LineString", "coordinates": [[-91.67980216169117, 69.04052458479836], [-91.67721164194434, 69.04258753796921]]}, "properties": {"source": "7959265", "target": "7114831"}}, {"type": "Feature", "geometry": {"type": "LineString", "coordinates": [[-91.67980216169117, 69.04052458479836], [-91.67506892976849, 69.03978796364586]]}, "properties": {"source": "7959265", "target": "774582"}}, {"type": "Feature", "geometry": {"type": "LineString", "coordinates": [[-91.67980216169117, 69.04052458479836], [-91.6827581118784, 69.04015537836838]]}, "properties": {"source": "7959265", "target": "7315481"}}, {"type": "Feature", "geometry": {"type": "LineString", "coordinates": [[-91.67980216169117, 69.04052458479836], [-91.68148624068081, 69.04107475358461]]}, "properties": {"source": "7959265", "target": "8333512"}}, {"type": "Feature", "geometry": {"type": "LineString", "coordinates": [[-91.68840036560911, 69.03770023795715], [-91.69139499338283, 69.03854285267099]]}, "properties": {"source": "728934", "target": "6649301"}}, {"type": "Feature", "geometry": {"type": "LineString", "coordinates": [[-91.68840036560911, 69.03770023795715], [-91.68109227562239, 69.04169721601403]]}, "properties": {"source": "728934", "target": "7063016"}}, {"type": "Feature", "geometry": {"type": "LineString", "coordinates": [[-91.68841675301974, 69.04256518207472], [-91.67978752178558, 69.04264797909545]]}, "properties": {"source": "979595", "target": "9494333"}}, {"type": "Feature", "geometry": {"type": "LineString", "coordinates": [[-91.68841675301974, 69.04256518207472], [-91.68249965803663, 69.0388158742233]]}, "properties": {"source": "979595", "target": "9136815"}}, {"type": "Feature", "geometry": {"type": "LineString", "coordinates": [[-91.68841675301974, 69.04256518207472], [-91.67904355317995, 69.04314429663006]]}, "properties": {"source": "979595", "target": "960941"}}, {"type": "Feature", "geometry": {"type": "LineString", "coordinates": [[-91.68841675301974, 69.04256518207472], [-91.67937023893714, 69.04082579197393]]}, "properties": {"source": "979595", "target": "998420"}}, {"type": "Feature", "geometry": {"type": "LineString", "coordinates": [[-91.68779874949881, 69.03979937929634], [-91.69153000286026, 69.03863009898791]]}, "properties": {"source": "19186351", "target": "20639233"}}, {"type": "Feature", "geometry": {"type": "LineString", "coordinates": [[-91.68596099841838, 69.03801566149355], [-91.67680059641452, 69.04098387418568]]}, "properties": {"source": "321860", "target": "6531881"}}, {"type": "Feature", "geometry": {"type": "LineString", "coordinates": [[-91.68596099841838, 69.03801566149355], [-91.67755543638124, 69.03765074945395]]}, "properties": {"source": "321860", "target": "8467233"}}, {"type": "Feature", "geometry": {"type": "LineString", "coordinates": [[-91.68596099841838, 69.03801566149355], [-91.67721164194434, 69.04258753796921]]}, "properties": {"source": "321860", "target": "7114831"}}, {"type": "Feature", "geometry": {"type": "LineString", "coordinates": [[-91.68596099841838, 69.03801566149355], [-91.6749113671858, 69.04019313110899]]}, "properties": {"source": "321860", "target": "9717478"}}, {"type": "Feature", "geometry": {"type": "LineString", "coordinates": [[-91.68596099841838, 69.03801566149355], [-91.68107506892618, 69.04189907062667]]}, "properties": {"source": "321860", "target": "467202"}}, {"type": "Feature", "geometry": {"type": "LineString", "coordinates": [[-91.68596099841838, 69.03801566149355], [-91.68796281587355, 69.03942802228204]]}, "properties": {"source": "321860", "target": "688554"}}, {"type": "Feature", "geometry": {"type": "LineString", "coordinates": [[-91.67791903901276, 69.0414869308907], [-91.67755543638124, 69.03765074945395]]}, "properties": {"source": "5975964", "target": "8467233"}}, {"type": "Feature", "geometry": {"type": "LineString", "coordinates": [[-91.67791903901276, 69.0414869308907], [-91.67721164194434, 69.04258753796921]]}, "properties": {"source": "5975964", "target": "7114831"}}, {"type": "Feature", "geometry": {"type": "LineString", "coordinates": [[-91.67680059641452, 69.04098387418568], [-91.68779874949881, 69.03979937929634]]}, "properties": {"source": "6531881", "target": "19186351"}}, {"type": "Feature", "geometry": {"type": "LineString", "coordinates": [[-91.6760805892769, 69.03838423806616], [-91.68249965803663, 69.0388158742233]]}, "properties": {"source": "9536295", "target": "9136815"}}, {"type": "Feature", "geometry": {"type": "LineString", "coordinates": [[-91.6760805892769, 69.03838423806616], [-91.68841675301974, 69.04256518207472]]}, "properties": {"source": "9536295", "target": "979595"}}, {"type": "Feature", "geometry": {"type": "LineString", "coordinates": [[-91.6760805892769, 69.03838423806616], [-91.67904355317995, 69.04314429663006]]}, "properties": {"source": "9536295", "target": "960941"}}, {"type": "Feature", "geometry": {"type": "LineString", "coordinates": [[-91.6760805892769, 69.03838423806616], [-91.67937023893714, 69.04082579197393]]}, "properties": {"source": "9536295", "target": "998420"}}, {"type": "Feature", "geometry": {"type": "LineString", "coordinates": [[-91.68666620296524, 69.0378135422128], [-91.67755543638124, 69.03765074945395]]}, "properties": {"source": "565541", "target": "8467233"}}, {"type": "Feature", "geometry": {"type": "LineString", "coordinates": [[-91.68666620296524, 69.0378135422128], [-91.68537207851786, 69.03937139929107]]}, "properties": {"source": "565541", "target": "3916451"}}, {"type": "Feature", "geometry": {"type": "LineString", "coordinates": [[-91.68666620296524, 69.0378135422128], [-91.68792470782542, 69.04067654524866]]}, "properties": {"source": "565541", "target": "8731900"}}, {"type": "Feature", "geometry": {"type": "LineString", "coordinates": [[-91.67880467341283, 69.04312702250857], [-91.69153000286026, 69.03863009898791]]}, "properties": {"source": "14639504", "target": "20639233"}}, {"type": "Feature", "geometry": {"type": "LineString", "coordinates": [[-91.68148624068081, 69.04107475358461], [-91.6827581118784, 69.04015537836838]]}, "properties": {"source": "8333512", "target": "7315481"}}, {"type": "Feature", "geometry": {"type": "LineString", "coordinates": [[-91.68840036560911, 69.03770023795715], [-91.67721164194434, 69.04258753796921]]}, "properties": {"source": "728934", "target": "7114831"}}, {"type": "Feature", "geometry": {"type": "LineString", "coordinates": [[-91.68840036560911, 69.03770023795715], [-91.67506892976849, 69.03978796364586]]}, "properties": {"source": "728934", "target": "774582"}}, {"type": "Feature", "geometry": {"type": "LineString", "coordinates": [[-91.68555961242714, 69.04212853744733], [-91.68577655150537, 69.03805542826467]]}, "properties": {"source": "13053112", "target": "26049032"}}, {"type": "Feature", "geometry": {"type": "LineString", "coordinates": [[-91.68555961242714, 69.04212853744733], [-91.69153000286026, 69.03863009898791]]}, "properties": {"source": "13053112", "target": "20639233"}}, {"type": "Feature", "geometry": {"type": "LineString", "coordinates": [[-91.68555961242714, 69.04212853744733], [-91.67880467341283, 69.04312702250857]]}, "properties": {"source": "13053112", "target": "14639504"}}, {"type": "Feature", "geometry": {"type": "LineString", "coordinates": [[-91.68840036560911, 69.03770023795715], [-91.6827581118784, 69.04015537836838]]}, "properties": {"source": "728934", "target": "7315481"}}, {"type": "Feature", "geometry": {"type": "LineString", "coordinates": [[-91.68840036560911, 69.03770023795715], [-91.67980216169117, 69.04052458479836]]}, "properties": {"source": "728934", "target": "7959265"}}, {"type": "Feature", "geometry": {"type": "LineString", "coordinates": [[-91.69166057016454, 69.04324501915042], [-91.68813172520564, 69.04131027307099]]}, "properties": {"source": "705727", "target": "841509"}}, {"type": "Feature", "geometry": {"type": "LineString", "coordinates": [[-91.69166057016454, 69.04324501915042], [-91.67665626347556, 69.04023093887761]]}, "properties": {"source": "705727", "target": "7805671"}}, {"type": "Feature", "geometry": {"type": "LineString", "coordinates": [[-91.68280268610852, 69.03790266799979], [-91.67755543638124, 69.03765074945395]]}, "properties": {"source": "7802901", "target": "8467233"}}, {"type": "Feature", "geometry": {"type": "LineString", "coordinates": [[-91.68280268610852, 69.03790266799979], [-91.68289218241335, 69.03875458656069]]}, "properties": {"source": "7802901", "target": "33000490"}}, {"type": "Feature", "geometry": {"type": "LineString", "coordinates": [[-91.68280268610852, 69.03790266799979], [-91.68537207851786, 69.03937139929107]]}, "properties": {"source": "7802901", "target": "3916451"}}, {"type": "Feature", "geometry": {"type": "LineString", "coordinates": [[-91.68973209892455, 69.03872875241075], [-91.69236627897767, 69.03991976955734]]}, "properties": {"source": "198663", "target": "438925"}}, {"type": "Feature", "geometry": {"type": "LineString", "coordinates": [[-91.68973209892455, 69.03872875241075], [-91.68775424782795, 69.04187837903993]]}, "properties": {"source": "198663", "target": "12776074"}}, {"type": "Feature", "geometry": {"type": "LineString", "coordinates": [[-91.68775424782795, 69.04187837903993], [-91.69236627897767, 69.03991976955734]]}, "properties": {"source": "12776074", "target": "438925"}}, {"type": "Feature", "geometry": {"type": "LineString", "coordinates": [[-91.69268844015006, 69.03992471338893], [-91.6771933588841, 69.04133505650694]]}, "properties": {"source": "8390605", "target": "856602"}}, {"type": "Feature", "geometry": {"type": "LineString", "coordinates": [[-91.69268844015006, 69.03992471338893], [-91.6860707985332, 69.04323426375342]]}, "properties": {"source": "8390605", "target": "13175184"}}, {"type": "Feature", "geometry": {"type": "LineString", "coordinates": [[-91.69268844015006, 69.03992471338893], [-91.68502623773077, 69.03819254982318]]}, "properties": {"source": "8390605", "target": "8667459"}}, {"type": "Feature", "geometry": {"type": "LineString", "coordinates": [[-91.68668757228379, 69.0420188471239], [-91.67885546189352, 69.03832765845658]]}, "properties": {"source": "17788344", "target": "17986430"}}, {"type": "Feature", "geometry": {"type": "LineString", "coordinates": [[-91.68668757228379, 69.0420188471239], [-91.67830976845678, 69.0374880199025]]}, "properties": {"source": "17788344", "target": "18135237"}}, {"type": "Feature", "geometry": {"type": "LineString", "coordinates": [[-91.68502623773077, 69.03819254982318], [-91.6771933588841, 69.04133505650694]]}, "properties": {"source": "8667459", "target": "856602"}}, {"type": "Feature", "geometry": {"type": "LineString", "coordinates": [[-91.68973209892455, 69.03872875241075], [-91.67980216169117, 69.04052458479836]]}, "properties": {"source": "198663", "target": "7959265"}}, {"type": "Feature", "geometry": {"type": "LineString", "coordinates": [[-91.68775424782795, 69.04187837903993], [-91.67980216169117, 69.04052458479836]]}, "properties": {"source": "12776074", "target": "7959265"}}, {"type": "Feature", "geometry": {"type": "LineString", "coordinates": [[-91.68502623773077, 69.03819254982318], [-91.6860707985332, 69.04323426375342]]}, "properties": {"source": "8667459", "target": "13175184"}}, {"type": "Feature", "geometry": {"type": "LineString", "coordinates": [[-91.67829018516811, 69.03786003014693], [-91.67740858742881, 69.04255100350295]]}, "properties": {"source": "721955", "target": "648141"}}, {"type": "Feature", "geometry": {"type": "LineString", "coordinates": [[-91.67829018516811, 69.03786003014693], [-91.67886555678405, 69.03899820151543]]}, "properties": {"source": "721955", "target": "192692"}}, {"type": "Feature", "geometry": {"type": "LineString", "coordinates": [[-91.68929548514903, 69.0412472646594], [-91.6827581118784, 69.04015537836838]]}, "properties": {"source": "912196", "target": "7315481"}}, {"type": "Feature", "geometry": {"type": "LineString", "coordinates": [[-91.68929548514903, 69.0412472646594], [-91.68830169855701, 69.03778361348176]]}, "properties": {"source": "912196", "target": "9840914"}}, {"type": "Feature", "geometry": {"type": "LineString", "coordinates": [[-91.6887747346121, 69.04181263023614], [-91.69236627897767, 69.03991976955734]]}, "properties": {"source": "437932", "target": "438925"}}, {"type": "Feature", "geometry": {"type": "LineString", "coordinates": [[-91.6887747346121, 69.04181263023614], [-91.69111586706369, 69.04221640144206]]}, "properties": {"source": "437932", "target": "277896"}}, {"type": "Feature", "geometry": {"type": "LineString", "coordinates": [[-91.68830169855701, 69.03778361348176], [-91.6827581118784, 69.04015537836838]]}, "properties": {"source": "9840914", "target": "7315481"}}, {"type": "Feature", "geometry": {"type": "LineString", "coordinates": [[-91.69111586706369, 69.04221640144206], [-91.69236627897767, 69.03991976955734]]}, "properties": {"source": "277896", "target": "438925"}}, {"type": "Feature", "geometry": {"type": "LineString", "coordinates": [[-91.67886555678405, 69.03899820151543], [-91.67740858742881, 69.04255100350295]]}, "properties": {"source": "192692", "target": "648141"}}, {"type": "Feature", "geometry": {"type": "LineString", "coordinates": [[-91.68095673286498, 69.038096381489], [-91.67773116673926, 69.04129246097628]]}, "properties": {"source": "6940285", "target": "6792906"}}, {"type": "Feature", "geometry": {"type": "LineString", "coordinates": [[-91.67562862555853, 69.03962873670386], [-91.67665626347556, 69.04023093887761]]}, "properties": {"source": "10956607", "target": "7805671"}}, {"type": "Feature", "geometry": {"type": "LineString", "coordinates": [[-91.67742634274923, 69.04079627939188], [-91.6860707985332, 69.04323426375342]]}, "properties": {"source": "6460831", "target": "13175184"}}, {"type": "Feature", "geometry": {"type": "LineString", "coordinates": [[-91.67517285051687, 69.03937183642387], [-91.67978752178558, 69.04264797909545]]}, "properties": {"source": "8046020", "target": "9494333"}}, {"type": "Feature", "geometry": {"type": "LineString", "coordinates": [[-91.67542388016541, 69.03722709184316], [-91.68107506892618, 69.04189907062667]]}, "properties": {"source": "15759049", "target": "467202"}}, {"type": "Feature", "geometry": {"type": "LineString", "coordinates": [[-91.69153000286026, 69.03863009898791], [-91.68140843459243, 69.04043716611889]]}, "properties": {"source": "20639233", "target": "20307686"}}, {"type": "Feature", "geometry": {"type": "LineString", "coordinates": [[-91.68792470782542, 69.04067654524866], [-91.68796281587355, 69.03942802228204]]}, "properties": {"source": "8731900", "target": "688554"}}, {"type": "Feature", "geometry": {"type": "LineString", "coordinates": [[-91.68792470782542, 69.04067654524866], [-91.68148624068081, 69.04107475358461]]}, "properties": {"source": "8731900", "target": "8333512"}}, {"type": "Feature", "geometry": {"type": "LineString", "coordinates": [[-91.68577655150537, 69.03805542826467], [-91.67755543638124, 69.03765074945395]]}, "properties": {"source": "26049032", "target": "8467233"}}, {"type": "Feature", "geometry": {"type": "LineString", "coordinates": [[-91.68577655150537, 69.03805542826467], [-91.68289218241335, 69.03875458656069]]}, "properties": {"source": "26049032", "target": "33000490"}}, {"type": "Feature", "geometry": {"type": "LineString", "coordinates": [[-91.68577655150537, 69.03805542826467], [-91.68537207851786, 69.03937139929107]]}, "properties": {"source": "26049032", "target": "3916451"}}, {"type": "Feature", "geometry": {"type": "LineString", "coordinates": [[-91.68577655150537, 69.03805542826467], [-91.68792470782542, 69.04067654524866]]}, "properties": {"source": "26049032", "target": "8731900"}}, {"type": "Feature", "geometry": {"type": "LineString", "coordinates": [[-91.68577655150537, 69.03805542826467], [-91.69153000286026, 69.03863009898791]]}, "properties": {"source": "26049032", "target": "20639233"}}, {"type": "Feature", "geometry": {"type": "LineString", "coordinates": [[-91.68577655150537, 69.03805542826467], [-91.68666620296524, 69.0378135422128]]}, "properties": {"source": "26049032", "target": "565541"}}, {"type": "Feature", "geometry": {"type": "LineString", "coordinates": [[-91.68577655150537, 69.03805542826467], [-91.67880467341283, 69.04312702250857]]}, "properties": {"source": "26049032", "target": "14639504"}}, {"type": "Feature", "geometry": {"type": "LineString", "coordinates": [[-91.68577655150537, 69.03805542826467], [-91.68779874949881, 69.03979937929634]]}, "properties": {"source": "26049032", "target": "19186351"}}, {"type": "Feature", "geometry": {"type": "LineString", "coordinates": [[-91.68577655150537, 69.03805542826467], [-91.68452042588608, 69.03957520790036]]}, "properties": {"source": "26049032", "target": "1578129"}}, {"type": "Feature", "geometry": {"type": "LineString", "coordinates": [[-91.68577655150537, 69.03805542826467], [-91.68140843459243, 69.04043716611889]]}, "properties": {"source": "26049032", "target": "20307686"}}, {"type": "Feature", "geometry": {"type": "LineString", "coordinates": [[-91.67602795659197, 69.0394722167564], [-91.67755543638124, 69.03765074945395]]}, "properties": {"source": "31867658", "target": "8467233"}}, {"type": "Feature", "geometry": {"type": "LineString", "coordinates": [[-91.67602795659197, 69.0394722167564], [-91.68289218241335, 69.03875458656069]]}, "properties": {"source": "31867658", "target": "33000490"}}, {"type": "Feature", "geometry": {"type": "LineString", "coordinates": [[-91.67602795659197, 69.0394722167564], [-91.68537207851786, 69.03937139929107]]}, "properties": {"source": "31867658", "target": "3916451"}}, {"type": "Feature", "geometry": {"type": "LineString", "coordinates": [[-91.69129695904856, 69.039920527167], [-91.68841675301974, 69.04256518207472]]}, "properties": {"source": "942700", "target": "979595"}}, {"type": "Feature", "geometry": {"type": "LineString", "coordinates": [[-91.67885546189352, 69.03832765845658], [-91.67955495795546, 69.04080841765702]]}, "properties": {"source": "17986430", "target": "17331714"}}, {"type": "Feature", "geometry": {"type": "LineString", "coordinates": [[-91.67608100131145, 69.03767747009852], [-91.68289218241335, 69.03875458656069]]}, "properties": {"source": "139393", "target": "33000490"}}, {"type": "Feature", "geometry": {"type": "LineString", "coordinates": [[-91.67608100131145, 69.03767747009852], [-91.68537207851786, 69.03937139929107]]}, "properties": {"source": "139393", "target": "3916451"}}, {"type": "Feature", "geometry": {"type": "LineString", "coordinates": [[-91.67608100131145, 69.03767747009852], [-91.68577655150537, 69.03805542826467]]}, "properties": {"source": "139393", "target": "26049032"}}, {"type": "Feature", "geometry": {"type": "LineString", "coordinates": [[-91.67608100131145, 69.03767747009852], [-91.69153000286026, 69.03863009898791]]}, "properties": {"source": "139393", "target": "20639233"}}, {"type": "Feature", "geometry": {"type": "LineString", "coordinates": [[-91.69187946111524, 69.03888234963298], [-91.68289218241335, 69.03875458656069]]}, "properties": {"source": "1511300", "target": "33000490"}}, {"type": "Feature", "geometry": {"type": "LineString", "coordinates": [[-91.69187946111524, 69.03888234963298], [-91.68537207851786, 69.03937139929107]]}, "properties": {"source": "1511300", "target": "3916451"}}, {"type": "Feature", "geometry": {"type": "LineString", "coordinates": [[-91.69187946111524, 69.03888234963298], [-91.68577655150537, 69.03805542826467]]}, "properties": {"source": "1511300", "target": "26049032"}}, {"type": "Feature", "geometry": {"type": "LineString", "coordinates": [[-91.69187946111524, 69.03888234963298], [-91.69153000286026, 69.03863009898791]]}, "properties": {"source": "1511300", "target": "20639233"}}, {"type": "Feature", "geometry": {"type": "LineString", "coordinates": [[-91.68210776631645, 69.04134617849726], [-91.67721164194434, 69.04258753796921]]}, "properties": {"source": "3060014", "target": "7114831"}}, {"type": "Feature", "geometry": {"type": "LineString", "coordinates": [[-91.68210776631645, 69.04134617849726], [-91.68107506892618, 69.04189907062667]]}, "properties": {"source": "3060014", "target": "467202"}}, {"type": "Feature", "geometry": {"type": "LineString", "coordinates": [[-91.68632340687707, 69.0393260201871], [-91.67721164194434, 69.04258753796921]]}, "properties": {"source": "617327", "target": "7114831"}}, {"type": "Feature", "geometry": {"type": "LineString", "coordinates": [[-91.68632340687707, 69.0393260201871], [-91.6827581118784, 69.04015537836838]]}, "properties": {"source": "617327", "target": "7315481"}}, {"type": "Feature", "geometry": {"type": "LineString", "coordinates": [[-91.67830976845678, 69.0374880199025], [-91.67955495795546, 69.04080841765702]]}, "properties": {"source": "18135237", "target": "17331714"}}, {"type": "Feature", "geometry": {"type": "LineString", "coordinates": [[-91.68205155914418, 69.03911380619363], [-91.68249965803663, 69.0388158742233]]}, "properties": {"source": "865872", "target": "9136815"}}, {"type": "Feature", "geometry": {"type": "LineString", "coordinates": [[-91.69166057016454, 69.04324501915042], [-91.69189781883729, 69.03894833201426]]}, "properties": {"source": "705727", "target": "8151878"}}, {"type": "Feature", "geometry": {"type": "LineString", "coordinates": [[-91.68289218241335, 69.03875458656069], [-91.69153000286026, 69.03863009898791]]}, "properties": {"source": "33000490", "target": "20639233"}}, {"type": "Feature", "geometry": {"type": "LineString", "coordinates": [[-91.68289218241335, 69.03875458656069], [-91.68666620296524, 69.0378135422128]]}, "properties": {"source": "33000490", "target": "565541"}}, {"type": "Feature", "geometry": {"type": "LineString", "coordinates": [[-91.68289218241335, 69.03875458656069], [-91.67880467341283, 69.04312702250857]]}, "properties": {"source": "33000490", "target": "14639504"}}, {"type": "Feature", "geometry": {"type": "LineString", "coordinates": [[-91.68289218241335, 69.03875458656069], [-91.68779874949881, 69.03979937929634]]}, "properties": {"source": "33000490", "target": "19186351"}}, {"type": "Feature", "geometry": {"type": "LineString", "coordinates": [[-91.68289218241335, 69.03875458656069], [-91.68452042588608, 69.03957520790036]]}, "properties": {"source": "33000490", "target": "1578129"}}, {"type": "Feature", "geometry": {"type": "LineString", "coordinates": [[-91.68289218241335, 69.03875458656069], [-91.68140843459243, 69.04043716611889]]}, "properties": {"source": "33000490", "target": "20307686"}}, {"type": "Feature", "geometry": {"type": "LineString", "coordinates": [[-91.68537207851786, 69.03937139929107], [-91.68792470782542, 69.04067654524866]]}, "properties": {"source": "3916451", "target": "8731900"}}, {"type": "Feature", "geometry": {"type": "LineString", "coordinates": [[-91.68537207851786, 69.03937139929107], [-91.69153000286026, 69.03863009898791]]}, "properties": {"source": "3916451", "target": "20639233"}}, {"type": "Feature", "geometry": {"type": "LineString", "coordinates": [[-91.68537207851786, 69.03937139929107], [-91.67880467341283, 69.04312702250857]]}, "properties": {"source": "3916451", "target": "14639504"}}, {"type": "Feature", "geometry": {"type": "LineString", "coordinates": [[-91.68537207851786, 69.03937139929107], [-91.68779874949881, 69.03979937929634]]}, "properties": {"source": "3916451", "target": "19186351"}}, {"type": "Feature", "geometry": {"type": "LineString", "coordinates": [[-91.68537207851786, 69.03937139929107], [-91.68140843459243, 69.04043716611889]]}, "properties": {"source": "3916451", "target": "20307686"}}, {"type": "Feature", "geometry": {"type": "LineString", "coordinates": [[-91.68792470782542, 69.04067654524866], [-91.67721164194434, 69.04258753796921]]}, "properties": {"source": "8731900", "target": "7114831"}}, {"type": "Feature", "geometry": {"type": "LineString", "coordinates": [[-91.68792470782542, 69.04067654524866], [-91.69153000286026, 69.03863009898791]]}, "properties": {"source": "8731900", "target": "20639233"}}, {"type": "Feature", "geometry": {"type": "LineString", "coordinates": [[-91.68792470782542, 69.04067654524866], [-91.67506892976849, 69.03978796364586]]}, "properties": {"source": "8731900", "target": "774582"}}, {"type": "Feature", "geometry": {"type": "LineString", "coordinates": [[-91.68792470782542, 69.04067654524866], [-91.6827581118784, 69.04015537836838]]}, "properties": {"source": "8731900", "target": "7315481"}}, {"type": "Feature", "geometry": {"type": "LineString", "coordinates": [[-91.68792470782542, 69.04067654524866], [-91.67980216169117, 69.04052458479836]]}, "properties": {"source": "8731900", "target": "7959265"}}, {"type": "Feature", "geometry": {"type": "LineString", "coordinates": [[-91.69129695904856, 69.039920527167], [-91.67904355317995, 69.04314429663006]]}, "properties": {"source": "942700", "target": "960941"}}, {"type": "Feature", "geometry": {"type": "LineString", "coordinates": [[-91.69129695904856, 69.039920527167], [-91.67937023893714, 69.04082579197393]]}, "properties": {"source": "942700", "target": "998420"}}, {"type": "Feature", "geometry": {"type": "LineString", "coordinates": [[-91.6864223119105, 69.03924959491326], [-91.67755543638124, 69.03765074945395]]}, "properties": {"source": "16073121", "target": "8467233"}}, {"type": "Feature", "geometry": {"type": "LineString", "coordinates": [[-91.6864223119105, 69.03924959491326], [-91.68289218241335, 69.03875458656069]]}, "properties": {"source": "16073121", "target": "33000490"}}, {"type": "Feature", "geometry": {"type": "LineString", "coordinates": [[-91.6864223119105, 69.03924959491326], [-91.68537207851786, 69.03937139929107]]}, "properties": {"source": "16073121", "target": "3916451"}}, {"type": "Feature", "geometry": {"type": "LineString", "coordinates": [[-91.6864223119105, 69.03924959491326], [-91.68577655150537, 69.03805542826467]]}, "properties": {"source": "16073121", "target": "26049032"}}, {"type": "Feature", "geometry": {"type": "LineString", "coordinates": [[-91.6864223119105, 69.03924959491326], [-91.69153000286026, 69.03863009898791]]}, "properties": {"source": "16073121", "target": "20639233"}}, {"type": "Feature", "geometry": {"type": "LineString", "coordinates": [[-91.68391746910683, 69.03965111985676], [-91.68289218241335, 69.03875458656069]]}, "properties": {"source": "13235764", "target": "33000490"}}, {"type": "Feature", "geometry": {"type": "LineString", "coordinates": [[-91.68391746910683, 69.03965111985676], [-91.68537207851786, 69.03937139929107]]}, "properties": {"source": "13235764", "target": "3916451"}}, {"type": "Feature", "geometry": {"type": "LineString", "coordinates": [[-91.68391746910683, 69.03965111985676], [-91.68577655150537, 69.03805542826467]]}, "properties": {"source": "13235764", "target": "26049032"}}, {"type": "Feature", "geometry": {"type": "LineString", "coordinates": [[-91.68391746910683, 69.03965111985676], [-91.69153000286026, 69.03863009898791]]}, "properties": {"source": "13235764", "target": "20639233"}}, {"type": "Feature", "geometry": {"type": "LineString", "coordinates": [[-91.68391746910683, 69.03965111985676], [-91.67880467341283, 69.04312702250857]]}, "properties": {"source": "13235764", "target": "14639504"}}, {"type": "Feature", "geometry": {"type": "LineString", "coordinates": [[-91.68555961242714, 69.04212853744733], [-91.68289218241335, 69.03875458656069]]}, "properties": {"source": "13053112", "target": "33000490"}}, {"type": "Feature", "geometry": {"type": "LineString", "coordinates": [[-91.68555961242714, 69.04212853744733], [-91.68537207851786, 69.03937139929107]]}, "properties": {"source": "13053112", "target": "3916451"}}, {"type": "Feature", "geometry": {"type": "LineString", "coordinates": [[-91.6760805892769, 69.03838423806616], [-91.67978752178558, 69.04264797909545]]}, "properties": {"source": "9536295", "target": "9494333"}}, {"type": "Feature", "geometry": {"type": "LineString", "coordinates": [[-91.68391746910683, 69.03965111985676], [-91.68555961242714, 69.04212853744733]]}, "properties": {"source": "13235764", "target": "13053112"}}, {"type": "Feature", "geometry": {"type": "LineString", "coordinates": [[-91.68147285830462, 69.04011025887843], [-91.68796281587355, 69.03942802228204]]}, "properties": {"source": "797568", "target": "688554"}}, {"type": "Feature", "geometry": {"type": "LineString", "coordinates": [[-91.68147285830462, 69.04011025887843], [-91.68331239968337, 69.04324136303035]]}, "properties": {"source": "797568", "target": "25734059"}}, {"type": "Feature", "geometry": {"type": "LineString", "coordinates": [[-91.67665626347556, 69.04023093887761], [-91.68205155914418, 69.03911380619363]]}, "properties": {"source": "7805671", "target": "865872"}}, {"type": "Feature", "geometry": {"type": "LineString", "coordinates": [[-91.68028975336841, 69.03763486191133], [-91.67721164194434, 69.04258753796921]]}, "properties": {"source": "6309471", "target": "7114831"}}, {"type": "Feature", "geometry": {"type": "LineString", "coordinates": [[-91.68028975336841, 69.03763486191133], [-91.67506892976849, 69.03978796364586]]}, "properties": {"source": "6309471", "target": "774582"}}, {"type": "Feature", "geometry": {"type": "LineString", "coordinates": [[-91.68028975336841, 69.03763486191133], [-91.6827581118784, 69.04015537836838]]}, "properties": {"source": "6309471", "target": "7315481"}}, {"type": "Feature", "geometry": {"type": "LineString", "coordinates": [[-91.68213017736244, 69.04235150577617], [-91.67721164194434, 69.04258753796921]]}, "properties": {"source": "408924", "target": "7114831"}}, {"type": "Feature", "geometry": {"type": "LineString", "coordinates": [[-91.68213017736244, 69.04235150577617], [-91.68107506892618, 69.04189907062667]]}, "properties": {"source": "408924", "target": "467202"}}, {"type": "Feature", "geometry": {"type": "LineString", "coordinates": [[-91.68567795677724, 69.03903990454424], [-91.6827581118784, 69.04015537836838]]}, "properties": {"source": "7206194", "target": "7315481"}}, {"type": "Feature", "geometry": {"type": "LineString", "coordinates": [[-91.68152477985288, 69.04256469272337], [-91.68107506892618, 69.04189907062667]]}, "properties": {"source": "31605", "target": "467202"}}, {"type": "Feature", "geometry": {"type": "LineString", "coordinates": [[-91.68831449745117, 69.03769626541623], [-91.68796281587355, 69.03942802228204]]}, "properties": {"source": "3184792", "target": "688554"}}, {"type": "Feature", "geometry": {"type": "LineString", "coordinates": [[-91.67738181288661, 69.03962069407467], [-91.67680059641452, 69.04098387418568]]}, "properties": {"source": "30370821", "target": "6531881"}}, {"type": "Feature", "geometry": {"type": "LineString", "coordinates": [[-91.67738181288661, 69.03962069407467], [-91.68289218241335, 69.03875458656069]]}, "properties": {"source": "30370821", "target": "33000490"}}, {"type": "Feature", "geometry": {"type": "LineString", "coordinates": [[-91.67738181288661, 69.03962069407467], [-91.68537207851786, 69.03937139929107]]}, "properties": {"source": "30370821", "target": "3916451"}}, {"type": "Feature", "geometry": {"type": "LineString", "coordinates": [[-91.67738181288661, 69.03962069407467], [-91.67602795659197, 69.0394722167564]]}, "properties": {"source": "30370821", "target": "31867658"}}, {"type": "Feature", "geometry": {"type": "LineString", "coordinates": [[-91.67885546189352, 69.03832765845658], [-91.67830976845678, 69.0374880199025]]}, "properties": {"source": "17986430", "target": "18135237"}}, {"type": "Feature", "geometry": {"type": "LineString", "coordinates": [[-91.68634374786035, 69.0431786965706], [-91.68289218241335, 69.03875458656069]]}, "properties": {"source": "19058205", "target": "33000490"}}, {"type": "Feature", "geometry": {"type": "LineString", "coordinates": [[-91.68634374786035, 69.0431786965706], [-91.68537207851786, 69.03937139929107]]}, "properties": {"source": "19058205", "target": "3916451"}}, {"type": "Feature", "geometry": {"type": "LineString", "coordinates": [[-91.68634374786035, 69.0431786965706], [-91.68577655150537, 69.03805542826467]]}, "properties": {"source": "19058205", "target": "26049032"}}, {"type": "Feature", "geometry": {"type": "LineString", "coordinates": [[-91.68634374786035, 69.0431786965706], [-91.67602795659197, 69.0394722167564]]}, "properties": {"source": "19058205", "target": "31867658"}}, {"type": "Feature", "geometry": {"type": "LineString", "coordinates": [[-91.68634374786035, 69.0431786965706], [-91.69153000286026, 69.03863009898791]]}, "properties": {"source": "19058205", "target": "20639233"}}, {"type": "Feature", "geometry": {"type": "LineString", "coordinates": [[-91.68634374786035, 69.0431786965706], [-91.6821284547305, 69.04253059786771]]}, "properties": {"source": "19058205", "target": "9440611"}}, {"type": "Feature", "geometry": {"type": "LineString", "coordinates": [[-91.68634374786035, 69.0431786965706], [-91.6864223119105, 69.03924959491326]]}, "properties": {"source": "19058205", "target": "16073121"}}, {"type": "Feature", "geometry": {"type": "LineString", "coordinates": [[-91.68634374786035, 69.0431786965706], [-91.68779874949881, 69.03979937929634]]}, "properties": {"source": "19058205", "target": "19186351"}}, {"type": "Feature", "geometry": {"type": "LineString", "coordinates": [[-91.68634374786035, 69.0431786965706], [-91.67885546189352, 69.03832765845658]]}, "properties": {"source": "19058205", "target": "17986430"}}, {"type": "Feature", "geometry": {"type": "LineString", "coordinates": [[-91.68634374786035, 69.0431786965706], [-91.67830976845678, 69.0374880199025]]}, "properties": {"source": "19058205", "target": "18135237"}}, {"type": "Feature", "geometry": {"type": "LineString", "coordinates": [[-91.68634374786035, 69.0431786965706], [-91.68668757228379, 69.0420188471239]]}, "properties": {"source": "19058205", "target": "17788344"}}, {"type": "Feature", "geometry": {"type": "LineString", "coordinates": [[-91.6885076618099, 69.03955935652823], [-91.67721164194434, 69.04258753796921]]}, "properties": {"source": "6945500", "target": "7114831"}}, {"type": "Feature", "geometry": {"type": "LineString", "coordinates": [[-91.6885076618099, 69.03955935652823], [-91.67506892976849, 69.03978796364586]]}, "properties": {"source": "6945500", "target": "774582"}}, {"type": "Feature", "geometry": {"type": "LineString", "coordinates": [[-91.6885076618099, 69.03955935652823], [-91.6827581118784, 69.04015537836838]]}, "properties": {"source": "6945500", "target": "7315481"}}, {"type": "Feature", "geometry": {"type": "LineString", "coordinates": [[-91.6885076618099, 69.03955935652823], [-91.69189781883729, 69.03894833201426]]}, "properties": {"source": "6945500", "target": "8151878"}}, {"type": "Feature", "geometry": {"type": "LineString", "coordinates": [[-91.6885076618099, 69.03955935652823], [-91.67980216169117, 69.04052458479836]]}, "properties": {"source": "6945500", "target": "7959265"}}, {"type": "Feature", "geometry": {"type": "LineString", "coordinates": [[-91.6885076618099, 69.03955935652823], [-91.69139499338283, 69.03854285267099]]}, "properties": {"source": "6945500", "target": "6649301"}}, {"type": "Feature", "geometry": {"type": "LineString", "coordinates": [[-91.6885076618099, 69.03955935652823], [-91.68109227562239, 69.04169721601403]]}, "properties": {"source": "6945500", "target": "7063016"}}, {"type": "Feature", "geometry": {"type": "LineString", "coordinates": [[-91.6885076618099, 69.03955935652823], [-91.68148624068081, 69.04107475358461]]}, "properties": {"source": "6945500", "target": "8333512"}}, {"type": "Feature", "geometry": {"type": "LineString", "coordinates": [[-91.6885076618099, 69.03955935652823], [-91.68840036560911, 69.03770023795715]]}, "properties": {"source": "6945500", "target": "728934"}}, {"type": "Feature", "geometry": {"type": "LineString", "coordinates": [[-91.6885076618099, 69.03955935652823], [-91.68028975336841, 69.03763486191133]]}, "properties": {"source": "6945500", "target": "6309471"}}, {"type": "Feature", "geometry": {"type": "LineString", "coordinates": [[-91.6885076618099, 69.03955935652823], [-91.68567795677724, 69.03903990454424]]}, "properties": {"source": "6945500", "target": "7206194"}}, {"type": "Feature", "geometry": {"type": "LineString", "coordinates": [[-91.6885076618099, 69.03955935652823], [-91.68632340687707, 69.0393260201871]]}, "properties": {"source": "6945500", "target": "617327"}}, {"type": "Feature", "geometry": {"type": "LineString", "coordinates": [[-91.6771933588841, 69.04133505650694], [-91.67755543638124, 69.03765074945395]]}, "properties": {"source": "856602", "target": "8467233"}}, {"type": "Feature", "geometry": {"type": "LineString", "coordinates": [[-91.6771933588841, 69.04133505650694], [-91.68289218241335, 69.03875458656069]]}, "properties": {"source": "856602", "target": "33000490"}}, {"type": "Feature", "geometry": {"type": "LineString", "coordinates": [[-91.6771933588841, 69.04133505650694], [-91.68537207851786, 69.03937139929107]]}, "properties": {"source": "856602", "target": "3916451"}}, {"type": "Feature", "geometry": {"type": "LineString", "coordinates": [[-91.6771933588841, 69.04133505650694], [-91.68792470782542, 69.04067654524866]]}, "properties": {"source": "856602", "target": "8731900"}}, {"type": "Feature", "geometry": {"type": "LineString", "coordinates": [[-91.6771933588841, 69.04133505650694], [-91.68577655150537, 69.03805542826467]]}, "properties": {"source": "856602", "target": "26049032"}}, {"type": "Feature", "geometry": {"type": "LineString", "coordinates": [[-91.6771933588841, 69.04133505650694], [-91.69153000286026, 69.03863009898791]]}, "properties": {"source": "856602", "target": "20639233"}}, {"type": "Feature", "geometry": {"type": "LineString", "coordinates": [[-91.6771933588841, 69.04133505650694], [-91.6860707985332, 69.04323426375342]]}, "properties": {"source": "856602", "target": "13175184"}}, {"type": "Feature", "geometry": {"type": "LineString", "coordinates": [[-91.68107506892618, 69.04189907062667], [-91.68796281587355, 69.03942802228204]]}, "properties": {"source": "467202", "target": "688554"}}, {"type": "Feature", "geometry": {"type": "LineString", "coordinates": [[-91.6821284547305, 69.04253059786771], [-91.67755543638124, 69.03765074945395]]}, "properties": {"source": "9440611", "target": "8467233"}}, {"type": "Feature", "geometry": {"type": "LineString", "coordinates": [[-91.67980216169117, 69.04052458479836], [-91.68567795677724, 69.03903990454424]]}, "properties": {"source": "7959265", "target": "7206194"}}, {"type": "Feature", "geometry": {"type": "LineString", "coordinates": [[-91.67980216169117, 69.04052458479836], [-91.69236627897767, 69.03991976955734]]}, "properties": {"source": "7959265", "target": "438925"}}, {"type": "Feature", "geometry": {"type": "LineString", "coordinates": [[-91.67978752178558, 69.04264797909545], [-91.68792470782542, 69.04067654524866]]}, "properties": {"source": "9494333", "target": "8731900"}}, {"type": "Feature", "geometry": {"type": "LineString", "coordinates": [[-91.67978752178558, 69.04264797909545], [-91.67506892976849, 69.03978796364586]]}, "properties": {"source": "9494333", "target": "774582"}}, {"type": "Feature", "geometry": {"type": "LineString", "coordinates": [[-91.67978752178558, 69.04264797909545], [-91.68249965803663, 69.0388158742233]]}, "properties": {"source": "9494333", "target": "9136815"}}, {"type": "Feature", "geometry": {"type": "LineString", "coordinates": [[-91.67978752178558, 69.04264797909545], [-91.68148624068081, 69.04107475358461]]}, "properties": {"source": "9494333", "target": "8333512"}}, {"type": "Feature", "geometry": {"type": "LineString", "coordinates": [[-91.67978752178558, 69.04264797909545], [-91.67904355317995, 69.04314429663006]]}, "properties": {"source": "9494333", "target": "960941"}}, {"type": "Feature", "geometry": {"type": "LineString", "coordinates": [[-91.67978752178558, 69.04264797909545], [-91.67937023893714, 69.04082579197393]]}, "properties": {"source": "9494333", "target": "998420"}}, {"type": "Feature", "geometry": {"type": "LineString", "coordinates": [[-91.67978752178558, 69.04264797909545], [-91.68205155914418, 69.03911380619363]]}, "properties": {"source": "9494333", "target": "865872"}}, {"type": "Feature", "geometry": {"type": "LineString", "coordinates": [[-91.67506892976849, 69.03978796364586], [-91.67721164194434, 69.04258753796921]]}, "properties": {"source": "774582", "target": "7114831"}}, {"type": "Feature", "geometry": {"type": "LineString", "coordinates": [[-91.67506892976849, 69.03978796364586], [-91.6827581118784, 69.04015537836838]]}, "properties": {"source": "774582", "target": "7315481"}}, {"type": "Feature", "geometry": {"type": "LineString", "coordinates": [[-91.67506892976849, 69.03978796364586], [-91.68148624068081, 69.04107475358461]]}, "properties": {"source": "774582", "target": "8333512"}}, {"type": "Feature", "geometry": {"type": "LineString", "coordinates": [[-91.67506892976849, 69.03978796364586], [-91.68567795677724, 69.03903990454424]]}, "properties": {"source": "774582", "target": "7206194"}}, {"type": "Feature", "geometry": {"type": "LineString", "coordinates": [[-91.68634374786035, 69.0431786965706], [-91.67680059641452, 69.04098387418568]]}, "properties": {"source": "19058205", "target": "6531881"}}, {"type": "Feature", "geometry": {"type": "LineString", "coordinates": [[-91.68634374786035, 69.0431786965706], [-91.67755543638124, 69.03765074945395]]}, "properties": {"source": "19058205", "target": "8467233"}}, {"type": "Feature", "geometry": {"type": "LineString", "coordinates": [[-91.67978752178558, 69.04264797909545], [-91.67980216169117, 69.04052458479836]]}, "properties": {"source": "9494333", "target": "7959265"}}, {"type": "Feature", "geometry": {"type": "LineString", "coordinates": [[-91.6749113671858, 69.04019313110899], [-91.67680059641452, 69.04098387418568]]}, "properties": {"source": "9717478", "target": "6531881"}}, {"type": "Feature", "geometry": {"type": "LineString", "coordinates": [[-91.6749113671858, 69.04019313110899], [-91.67755543638124, 69.03765074945395]]}, "properties": {"source": "9717478", "target": "8467233"}}, {"type": "Feature", "geometry": {"type": "LineString", "coordinates": [[-91.6749113671858, 69.04019313110899], [-91.67721164194434, 69.04258753796921]]}, "properties": {"source": "9717478", "target": "7114831"}}, {"type": "Feature", "geometry": {"type": "LineString", "coordinates": [[-91.67602795659197, 69.0394722167564], [-91.68792470782542, 69.04067654524866]]}, "properties": {"source": "31867658", "target": "8731900"}}, {"type": "Feature", "geometry": {"type": "LineString", "coordinates": [[-91.67602795659197, 69.0394722167564], [-91.68577655150537, 69.03805542826467]]}, "properties": {"source": "31867658", "target": "26049032"}}, {"type": "Feature", "geometry": {"type": "LineString", "coordinates": [[-91.67602795659197, 69.0394722167564], [-91.69153000286026, 69.03863009898791]]}, "properties": {"source": "31867658", "target": "20639233"}}, {"type": "Feature", "geometry": {"type": "LineString", "coordinates": [[-91.67602795659197, 69.0394722167564], [-91.6771933588841, 69.04133505650694]]}, "properties": {"source": "31867658", "target": "856602"}}, {"type": "Feature", "geometry": {"type": "LineString", "coordinates": [[-91.67602795659197, 69.0394722167564], [-91.6821284547305, 69.04253059786771]]}, "properties": {"source": "31867658", "target": "9440611"}}, {"type": "Feature", "geometry": {"type": "LineString", "coordinates": [[-91.67602795659197, 69.0394722167564], [-91.6864223119105, 69.03924959491326]]}, "properties": {"source": "31867658", "target": "16073121"}}, {"type": "Feature", "geometry": {"type": "LineString", "coordinates": [[-91.67602795659197, 69.0394722167564], [-91.68391746910683, 69.03965111985676]]}, "properties": {"source": "31867658", "target": "13235764"}}, {"type": "Feature", "geometry": {"type": "LineString", "coordinates": [[-91.67602795659197, 69.0394722167564], [-91.68666620296524, 69.0378135422128]]}, "properties": {"source": "31867658", "target": "565541"}}, {"type": "Feature", "geometry": {"type": "LineString", "coordinates": [[-91.67602795659197, 69.0394722167564], [-91.68779874949881, 69.03979937929634]]}, "properties": {"source": "31867658", "target": "19186351"}}, {"type": "Feature", "geometry": {"type": "LineString", "coordinates": [[-91.67602795659197, 69.0394722167564], [-91.68452042588608, 69.03957520790036]]}, "properties": {"source": "31867658", "target": "1578129"}}, {"type": "Feature", "geometry": {"type": "LineString", "coordinates": [[-91.67602795659197, 69.0394722167564], [-91.68140843459243, 69.04043716611889]]}, "properties": {"source": "31867658", "target": "20307686"}}, {"type": "Feature", "geometry": {"type": "LineString", "coordinates": [[-91.68792470782542, 69.04067654524866], [-91.68107506892618, 69.04189907062667]]}, "properties": {"source": "8731900", "target": "467202"}}, {"type": "Feature", "geometry": {"type": "LineString", "coordinates": [[-91.67602795659197, 69.0394722167564], [-91.68555961242714, 69.04212853744733]]}, "properties": {"source": "31867658", "target": "13053112"}}, {"type": "Feature", "geometry": {"type": "LineString", "coordinates": [[-91.67680059641452, 69.04098387418568], [-91.67721164194434, 69.04258753796921]]}, "properties": {"source": "6531881", "target": "7114831"}}, {"type": "Feature", "geometry": {"type": "LineString", "coordinates": [[-91.67680059641452, 69.04098387418568], [-91.68289218241335, 69.03875458656069]]}, "properties": {"source": "6531881", "target": "33000490"}}, {"type": "Feature", "geometry": {"type": "LineString", "coordinates": [[-91.67680059641452, 69.04098387418568], [-91.68537207851786, 69.03937139929107]]}, "properties": {"source": "6531881", "target": "3916451"}}, {"type": "Feature", "geometry": {"type": "LineString", "coordinates": [[-91.67680059641452, 69.04098387418568], [-91.68792470782542, 69.04067654524866]]}, "properties": {"source": "6531881", "target": "8731900"}}, {"type": "Feature", "geometry": {"type": "LineString", "coordinates": [[-91.67680059641452, 69.04098387418568], [-91.68577655150537, 69.03805542826467]]}, "properties": {"source": "6531881", "target": "26049032"}}, {"type": "Feature", "geometry": {"type": "LineString", "coordinates": [[-91.67680059641452, 69.04098387418568], [-91.67602795659197, 69.0394722167564]]}, "properties": {"source": "6531881", "target": "31867658"}}, {"type": "Feature", "geometry": {"type": "LineString", "coordinates": [[-91.67680059641452, 69.04098387418568], [-91.69153000286026, 69.03863009898791]]}, "properties": {"source": "6531881", "target": "20639233"}}, {"type": "Feature", "geometry": {"type": "LineString", "coordinates": [[-91.67680059641452, 69.04098387418568], [-91.6771933588841, 69.04133505650694]]}, "properties": {"source": "6531881", "target": "856602"}}, {"type": "Feature", "geometry": {"type": "LineString", "coordinates": [[-91.67680059641452, 69.04098387418568], [-91.68107506892618, 69.04189907062667]]}, "properties": {"source": "6531881", "target": "467202"}}, {"type": "Feature", "geometry": {"type": "LineString", "coordinates": [[-91.67680059641452, 69.04098387418568], [-91.6821284547305, 69.04253059786771]]}, "properties": {"source": "6531881", "target": "9440611"}}, {"type": "Feature", "geometry": {"type": "LineString", "coordinates": [[-91.67680059641452, 69.04098387418568], [-91.68796281587355, 69.03942802228204]]}, "properties": {"source": "6531881", "target": "688554"}}, {"type": "Feature", "geometry": {"type": "LineString", "coordinates": [[-91.67680059641452, 69.04098387418568], [-91.6864223119105, 69.03924959491326]]}, "properties": {"source": "6531881", "target": "16073121"}}, {"type": "Feature", "geometry": {"type": "LineString", "coordinates": [[-91.67680059641452, 69.04098387418568], [-91.68391746910683, 69.03965111985676]]}, "properties": {"source": "6531881", "target": "13235764"}}, {"type": "Feature", "geometry": {"type": "LineString", "coordinates": [[-91.67680059641452, 69.04098387418568], [-91.68666620296524, 69.0378135422128]]}, "properties": {"source": "6531881", "target": "565541"}}, {"type": "Feature", "geometry": {"type": "LineString", "coordinates": [[-91.67680059641452, 69.04098387418568], [-91.68555961242714, 69.04212853744733]]}, "properties": {"source": "6531881", "target": "13053112"}}, {"type": "Feature", "geometry": {"type": "LineString", "coordinates": [[-91.67791903901276, 69.0414869308907], [-91.68107506892618, 69.04189907062667]]}, "properties": {"source": "5975964", "target": "467202"}}, {"type": "Feature", "geometry": {"type": "LineString", "coordinates": [[-91.67791903901276, 69.0414869308907], [-91.68796281587355, 69.03942802228204]]}, "properties": {"source": "5975964", "target": "688554"}}, {"type": "Feature", "geometry": {"type": "LineString", "coordinates": [[-91.68286355571236, 69.0423442109475], [-91.67755543638124, 69.03765074945395]]}, "properties": {"source": "7739741", "target": "8467233"}}, {"type": "Feature", "geometry": {"type": "LineString", "coordinates": [[-91.68286355571236, 69.0423442109475], [-91.67721164194434, 69.04258753796921]]}, "properties": {"source": "7739741", "target": "7114831"}}, {"type": "Feature", "geometry": {"type": "LineString", "coordinates": [[-91.68286355571236, 69.0423442109475], [-91.68792470782542, 69.04067654524866]]}, "properties": {"source": "7739741", "target": "8731900"}}, {"type": "Feature", "geometry": {"type": "LineString", "coordinates": [[-91.68286355571236, 69.0423442109475], [-91.68796281587355, 69.03942802228204]]}, "properties": {"source": "7739741", "target": "688554"}}, {"type": "Feature", "geometry": {"type": "LineString", "coordinates": [[-91.68452042588608, 69.03957520790036], [-91.68537207851786, 69.03937139929107]]}, "properties": {"source": "1578129", "target": "3916451"}}, {"type": "Feature", "geometry": {"type": "LineString", "coordinates": [[-91.68452042588608, 69.03957520790036], [-91.69153000286026, 69.03863009898791]]}, "properties": {"source": "1578129", "target": "20639233"}}, {"type": "Feature", "geometry": {"type": "LineString", "coordinates": [[-91.67904355317995, 69.04314429663006], [-91.68249965803663, 69.0388158742233]]}, "properties": {"source": "960941", "target": "9136815"}}, {"type": "Feature", "geometry": {"type": "LineString", "coordinates": [[-91.67904355317995, 69.04314429663006], [-91.67937023893714, 69.04082579197393]]}, "properties": {"source": "960941", "target": "998420"}}, {"type": "Feature", "geometry": {"type": "LineString", "coordinates": [[-91.69177044593945, 69.04061689507125], [-91.67680059641452, 69.04098387418568]]}, "properties": {"source": "313977", "target": "6531881"}}, {"type": "Feature", "geometry": {"type": "LineString", "coordinates": [[-91.69177044593945, 69.04061689507125], [-91.67755543638124, 69.03765074945395]]}, "properties": {"source": "313977", "target": "8467233"}}, {"type": "Feature", "geometry": {"type": "LineString", "coordinates": [[-91.69177044593945, 69.04061689507125], [-91.68289218241335, 69.03875458656069]]}, "properties": {"source": "313977", "target": "33000490"}}, {"type": "Feature", "geometry": {"type": "LineString", "coordinates": [[-91.69177044593945, 69.04061689507125], [-91.68537207851786, 69.03937139929107]]}, "properties": {"source": "313977", "target": "3916451"}}, {"type": "Feature", "geometry": {"type": "LineString", "coordinates": [[-91.69177044593945, 69.04061689507125], [-91.67602795659197, 69.0394722167564]]}, "properties": {"source": "313977", "target": "31867658"}}, {"type": "Feature", "geometry": {"type": "LineString", "coordinates": [[-91.68147285830462, 69.04011025887843], [-91.67755543638124, 69.03765074945395]]}, "properties": {"source": "797568", "target": "8467233"}}, {"type": "Feature", "geometry": {"type": "LineString", "coordinates": [[-91.69139499338283, 69.03854285267099], [-91.6827581118784, 69.04015537836838]]}, "properties": {"source": "6649301", "target": "7315481"}}, {"type": "Feature", "geometry": {"type": "LineString", "coordinates": [[-91.69139499338283, 69.03854285267099], [-91.68109227562239, 69.04169721601403]]}, "properties": {"source": "6649301", "target": "7063016"}}, {"type": "Feature", "geometry": {"type": "LineString", "coordinates": [[-91.69139499338283, 69.03854285267099], [-91.68028975336841, 69.03763486191133]]}, "properties": {"source": "6649301", "target": "6309471"}}, {"type": "Feature", "geometry": {"type": "LineString", "coordinates": [[-91.69139499338283, 69.03854285267099], [-91.68632340687707, 69.0393260201871]]}, "properties": {"source": "6649301", "target": "617327"}}, {"type": "Feature", "geometry": {"type": "LineString", "coordinates": [[-91.68109227562239, 69.04169721601403], [-91.67721164194434, 69.04258753796921]]}, "properties": {"source": "7063016", "target": "7114831"}}, {"type": "Feature", "geometry": {"type": "LineString", "coordinates": [[-91.68109227562239, 69.04169721601403], [-91.67506892976849, 69.03978796364586]]}, "properties": {"source": "7063016", "target": "774582"}}, {"type": "Feature", "geometry": {"type": "LineString", "coordinates": [[-91.68109227562239, 69.04169721601403], [-91.6827581118784, 69.04015537836838]]}, "properties": {"source": "7063016", "target": "7315481"}}, {"type": "Feature", "geometry": {"type": "LineString", "coordinates": [[-91.68109227562239, 69.04169721601403], [-91.68148624068081, 69.04107475358461]]}, "properties": {"source": "7063016", "target": "8333512"}}, {"type": "Feature", "geometry": {"type": "LineString", "coordinates": [[-91.68109227562239, 69.04169721601403], [-91.68567795677724, 69.03903990454424]]}, "properties": {"source": "7063016", "target": "7206194"}}, {"type": "Feature", "geometry": {"type": "LineString", "coordinates": [[-91.68249965803663, 69.0388158742233], [-91.67937023893714, 69.04082579197393]]}, "properties": {"source": "9136815", "target": "998420"}}, {"type": "Feature", "geometry": {"type": "LineString", "coordinates": [[-91.69129695904856, 69.039920527167], [-91.67978752178558, 69.04264797909545]]}, "properties": {"source": "942700", "target": "9494333"}}, {"type": "Feature", "geometry": {"type": "LineString", "coordinates": [[-91.69129695904856, 69.039920527167], [-91.67990832327116, 69.04163225585233]]}, "properties": {"source": "942700", "target": "8813714"}}, {"type": "Feature", "geometry": {"type": "LineString", "coordinates": [[-91.69129695904856, 69.039920527167], [-91.68813172520564, 69.04131027307099]]}, "properties": {"source": "942700", "target": "841509"}}, {"type": "Feature", "geometry": {"type": "LineString", "coordinates": [[-91.69129695904856, 69.039920527167], [-91.68249965803663, 69.0388158742233]]}, "properties": {"source": "942700", "target": "9136815"}}, {"type": "Feature", "geometry": {"type": "LineString", "coordinates": [[-91.69129695904856, 69.039920527167], [-91.6760805892769, 69.03838423806616]]}, "properties": {"source": "942700", "target": "9536295"}}, {"type": "Feature", "geometry": {"type": "LineString", "coordinates": [[-91.68109227562239, 69.04169721601403], [-91.67980216169117, 69.04052458479836]]}, "properties": {"source": "7063016", "target": "7959265"}}, {"type": "Feature", "geometry": {"type": "LineString", "coordinates": [[-91.6821284547305, 69.04253059786771], [-91.68289218241335, 69.03875458656069]]}, "properties": {"source": "9440611", "target": "33000490"}}, {"type": "Feature", "geometry": {"type": "LineString", "coordinates": [[-91.6821284547305, 69.04253059786771], [-91.68537207851786, 69.03937139929107]]}, "properties": {"source": "9440611", "target": "3916451"}}, {"type": "Feature", "geometry": {"type": "LineString", "coordinates": [[-91.6821284547305, 69.04253059786771], [-91.68792470782542, 69.04067654524866]]}, "properties": {"source": "9440611", "target": "8731900"}}, {"type": "Feature", "geometry": {"type": "LineString", "coordinates": [[-91.6821284547305, 69.04253059786771], [-91.68577655150537, 69.03805542826467]]}, "properties": {"source": "9440611", "target": "26049032"}}, {"type": "Feature", "geometry": {"type": "LineString", "coordinates": [[-91.6821284547305, 69.04253059786771], [-91.69153000286026, 69.03863009898791]]}, "properties": {"source": "9440611", "target": "20639233"}}, {"type": "Feature", "geometry": {"type": "LineString", "coordinates": [[-91.6821284547305, 69.04253059786771], [-91.6771933588841, 69.04133505650694]]}, "properties": {"source": "9440611", "target": "856602"}}, {"type": "Feature", "geometry": {"type": "LineString", "coordinates": [[-91.6821284547305, 69.04253059786771], [-91.68666620296524, 69.0378135422128]]}, "properties": {"source": "9440611", "target": "565541"}}, {"type": "Feature", "geometry": {"type": "LineString", "coordinates": [[-91.67990832327116, 69.04163225585233], [-91.68792470782542, 69.04067654524866]]}, "properties": {"source": "8813714", "target": "8731900"}}, {"type": "Feature", "geometry": {"type": "LineString", "coordinates": [[-91.67990832327116, 69.04163225585233], [-91.67978752178558, 69.04264797909545]]}, "properties": {"source": "8813714", "target": "9494333"}}, {"type": "Feature", "geometry": {"type": "LineString", "coordinates": [[-91.67990832327116, 69.04163225585233], [-91.67506892976849, 69.03978796364586]]}, "properties": {"source": "8813714", "target": "774582"}}, {"type": "Feature", "geometry": {"type": "LineString", "coordinates": [[-91.67990832327116, 69.04163225585233], [-91.69189781883729, 69.03894833201426]]}, "properties": {"source": "8813714", "target": "8151878"}}, {"type": "Feature", "geometry": {"type": "LineString", "coordinates": [[-91.67990832327116, 69.04163225585233], [-91.68249965803663, 69.0388158742233]]}, "properties": {"source": "8813714", "target": "9136815"}}, {"type": "Feature", "geometry": {"type": "LineString", "coordinates": [[-91.67990832327116, 69.04163225585233], [-91.6760805892769, 69.03838423806616]]}, "properties": {"source": "8813714", "target": "9536295"}}, {"type": "Feature", "geometry": {"type": "LineString", "coordinates": [[-91.67990832327116, 69.04163225585233], [-91.68148624068081, 69.04107475358461]]}, "properties": {"source": "8813714", "target": "8333512"}}, {"type": "Feature", "geometry": {"type": "LineString", "coordinates": [[-91.67990832327116, 69.04163225585233], [-91.68841675301974, 69.04256518207472]]}, "properties": {"source": "8813714", "target": "979595"}}, {"type": "Feature", "geometry": {"type": "LineString", "coordinates": [[-91.67990832327116, 69.04163225585233], [-91.67980216169117, 69.04052458479836]]}, "properties": {"source": "8813714", "target": "7959265"}}, {"type": "Feature", "geometry": {"type": "LineString", "coordinates": [[-91.69189781883729, 69.03894833201426], [-91.67978752178558, 69.04264797909545]]}, "properties": {"source": "8151878", "target": "9494333"}}, {"type": "Feature", "geometry": {"type": "LineString", "coordinates": [[-91.69189781883729, 69.03894833201426], [-91.67506892976849, 69.03978796364586]]}, "properties": {"source": "8151878", "target": "774582"}}, {"type": "Feature", "geometry": {"type": "LineString", "coordinates": [[-91.69189781883729, 69.03894833201426], [-91.67665626347556, 69.04023093887761]]}, "properties": {"source": "8151878", "target": "7805671"}}, {"type": "Feature", "geometry": {"type": "LineString", "coordinates": [[-91.69189781883729, 69.03894833201426], [-91.67829018516811, 69.03786003014693]]}, "properties": {"source": "8151878", "target": "721955"}}, {"type": "Feature", "geometry": {"type": "LineString", "coordinates": [[-91.69189781883729, 69.03894833201426], [-91.67740858742881, 69.04255100350295]]}, "properties": {"source": "8151878", "target": "648141"}}, {"type": "Feature", "geometry": {"type": "LineString", "coordinates": [[-91.68813172520564, 69.04131027307099], [-91.67978752178558, 69.04264797909545]]}, "properties": {"source": "841509", "target": "9494333"}}, {"type": "Feature", "geometry": {"type": "LineString", "coordinates": [[-91.68813172520564, 69.04131027307099], [-91.67990832327116, 69.04163225585233]]}, "properties": {"source": "841509", "target": "8813714"}}, {"type": "Feature", "geometry": {"type": "LineString", "coordinates": [[-91.68813172520564, 69.04131027307099], [-91.69189781883729, 69.03894833201426]]}, "properties": {"source": "841509", "target": "8151878"}}, {"type": "Feature", "geometry": {"type": "LineString", "coordinates": [[-91.68813172520564, 69.04131027307099], [-91.68249965803663, 69.0388158742233]]}, "properties": {"source": "841509", "target": "9136815"}}, {"type": "Feature", "geometry": {"type": "LineString", "coordinates": [[-91.68813172520564, 69.04131027307099], [-91.6760805892769, 69.03838423806616]]}, "properties": {"source": "841509", "target": "9536295"}}, {"type": "Feature", "geometry": {"type": "LineString", "coordinates": [[-91.68813172520564, 69.04131027307099], [-91.67665626347556, 69.04023093887761]]}, "properties": {"source": "841509", "target": "7805671"}}, {"type": "Feature", "geometry": {"type": "LineString", "coordinates": [[-91.68813172520564, 69.04131027307099], [-91.68205155914418, 69.03911380619363]]}, "properties": {"source": "841509", "target": "865872"}}, {"type": "Feature", "geometry": {"type": "LineString", "coordinates": [[-91.69139499338283, 69.03854285267099], [-91.67721164194434, 69.04258753796921]]}, "properties": {"source": "6649301", "target": "7114831"}}, {"type": "Feature", "geometry": {"type": "LineString", "coordinates": [[-91.69139499338283, 69.03854285267099], [-91.67506892976849, 69.03978796364586]]}, "properties": {"source": "6649301", "target": "774582"}}, {"type": "Feature", "geometry": {"type": "LineString", "coordinates": [[-91.69189781883729, 69.03894833201426], [-91.67980216169117, 69.04052458479836]]}, "properties": {"source": "8151878", "target": "7959265"}}, {"type": "Feature", "geometry": {"type": "LineString", "coordinates": [[-91.69139499338283, 69.03854285267099], [-91.67980216169117, 69.04052458479836]]}, "properties": {"source": "6649301", "target": "7959265"}}]}