{"type": "FeatureCollection", "features": [{"type": "Feature", "geometry": {"type": "LineString", "coordinates": [[-92.7755841787292, 69.23032170893242], [-92.78118386778995, 69.23131263376712]]}, "properties": {"source": "102534", "target": "331089"}}, {"type": "Feature", "geometry": {"type": "LineString", "coordinates": [[-92.7755841787292, 69.23032170893242], [-92.77856649448209, 69.23182886857529]]}, "properties": {"source": "102534", "target": "346780"}}, {"type": "Feature", "geometry": {"type": "LineString", "coordinates": [[-92.77554768516441, 69.23288142422757], [-92.77366497380316, 69.23013392987286]]}, "properties": {"source": "381112", "target": "721023"}}, {"type": "Feature", "geometry": {"type": "LineString", "coordinates": [[-92.77554768516441, 69.23288142422757], [-92.77487774565162, 69.23101037216713]]}, "properties": {"source": "381112", "target": "24658"}}, {"type": "Feature", "geometry": {"type": "LineString", "coordinates": [[-92.78096162017414, 69.23075608052747], [-92.77753287046788, 69.23085474810233]]}, "properties": {"source": "717128", "target": "24648"}}, {"type": "Feature", "geometry": {"type": "LineString", "coordinates": [[-92.78227923385397, 69.23245478073628], [-92.78118386778995, 69.23131263376712]]}, "properties": {"source": "107510", "target": "331089"}}, {"type": "Feature", "geometry": {"type": "LineString", "coordinates": [[-92.78227923385397, 69.23245478073628], [-92.77856649448209, 69.23182886857529]]}, "properties": {"source": "107510", "target": "346780"}}, {"type": "Feature", "geometry": {"type": "LineString", "coordinates": [[-92.78227923385397, 69.23245478073628], [-92.77728499968076, 69.23339652654121]]}, "properties": {"source": "107510", "target": "103106"}}, {"type": "Feature", "geometry": {"type": "LineString", "coordinates": [[-92.77972334256394, 69.23353891670953], [-92.7755242227357, 69.23096003534329]]}, "properties": {"source": "846341", "target": "377663"}}, {"type": "Feature", "geometry": {"type": "LineString", "coordinates": [[-92.77972334256394, 69.23353891670953], [-92.77346231033225, 69.2308410664757]]}, "properties": {"source": "846341", "target": "510918"}}, {"type": "Feature", "geometry": {"type": "LineString", "coordinates": [[-92.77972334256394, 69.23353891670953], [-92.77398139723552, 69.22977739701761]]}, "properties": {"source": "846341", "target": "444375"}}, {"type": "Feature", "geometry": {"type": "LineString", "coordinates": [[-92.77972334256394, 69.23353891670953], [-92.77931743952901, 69.23328512086343]]}, "properties": {"source": "846341", "target": "194204"}}, {"type": "Feature", "geometry": {"type": "LineString", "coordinates": [[-92.78112553055948, 69.23121190702201], [-92.7755242227357, 69.23096003534329]]}, "properties": {"source": "26180772", "target": "377663"}}, {"type": "Feature", "geometry": {"type": "LineString", "coordinates": [[-92.78112553055948, 69.23121190702201], [-92.78022160632693, 69.23177427272105]]}, "properties": {"source": "26180772", "target": "1928597"}}, {"type": "Feature", "geometry": {"type": "LineString", "coordinates": [[-92.77622310238107, 69.23334286703289], [-92.77424264051355, 69.23080602682691]]}, "properties": {"source": "462596", "target": "593109"}}, {"type": "Feature", "geometry": {"type": "LineString", "coordinates": [[-92.77622310238107, 69.23334286703289], [-92.78253981250688, 69.23296908835738]]}, "properties": {"source": "462596", "target": "462537"}}, {"type": "Feature", "geometry": {"type": "LineString", "coordinates": [[-92.77622310238107, 69.23334286703289], [-92.77728499968076, 69.23339652654121]]}, "properties": {"source": "462596", "target": "103106"}}, {"type": "Feature", "geometry": {"type": "LineString", "coordinates": [[-92.77353477957787, 69.2318610505477], [-92.78311713162219, 69.2299199028117]]}, "properties": {"source": "770876", "target": "75586"}}, {"type": "Feature", "geometry": {"type": "LineString", "coordinates": [[-92.77353477957787, 69.2318610505477], [-92.77931743952901, 69.23328512086343]]}, "properties": {"source": "770876", "target": "194204"}}, {"type": "Feature", "geometry": {"type": "LineString", "coordinates": [[-92.77339595884831, 69.23053956216577], [-92.77912764702414, 69.23348012071745]]}, "properties": {"source": "844522", "target": "864330"}}, {"type": "Feature", "geometry": {"type": "LineString", "coordinates": [[-92.77554768516441, 69.23288142422757], [-92.77424264051355, 69.23080602682691]]}, "properties": {"source": "381112", "target": "593109"}}, {"type": "Feature", "geometry": {"type": "LineString", "coordinates": [[-92.77554768516441, 69.23288142422757], [-92.78118386778995, 69.23131263376712]]}, "properties": {"source": "381112", "target": "331089"}}, {"type": "Feature", "geometry": {"type": "LineString", "coordinates": [[-92.77554768516441, 69.23288142422757], [-92.77853254558205, 69.23277481445143]]}, "properties": {"source": "381112", "target": "287064"}}, {"type": "Feature", "geometry": {"type": "LineString", "coordinates": [[-92.77554768516441, 69.23288142422757], [-92.77856649448209, 69.23182886857529]]}, "properties": {"source": "381112", "target": "346780"}}, {"type": "Feature", "geometry": {"type": "LineString", "coordinates": [[-92.77554768516441, 69.23288142422757], [-92.78252929945779, 69.2301332305758]]}, "properties": {"source": "381112", "target": "497366"}}, {"type": "Feature", "geometry": {"type": "LineString", "coordinates": [[-92.77554768516441, 69.23288142422757], [-92.7795077275716, 69.23036731505832]]}, "properties": {"source": "381112", "target": "23525"}}, {"type": "Feature", "geometry": {"type": "LineString", "coordinates": [[-92.77554768516441, 69.23288142422757], [-92.77928598400736, 69.23260737947166]]}, "properties": {"source": "381112", "target": "400869"}}, {"type": "Feature", "geometry": {"type": "LineString", "coordinates": [[-92.77554768516441, 69.23288142422757], [-92.77646285446636, 69.23047861315067]]}, "properties": {"source": "381112", "target": "18261"}}, {"type": "Feature", "geometry": {"type": "LineString", "coordinates": [[-92.77554768516441, 69.23288142422757], [-92.78042921015523, 69.23277315899523]]}, "properties": {"source": "381112", "target": "24655"}}, {"type": "Feature", "geometry": {"type": "LineString", "coordinates": [[-92.78082943991609, 69.23288697935996], [-92.78251273883969, 69.23063890710824]]}, "properties": {"source": "594867", "target": "949473"}}, {"type": "Feature", "geometry": {"type": "LineString", "coordinates": [[-92.78082943991609, 69.23288697935996], [-92.77366497380316, 69.23013392987286]]}, "properties": {"source": "594867", "target": "721023"}}, {"type": "Feature", "geometry": {"type": "LineString", "coordinates": [[-92.78082943991609, 69.23288697935996], [-92.77424264051355, 69.23080602682691]]}, "properties": {"source": "594867", "target": "593109"}}, {"type": "Feature", "geometry": {"type": "LineString", "coordinates": [[-92.78082943991609, 69.23288697935996], [-92.78118386778995, 69.23131263376712]]}, "properties": {"source": "594867", "target": "331089"}}, {"type": "Feature", "geometry": {"type": "LineString", "coordinates": [[-92.78082943991609, 69.23288697935996], [-92.77607633748785, 69.23132339182754]]}, "properties": {"source": "594867", "target": "103104"}}, {"type": "Feature", "geometry": {"type": "LineString", "coordinates": [[-92.78096162017414, 69.23075608052747], [-92.77972334256394, 69.23353891670953]]}, "properties": {"source": "717128", "target": "846341"}}, {"type": "Feature", "geometry": {"type": "LineString", "coordinates": [[-92.78096162017414, 69.23075608052747], [-92.78042921015523, 69.23277315899523]]}, "properties": {"source": "717128", "target": "24655"}}, {"type": "Feature", "geometry": {"type": "LineString", "coordinates": [[-92.77912764702414, 69.23348012071745], [-92.78221871609713, 69.23139911597187]]}, "properties": {"source": "864330", "target": "645625"}}, {"type": "Feature", "geometry": {"type": "LineString", "coordinates": [[-92.77912764702414, 69.23348012071745], [-92.77753287046788, 69.23085474810233]]}, "properties": {"source": "864330", "target": "24648"}}, {"type": "Feature", "geometry": {"type": "LineString", "coordinates": [[-92.78251273883969, 69.23063890710824], [-92.77487774565162, 69.23101037216713]]}, "properties": {"source": "949473", "target": "24658"}}, {"type": "Feature", "geometry": {"type": "LineString", "coordinates": [[-92.78251273883969, 69.23063890710824], [-92.77424264051355, 69.23080602682691]]}, "properties": {"source": "949473", "target": "593109"}}, {"type": "Feature", "geometry": {"type": "LineString", "coordinates": [[-92.78251273883969, 69.23063890710824], [-92.78118386778995, 69.23131263376712]]}, "properties": {"source": "949473", "target": "331089"}}, {"type": "Feature", "geometry": {"type": "LineString", "coordinates": [[-92.78251273883969, 69.23063890710824], [-92.77856649448209, 69.23182886857529]]}, "properties": {"source": "949473", "target": "346780"}}, {"type": "Feature", "geometry": {"type": "LineString", "coordinates": [[-92.78251273883969, 69.23063890710824], [-92.7795077275716, 69.23036731505832]]}, "properties": {"source": "949473", "target": "23525"}}, {"type": "Feature", "geometry": {"type": "LineString", "coordinates": [[-92.78251273883969, 69.23063890710824], [-92.77928598400736, 69.23260737947166]]}, "properties": {"source": "949473", "target": "400869"}}, {"type": "Feature", "geometry": {"type": "LineString", "coordinates": [[-92.78251273883969, 69.23063890710824], [-92.77622310238107, 69.23334286703289]]}, "properties": {"source": "949473", "target": "462596"}}, {"type": "Feature", "geometry": {"type": "LineString", "coordinates": [[-92.78251273883969, 69.23063890710824], [-92.77247877927503, 69.2319130406027]]}, "properties": {"source": "949473", "target": "915211"}}, {"type": "Feature", "geometry": {"type": "LineString", "coordinates": [[-92.78251273883969, 69.23063890710824], [-92.77278249355102, 69.23045164549765]]}, "properties": {"source": "949473", "target": "604062"}}, {"type": "Feature", "geometry": {"type": "LineString", "coordinates": [[-92.78251273883969, 69.23063890710824], [-92.77728499968076, 69.23339652654121]]}, "properties": {"source": "949473", "target": "103106"}}, {"type": "Feature", "geometry": {"type": "LineString", "coordinates": [[-92.77554768516441, 69.23288142422757], [-92.77912764702414, 69.23348012071745]]}, "properties": {"source": "381112", "target": "864330"}}, {"type": "Feature", "geometry": {"type": "LineString", "coordinates": [[-92.77554768516441, 69.23288142422757], [-92.78251273883969, 69.23063890710824]]}, "properties": {"source": "381112", "target": "949473"}}, {"type": "Feature", "geometry": {"type": "LineString", "coordinates": [[-92.78082943991609, 69.23288697935996], [-92.7795077275716, 69.23036731505832]]}, "properties": {"source": "594867", "target": "23525"}}, {"type": "Feature", "geometry": {"type": "LineString", "coordinates": [[-92.78082943991609, 69.23288697935996], [-92.78227923385397, 69.23245478073628]]}, "properties": {"source": "594867", "target": "107510"}}, {"type": "Feature", "geometry": {"type": "LineString", "coordinates": [[-92.78252929945779, 69.2301332305758], [-92.78042921015523, 69.23277315899523]]}, "properties": {"source": "497366", "target": "24655"}}, {"type": "Feature", "geometry": {"type": "LineString", "coordinates": [[-92.77560024245157, 69.2318616064855], [-92.77912764702414, 69.23348012071745]]}, "properties": {"source": "954584", "target": "864330"}}, {"type": "Feature", "geometry": {"type": "LineString", "coordinates": [[-92.77560024245157, 69.2318616064855], [-92.78251273883969, 69.23063890710824]]}, "properties": {"source": "954584", "target": "949473"}}, {"type": "Feature", "geometry": {"type": "LineString", "coordinates": [[-92.77560024245157, 69.2318616064855], [-92.77554768516441, 69.23288142422757]]}, "properties": {"source": "954584", "target": "381112"}}, {"type": "Feature", "geometry": {"type": "LineString", "coordinates": [[-92.77560024245157, 69.2318616064855], [-92.77487774565162, 69.23101037216713]]}, "properties": {"source": "954584", "target": "24658"}}, {"type": "Feature", "geometry": {"type": "LineString", "coordinates": [[-92.77560024245157, 69.2318616064855], [-92.7786384809026, 69.23347406653133]]}, "properties": {"source": "954584", "target": "839793"}}, {"type": "Feature", "geometry": {"type": "LineString", "coordinates": [[-92.77560024245157, 69.2318616064855], [-92.77912175418133, 69.22997523282984]]}, "properties": {"source": "954584", "target": "700460"}}, {"type": "Feature", "geometry": {"type": "LineString", "coordinates": [[-92.77560024245157, 69.2318616064855], [-92.77972334256394, 69.23353891670953]]}, "properties": {"source": "954584", "target": "846341"}}, {"type": "Feature", "geometry": {"type": "LineString", "coordinates": [[-92.77560024245157, 69.2318616064855], [-92.77353477957787, 69.2318610505477]]}, "properties": {"source": "954584", "target": "770876"}}, {"type": "Feature", "geometry": {"type": "LineString", "coordinates": [[-92.77560024245157, 69.2318616064855], [-92.78311713162219, 69.2299199028117]]}, "properties": {"source": "954584", "target": "75586"}}, {"type": "Feature", "geometry": {"type": "LineString", "coordinates": [[-92.7755841787292, 69.23032170893242], [-92.77912764702414, 69.23348012071745]]}, "properties": {"source": "102534", "target": "864330"}}, {"type": "Feature", "geometry": {"type": "LineString", "coordinates": [[-92.7755841787292, 69.23032170893242], [-92.78251273883969, 69.23063890710824]]}, "properties": {"source": "102534", "target": "949473"}}, {"type": "Feature", "geometry": {"type": "LineString", "coordinates": [[-92.7755841787292, 69.23032170893242], [-92.77554768516441, 69.23288142422757]]}, "properties": {"source": "102534", "target": "381112"}}, {"type": "Feature", "geometry": {"type": "LineString", "coordinates": [[-92.7755841787292, 69.23032170893242], [-92.77487774565162, 69.23101037216713]]}, "properties": {"source": "102534", "target": "24658"}}, {"type": "Feature", "geometry": {"type": "LineString", "coordinates": [[-92.77631149842557, 69.23174515799772], [-92.7755242227357, 69.23096003534329]]}, "properties": {"source": "33278849", "target": "377663"}}, {"type": "Feature", "geometry": {"type": "LineString", "coordinates": [[-92.77631149842557, 69.23174515799772], [-92.77346231033225, 69.2308410664757]]}, "properties": {"source": "33278849", "target": "510918"}}, {"type": "Feature", "geometry": {"type": "LineString", "coordinates": [[-92.77631149842557, 69.23174515799772], [-92.77398139723552, 69.22977739701761]]}, "properties": {"source": "33278849", "target": "444375"}}, {"type": "Feature", "geometry": {"type": "LineString", "coordinates": [[-92.77631149842557, 69.23174515799772], [-92.78354744215413, 69.23016308809972]]}, "properties": {"source": "33278849", "target": "1324083"}}, {"type": "Feature", "geometry": {"type": "LineString", "coordinates": [[-92.77631149842557, 69.23174515799772], [-92.78180341584331, 69.23017404667772]]}, "properties": {"source": "33278849", "target": "209594"}}, {"type": "Feature", "geometry": {"type": "LineString", "coordinates": [[-92.77631149842557, 69.23174515799772], [-92.78022160632693, 69.23177427272105]]}, "properties": {"source": "33278849", "target": "1928597"}}, {"type": "Feature", "geometry": {"type": "LineString", "coordinates": [[-92.77607633748785, 69.23132339182754], [-92.77487774565162, 69.23101037216713]]}, "properties": {"source": "103104", "target": "24658"}}, {"type": "Feature", "geometry": {"type": "LineString", "coordinates": [[-92.77607633748785, 69.23132339182754], [-92.78118386778995, 69.23131263376712]]}, "properties": {"source": "103104", "target": "331089"}}, {"type": "Feature", "geometry": {"type": "LineString", "coordinates": [[-92.77607633748785, 69.23132339182754], [-92.78253981250688, 69.23296908835738]]}, "properties": {"source": "103104", "target": "462537"}}, {"type": "Feature", "geometry": {"type": "LineString", "coordinates": [[-92.77607633748785, 69.23132339182754], [-92.78227923385397, 69.23245478073628]]}, "properties": {"source": "103104", "target": "107510"}}, {"type": "Feature", "geometry": {"type": "LineString", "coordinates": [[-92.7795077275716, 69.23036731505832], [-92.77487774565162, 69.23101037216713]]}, "properties": {"source": "23525", "target": "24658"}}, {"type": "Feature", "geometry": {"type": "LineString", "coordinates": [[-92.7795077275716, 69.23036731505832], [-92.77247877927503, 69.2319130406027]]}, "properties": {"source": "23525", "target": "915211"}}, {"type": "Feature", "geometry": {"type": "LineString", "coordinates": [[-92.78253981250688, 69.23296908835738], [-92.78118386778995, 69.23131263376712]]}, "properties": {"source": "462537", "target": "331089"}}, {"type": "Feature", "geometry": {"type": "LineString", "coordinates": [[-92.77928598400736, 69.23260737947166], [-92.77856649448209, 69.23182886857529]]}, "properties": {"source": "400869", "target": "346780"}}, {"type": "Feature", "geometry": {"type": "LineString", "coordinates": [[-92.78096162017414, 69.23075608052747], [-92.78251273883969, 69.23063890710824]]}, "properties": {"source": "717128", "target": "949473"}}, {"type": "Feature", "geometry": {"type": "LineString", "coordinates": [[-92.78096162017414, 69.23075608052747], [-92.7786384809026, 69.23347406653133]]}, "properties": {"source": "717128", "target": "839793"}}, {"type": "Feature", "geometry": {"type": "LineString", "coordinates": [[-92.7786384809026, 69.23347406653133], [-92.77353477957787, 69.2318610505477]]}, "properties": {"source": "839793", "target": "770876"}}, {"type": "Feature", "geometry": {"type": "LineString", "coordinates": [[-92.7786384809026, 69.23347406653133], [-92.7755242227357, 69.23096003534329]]}, "properties": {"source": "839793", "target": "377663"}}, {"type": "Feature", "geometry": {"type": "LineString", "coordinates": [[-92.78188207471025, 69.23133021948172], [-92.77346231033225, 69.2308410664757]]}, "properties": {"source": "33278687", "target": "510918"}}, {"type": "Feature", "geometry": {"type": "LineString", "coordinates": [[-92.78188207471025, 69.23133021948172], [-92.77398139723552, 69.22977739701761]]}, "properties": {"source": "33278687", "target": "444375"}}, {"type": "Feature", "geometry": {"type": "LineString", "coordinates": [[-92.78188207471025, 69.23133021948172], [-92.78354744215413, 69.23016308809972]]}, "properties": {"source": "33278687", "target": "1324083"}}, {"type": "Feature", "geometry": {"type": "LineString", "coordinates": [[-92.78188207471025, 69.23133021948172], [-92.78180341584331, 69.23017404667772]]}, "properties": {"source": "33278687", "target": "209594"}}, {"type": "Feature", "geometry": {"type": "LineString", "coordinates": [[-92.78188207471025, 69.23133021948172], [-92.78022160632693, 69.23177427272105]]}, "properties": {"source": "33278687", "target": "1928597"}}, {"type": "Feature", "geometry": {"type": "LineString", "coordinates": [[-92.7805252325509, 69.2301748538676], [-92.77631149842557, 69.23174515799772]]}, "properties": {"source": "33278765", "target": "33278849"}}, {"type": "Feature", "geometry": {"type": "LineString", "coordinates": [[-92.7805252325509, 69.2301748538676], [-92.78112553055948, 69.23121190702201]]}, "properties": {"source": "33278765", "target": "26180772"}}, {"type": "Feature", "geometry": {"type": "LineString", "coordinates": [[-92.7805252325509, 69.2301748538676], [-92.7755242227357, 69.23096003534329]]}, "properties": {"source": "33278765", "target": "377663"}}, {"type": "Feature", "geometry": {"type": "LineString", "coordinates": [[-92.7805252325509, 69.2301748538676], [-92.77346231033225, 69.2308410664757]]}, "properties": {"source": "33278765", "target": "510918"}}, {"type": "Feature", "geometry": {"type": "LineString", "coordinates": [[-92.7805252325509, 69.2301748538676], [-92.77398139723552, 69.22977739701761]]}, "properties": {"source": "33278765", "target": "444375"}}, {"type": "Feature", "geometry": {"type": "LineString", "coordinates": [[-92.7805252325509, 69.2301748538676], [-92.78354744215413, 69.23016308809972]]}, "properties": {"source": "33278765", "target": "1324083"}}, {"type": "Feature", "geometry": {"type": "LineString", "coordinates": [[-92.7805252325509, 69.2301748538676], [-92.78180341584331, 69.23017404667772]]}, "properties": {"source": "33278765", "target": "209594"}}, {"type": "Feature", "geometry": {"type": "LineString", "coordinates": [[-92.7805252325509, 69.2301748538676], [-92.78022160632693, 69.23177427272105]]}, "properties": {"source": "33278765", "target": "1928597"}}, {"type": "Feature", "geometry": {"type": "LineString", "coordinates": [[-92.77631149842557, 69.23174515799772], [-92.78112553055948, 69.23121190702201]]}, "properties": {"source": "33278849", "target": "26180772"}}, {"type": "Feature", "geometry": {"type": "LineString", "coordinates": [[-92.77424264051355, 69.23080602682691], [-92.77487774565162, 69.23101037216713]]}, "properties": {"source": "593109", "target": "24658"}}, {"type": "Feature", "geometry": {"type": "LineString", "coordinates": [[-92.77424264051355, 69.23080602682691], [-92.78118386778995, 69.23131263376712]]}, "properties": {"source": "593109", "target": "331089"}}, {"type": "Feature", "geometry": {"type": "LineString", "coordinates": [[-92.7786384809026, 69.23347406653133], [-92.77346231033225, 69.2308410664757]]}, "properties": {"source": "839793", "target": "510918"}}, {"type": "Feature", "geometry": {"type": "LineString", "coordinates": [[-92.7786384809026, 69.23347406653133], [-92.78311713162219, 69.2299199028117]]}, "properties": {"source": "839793", "target": "75586"}}, {"type": "Feature", "geometry": {"type": "LineString", "coordinates": [[-92.7786384809026, 69.23347406653133], [-92.77931743952901, 69.23328512086343]]}, "properties": {"source": "839793", "target": "194204"}}, {"type": "Feature", "geometry": {"type": "LineString", "coordinates": [[-92.77912175418133, 69.22997523282984], [-92.77912764702414, 69.23348012071745]]}, "properties": {"source": "700460", "target": "864330"}}, {"type": "Feature", "geometry": {"type": "LineString", "coordinates": [[-92.77912175418133, 69.22997523282984], [-92.7786384809026, 69.23347406653133]]}, "properties": {"source": "700460", "target": "839793"}}, {"type": "Feature", "geometry": {"type": "LineString", "coordinates": [[-92.77912175418133, 69.22997523282984], [-92.78252929945779, 69.2301332305758]]}, "properties": {"source": "700460", "target": "497366"}}, {"type": "Feature", "geometry": {"type": "LineString", "coordinates": [[-92.77912175418133, 69.22997523282984], [-92.78096162017414, 69.23075608052747]]}, "properties": {"source": "700460", "target": "717128"}}, {"type": "Feature", "geometry": {"type": "LineString", "coordinates": [[-92.77912175418133, 69.22997523282984], [-92.77353477957787, 69.2318610505477]]}, "properties": {"source": "700460", "target": "770876"}}, {"type": "Feature", "geometry": {"type": "LineString", "coordinates": [[-92.77912175418133, 69.22997523282984], [-92.77346231033225, 69.2308410664757]]}, "properties": {"source": "700460", "target": "510918"}}, {"type": "Feature", "geometry": {"type": "LineString", "coordinates": [[-92.77912175418133, 69.22997523282984], [-92.77339595884831, 69.23053956216577]]}, "properties": {"source": "700460", "target": "844522"}}, {"type": "Feature", "geometry": {"type": "LineString", "coordinates": [[-92.77912175418133, 69.22997523282984], [-92.78311713162219, 69.2299199028117]]}, "properties": {"source": "700460", "target": "75586"}}, {"type": "Feature", "geometry": {"type": "LineString", "coordinates": [[-92.77912175418133, 69.22997523282984], [-92.77931743952901, 69.23328512086343]]}, "properties": {"source": "700460", "target": "194204"}}, {"type": "Feature", "geometry": {"type": "LineString", "coordinates": [[-92.78252929945779, 69.2301332305758], [-92.78251273883969, 69.23063890710824]]}, "properties": {"source": "497366", "target": "949473"}}, {"type": "Feature", "geometry": {"type": "LineString", "coordinates": [[-92.78252929945779, 69.2301332305758], [-92.78082943991609, 69.23288697935996]]}, "properties": {"source": "497366", "target": "594867"}}, {"type": "Feature", "geometry": {"type": "LineString", "coordinates": [[-92.78252929945779, 69.2301332305758], [-92.77487774565162, 69.23101037216713]]}, "properties": {"source": "497366", "target": "24658"}}, {"type": "Feature", "geometry": {"type": "LineString", "coordinates": [[-92.78252929945779, 69.2301332305758], [-92.7795077275716, 69.23036731505832]]}, "properties": {"source": "497366", "target": "23525"}}, {"type": "Feature", "geometry": {"type": "LineString", "coordinates": [[-92.78221871609713, 69.23139911597187], [-92.77203776840678, 69.23086374712679]]}, "properties": {"source": "645625", "target": "808043"}}, {"type": "Feature", "geometry": {"type": "LineString", "coordinates": [[-92.77398139723552, 69.22977739701761], [-92.78112553055948, 69.23121190702201]]}, "properties": {"source": "444375", "target": "26180772"}}, {"type": "Feature", "geometry": {"type": "LineString", "coordinates": [[-92.77728499968076, 69.23339652654121], [-92.78253981250688, 69.23296908835738]]}, "properties": {"source": "103106", "target": "462537"}}, {"type": "Feature", "geometry": {"type": "LineString", "coordinates": [[-92.77931743952901, 69.23328512086343], [-92.77346231033225, 69.2308410664757]]}, "properties": {"source": "194204", "target": "510918"}}, {"type": "Feature", "geometry": {"type": "LineString", "coordinates": [[-92.78354744215413, 69.23016308809972], [-92.78112553055948, 69.23121190702201]]}, "properties": {"source": "1324083", "target": "26180772"}}, {"type": "Feature", "geometry": {"type": "LineString", "coordinates": [[-92.78180341584331, 69.23017404667772], [-92.78112553055948, 69.23121190702201]]}, "properties": {"source": "209594", "target": "26180772"}}, {"type": "Feature", "geometry": {"type": "LineString", "coordinates": [[-92.78045694895897, 69.23175864827581], [-92.7786384809026, 69.23347406653133]]}, "properties": {"source": "642956", "target": "839793"}}, {"type": "Feature", "geometry": {"type": "LineString", "coordinates": [[-92.78045694895897, 69.23175864827581], [-92.78096162017414, 69.23075608052747]]}, "properties": {"source": "642956", "target": "717128"}}, {"type": "Feature", "geometry": {"type": "LineString", "coordinates": [[-92.78045694895897, 69.23175864827581], [-92.7755242227357, 69.23096003534329]]}, "properties": {"source": "642956", "target": "377663"}}, {"type": "Feature", "geometry": {"type": "LineString", "coordinates": [[-92.77753287046788, 69.23085474810233], [-92.77487774565162, 69.23101037216713]]}, "properties": {"source": "24648", "target": "24658"}}, {"type": "Feature", "geometry": {"type": "LineString", "coordinates": [[-92.77788630662295, 69.23206314227554], [-92.78042921015523, 69.23277315899523]]}, "properties": {"source": "79626", "target": "24655"}}, {"type": "Feature", "geometry": {"type": "LineString", "coordinates": [[-92.77788630662295, 69.23206314227554], [-92.77197324940022, 69.22986995884793]]}, "properties": {"source": "79626", "target": "820461"}}, {"type": "Feature", "geometry": {"type": "LineString", "coordinates": [[-92.78274758843725, 69.23319212528165], [-92.7778616428704, 69.2328750133288]]}, "properties": {"source": "462579", "target": "462561"}}, {"type": "Feature", "geometry": {"type": "LineString", "coordinates": [[-92.78274758843725, 69.23319212528165], [-92.78253981250688, 69.23296908835738]]}, "properties": {"source": "462579", "target": "462537"}}, {"type": "Feature", "geometry": {"type": "LineString", "coordinates": [[-92.78188207471025, 69.23133021948172], [-92.78112553055948, 69.23121190702201]]}, "properties": {"source": "33278687", "target": "26180772"}}, {"type": "Feature", "geometry": {"type": "LineString", "coordinates": [[-92.78188207471025, 69.23133021948172], [-92.7755242227357, 69.23096003534329]]}, "properties": {"source": "33278687", "target": "377663"}}, {"type": "Feature", "geometry": {"type": "LineString", "coordinates": [[-92.77339595884831, 69.23053956216577], [-92.7786384809026, 69.23347406653133]]}, "properties": {"source": "844522", "target": "839793"}}, {"type": "Feature", "geometry": {"type": "LineString", "coordinates": [[-92.77339595884831, 69.23053956216577], [-92.78252929945779, 69.2301332305758]]}, "properties": {"source": "844522", "target": "497366"}}, {"type": "Feature", "geometry": {"type": "LineString", "coordinates": [[-92.77339595884831, 69.23053956216577], [-92.77353477957787, 69.2318610505477]]}, "properties": {"source": "844522", "target": "770876"}}, {"type": "Feature", "geometry": {"type": "LineString", "coordinates": [[-92.77339595884831, 69.23053956216577], [-92.78042921015523, 69.23277315899523]]}, "properties": {"source": "844522", "target": "24655"}}, {"type": "Feature", "geometry": {"type": "LineString", "coordinates": [[-92.77646285446636, 69.23047861315067], [-92.77487774565162, 69.23101037216713]]}, "properties": {"source": "18261", "target": "24658"}}, {"type": "Feature", "geometry": {"type": "LineString", "coordinates": [[-92.77646285446636, 69.23047861315067], [-92.77856649448209, 69.23182886857529]]}, "properties": {"source": "18261", "target": "346780"}}, {"type": "Feature", "geometry": {"type": "LineString", "coordinates": [[-92.77646285446636, 69.23047861315067], [-92.77928598400736, 69.23260737947166]]}, "properties": {"source": "18261", "target": "400869"}}, {"type": "Feature", "geometry": {"type": "LineString", "coordinates": [[-92.7755850076862, 69.23156176808538], [-92.77912764702414, 69.23348012071745]]}, "properties": {"source": "604063", "target": "864330"}}, {"type": "Feature", "geometry": {"type": "LineString", "coordinates": [[-92.7755850076862, 69.23156176808538], [-92.78251273883969, 69.23063890710824]]}, "properties": {"source": "604063", "target": "949473"}}, {"type": "Feature", "geometry": {"type": "LineString", "coordinates": [[-92.7755850076862, 69.23156176808538], [-92.78082943991609, 69.23288697935996]]}, "properties": {"source": "604063", "target": "594867"}}, {"type": "Feature", "geometry": {"type": "LineString", "coordinates": [[-92.7755850076862, 69.23156176808538], [-92.77278249355102, 69.23045164549765]]}, "properties": {"source": "604063", "target": "604062"}}, {"type": "Feature", "geometry": {"type": "LineString", "coordinates": [[-92.77197324940022, 69.22986995884793], [-92.77912764702414, 69.23348012071745]]}, "properties": {"source": "820461", "target": "864330"}}, {"type": "Feature", "geometry": {"type": "LineString", "coordinates": [[-92.77197324940022, 69.22986995884793], [-92.77912175418133, 69.22997523282984]]}, "properties": {"source": "820461", "target": "700460"}}, {"type": "Feature", "geometry": {"type": "LineString", "coordinates": [[-92.77197324940022, 69.22986995884793], [-92.78252929945779, 69.2301332305758]]}, "properties": {"source": "820461", "target": "497366"}}, {"type": "Feature", "geometry": {"type": "LineString", "coordinates": [[-92.77197324940022, 69.22986995884793], [-92.77353477957787, 69.2318610505477]]}, "properties": {"source": "820461", "target": "770876"}}, {"type": "Feature", "geometry": {"type": "LineString", "coordinates": [[-92.78221871609713, 69.23139911597187], [-92.77928598400736, 69.23260737947166]]}, "properties": {"source": "645625", "target": "400869"}}, {"type": "Feature", "geometry": {"type": "LineString", "coordinates": [[-92.77912764702414, 69.23348012071745], [-92.78251273883969, 69.23063890710824]]}, "properties": {"source": "864330", "target": "949473"}}, {"type": "Feature", "geometry": {"type": "LineString", "coordinates": [[-92.77912764702414, 69.23348012071745], [-92.78082943991609, 69.23288697935996]]}, "properties": {"source": "864330", "target": "594867"}}, {"type": "Feature", "geometry": {"type": "LineString", "coordinates": [[-92.77912764702414, 69.23348012071745], [-92.77366497380316, 69.23013392987286]]}, "properties": {"source": "864330", "target": "721023"}}, {"type": "Feature", "geometry": {"type": "LineString", "coordinates": [[-92.77912764702414, 69.23348012071745], [-92.77487774565162, 69.23101037216713]]}, "properties": {"source": "864330", "target": "24658"}}, {"type": "Feature", "geometry": {"type": "LineString", "coordinates": [[-92.77912764702414, 69.23348012071745], [-92.77424264051355, 69.23080602682691]]}, "properties": {"source": "864330", "target": "593109"}}, {"type": "Feature", "geometry": {"type": "LineString", "coordinates": [[-92.77912764702414, 69.23348012071745], [-92.77853254558205, 69.23277481445143]]}, "properties": {"source": "864330", "target": "287064"}}, {"type": "Feature", "geometry": {"type": "LineString", "coordinates": [[-92.77912764702414, 69.23348012071745], [-92.7786384809026, 69.23347406653133]]}, "properties": {"source": "864330", "target": "839793"}}, {"type": "Feature", "geometry": {"type": "LineString", "coordinates": [[-92.77912764702414, 69.23348012071745], [-92.77856649448209, 69.23182886857529]]}, "properties": {"source": "864330", "target": "346780"}}, {"type": "Feature", "geometry": {"type": "LineString", "coordinates": [[-92.77912764702414, 69.23348012071745], [-92.78252929945779, 69.2301332305758]]}, "properties": {"source": "864330", "target": "497366"}}, {"type": "Feature", "geometry": {"type": "LineString", "coordinates": [[-92.77912764702414, 69.23348012071745], [-92.7795077275716, 69.23036731505832]]}, "properties": {"source": "864330", "target": "23525"}}, {"type": "Feature", "geometry": {"type": "LineString", "coordinates": [[-92.77912764702414, 69.23348012071745], [-92.77928598400736, 69.23260737947166]]}, "properties": {"source": "864330", "target": "400869"}}, {"type": "Feature", "geometry": {"type": "LineString", "coordinates": [[-92.77912764702414, 69.23348012071745], [-92.78096162017414, 69.23075608052747]]}, "properties": {"source": "864330", "target": "717128"}}, {"type": "Feature", "geometry": {"type": "LineString", "coordinates": [[-92.77912764702414, 69.23348012071745], [-92.77972334256394, 69.23353891670953]]}, "properties": {"source": "864330", "target": "846341"}}, {"type": "Feature", "geometry": {"type": "LineString", "coordinates": [[-92.77912764702414, 69.23348012071745], [-92.78311713162219, 69.2299199028117]]}, "properties": {"source": "864330", "target": "75586"}}, {"type": "Feature", "geometry": {"type": "LineString", "coordinates": [[-92.77821605112165, 69.232420555087], [-92.78251273883969, 69.23063890710824]]}, "properties": {"source": "983420", "target": "949473"}}, {"type": "Feature", "geometry": {"type": "LineString", "coordinates": [[-92.78376384723818, 69.23308813118166], [-92.77856649448209, 69.23182886857529]]}, "properties": {"source": "21855946", "target": "346780"}}, {"type": "Feature", "geometry": {"type": "LineString", "coordinates": [[-92.7755841787292, 69.23032170893242], [-92.77607633748785, 69.23132339182754]]}, "properties": {"source": "102534", "target": "103104"}}, {"type": "Feature", "geometry": {"type": "LineString", "coordinates": [[-92.7755841787292, 69.23032170893242], [-92.7795077275716, 69.23036731505832]]}, "properties": {"source": "102534", "target": "23525"}}, {"type": "Feature", "geometry": {"type": "LineString", "coordinates": [[-92.7755841787292, 69.23032170893242], [-92.77928598400736, 69.23260737947166]]}, "properties": {"source": "102534", "target": "400869"}}, {"type": "Feature", "geometry": {"type": "LineString", "coordinates": [[-92.77354272049422, 69.23267713415407], [-92.77366497380316, 69.23013392987286]]}, "properties": {"source": "629993", "target": "721023"}}, {"type": "Feature", "geometry": {"type": "LineString", "coordinates": [[-92.77354272049422, 69.23267713415407], [-92.7778616428704, 69.2328750133288]]}, "properties": {"source": "629993", "target": "462561"}}, {"type": "Feature", "geometry": {"type": "LineString", "coordinates": [[-92.77354272049422, 69.23267713415407], [-92.77424264051355, 69.23080602682691]]}, "properties": {"source": "629993", "target": "593109"}}, {"type": "Feature", "geometry": {"type": "LineString", "coordinates": [[-92.77354272049422, 69.23267713415407], [-92.78118386778995, 69.23131263376712]]}, "properties": {"source": "629993", "target": "331089"}}, {"type": "Feature", "geometry": {"type": "LineString", "coordinates": [[-92.77354272049422, 69.23267713415407], [-92.77853254558205, 69.23277481445143]]}, "properties": {"source": "629993", "target": "287064"}}, {"type": "Feature", "geometry": {"type": "LineString", "coordinates": [[-92.77354272049422, 69.23267713415407], [-92.78252929945779, 69.2301332305758]]}, "properties": {"source": "629993", "target": "497366"}}, {"type": "Feature", "geometry": {"type": "LineString", "coordinates": [[-92.77354272049422, 69.23267713415407], [-92.77607633748785, 69.23132339182754]]}, "properties": {"source": "629993", "target": "103104"}}, {"type": "Feature", "geometry": {"type": "LineString", "coordinates": [[-92.77354272049422, 69.23267713415407], [-92.78253981250688, 69.23296908835738]]}, "properties": {"source": "629993", "target": "462537"}}, {"type": "Feature", "geometry": {"type": "LineString", "coordinates": [[-92.77354272049422, 69.23267713415407], [-92.77728499968076, 69.23339652654121]]}, "properties": {"source": "629993", "target": "103106"}}, {"type": "Feature", "geometry": {"type": "LineString", "coordinates": [[-92.78188207471025, 69.23133021948172], [-92.7805252325509, 69.2301748538676]]}, "properties": {"source": "33278687", "target": "33278765"}}, {"type": "Feature", "geometry": {"type": "LineString", "coordinates": [[-92.78188207471025, 69.23133021948172], [-92.77631149842557, 69.23174515799772]]}, "properties": {"source": "33278687", "target": "33278849"}}, {"type": "Feature", "geometry": {"type": "LineString", "coordinates": [[-92.77487774565162, 69.23101037216713], [-92.78118386778995, 69.23131263376712]]}, "properties": {"source": "24658", "target": "331089"}}, {"type": "Feature", "geometry": {"type": "LineString", "coordinates": [[-92.77487774565162, 69.23101037216713], [-92.77856649448209, 69.23182886857529]]}, "properties": {"source": "24658", "target": "346780"}}, {"type": "Feature", "geometry": {"type": "LineString", "coordinates": [[-92.77487774565162, 69.23101037216713], [-92.77928598400736, 69.23260737947166]]}, "properties": {"source": "24658", "target": "400869"}}, {"type": "Feature", "geometry": {"type": "LineString", "coordinates": [[-92.77487774565162, 69.23101037216713], [-92.78042921015523, 69.23277315899523]]}, "properties": {"source": "24658", "target": "24655"}}, {"type": "Feature", "geometry": {"type": "LineString", "coordinates": [[-92.7778616428704, 69.2328750133288], [-92.78251273883969, 69.23063890710824]]}, "properties": {"source": "462561", "target": "949473"}}, {"type": "Feature", "geometry": {"type": "LineString", "coordinates": [[-92.7778616428704, 69.2328750133288], [-92.77366497380316, 69.23013392987286]]}, "properties": {"source": "462561", "target": "721023"}}, {"type": "Feature", "geometry": {"type": "LineString", "coordinates": [[-92.7778616428704, 69.2328750133288], [-92.77424264051355, 69.23080602682691]]}, "properties": {"source": "462561", "target": "593109"}}, {"type": "Feature", "geometry": {"type": "LineString", "coordinates": [[-92.7778616428704, 69.2328750133288], [-92.78118386778995, 69.23131263376712]]}, "properties": {"source": "462561", "target": "331089"}}, {"type": "Feature", "geometry": {"type": "LineString", "coordinates": [[-92.7778616428704, 69.2328750133288], [-92.77853254558205, 69.23277481445143]]}, "properties": {"source": "462561", "target": "287064"}}, {"type": "Feature", "geometry": {"type": "LineString", "coordinates": [[-92.7778616428704, 69.2328750133288], [-92.77856649448209, 69.23182886857529]]}, "properties": {"source": "462561", "target": "346780"}}, {"type": "Feature", "geometry": {"type": "LineString", "coordinates": [[-92.7778616428704, 69.2328750133288], [-92.77607633748785, 69.23132339182754]]}, "properties": {"source": "462561", "target": "103104"}}, {"type": "Feature", "geometry": {"type": "LineString", "coordinates": [[-92.7778616428704, 69.2328750133288], [-92.78253981250688, 69.23296908835738]]}, "properties": {"source": "462561", "target": "462537"}}, {"type": "Feature", "geometry": {"type": "LineString", "coordinates": [[-92.7778616428704, 69.2328750133288], [-92.78227923385397, 69.23245478073628]]}, "properties": {"source": "462561", "target": "107510"}}, {"type": "Feature", "geometry": {"type": "LineString", "coordinates": [[-92.7778616428704, 69.2328750133288], [-92.77622310238107, 69.23334286703289]]}, "properties": {"source": "462561", "target": "462596"}}, {"type": "Feature", "geometry": {"type": "LineString", "coordinates": [[-92.7778616428704, 69.2328750133288], [-92.77247877927503, 69.2319130406027]]}, "properties": {"source": "462561", "target": "915211"}}, {"type": "Feature", "geometry": {"type": "LineString", "coordinates": [[-92.7778616428704, 69.2328750133288], [-92.77552732261489, 69.23367224054579]]}, "properties": {"source": "462561", "target": "2903714"}}, {"type": "Feature", "geometry": {"type": "LineString", "coordinates": [[-92.77552732261489, 69.23367224054579], [-92.78253981250688, 69.23296908835738]]}, "properties": {"source": "2903714", "target": "462537"}}, {"type": "Feature", "geometry": {"type": "LineString", "coordinates": [[-92.77242445244615, 69.23209578306088], [-92.7755850076862, 69.23156176808538]]}, "properties": {"source": "5256036", "target": "604063"}}, {"type": "Feature", "geometry": {"type": "LineString", "coordinates": [[-92.77424264051355, 69.23080602682691], [-92.78253981250688, 69.23296908835738]]}, "properties": {"source": "593109", "target": "462537"}}, {"type": "Feature", "geometry": {"type": "LineString", "coordinates": [[-92.77424264051355, 69.23080602682691], [-92.77928598400736, 69.23260737947166]]}, "properties": {"source": "593109", "target": "400869"}}, {"type": "Feature", "geometry": {"type": "LineString", "coordinates": [[-92.77424264051355, 69.23080602682691], [-92.77247877927503, 69.2319130406027]]}, "properties": {"source": "593109", "target": "915211"}}, {"type": "Feature", "geometry": {"type": "LineString", "coordinates": [[-92.78118386778995, 69.23131263376712], [-92.77856649448209, 69.23182886857529]]}, "properties": {"source": "331089", "target": "346780"}}, {"type": "Feature", "geometry": {"type": "LineString", "coordinates": [[-92.77853254558205, 69.23277481445143], [-92.78251273883969, 69.23063890710824]]}, "properties": {"source": "287064", "target": "949473"}}, {"type": "Feature", "geometry": {"type": "LineString", "coordinates": [[-92.77853254558205, 69.23277481445143], [-92.77366497380316, 69.23013392987286]]}, "properties": {"source": "287064", "target": "721023"}}, {"type": "Feature", "geometry": {"type": "LineString", "coordinates": [[-92.77853254558205, 69.23277481445143], [-92.77424264051355, 69.23080602682691]]}, "properties": {"source": "287064", "target": "593109"}}, {"type": "Feature", "geometry": {"type": "LineString", "coordinates": [[-92.77853254558205, 69.23277481445143], [-92.78118386778995, 69.23131263376712]]}, "properties": {"source": "287064", "target": "331089"}}, {"type": "Feature", "geometry": {"type": "LineString", "coordinates": [[-92.77853254558205, 69.23277481445143], [-92.77856649448209, 69.23182886857529]]}, "properties": {"source": "287064", "target": "346780"}}, {"type": "Feature", "geometry": {"type": "LineString", "coordinates": [[-92.77853254558205, 69.23277481445143], [-92.77607633748785, 69.23132339182754]]}, "properties": {"source": "287064", "target": "103104"}}, {"type": "Feature", "geometry": {"type": "LineString", "coordinates": [[-92.77853254558205, 69.23277481445143], [-92.7795077275716, 69.23036731505832]]}, "properties": {"source": "287064", "target": "23525"}}, {"type": "Feature", "geometry": {"type": "LineString", "coordinates": [[-92.77853254558205, 69.23277481445143], [-92.78227923385397, 69.23245478073628]]}, "properties": {"source": "287064", "target": "107510"}}, {"type": "Feature", "geometry": {"type": "LineString", "coordinates": [[-92.77853254558205, 69.23277481445143], [-92.77646285446636, 69.23047861315067]]}, "properties": {"source": "287064", "target": "18261"}}, {"type": "Feature", "geometry": {"type": "LineString", "coordinates": [[-92.7786384809026, 69.23347406653133], [-92.77972334256394, 69.23353891670953]]}, "properties": {"source": "839793", "target": "846341"}}, {"type": "Feature", "geometry": {"type": "LineString", "coordinates": [[-92.77912764702414, 69.23348012071745], [-92.77247877927503, 69.2319130406027]]}, "properties": {"source": "864330", "target": "915211"}}, {"type": "Feature", "geometry": {"type": "LineString", "coordinates": [[-92.77912764702414, 69.23348012071745], [-92.77278249355102, 69.23045164549765]]}, "properties": {"source": "864330", "target": "604062"}}, {"type": "Feature", "geometry": {"type": "LineString", "coordinates": [[-92.78082943991609, 69.23288697935996], [-92.77622310238107, 69.23334286703289]]}, "properties": {"source": "594867", "target": "462596"}}, {"type": "Feature", "geometry": {"type": "LineString", "coordinates": [[-92.78082943991609, 69.23288697935996], [-92.77646285446636, 69.23047861315067]]}, "properties": {"source": "594867", "target": "18261"}}, {"type": "Feature", "geometry": {"type": "LineString", "coordinates": [[-92.78082943991609, 69.23288697935996], [-92.77247877927503, 69.2319130406027]]}, "properties": {"source": "594867", "target": "915211"}}, {"type": "Feature", "geometry": {"type": "LineString", "coordinates": [[-92.78082943991609, 69.23288697935996], [-92.77278249355102, 69.23045164549765]]}, "properties": {"source": "594867", "target": "604062"}}, {"type": "Feature", "geometry": {"type": "LineString", "coordinates": [[-92.78082943991609, 69.23288697935996], [-92.78221871609713, 69.23139911597187]]}, "properties": {"source": "594867", "target": "645625"}}, {"type": "Feature", "geometry": {"type": "LineString", "coordinates": [[-92.77366497380316, 69.23013392987286], [-92.78251273883969, 69.23063890710824]]}, "properties": {"source": "721023", "target": "949473"}}, {"type": "Feature", "geometry": {"type": "LineString", "coordinates": [[-92.77366497380316, 69.23013392987286], [-92.77424264051355, 69.23080602682691]]}, "properties": {"source": "721023", "target": "593109"}}, {"type": "Feature", "geometry": {"type": "LineString", "coordinates": [[-92.77366497380316, 69.23013392987286], [-92.78118386778995, 69.23131263376712]]}, "properties": {"source": "721023", "target": "331089"}}, {"type": "Feature", "geometry": {"type": "LineString", "coordinates": [[-92.77366497380316, 69.23013392987286], [-92.78227923385397, 69.23245478073628]]}, "properties": {"source": "721023", "target": "107510"}}, {"type": "Feature", "geometry": {"type": "LineString", "coordinates": [[-92.77366497380316, 69.23013392987286], [-92.77622310238107, 69.23334286703289]]}, "properties": {"source": "721023", "target": "462596"}}, {"type": "Feature", "geometry": {"type": "LineString", "coordinates": [[-92.77366497380316, 69.23013392987286], [-92.78311713162219, 69.2299199028117]]}, "properties": {"source": "721023", "target": "75586"}}, {"type": "Feature", "geometry": {"type": "LineString", "coordinates": [[-92.77366497380316, 69.23013392987286], [-92.77278249355102, 69.23045164549765]]}, "properties": {"source": "721023", "target": "604062"}}, {"type": "Feature", "geometry": {"type": "LineString", "coordinates": [[-92.77366497380316, 69.23013392987286], [-92.78221871609713, 69.23139911597187]]}, "properties": {"source": "721023", "target": "645625"}}, {"type": "Feature", "geometry": {"type": "LineString", "coordinates": [[-92.77366497380316, 69.23013392987286], [-92.77203776840678, 69.23086374712679]]}, "properties": {"source": "721023", "target": "808043"}}]}