{"type": "FeatureCollection", "features": [{"type": "Feature", "geometry": {"type": "LineString", "coordinates": [[61.452278562009894, 69.22974668508971], [61.45312454709722, 69.23078715750259]]}, "properties": {"source": "140138", "target": "7987"}}, {"type": "Feature", "geometry": {"type": "LineString", "coordinates": [[61.452278562009894, 69.22974668508971], [61.44837365468703, 69.23191887832292]]}, "properties": {"source": "140138", "target": "8001"}}, {"type": "Feature", "geometry": {"type": "LineString", "coordinates": [[61.452278562009894, 69.22974668508971], [61.4483058339363, 69.23024068712405]]}, "properties": {"source": "140138", "target": "7981"}}, {"type": "Feature", "geometry": {"type": "LineString", "coordinates": [[61.452278562009894, 69.22974668508971], [61.446643749698865, 69.23169183379935]]}, "properties": {"source": "140138", "target": "7980"}}, {"type": "Feature", "geometry": {"type": "LineString", "coordinates": [[61.452278562009894, 69.22974668508971], [61.44682540672139, 69.22990671371906]]}, "properties": {"source": "140138", "target": "7998"}}, {"type": "Feature", "geometry": {"type": "LineString", "coordinates": [[61.452278562009894, 69.22974668508971], [61.45036560210633, 69.23098505568137]]}, "properties": {"source": "140138", "target": "7979"}}, {"type": "Feature", "geometry": {"type": "LineString", "coordinates": [[61.452278562009894, 69.22974668508971], [61.44889258527229, 69.23131041631845]]}, "properties": {"source": "140138", "target": "58092"}}, {"type": "Feature", "geometry": {"type": "LineString", "coordinates": [[61.45321826469362, 69.23115943134272], [61.45312454709722, 69.23078715750259]]}, "properties": {"source": "201342", "target": "7987"}}, {"type": "Feature", "geometry": {"type": "LineString", "coordinates": [[61.45321826469362, 69.23115943134272], [61.4483058339363, 69.23024068712405]]}, "properties": {"source": "201342", "target": "7981"}}, {"type": "Feature", "geometry": {"type": "LineString", "coordinates": [[61.45321826469362, 69.23115943134272], [61.446643749698865, 69.23169183379935]]}, "properties": {"source": "201342", "target": "7980"}}, {"type": "Feature", "geometry": {"type": "LineString", "coordinates": [[61.45321826469362, 69.23115943134272], [61.44682540672139, 69.22990671371906]]}, "properties": {"source": "201342", "target": "7998"}}, {"type": "Feature", "geometry": {"type": "LineString", "coordinates": [[61.45321826469362, 69.23115943134272], [61.45362728228909, 69.23098346572047]]}, "properties": {"source": "201342", "target": "7983"}}, {"type": "Feature", "geometry": {"type": "LineString", "coordinates": [[61.45059034098844, 69.23164671724143], [61.44989721527685, 69.23060358018083]]}, "properties": {"source": "201354", "target": "99085"}}, {"type": "Feature", "geometry": {"type": "LineString", "coordinates": [[61.45059034098844, 69.23164671724143], [61.45362728228909, 69.23098346572047]]}, "properties": {"source": "201354", "target": "7983"}}, {"type": "Feature", "geometry": {"type": "LineString", "coordinates": [[61.45059034098844, 69.23164671724143], [61.45036560210633, 69.23098505568137]]}, "properties": {"source": "201354", "target": "7979"}}, {"type": "Feature", "geometry": {"type": "LineString", "coordinates": [[61.45059034098844, 69.23164671724143], [61.44768235591235, 69.23112085956197]]}, "properties": {"source": "201354", "target": "7992"}}, {"type": "Feature", "geometry": {"type": "LineString", "coordinates": [[61.44658581089752, 69.2312865608857], [61.448435320662924, 69.23100619186528]]}, "properties": {"source": "7999", "target": "3444622"}}, {"type": "Feature", "geometry": {"type": "LineString", "coordinates": [[61.44779784346596, 69.23140364917595], [61.44735604109883, 69.23129166069236]]}, "properties": {"source": "7994", "target": "7974"}}, {"type": "Feature", "geometry": {"type": "LineString", "coordinates": [[61.44779784346596, 69.23140364917595], [61.4487455445132, 69.2315050801322]]}, "properties": {"source": "7994", "target": "522791"}}, {"type": "Feature", "geometry": {"type": "LineString", "coordinates": [[61.45312454709722, 69.23078715750259], [61.44779784346596, 69.23140364917595]]}, "properties": {"source": "7987", "target": "7994"}}, {"type": "Feature", "geometry": {"type": "LineString", "coordinates": [[61.45312454709722, 69.23078715750259], [61.44837365468703, 69.23191887832292]]}, "properties": {"source": "7987", "target": "8001"}}, {"type": "Feature", "geometry": {"type": "LineString", "coordinates": [[61.45312454709722, 69.23078715750259], [61.4483058339363, 69.23024068712405]]}, "properties": {"source": "7987", "target": "7981"}}, {"type": "Feature", "geometry": {"type": "LineString", "coordinates": [[61.45312454709722, 69.23078715750259], [61.446643749698865, 69.23169183379935]]}, "properties": {"source": "7987", "target": "7980"}}, {"type": "Feature", "geometry": {"type": "LineString", "coordinates": [[61.45312454709722, 69.23078715750259], [61.44682540672139, 69.22990671371906]]}, "properties": {"source": "7987", "target": "7998"}}, {"type": "Feature", "geometry": {"type": "LineString", "coordinates": [[61.45312454709722, 69.23078715750259], [61.44669498719276, 69.2312822557142]]}, "properties": {"source": "7987", "target": "7997"}}, {"type": "Feature", "geometry": {"type": "LineString", "coordinates": [[61.45312454709722, 69.23078715750259], [61.44735604109883, 69.23129166069236]]}, "properties": {"source": "7987", "target": "7974"}}, {"type": "Feature", "geometry": {"type": "LineString", "coordinates": [[61.45312454709722, 69.23078715750259], [61.44759942023481, 69.23035482734505]]}, "properties": {"source": "7987", "target": "281912"}}, {"type": "Feature", "geometry": {"type": "LineString", "coordinates": [[61.45312454709722, 69.23078715750259], [61.4487455445132, 69.2315050801322]]}, "properties": {"source": "7987", "target": "522791"}}, {"type": "Feature", "geometry": {"type": "LineString", "coordinates": [[61.45000858555747, 69.23059040698263], [61.44989721527685, 69.23060358018083]]}, "properties": {"source": "7996", "target": "99085"}}, {"type": "Feature", "geometry": {"type": "LineString", "coordinates": [[61.45000858555747, 69.23059040698263], [61.45362728228909, 69.23098346572047]]}, "properties": {"source": "7996", "target": "7983"}}, {"type": "Feature", "geometry": {"type": "LineString", "coordinates": [[61.45000858555747, 69.23059040698263], [61.44669498719276, 69.2312822557142]]}, "properties": {"source": "7996", "target": "7997"}}, {"type": "Feature", "geometry": {"type": "LineString", "coordinates": [[61.45000858555747, 69.23059040698263], [61.45016819981075, 69.23187450098476]]}, "properties": {"source": "7996", "target": "201341"}}, {"type": "Feature", "geometry": {"type": "LineString", "coordinates": [[61.45000858555747, 69.23059040698263], [61.448435320662924, 69.23100619186528]]}, "properties": {"source": "7996", "target": "3444622"}}, {"type": "Feature", "geometry": {"type": "LineString", "coordinates": [[61.45074587276238, 69.23202633369905], [61.44779784346596, 69.23140364917595]]}, "properties": {"source": "6177411", "target": "7994"}}, {"type": "Feature", "geometry": {"type": "LineString", "coordinates": [[61.45074587276238, 69.23202633369905], [61.45312454709722, 69.23078715750259]]}, "properties": {"source": "6177411", "target": "7987"}}, {"type": "Feature", "geometry": {"type": "LineString", "coordinates": [[61.45074587276238, 69.23202633369905], [61.44837365468703, 69.23191887832292]]}, "properties": {"source": "6177411", "target": "8001"}}, {"type": "Feature", "geometry": {"type": "LineString", "coordinates": [[61.45074587276238, 69.23202633369905], [61.4483058339363, 69.23024068712405]]}, "properties": {"source": "6177411", "target": "7981"}}, {"type": "Feature", "geometry": {"type": "LineString", "coordinates": [[61.45074587276238, 69.23202633369905], [61.446643749698865, 69.23169183379935]]}, "properties": {"source": "6177411", "target": "7980"}}, {"type": "Feature", "geometry": {"type": "LineString", "coordinates": [[61.45074587276238, 69.23202633369905], [61.44682540672139, 69.22990671371906]]}, "properties": {"source": "6177411", "target": "7998"}}, {"type": "Feature", "geometry": {"type": "LineString", "coordinates": [[61.45074587276238, 69.23202633369905], [61.45036560210633, 69.23098505568137]]}, "properties": {"source": "6177411", "target": "7979"}}, {"type": "Feature", "geometry": {"type": "LineString", "coordinates": [[61.44608651542944, 69.2318428876494], [61.45312454709722, 69.23078715750259]]}, "properties": {"source": "201345", "target": "7987"}}, {"type": "Feature", "geometry": {"type": "LineString", "coordinates": [[61.44608651542944, 69.2318428876494], [61.4483058339363, 69.23024068712405]]}, "properties": {"source": "201345", "target": "7981"}}, {"type": "Feature", "geometry": {"type": "LineString", "coordinates": [[61.44608651542944, 69.2318428876494], [61.446643749698865, 69.23169183379935]]}, "properties": {"source": "201345", "target": "7980"}}, {"type": "Feature", "geometry": {"type": "LineString", "coordinates": [[61.44608651542944, 69.2318428876494], [61.44682540672139, 69.22990671371906]]}, "properties": {"source": "201345", "target": "7998"}}, {"type": "Feature", "geometry": {"type": "LineString", "coordinates": [[61.44658581089752, 69.2312865608857], [61.446643749698865, 69.23169183379935]]}, "properties": {"source": "7999", "target": "7980"}}, {"type": "Feature", "geometry": {"type": "LineString", "coordinates": [[61.44658581089752, 69.2312865608857], [61.44682540672139, 69.22990671371906]]}, "properties": {"source": "7999", "target": "7998"}}, {"type": "Feature", "geometry": {"type": "LineString", "coordinates": [[61.44658581089752, 69.2312865608857], [61.45298544954437, 69.23214219486681]]}, "properties": {"source": "7999", "target": "8702912"}}, {"type": "Feature", "geometry": {"type": "LineString", "coordinates": [[61.44658581089752, 69.2312865608857], [61.44989721527685, 69.23060358018083]]}, "properties": {"source": "7999", "target": "99085"}}, {"type": "Feature", "geometry": {"type": "LineString", "coordinates": [[61.44658581089752, 69.2312865608857], [61.45362728228909, 69.23098346572047]]}, "properties": {"source": "7999", "target": "7983"}}, {"type": "Feature", "geometry": {"type": "LineString", "coordinates": [[61.44658581089752, 69.2312865608857], [61.45036560210633, 69.23098505568137]]}, "properties": {"source": "7999", "target": "7979"}}, {"type": "Feature", "geometry": {"type": "LineString", "coordinates": [[61.44658581089752, 69.2312865608857], [61.44889258527229, 69.23131041631845]]}, "properties": {"source": "7999", "target": "58092"}}, {"type": "Feature", "geometry": {"type": "LineString", "coordinates": [[61.44658581089752, 69.2312865608857], [61.44669498719276, 69.2312822557142]]}, "properties": {"source": "7999", "target": "7997"}}, {"type": "Feature", "geometry": {"type": "LineString", "coordinates": [[61.44658581089752, 69.2312865608857], [61.44768235591235, 69.23112085956197]]}, "properties": {"source": "7999", "target": "7992"}}, {"type": "Feature", "geometry": {"type": "LineString", "coordinates": [[61.44658581089752, 69.2312865608857], [61.45074587276238, 69.23202633369905]]}, "properties": {"source": "7999", "target": "6177411"}}, {"type": "Feature", "geometry": {"type": "LineString", "coordinates": [[61.44658581089752, 69.2312865608857], [61.44735604109883, 69.23129166069236]]}, "properties": {"source": "7999", "target": "7974"}}, {"type": "Feature", "geometry": {"type": "LineString", "coordinates": [[61.44658581089752, 69.2312865608857], [61.44608651542944, 69.2318428876494]]}, "properties": {"source": "7999", "target": "201345"}}, {"type": "Feature", "geometry": {"type": "LineString", "coordinates": [[61.44658581089752, 69.2312865608857], [61.44759942023481, 69.23035482734505]]}, "properties": {"source": "7999", "target": "281912"}}, {"type": "Feature", "geometry": {"type": "LineString", "coordinates": [[61.44658581089752, 69.2312865608857], [61.45059034098844, 69.23164671724143]]}, "properties": {"source": "7999", "target": "201354"}}, {"type": "Feature", "geometry": {"type": "LineString", "coordinates": [[61.44658581089752, 69.2312865608857], [61.4487455445132, 69.2315050801322]]}, "properties": {"source": "7999", "target": "522791"}}, {"type": "Feature", "geometry": {"type": "LineString", "coordinates": [[61.44658581089752, 69.2312865608857], [61.45321826469362, 69.23115943134272]]}, "properties": {"source": "7999", "target": "201342"}}, {"type": "Feature", "geometry": {"type": "LineString", "coordinates": [[61.44608651542944, 69.2318428876494], [61.45362728228909, 69.23098346572047]]}, "properties": {"source": "201345", "target": "7983"}}, {"type": "Feature", "geometry": {"type": "LineString", "coordinates": [[61.44608651542944, 69.2318428876494], [61.45036560210633, 69.23098505568137]]}, "properties": {"source": "201345", "target": "7979"}}, {"type": "Feature", "geometry": {"type": "LineString", "coordinates": [[61.44608651542944, 69.2318428876494], [61.45016819981075, 69.23187450098476]]}, "properties": {"source": "201345", "target": "201341"}}, {"type": "Feature", "geometry": {"type": "LineString", "coordinates": [[61.45223636609066, 69.23099284884827], [61.44658581089752, 69.2312865608857]]}, "properties": {"source": "7989", "target": "7999"}}, {"type": "Feature", "geometry": {"type": "LineString", "coordinates": [[61.45223636609066, 69.23099284884827], [61.44779784346596, 69.23140364917595]]}, "properties": {"source": "7989", "target": "7994"}}, {"type": "Feature", "geometry": {"type": "LineString", "coordinates": [[61.45223636609066, 69.23099284884827], [61.44837365468703, 69.23191887832292]]}, "properties": {"source": "7989", "target": "8001"}}, {"type": "Feature", "geometry": {"type": "LineString", "coordinates": [[61.45223636609066, 69.23099284884827], [61.44682540672139, 69.22990671371906]]}, "properties": {"source": "7989", "target": "7998"}}, {"type": "Feature", "geometry": {"type": "LineString", "coordinates": [[61.45223636609066, 69.23099284884827], [61.4532379726584, 69.22986990950213]]}, "properties": {"source": "7989", "target": "7993"}}, {"type": "Feature", "geometry": {"type": "LineString", "coordinates": [[61.45223636609066, 69.23099284884827], [61.45298544954437, 69.23214219486681]]}, "properties": {"source": "7989", "target": "8702912"}}, {"type": "Feature", "geometry": {"type": "LineString", "coordinates": [[61.45223636609066, 69.23099284884827], [61.44669498719276, 69.2312822557142]]}, "properties": {"source": "7989", "target": "7997"}}, {"type": "Feature", "geometry": {"type": "LineString", "coordinates": [[61.45223636609066, 69.23099284884827], [61.44752694764614, 69.23182214726677]]}, "properties": {"source": "7989", "target": "8004"}}, {"type": "Feature", "geometry": {"type": "LineString", "coordinates": [[61.45223636609066, 69.23099284884827], [61.44768235591235, 69.23112085956197]]}, "properties": {"source": "7989", "target": "7992"}}, {"type": "Feature", "geometry": {"type": "LineString", "coordinates": [[61.45223636609066, 69.23099284884827], [61.45059034098844, 69.23164671724143]]}, "properties": {"source": "7989", "target": "201354"}}, {"type": "Feature", "geometry": {"type": "LineString", "coordinates": [[61.45223636609066, 69.23099284884827], [61.45131844529436, 69.23106461532186]]}, "properties": {"source": "7989", "target": "281913"}}, {"type": "Feature", "geometry": {"type": "LineString", "coordinates": [[61.452278562009894, 69.22974668508971], [61.44658581089752, 69.2312865608857]]}, "properties": {"source": "140138", "target": "7999"}}, {"type": "Feature", "geometry": {"type": "LineString", "coordinates": [[61.452278562009894, 69.22974668508971], [61.44779784346596, 69.23140364917595]]}, "properties": {"source": "140138", "target": "7994"}}, {"type": "Feature", "geometry": {"type": "LineString", "coordinates": [[61.45362728228909, 69.23098346572047], [61.44669498719276, 69.2312822557142]]}, "properties": {"source": "7983", "target": "7997"}}, {"type": "Feature", "geometry": {"type": "LineString", "coordinates": [[61.45036560210633, 69.23098505568137], [61.44779784346596, 69.23140364917595]]}, "properties": {"source": "7979", "target": "7994"}}, {"type": "Feature", "geometry": {"type": "LineString", "coordinates": [[61.45036560210633, 69.23098505568137], [61.45312454709722, 69.23078715750259]]}, "properties": {"source": "7979", "target": "7987"}}, {"type": "Feature", "geometry": {"type": "LineString", "coordinates": [[61.45036560210633, 69.23098505568137], [61.44837365468703, 69.23191887832292]]}, "properties": {"source": "7979", "target": "8001"}}, {"type": "Feature", "geometry": {"type": "LineString", "coordinates": [[61.45036560210633, 69.23098505568137], [61.4483058339363, 69.23024068712405]]}, "properties": {"source": "7979", "target": "7981"}}, {"type": "Feature", "geometry": {"type": "LineString", "coordinates": [[61.45036560210633, 69.23098505568137], [61.446643749698865, 69.23169183379935]]}, "properties": {"source": "7979", "target": "7980"}}, {"type": "Feature", "geometry": {"type": "LineString", "coordinates": [[61.45036560210633, 69.23098505568137], [61.44682540672139, 69.22990671371906]]}, "properties": {"source": "7979", "target": "7998"}}, {"type": "Feature", "geometry": {"type": "LineString", "coordinates": [[61.45036560210633, 69.23098505568137], [61.45362728228909, 69.23098346572047]]}, "properties": {"source": "7979", "target": "7983"}}, {"type": "Feature", "geometry": {"type": "LineString", "coordinates": [[61.44889258527229, 69.23131041631845], [61.44779784346596, 69.23140364917595]]}, "properties": {"source": "58092", "target": "7994"}}, {"type": "Feature", "geometry": {"type": "LineString", "coordinates": [[61.44889258527229, 69.23131041631845], [61.45312454709722, 69.23078715750259]]}, "properties": {"source": "58092", "target": "7987"}}, {"type": "Feature", "geometry": {"type": "LineString", "coordinates": [[61.44889258527229, 69.23131041631845], [61.44837365468703, 69.23191887832292]]}, "properties": {"source": "58092", "target": "8001"}}, {"type": "Feature", "geometry": {"type": "LineString", "coordinates": [[61.44889258527229, 69.23131041631845], [61.4483058339363, 69.23024068712405]]}, "properties": {"source": "58092", "target": "7981"}}, {"type": "Feature", "geometry": {"type": "LineString", "coordinates": [[61.45000858555747, 69.23059040698263], [61.4483058339363, 69.23024068712405]]}, "properties": {"source": "7996", "target": "7981"}}, {"type": "Feature", "geometry": {"type": "LineString", "coordinates": [[61.45000858555747, 69.23059040698263], [61.44682540672139, 69.22990671371906]]}, "properties": {"source": "7996", "target": "7998"}}, {"type": "Feature", "geometry": {"type": "LineString", "coordinates": [[61.45000858555747, 69.23059040698263], [61.4532379726584, 69.22986990950213]]}, "properties": {"source": "7996", "target": "7993"}}, {"type": "Feature", "geometry": {"type": "LineString", "coordinates": [[61.45000858555747, 69.23059040698263], [61.45298544954437, 69.23214219486681]]}, "properties": {"source": "7996", "target": "8702912"}}, {"type": "Feature", "geometry": {"type": "LineString", "coordinates": [[61.44989721527685, 69.23060358018083], [61.44837365468703, 69.23191887832292]]}, "properties": {"source": "99085", "target": "8001"}}, {"type": "Feature", "geometry": {"type": "LineString", "coordinates": [[61.44989721527685, 69.23060358018083], [61.4483058339363, 69.23024068712405]]}, "properties": {"source": "99085", "target": "7981"}}, {"type": "Feature", "geometry": {"type": "LineString", "coordinates": [[61.44989721527685, 69.23060358018083], [61.446643749698865, 69.23169183379935]]}, "properties": {"source": "99085", "target": "7980"}}, {"type": "Feature", "geometry": {"type": "LineString", "coordinates": [[61.44989721527685, 69.23060358018083], [61.44682540672139, 69.22990671371906]]}, "properties": {"source": "99085", "target": "7998"}}, {"type": "Feature", "geometry": {"type": "LineString", "coordinates": [[61.44989721527685, 69.23060358018083], [61.45362728228909, 69.23098346572047]]}, "properties": {"source": "99085", "target": "7983"}}, {"type": "Feature", "geometry": {"type": "LineString", "coordinates": [[61.44989721527685, 69.23060358018083], [61.45036560210633, 69.23098505568137]]}, "properties": {"source": "99085", "target": "7979"}}, {"type": "Feature", "geometry": {"type": "LineString", "coordinates": [[61.44989721527685, 69.23060358018083], [61.44669498719276, 69.2312822557142]]}, "properties": {"source": "99085", "target": "7997"}}, {"type": "Feature", "geometry": {"type": "LineString", "coordinates": [[61.44989721527685, 69.23060358018083], [61.44768235591235, 69.23112085956197]]}, "properties": {"source": "99085", "target": "7992"}}, {"type": "Feature", "geometry": {"type": "LineString", "coordinates": [[61.44989721527685, 69.23060358018083], [61.44608651542944, 69.2318428876494]]}, "properties": {"source": "99085", "target": "201345"}}, {"type": "Feature", "geometry": {"type": "LineString", "coordinates": [[61.44989721527685, 69.23060358018083], [61.45016819981075, 69.23187450098476]]}, "properties": {"source": "99085", "target": "201341"}}, {"type": "Feature", "geometry": {"type": "LineString", "coordinates": [[61.45362728228909, 69.23098346572047], [61.44779784346596, 69.23140364917595]]}, "properties": {"source": "7983", "target": "7994"}}, {"type": "Feature", "geometry": {"type": "LineString", "coordinates": [[61.45362728228909, 69.23098346572047], [61.45312454709722, 69.23078715750259]]}, "properties": {"source": "7983", "target": "7987"}}, {"type": "Feature", "geometry": {"type": "LineString", "coordinates": [[61.44658581089752, 69.2312865608857], [61.44779784346596, 69.23140364917595]]}, "properties": {"source": "7999", "target": "7994"}}, {"type": "Feature", "geometry": {"type": "LineString", "coordinates": [[61.44658581089752, 69.2312865608857], [61.45312454709722, 69.23078715750259]]}, "properties": {"source": "7999", "target": "7987"}}, {"type": "Feature", "geometry": {"type": "LineString", "coordinates": [[61.44658581089752, 69.2312865608857], [61.44837365468703, 69.23191887832292]]}, "properties": {"source": "7999", "target": "8001"}}, {"type": "Feature", "geometry": {"type": "LineString", "coordinates": [[61.44658581089752, 69.2312865608857], [61.4483058339363, 69.23024068712405]]}, "properties": {"source": "7999", "target": "7981"}}, {"type": "Feature", "geometry": {"type": "LineString", "coordinates": [[61.45016819981075, 69.23187450098476], [61.4483058339363, 69.23024068712405]]}, "properties": {"source": "201341", "target": "7981"}}, {"type": "Feature", "geometry": {"type": "LineString", "coordinates": [[61.45016819981075, 69.23187450098476], [61.446643749698865, 69.23169183379935]]}, "properties": {"source": "201341", "target": "7980"}}, {"type": "Feature", "geometry": {"type": "LineString", "coordinates": [[61.45016819981075, 69.23187450098476], [61.44682540672139, 69.22990671371906]]}, "properties": {"source": "201341", "target": "7998"}}, {"type": "Feature", "geometry": {"type": "LineString", "coordinates": [[61.45016819981075, 69.23187450098476], [61.45362728228909, 69.23098346572047]]}, "properties": {"source": "201341", "target": "7983"}}, {"type": "Feature", "geometry": {"type": "LineString", "coordinates": [[61.45016819981075, 69.23187450098476], [61.45036560210633, 69.23098505568137]]}, "properties": {"source": "201341", "target": "7979"}}, {"type": "Feature", "geometry": {"type": "LineString", "coordinates": [[61.45330605541014, 69.23013585005077], [61.44658581089752, 69.2312865608857]]}, "properties": {"source": "3949605", "target": "7999"}}, {"type": "Feature", "geometry": {"type": "LineString", "coordinates": [[61.45330605541014, 69.23013585005077], [61.44779784346596, 69.23140364917595]]}, "properties": {"source": "3949605", "target": "7994"}}, {"type": "Feature", "geometry": {"type": "LineString", "coordinates": [[61.45330605541014, 69.23013585005077], [61.45312454709722, 69.23078715750259]]}, "properties": {"source": "3949605", "target": "7987"}}, {"type": "Feature", "geometry": {"type": "LineString", "coordinates": [[61.45330605541014, 69.23013585005077], [61.44837365468703, 69.23191887832292]]}, "properties": {"source": "3949605", "target": "8001"}}, {"type": "Feature", "geometry": {"type": "LineString", "coordinates": [[61.45330605541014, 69.23013585005077], [61.446643749698865, 69.23169183379935]]}, "properties": {"source": "3949605", "target": "7980"}}, {"type": "Feature", "geometry": {"type": "LineString", "coordinates": [[61.45330605541014, 69.23013585005077], [61.44889258527229, 69.23131041631845]]}, "properties": {"source": "3949605", "target": "58092"}}, {"type": "Feature", "geometry": {"type": "LineString", "coordinates": [[61.45330605541014, 69.23013585005077], [61.44752694764614, 69.23182214726677]]}, "properties": {"source": "3949605", "target": "8004"}}, {"type": "Feature", "geometry": {"type": "LineString", "coordinates": [[61.44759942023481, 69.23035482734505], [61.44779784346596, 69.23140364917595]]}, "properties": {"source": "281912", "target": "7994"}}, {"type": "Feature", "geometry": {"type": "LineString", "coordinates": [[61.44759942023481, 69.23035482734505], [61.44837365468703, 69.23191887832292]]}, "properties": {"source": "281912", "target": "8001"}}, {"type": "Feature", "geometry": {"type": "LineString", "coordinates": [[61.44759942023481, 69.23035482734505], [61.4483058339363, 69.23024068712405]]}, "properties": {"source": "281912", "target": "7981"}}, {"type": "Feature", "geometry": {"type": "LineString", "coordinates": [[61.44759942023481, 69.23035482734505], [61.44735604109883, 69.23129166069236]]}, "properties": {"source": "281912", "target": "7974"}}, {"type": "Feature", "geometry": {"type": "LineString", "coordinates": [[61.45372328926811, 69.23131330995156], [61.44658581089752, 69.2312865608857]]}, "properties": {"source": "130352", "target": "7999"}}, {"type": "Feature", "geometry": {"type": "LineString", "coordinates": [[61.45372328926811, 69.23131330995156], [61.44779784346596, 69.23140364917595]]}, "properties": {"source": "130352", "target": "7994"}}, {"type": "Feature", "geometry": {"type": "LineString", "coordinates": [[61.45372328926811, 69.23131330995156], [61.45312454709722, 69.23078715750259]]}, "properties": {"source": "130352", "target": "7987"}}, {"type": "Feature", "geometry": {"type": "LineString", "coordinates": [[61.45372328926811, 69.23131330995156], [61.44837365468703, 69.23191887832292]]}, "properties": {"source": "130352", "target": "8001"}}, {"type": "Feature", "geometry": {"type": "LineString", "coordinates": [[61.45372328926811, 69.23131330995156], [61.4483058339363, 69.23024068712405]]}, "properties": {"source": "130352", "target": "7981"}}, {"type": "Feature", "geometry": {"type": "LineString", "coordinates": [[61.45372328926811, 69.23131330995156], [61.446643749698865, 69.23169183379935]]}, "properties": {"source": "130352", "target": "7980"}}, {"type": "Feature", "geometry": {"type": "LineString", "coordinates": [[61.45372328926811, 69.23131330995156], [61.44889258527229, 69.23131041631845]]}, "properties": {"source": "130352", "target": "58092"}}, {"type": "Feature", "geometry": {"type": "LineString", "coordinates": [[61.45372328926811, 69.23131330995156], [61.452278562009894, 69.22974668508971]]}, "properties": {"source": "130352", "target": "140138"}}, {"type": "Feature", "geometry": {"type": "LineString", "coordinates": [[61.45059034098844, 69.23164671724143], [61.446643749698865, 69.23169183379935]]}, "properties": {"source": "201354", "target": "7980"}}, {"type": "Feature", "geometry": {"type": "LineString", "coordinates": [[61.45321826469362, 69.23115943134272], [61.45036560210633, 69.23098505568137]]}, "properties": {"source": "201342", "target": "7979"}}, {"type": "Feature", "geometry": {"type": "LineString", "coordinates": [[61.45321826469362, 69.23115943134272], [61.44608651542944, 69.2318428876494]]}, "properties": {"source": "201342", "target": "201345"}}, {"type": "Feature", "geometry": {"type": "LineString", "coordinates": [[61.45321826469362, 69.23115943134272], [61.45016819981075, 69.23187450098476]]}, "properties": {"source": "201342", "target": "201341"}}, {"type": "Feature", "geometry": {"type": "LineString", "coordinates": [[61.45298544954437, 69.23214219486681], [61.44735604109883, 69.23129166069236]]}, "properties": {"source": "8702912", "target": "7974"}}, {"type": "Feature", "geometry": {"type": "LineString", "coordinates": [[61.45298544954437, 69.23214219486681], [61.4487455445132, 69.2315050801322]]}, "properties": {"source": "8702912", "target": "522791"}}, {"type": "Feature", "geometry": {"type": "LineString", "coordinates": [[61.44989721527685, 69.23060358018083], [61.44779784346596, 69.23140364917595]]}, "properties": {"source": "99085", "target": "7994"}}, {"type": "Feature", "geometry": {"type": "LineString", "coordinates": [[61.44989721527685, 69.23060358018083], [61.45312454709722, 69.23078715750259]]}, "properties": {"source": "99085", "target": "7987"}}, {"type": "Feature", "geometry": {"type": "LineString", "coordinates": [[61.44749863552627, 69.22974761378441], [61.44837365468703, 69.23191887832292]]}, "properties": {"source": "7976", "target": "8001"}}, {"type": "Feature", "geometry": {"type": "LineString", "coordinates": [[61.44749863552627, 69.22974761378441], [61.4483058339363, 69.23024068712405]]}, "properties": {"source": "7976", "target": "7981"}}, {"type": "Feature", "geometry": {"type": "LineString", "coordinates": [[61.44749863552627, 69.22974761378441], [61.446643749698865, 69.23169183379935]]}, "properties": {"source": "7976", "target": "7980"}}, {"type": "Feature", "geometry": {"type": "LineString", "coordinates": [[61.44749863552627, 69.22974761378441], [61.44682540672139, 69.22990671371906]]}, "properties": {"source": "7976", "target": "7998"}}, {"type": "Feature", "geometry": {"type": "LineString", "coordinates": [[61.44749863552627, 69.22974761378441], [61.4532379726584, 69.22986990950213]]}, "properties": {"source": "7976", "target": "7993"}}, {"type": "Feature", "geometry": {"type": "LineString", "coordinates": [[61.44749863552627, 69.22974761378441], [61.45362728228909, 69.23098346572047]]}, "properties": {"source": "7976", "target": "7983"}}, {"type": "Feature", "geometry": {"type": "LineString", "coordinates": [[61.44749863552627, 69.22974761378441], [61.45036560210633, 69.23098505568137]]}, "properties": {"source": "7976", "target": "7979"}}, {"type": "Feature", "geometry": {"type": "LineString", "coordinates": [[61.44749863552627, 69.22974761378441], [61.44889258527229, 69.23131041631845]]}, "properties": {"source": "7976", "target": "58092"}}, {"type": "Feature", "geometry": {"type": "LineString", "coordinates": [[61.44749863552627, 69.22974761378441], [61.450839636247906, 69.23108707647953]]}, "properties": {"source": "7976", "target": "2856130"}}, {"type": "Feature", "geometry": {"type": "LineString", "coordinates": [[61.44749863552627, 69.22974761378441], [61.45074587276238, 69.23202633369905]]}, "properties": {"source": "7976", "target": "6177411"}}, {"type": "Feature", "geometry": {"type": "LineString", "coordinates": [[61.44749863552627, 69.22974761378441], [61.44735604109883, 69.23129166069236]]}, "properties": {"source": "7976", "target": "7974"}}, {"type": "Feature", "geometry": {"type": "LineString", "coordinates": [[61.44749863552627, 69.22974761378441], [61.44608651542944, 69.2318428876494]]}, "properties": {"source": "7976", "target": "201345"}}, {"type": "Feature", "geometry": {"type": "LineString", "coordinates": [[61.44749863552627, 69.22974761378441], [61.452278562009894, 69.22974668508971]]}, "properties": {"source": "7976", "target": "140138"}}, {"type": "Feature", "geometry": {"type": "LineString", "coordinates": [[61.44749863552627, 69.22974761378441], [61.44759942023481, 69.23035482734505]]}, "properties": {"source": "7976", "target": "281912"}}, {"type": "Feature", "geometry": {"type": "LineString", "coordinates": [[61.44749863552627, 69.22974761378441], [61.45372328926811, 69.23131330995156]]}, "properties": {"source": "7976", "target": "130352"}}, {"type": "Feature", "geometry": {"type": "LineString", "coordinates": [[61.44749863552627, 69.22974761378441], [61.45321826469362, 69.23115943134272]]}, "properties": {"source": "7976", "target": "201342"}}, {"type": "Feature", "geometry": {"type": "LineString", "coordinates": [[61.450839636247906, 69.23108707647953], [61.446643749698865, 69.23169183379935]]}, "properties": {"source": "2856130", "target": "7980"}}, {"type": "Feature", "geometry": {"type": "LineString", "coordinates": [[61.450839636247906, 69.23108707647953], [61.45298544954437, 69.23214219486681]]}, "properties": {"source": "2856130", "target": "8702912"}}, {"type": "Feature", "geometry": {"type": "LineString", "coordinates": [[61.450839636247906, 69.23108707647953], [61.44889258527229, 69.23131041631845]]}, "properties": {"source": "2856130", "target": "58092"}}, {"type": "Feature", "geometry": {"type": "LineString", "coordinates": [[61.450839636247906, 69.23108707647953], [61.45074587276238, 69.23202633369905]]}, "properties": {"source": "2856130", "target": "6177411"}}, {"type": "Feature", "geometry": {"type": "LineString", "coordinates": [[61.450839636247906, 69.23108707647953], [61.44759942023481, 69.23035482734505]]}, "properties": {"source": "2856130", "target": "281912"}}, {"type": "Feature", "geometry": {"type": "LineString", "coordinates": [[61.450839636247906, 69.23108707647953], [61.45372328926811, 69.23131330995156]]}, "properties": {"source": "2856130", "target": "130352"}}, {"type": "Feature", "geometry": {"type": "LineString", "coordinates": [[61.450839636247906, 69.23108707647953], [61.45059034098844, 69.23164671724143]]}, "properties": {"source": "2856130", "target": "201354"}}, {"type": "Feature", "geometry": {"type": "LineString", "coordinates": [[61.450839636247906, 69.23108707647953], [61.45131844529436, 69.23106461532186]]}, "properties": {"source": "2856130", "target": "281913"}}, {"type": "Feature", "geometry": {"type": "LineString", "coordinates": [[61.450839636247906, 69.23108707647953], [61.44750051224929, 69.23010892452137]]}, "properties": {"source": "2856130", "target": "23183904"}}, {"type": "Feature", "geometry": {"type": "LineString", "coordinates": [[61.44752694764614, 69.23182214726677], [61.44658581089752, 69.2312865608857]]}, "properties": {"source": "8004", "target": "7999"}}, {"type": "Feature", "geometry": {"type": "LineString", "coordinates": [[61.44752694764614, 69.23182214726677], [61.44779784346596, 69.23140364917595]]}, "properties": {"source": "8004", "target": "7994"}}, {"type": "Feature", "geometry": {"type": "LineString", "coordinates": [[61.44752694764614, 69.23182214726677], [61.44837365468703, 69.23191887832292]]}, "properties": {"source": "8004", "target": "8001"}}, {"type": "Feature", "geometry": {"type": "LineString", "coordinates": [[61.44752694764614, 69.23182214726677], [61.44682540672139, 69.22990671371906]]}, "properties": {"source": "8004", "target": "7998"}}, {"type": "Feature", "geometry": {"type": "LineString", "coordinates": [[61.44752694764614, 69.23182214726677], [61.4532379726584, 69.22986990950213]]}, "properties": {"source": "8004", "target": "7993"}}, {"type": "Feature", "geometry": {"type": "LineString", "coordinates": [[61.44752694764614, 69.23182214726677], [61.45298544954437, 69.23214219486681]]}, "properties": {"source": "8004", "target": "8702912"}}, {"type": "Feature", "geometry": {"type": "LineString", "coordinates": [[61.44752694764614, 69.23182214726677], [61.44989721527685, 69.23060358018083]]}, "properties": {"source": "8004", "target": "99085"}}, {"type": "Feature", "geometry": {"type": "LineString", "coordinates": [[61.44749863552627, 69.22974761378441], [61.45330605541014, 69.23013585005077]]}, "properties": {"source": "7976", "target": "3949605"}}, {"type": "Feature", "geometry": {"type": "LineString", "coordinates": [[61.44749863552627, 69.22974761378441], [61.45117429976406, 69.23024281576747]]}, "properties": {"source": "7976", "target": "6965895"}}, {"type": "Feature", "geometry": {"type": "LineString", "coordinates": [[61.44749863552627, 69.22974761378441], [61.4487455445132, 69.2315050801322]]}, "properties": {"source": "7976", "target": "522791"}}, {"type": "Feature", "geometry": {"type": "LineString", "coordinates": [[61.4532379726584, 69.22986990950213], [61.44658581089752, 69.2312865608857]]}, "properties": {"source": "7993", "target": "7999"}}, {"type": "Feature", "geometry": {"type": "LineString", "coordinates": [[61.4532379726584, 69.22986990950213], [61.44779784346596, 69.23140364917595]]}, "properties": {"source": "7993", "target": "7994"}}, {"type": "Feature", "geometry": {"type": "LineString", "coordinates": [[61.4532379726584, 69.22986990950213], [61.45312454709722, 69.23078715750259]]}, "properties": {"source": "7993", "target": "7987"}}, {"type": "Feature", "geometry": {"type": "LineString", "coordinates": [[61.4532379726584, 69.22986990950213], [61.44837365468703, 69.23191887832292]]}, "properties": {"source": "7993", "target": "8001"}}, {"type": "Feature", "geometry": {"type": "LineString", "coordinates": [[61.4532379726584, 69.22986990950213], [61.4483058339363, 69.23024068712405]]}, "properties": {"source": "7993", "target": "7981"}}, {"type": "Feature", "geometry": {"type": "LineString", "coordinates": [[61.4532379726584, 69.22986990950213], [61.446643749698865, 69.23169183379935]]}, "properties": {"source": "7993", "target": "7980"}}, {"type": "Feature", "geometry": {"type": "LineString", "coordinates": [[61.4532379726584, 69.22986990950213], [61.44682540672139, 69.22990671371906]]}, "properties": {"source": "7993", "target": "7998"}}, {"type": "Feature", "geometry": {"type": "LineString", "coordinates": [[61.4532379726584, 69.22986990950213], [61.45298544954437, 69.23214219486681]]}, "properties": {"source": "7993", "target": "8702912"}}, {"type": "Feature", "geometry": {"type": "LineString", "coordinates": [[61.4532379726584, 69.22986990950213], [61.44989721527685, 69.23060358018083]]}, "properties": {"source": "7993", "target": "99085"}}, {"type": "Feature", "geometry": {"type": "LineString", "coordinates": [[61.4532379726584, 69.22986990950213], [61.45362728228909, 69.23098346572047]]}, "properties": {"source": "7993", "target": "7983"}}, {"type": "Feature", "geometry": {"type": "LineString", "coordinates": [[61.4532379726584, 69.22986990950213], [61.45036560210633, 69.23098505568137]]}, "properties": {"source": "7993", "target": "7979"}}, {"type": "Feature", "geometry": {"type": "LineString", "coordinates": [[61.4532379726584, 69.22986990950213], [61.44669498719276, 69.2312822557142]]}, "properties": {"source": "7993", "target": "7997"}}, {"type": "Feature", "geometry": {"type": "LineString", "coordinates": [[61.4532379726584, 69.22986990950213], [61.44768235591235, 69.23112085956197]]}, "properties": {"source": "7993", "target": "7992"}}, {"type": "Feature", "geometry": {"type": "LineString", "coordinates": [[61.44889258527229, 69.23131041631845], [61.446643749698865, 69.23169183379935]]}, "properties": {"source": "58092", "target": "7980"}}, {"type": "Feature", "geometry": {"type": "LineString", "coordinates": [[61.44889258527229, 69.23131041631845], [61.44682540672139, 69.22990671371906]]}, "properties": {"source": "58092", "target": "7998"}}, {"type": "Feature", "geometry": {"type": "LineString", "coordinates": [[61.44889258527229, 69.23131041631845], [61.45074587276238, 69.23202633369905]]}, "properties": {"source": "58092", "target": "6177411"}}, {"type": "Feature", "geometry": {"type": "LineString", "coordinates": [[61.44889258527229, 69.23131041631845], [61.44759942023481, 69.23035482734505]]}, "properties": {"source": "58092", "target": "281912"}}, {"type": "Feature", "geometry": {"type": "LineString", "coordinates": [[61.44889258527229, 69.23131041631845], [61.4487455445132, 69.2315050801322]]}, "properties": {"source": "58092", "target": "522791"}}, {"type": "Feature", "geometry": {"type": "LineString", "coordinates": [[61.44669498719276, 69.2312822557142], [61.44779784346596, 69.23140364917595]]}, "properties": {"source": "7997", "target": "7994"}}, {"type": "Feature", "geometry": {"type": "LineString", "coordinates": [[61.44669498719276, 69.2312822557142], [61.44837365468703, 69.23191887832292]]}, "properties": {"source": "7997", "target": "8001"}}, {"type": "Feature", "geometry": {"type": "LineString", "coordinates": [[61.44669498719276, 69.2312822557142], [61.44682540672139, 69.22990671371906]]}, "properties": {"source": "7997", "target": "7998"}}, {"type": "Feature", "geometry": {"type": "LineString", "coordinates": [[61.44669498719276, 69.2312822557142], [61.44735604109883, 69.23129166069236]]}, "properties": {"source": "7997", "target": "7974"}}, {"type": "Feature", "geometry": {"type": "LineString", "coordinates": [[61.44669498719276, 69.2312822557142], [61.44759942023481, 69.23035482734505]]}, "properties": {"source": "7997", "target": "281912"}}, {"type": "Feature", "geometry": {"type": "LineString", "coordinates": [[61.44669498719276, 69.2312822557142], [61.4487455445132, 69.2315050801322]]}, "properties": {"source": "7997", "target": "522791"}}, {"type": "Feature", "geometry": {"type": "LineString", "coordinates": [[61.450839636247906, 69.23108707647953], [61.44658581089752, 69.2312865608857]]}, "properties": {"source": "2856130", "target": "7999"}}, {"type": "Feature", "geometry": {"type": "LineString", "coordinates": [[61.450839636247906, 69.23108707647953], [61.44779784346596, 69.23140364917595]]}, "properties": {"source": "2856130", "target": "7994"}}, {"type": "Feature", "geometry": {"type": "LineString", "coordinates": [[61.450839636247906, 69.23108707647953], [61.45312454709722, 69.23078715750259]]}, "properties": {"source": "2856130", "target": "7987"}}, {"type": "Feature", "geometry": {"type": "LineString", "coordinates": [[61.450839636247906, 69.23108707647953], [61.44837365468703, 69.23191887832292]]}, "properties": {"source": "2856130", "target": "8001"}}, {"type": "Feature", "geometry": {"type": "LineString", "coordinates": [[61.450839636247906, 69.23108707647953], [61.4483058339363, 69.23024068712405]]}, "properties": {"source": "2856130", "target": "7981"}}, {"type": "Feature", "geometry": {"type": "LineString", "coordinates": [[61.44752694764614, 69.23182214726677], [61.44669498719276, 69.2312822557142]]}, "properties": {"source": "8004", "target": "7997"}}, {"type": "Feature", "geometry": {"type": "LineString", "coordinates": [[61.44752694764614, 69.23182214726677], [61.44768235591235, 69.23112085956197]]}, "properties": {"source": "8004", "target": "7992"}}, {"type": "Feature", "geometry": {"type": "LineString", "coordinates": [[61.44752694764614, 69.23182214726677], [61.44735604109883, 69.23129166069236]]}, "properties": {"source": "8004", "target": "7974"}}, {"type": "Feature", "geometry": {"type": "LineString", "coordinates": [[61.44752694764614, 69.23182214726677], [61.45059034098844, 69.23164671724143]]}, "properties": {"source": "8004", "target": "201354"}}, {"type": "Feature", "geometry": {"type": "LineString", "coordinates": [[61.44752694764614, 69.23182214726677], [61.45131844529436, 69.23106461532186]]}, "properties": {"source": "8004", "target": "281913"}}, {"type": "Feature", "geometry": {"type": "LineString", "coordinates": [[61.44768235591235, 69.23112085956197], [61.44779784346596, 69.23140364917595]]}, "properties": {"source": "7992", "target": "7994"}}, {"type": "Feature", "geometry": {"type": "LineString", "coordinates": [[61.44768235591235, 69.23112085956197], [61.45312454709722, 69.23078715750259]]}, "properties": {"source": "7992", "target": "7987"}}, {"type": "Feature", "geometry": {"type": "LineString", "coordinates": [[61.44768235591235, 69.23112085956197], [61.44837365468703, 69.23191887832292]]}, "properties": {"source": "7992", "target": "8001"}}, {"type": "Feature", "geometry": {"type": "LineString", "coordinates": [[61.44768235591235, 69.23112085956197], [61.44682540672139, 69.22990671371906]]}, "properties": {"source": "7992", "target": "7998"}}, {"type": "Feature", "geometry": {"type": "LineString", "coordinates": [[61.44768235591235, 69.23112085956197], [61.44669498719276, 69.2312822557142]]}, "properties": {"source": "7992", "target": "7997"}}, {"type": "Feature", "geometry": {"type": "LineString", "coordinates": [[61.44768235591235, 69.23112085956197], [61.44735604109883, 69.23129166069236]]}, "properties": {"source": "7992", "target": "7974"}}, {"type": "Feature", "geometry": {"type": "LineString", "coordinates": [[61.44768235591235, 69.23112085956197], [61.45131844529436, 69.23106461532186]]}, "properties": {"source": "7992", "target": "281913"}}, {"type": "Feature", "geometry": {"type": "LineString", "coordinates": [[61.45000858555747, 69.23059040698263], [61.44658581089752, 69.2312865608857]]}, "properties": {"source": "7996", "target": "7999"}}, {"type": "Feature", "geometry": {"type": "LineString", "coordinates": [[61.45000858555747, 69.23059040698263], [61.44779784346596, 69.23140364917595]]}, "properties": {"source": "7996", "target": "7994"}}, {"type": "Feature", "geometry": {"type": "LineString", "coordinates": [[61.45000858555747, 69.23059040698263], [61.45312454709722, 69.23078715750259]]}, "properties": {"source": "7996", "target": "7987"}}, {"type": "Feature", "geometry": {"type": "LineString", "coordinates": [[61.45000858555747, 69.23059040698263], [61.44837365468703, 69.23191887832292]]}, "properties": {"source": "7996", "target": "8001"}}, {"type": "Feature", "geometry": {"type": "LineString", "coordinates": [[61.44837365468703, 69.23191887832292], [61.4487455445132, 69.2315050801322]]}, "properties": {"source": "8001", "target": "522791"}}, {"type": "Feature", "geometry": {"type": "LineString", "coordinates": [[61.4483058339363, 69.23024068712405], [61.44779784346596, 69.23140364917595]]}, "properties": {"source": "7981", "target": "7994"}}, {"type": "Feature", "geometry": {"type": "LineString", "coordinates": [[61.4483058339363, 69.23024068712405], [61.44837365468703, 69.23191887832292]]}, "properties": {"source": "7981", "target": "8001"}}, {"type": "Feature", "geometry": {"type": "LineString", "coordinates": [[61.4483058339363, 69.23024068712405], [61.446643749698865, 69.23169183379935]]}, "properties": {"source": "7981", "target": "7980"}}, {"type": "Feature", "geometry": {"type": "LineString", "coordinates": [[61.4483058339363, 69.23024068712405], [61.44682540672139, 69.22990671371906]]}, "properties": {"source": "7981", "target": "7998"}}, {"type": "Feature", "geometry": {"type": "LineString", "coordinates": [[61.4483058339363, 69.23024068712405], [61.44735604109883, 69.23129166069236]]}, "properties": {"source": "7981", "target": "7974"}}, {"type": "Feature", "geometry": {"type": "LineString", "coordinates": [[61.446643749698865, 69.23169183379935], [61.44779784346596, 69.23140364917595]]}, "properties": {"source": "7980", "target": "7994"}}, {"type": "Feature", "geometry": {"type": "LineString", "coordinates": [[61.446643749698865, 69.23169183379935], [61.44682540672139, 69.22990671371906]]}, "properties": {"source": "7980", "target": "7998"}}, {"type": "Feature", "geometry": {"type": "LineString", "coordinates": [[61.44682540672139, 69.22990671371906], [61.44779784346596, 69.23140364917595]]}, "properties": {"source": "7998", "target": "7994"}}, {"type": "Feature", "geometry": {"type": "LineString", "coordinates": [[61.44749863552627, 69.22974761378441], [61.44658581089752, 69.2312865608857]]}, "properties": {"source": "7976", "target": "7999"}}, {"type": "Feature", "geometry": {"type": "LineString", "coordinates": [[61.44749863552627, 69.22974761378441], [61.44779784346596, 69.23140364917595]]}, "properties": {"source": "7976", "target": "7994"}}, {"type": "Feature", "geometry": {"type": "LineString", "coordinates": [[61.44749863552627, 69.22974761378441], [61.45312454709722, 69.23078715750259]]}, "properties": {"source": "7976", "target": "7987"}}, {"type": "Feature", "geometry": {"type": "LineString", "coordinates": [[61.45362728228909, 69.23098346572047], [61.44837365468703, 69.23191887832292]]}, "properties": {"source": "7983", "target": "8001"}}, {"type": "Feature", "geometry": {"type": "LineString", "coordinates": [[61.45362728228909, 69.23098346572047], [61.4483058339363, 69.23024068712405]]}, "properties": {"source": "7983", "target": "7981"}}, {"type": "Feature", "geometry": {"type": "LineString", "coordinates": [[61.45362728228909, 69.23098346572047], [61.446643749698865, 69.23169183379935]]}, "properties": {"source": "7983", "target": "7980"}}, {"type": "Feature", "geometry": {"type": "LineString", "coordinates": [[61.45362728228909, 69.23098346572047], [61.44682540672139, 69.22990671371906]]}, "properties": {"source": "7983", "target": "7998"}}, {"type": "Feature", "geometry": {"type": "LineString", "coordinates": [[61.45330605541014, 69.23013585005077], [61.45074587276238, 69.23202633369905]]}, "properties": {"source": "3949605", "target": "6177411"}}, {"type": "Feature", "geometry": {"type": "LineString", "coordinates": [[61.45117429976406, 69.23024281576747], [61.44658581089752, 69.2312865608857]]}, "properties": {"source": "6965895", "target": "7999"}}, {"type": "Feature", "geometry": {"type": "LineString", "coordinates": [[61.45117429976406, 69.23024281576747], [61.44779784346596, 69.23140364917595]]}, "properties": {"source": "6965895", "target": "7994"}}, {"type": "Feature", "geometry": {"type": "LineString", "coordinates": [[61.45117429976406, 69.23024281576747], [61.45312454709722, 69.23078715750259]]}, "properties": {"source": "6965895", "target": "7987"}}, {"type": "Feature", "geometry": {"type": "LineString", "coordinates": [[61.45117429976406, 69.23024281576747], [61.44837365468703, 69.23191887832292]]}, "properties": {"source": "6965895", "target": "8001"}}, {"type": "Feature", "geometry": {"type": "LineString", "coordinates": [[61.45117429976406, 69.23024281576747], [61.446643749698865, 69.23169183379935]]}, "properties": {"source": "6965895", "target": "7980"}}, {"type": "Feature", "geometry": {"type": "LineString", "coordinates": [[61.45117429976406, 69.23024281576747], [61.45298544954437, 69.23214219486681]]}, "properties": {"source": "6965895", "target": "8702912"}}, {"type": "Feature", "geometry": {"type": "LineString", "coordinates": [[61.45117429976406, 69.23024281576747], [61.44735604109883, 69.23129166069236]]}, "properties": {"source": "6965895", "target": "7974"}}, {"type": "Feature", "geometry": {"type": "LineString", "coordinates": [[61.45131844529436, 69.23106461532186], [61.44779784346596, 69.23140364917595]]}, "properties": {"source": "281913", "target": "7994"}}, {"type": "Feature", "geometry": {"type": "LineString", "coordinates": [[61.45131844529436, 69.23106461532186], [61.44735604109883, 69.23129166069236]]}, "properties": {"source": "281913", "target": "7974"}}, {"type": "Feature", "geometry": {"type": "LineString", "coordinates": [[61.44750051224929, 69.23010892452137], [61.44759942023481, 69.23035482734505]]}, "properties": {"source": "23183904", "target": "281912"}}, {"type": "Feature", "geometry": {"type": "LineString", "coordinates": [[61.447013753348386, 69.23123747430398], [61.44989721527685, 69.23060358018083]]}, "properties": {"source": "963509", "target": "99085"}}, {"type": "Feature", "geometry": {"type": "LineString", "coordinates": [[61.44837365468703, 69.23191887832292], [61.44779784346596, 69.23140364917595]]}, "properties": {"source": "8001", "target": "7994"}}, {"type": "Feature", "geometry": {"type": "LineString", "coordinates": [[61.44837365468703, 69.23191887832292], [61.446643749698865, 69.23169183379935]]}, "properties": {"source": "8001", "target": "7980"}}, {"type": "Feature", "geometry": {"type": "LineString", "coordinates": [[61.44837365468703, 69.23191887832292], [61.44682540672139, 69.22990671371906]]}, "properties": {"source": "8001", "target": "7998"}}, {"type": "Feature", "geometry": {"type": "LineString", "coordinates": [[61.44837365468703, 69.23191887832292], [61.44735604109883, 69.23129166069236]]}, "properties": {"source": "8001", "target": "7974"}}, {"type": "Feature", "geometry": {"type": "LineString", "coordinates": [[61.4532379726584, 69.22986990950213], [61.44608651542944, 69.2318428876494]]}, "properties": {"source": "7993", "target": "201345"}}, {"type": "Feature", "geometry": {"type": "LineString", "coordinates": [[61.4532379726584, 69.22986990950213], [61.45059034098844, 69.23164671724143]]}, "properties": {"source": "7993", "target": "201354"}}, {"type": "Feature", "geometry": {"type": "LineString", "coordinates": [[61.4532379726584, 69.22986990950213], [61.45016819981075, 69.23187450098476]]}, "properties": {"source": "7993", "target": "201341"}}, {"type": "Feature", "geometry": {"type": "LineString", "coordinates": [[61.45298544954437, 69.23214219486681], [61.44779784346596, 69.23140364917595]]}, "properties": {"source": "8702912", "target": "7994"}}, {"type": "Feature", "geometry": {"type": "LineString", "coordinates": [[61.45298544954437, 69.23214219486681], [61.45312454709722, 69.23078715750259]]}, "properties": {"source": "8702912", "target": "7987"}}, {"type": "Feature", "geometry": {"type": "LineString", "coordinates": [[61.45298544954437, 69.23214219486681], [61.44837365468703, 69.23191887832292]]}, "properties": {"source": "8702912", "target": "8001"}}, {"type": "Feature", "geometry": {"type": "LineString", "coordinates": [[61.45298544954437, 69.23214219486681], [61.4483058339363, 69.23024068712405]]}, "properties": {"source": "8702912", "target": "7981"}}, {"type": "Feature", "geometry": {"type": "LineString", "coordinates": [[61.45298544954437, 69.23214219486681], [61.446643749698865, 69.23169183379935]]}, "properties": {"source": "8702912", "target": "7980"}}, {"type": "Feature", "geometry": {"type": "LineString", "coordinates": [[61.45298544954437, 69.23214219486681], [61.44682540672139, 69.22990671371906]]}, "properties": {"source": "8702912", "target": "7998"}}, {"type": "Feature", "geometry": {"type": "LineString", "coordinates": [[61.45298544954437, 69.23214219486681], [61.44989721527685, 69.23060358018083]]}, "properties": {"source": "8702912", "target": "99085"}}, {"type": "Feature", "geometry": {"type": "LineString", "coordinates": [[61.45298544954437, 69.23214219486681], [61.45362728228909, 69.23098346572047]]}, "properties": {"source": "8702912", "target": "7983"}}, {"type": "Feature", "geometry": {"type": "LineString", "coordinates": [[61.45298544954437, 69.23214219486681], [61.44889258527229, 69.23131041631845]]}, "properties": {"source": "8702912", "target": "58092"}}, {"type": "Feature", "geometry": {"type": "LineString", "coordinates": [[61.45298544954437, 69.23214219486681], [61.44669498719276, 69.2312822557142]]}, "properties": {"source": "8702912", "target": "7997"}}, {"type": "Feature", "geometry": {"type": "LineString", "coordinates": [[61.45298544954437, 69.23214219486681], [61.44768235591235, 69.23112085956197]]}, "properties": {"source": "8702912", "target": "7992"}}, {"type": "Feature", "geometry": {"type": "LineString", "coordinates": [[61.45298544954437, 69.23214219486681], [61.45074587276238, 69.23202633369905]]}, "properties": {"source": "8702912", "target": "6177411"}}, {"type": "Feature", "geometry": {"type": "LineString", "coordinates": [[61.4532379726584, 69.22986990950213], [61.45321826469362, 69.23115943134272]]}, "properties": {"source": "7993", "target": "201342"}}]}