{"type": "FeatureCollection", "features": [{"type": "Feature", "geometry": {"type": "LineString", "coordinates": [[121.41318497107488, 69.22974367807225], [121.41345065742325, 69.23054916609675]]}, "properties": {"source": "11689150", "target": "10386651"}}, {"type": "Feature", "geometry": {"type": "LineString", "coordinates": [[121.41318497107488, 69.22974367807225], [121.41304448726663, 69.2303893150679]]}, "properties": {"source": "11689150", "target": "11610607"}}, {"type": "Feature", "geometry": {"type": "LineString", "coordinates": [[121.41318497107488, 69.22974367807225], [121.41633450255762, 69.23008211134172]]}, "properties": {"source": "11689150", "target": "11719502"}}, {"type": "Feature", "geometry": {"type": "LineString", "coordinates": [[121.41318497107488, 69.22974367807225], [121.41228481227864, 69.23073612690692]]}, "properties": {"source": "11689150", "target": "15815024"}}, {"type": "Feature", "geometry": {"type": "LineString", "coordinates": [[121.41486678616013, 69.23012442342159], [121.41603195440598, 69.23118368783963]]}, "properties": {"source": "2238763", "target": "18473843"}}, {"type": "Feature", "geometry": {"type": "LineString", "coordinates": [[121.41486678616013, 69.23012442342159], [121.41224349435424, 69.23087481326641]]}, "properties": {"source": "2238763", "target": "26406085"}}, {"type": "Feature", "geometry": {"type": "LineString", "coordinates": [[121.41486678616013, 69.23012442342159], [121.41345065742325, 69.23054916609675]]}, "properties": {"source": "2238763", "target": "10386651"}}, {"type": "Feature", "geometry": {"type": "LineString", "coordinates": [[121.41486678616013, 69.23012442342159], [121.41304448726663, 69.2303893150679]]}, "properties": {"source": "2238763", "target": "11610607"}}, {"type": "Feature", "geometry": {"type": "LineString", "coordinates": [[121.41486678616013, 69.23012442342159], [121.41633495377931, 69.23075172137482]]}, "properties": {"source": "2238763", "target": "21816737"}}, {"type": "Feature", "geometry": {"type": "LineString", "coordinates": [[121.41486678616013, 69.23012442342159], [121.41532248316724, 69.23079411852308]]}, "properties": {"source": "2238763", "target": "17370452"}}, {"type": "Feature", "geometry": {"type": "LineString", "coordinates": [[121.41633450255762, 69.23008211134172], [121.41345065742325, 69.23054916609675]]}, "properties": {"source": "11719502", "target": "10386651"}}, {"type": "Feature", "geometry": {"type": "LineString", "coordinates": [[121.41633450255762, 69.23008211134172], [121.41304448726663, 69.2303893150679]]}, "properties": {"source": "11719502", "target": "11610607"}}, {"type": "Feature", "geometry": {"type": "LineString", "coordinates": [[121.41237626890631, 69.23119945720373], [121.41603195440598, 69.23118368783963]]}, "properties": {"source": "22401173", "target": "18473843"}}, {"type": "Feature", "geometry": {"type": "LineString", "coordinates": [[121.41237626890631, 69.23119945720373], [121.41224349435424, 69.23087481326641]]}, "properties": {"source": "22401173", "target": "26406085"}}, {"type": "Feature", "geometry": {"type": "LineString", "coordinates": [[121.41237626890631, 69.23119945720373], [121.41208903336269, 69.22994262424814]]}, "properties": {"source": "22401173", "target": "22616587"}}, {"type": "Feature", "geometry": {"type": "LineString", "coordinates": [[121.41208903336269, 69.22994262424814], [121.41603195440598, 69.23118368783963]]}, "properties": {"source": "22616587", "target": "18473843"}}, {"type": "Feature", "geometry": {"type": "LineString", "coordinates": [[121.41208903336269, 69.22994262424814], [121.41224349435424, 69.23087481326641]]}, "properties": {"source": "22616587", "target": "26406085"}}, {"type": "Feature", "geometry": {"type": "LineString", "coordinates": [[121.41429869729978, 69.2298672952225], [121.41603195440598, 69.23118368783963]]}, "properties": {"source": "11012854", "target": "18473843"}}, {"type": "Feature", "geometry": {"type": "LineString", "coordinates": [[121.41429869729978, 69.2298672952225], [121.41224349435424, 69.23087481326641]]}, "properties": {"source": "11012854", "target": "26406085"}}, {"type": "Feature", "geometry": {"type": "LineString", "coordinates": [[121.4161749138089, 69.23106656472402], [121.41603195440598, 69.23118368783963]]}, "properties": {"source": "10803786", "target": "18473843"}}, {"type": "Feature", "geometry": {"type": "LineString", "coordinates": [[121.4161749138089, 69.23106656472402], [121.41224349435424, 69.23087481326641]]}, "properties": {"source": "10803786", "target": "26406085"}}, {"type": "Feature", "geometry": {"type": "LineString", "coordinates": [[121.41228481227864, 69.23073612690692], [121.41345065742325, 69.23054916609675]]}, "properties": {"source": "15815024", "target": "10386651"}}, {"type": "Feature", "geometry": {"type": "LineString", "coordinates": [[121.41228481227864, 69.23073612690692], [121.41304448726663, 69.2303893150679]]}, "properties": {"source": "15815024", "target": "11610607"}}, {"type": "Feature", "geometry": {"type": "LineString", "coordinates": [[121.41440346686375, 69.22996978933637], [121.41318497107488, 69.22974367807225]]}, "properties": {"source": "3987", "target": "11689150"}}, {"type": "Feature", "geometry": {"type": "LineString", "coordinates": [[121.41440346686375, 69.22996978933637], [121.41345065742325, 69.23054916609675]]}, "properties": {"source": "3987", "target": "10386651"}}, {"type": "Feature", "geometry": {"type": "LineString", "coordinates": [[121.41440346686375, 69.22996978933637], [121.41304448726663, 69.2303893150679]]}, "properties": {"source": "3987", "target": "11610607"}}, {"type": "Feature", "geometry": {"type": "LineString", "coordinates": [[121.41532248316724, 69.23079411852308], [121.41624623319944, 69.23001586108825]]}, "properties": {"source": "17370452", "target": "17337643"}}, {"type": "Feature", "geometry": {"type": "LineString", "coordinates": [[121.4124572066753, 69.22990460858549], [121.41603195440598, 69.23118368783963]]}, "properties": {"source": "22959774", "target": "18473843"}}, {"type": "Feature", "geometry": {"type": "LineString", "coordinates": [[121.4124572066753, 69.22990460858549], [121.41224349435424, 69.23087481326641]]}, "properties": {"source": "22959774", "target": "26406085"}}, {"type": "Feature", "geometry": {"type": "LineString", "coordinates": [[121.4124572066753, 69.22990460858549], [121.41318497107488, 69.22974367807225]]}, "properties": {"source": "22959774", "target": "11689150"}}, {"type": "Feature", "geometry": {"type": "LineString", "coordinates": [[121.4124572066753, 69.22990460858549], [121.41345065742325, 69.23054916609675]]}, "properties": {"source": "22959774", "target": "10386651"}}, {"type": "Feature", "geometry": {"type": "LineString", "coordinates": [[121.4124572066753, 69.22990460858549], [121.41304448726663, 69.2303893150679]]}, "properties": {"source": "22959774", "target": "11610607"}}, {"type": "Feature", "geometry": {"type": "LineString", "coordinates": [[121.4124572066753, 69.22990460858549], [121.41486678616013, 69.23012442342159]]}, "properties": {"source": "22959774", "target": "2238763"}}, {"type": "Feature", "geometry": {"type": "LineString", "coordinates": [[121.4124572066753, 69.22990460858549], [121.41633450255762, 69.23008211134172]]}, "properties": {"source": "22959774", "target": "11719502"}}, {"type": "Feature", "geometry": {"type": "LineString", "coordinates": [[121.4124572066753, 69.22990460858549], [121.41237626890631, 69.23119945720373]]}, "properties": {"source": "22959774", "target": "22401173"}}, {"type": "Feature", "geometry": {"type": "LineString", "coordinates": [[121.4124572066753, 69.22990460858549], [121.41208903336269, 69.22994262424814]]}, "properties": {"source": "22959774", "target": "22616587"}}, {"type": "Feature", "geometry": {"type": "LineString", "coordinates": [[121.4124572066753, 69.22990460858549], [121.41429869729978, 69.2298672952225]]}, "properties": {"source": "22959774", "target": "11012854"}}, {"type": "Feature", "geometry": {"type": "LineString", "coordinates": [[121.4124572066753, 69.22990460858549], [121.4161749138089, 69.23106656472402]]}, "properties": {"source": "22959774", "target": "10803786"}}, {"type": "Feature", "geometry": {"type": "LineString", "coordinates": [[121.4124572066753, 69.22990460858549], [121.41633495377931, 69.23075172137482]]}, "properties": {"source": "22959774", "target": "21816737"}}, {"type": "Feature", "geometry": {"type": "LineString", "coordinates": [[121.4124572066753, 69.22990460858549], [121.41507154864951, 69.23082988972132]]}, "properties": {"source": "22959774", "target": "1204282"}}, {"type": "Feature", "geometry": {"type": "LineString", "coordinates": [[121.4124572066753, 69.22990460858549], [121.41453795576359, 69.23116401953595]]}, "properties": {"source": "22959774", "target": "26783374"}}, {"type": "Feature", "geometry": {"type": "LineString", "coordinates": [[121.4124572066753, 69.22990460858549], [121.41231515018524, 69.23116650379208]]}, "properties": {"source": "22959774", "target": "100477"}}, {"type": "Feature", "geometry": {"type": "LineString", "coordinates": [[121.4124572066753, 69.22990460858549], [121.414111846185, 69.23044564618269]]}, "properties": {"source": "22959774", "target": "22807550"}}, {"type": "Feature", "geometry": {"type": "LineString", "coordinates": [[121.41603195440598, 69.23118368783963], [121.41345065742325, 69.23054916609675]]}, "properties": {"source": "18473843", "target": "10386651"}}, {"type": "Feature", "geometry": {"type": "LineString", "coordinates": [[121.41603195440598, 69.23118368783963], [121.41304448726663, 69.2303893150679]]}, "properties": {"source": "18473843", "target": "11610607"}}, {"type": "Feature", "geometry": {"type": "LineString", "coordinates": [[121.41603195440598, 69.23118368783963], [121.41633450255762, 69.23008211134172]]}, "properties": {"source": "18473843", "target": "11719502"}}, {"type": "Feature", "geometry": {"type": "LineString", "coordinates": [[121.41603195440598, 69.23118368783963], [121.41228481227864, 69.23073612690692]]}, "properties": {"source": "18473843", "target": "15815024"}}, {"type": "Feature", "geometry": {"type": "LineString", "coordinates": [[121.41603195440598, 69.23118368783963], [121.41633495377931, 69.23075172137482]]}, "properties": {"source": "18473843", "target": "21816737"}}, {"type": "Feature", "geometry": {"type": "LineString", "coordinates": [[121.41603195440598, 69.23118368783963], [121.41507154864951, 69.23082988972132]]}, "properties": {"source": "18473843", "target": "1204282"}}, {"type": "Feature", "geometry": {"type": "LineString", "coordinates": [[121.41603195440598, 69.23118368783963], [121.41532248316724, 69.23079411852308]]}, "properties": {"source": "18473843", "target": "17370452"}}, {"type": "Feature", "geometry": {"type": "LineString", "coordinates": [[121.41603195440598, 69.23118368783963], [121.41231515018524, 69.23116650379208]]}, "properties": {"source": "18473843", "target": "100477"}}, {"type": "Feature", "geometry": {"type": "LineString", "coordinates": [[121.41224349435424, 69.23087481326641], [121.41345065742325, 69.23054916609675]]}, "properties": {"source": "26406085", "target": "10386651"}}, {"type": "Feature", "geometry": {"type": "LineString", "coordinates": [[121.41224349435424, 69.23087481326641], [121.41304448726663, 69.2303893150679]]}, "properties": {"source": "26406085", "target": "11610607"}}, {"type": "Feature", "geometry": {"type": "LineString", "coordinates": [[121.41224349435424, 69.23087481326641], [121.41633450255762, 69.23008211134172]]}, "properties": {"source": "26406085", "target": "11719502"}}, {"type": "Feature", "geometry": {"type": "LineString", "coordinates": [[121.41224349435424, 69.23087481326641], [121.41507154864951, 69.23082988972132]]}, "properties": {"source": "26406085", "target": "1204282"}}, {"type": "Feature", "geometry": {"type": "LineString", "coordinates": [[121.41224349435424, 69.23087481326641], [121.41453795576359, 69.23116401953595]]}, "properties": {"source": "26406085", "target": "26783374"}}, {"type": "Feature", "geometry": {"type": "LineString", "coordinates": [[121.41224349435424, 69.23087481326641], [121.41231515018524, 69.23116650379208]]}, "properties": {"source": "26406085", "target": "100477"}}, {"type": "Feature", "geometry": {"type": "LineString", "coordinates": [[121.41318497107488, 69.22974367807225], [121.41603195440598, 69.23118368783963]]}, "properties": {"source": "11689150", "target": "18473843"}}, {"type": "Feature", "geometry": {"type": "LineString", "coordinates": [[121.41318497107488, 69.22974367807225], [121.41224349435424, 69.23087481326641]]}, "properties": {"source": "11689150", "target": "26406085"}}, {"type": "Feature", "geometry": {"type": "LineString", "coordinates": [[121.41350487175276, 69.23120884738793], [121.4124572066753, 69.22990460858549]]}, "properties": {"source": "22647781", "target": "22959774"}}, {"type": "Feature", "geometry": {"type": "LineString", "coordinates": [[121.41350487175276, 69.23120884738793], [121.41603195440598, 69.23118368783963]]}, "properties": {"source": "22647781", "target": "18473843"}}, {"type": "Feature", "geometry": {"type": "LineString", "coordinates": [[121.41350487175276, 69.23120884738793], [121.41224349435424, 69.23087481326641]]}, "properties": {"source": "22647781", "target": "26406085"}}, {"type": "Feature", "geometry": {"type": "LineString", "coordinates": [[121.41350487175276, 69.23120884738793], [121.41318497107488, 69.22974367807225]]}, "properties": {"source": "22647781", "target": "11689150"}}, {"type": "Feature", "geometry": {"type": "LineString", "coordinates": [[121.41350487175276, 69.23120884738793], [121.41345065742325, 69.23054916609675]]}, "properties": {"source": "22647781", "target": "10386651"}}, {"type": "Feature", "geometry": {"type": "LineString", "coordinates": [[121.41350487175276, 69.23120884738793], [121.41304448726663, 69.2303893150679]]}, "properties": {"source": "22647781", "target": "11610607"}}, {"type": "Feature", "geometry": {"type": "LineString", "coordinates": [[121.41350487175276, 69.23120884738793], [121.41486678616013, 69.23012442342159]]}, "properties": {"source": "22647781", "target": "2238763"}}, {"type": "Feature", "geometry": {"type": "LineString", "coordinates": [[121.41350487175276, 69.23120884738793], [121.41633450255762, 69.23008211134172]]}, "properties": {"source": "22647781", "target": "11719502"}}, {"type": "Feature", "geometry": {"type": "LineString", "coordinates": [[121.41350487175276, 69.23120884738793], [121.41237626890631, 69.23119945720373]]}, "properties": {"source": "22647781", "target": "22401173"}}, {"type": "Feature", "geometry": {"type": "LineString", "coordinates": [[121.41350487175276, 69.23120884738793], [121.41208903336269, 69.22994262424814]]}, "properties": {"source": "22647781", "target": "22616587"}}, {"type": "Feature", "geometry": {"type": "LineString", "coordinates": [[121.41350487175276, 69.23120884738793], [121.41429869729978, 69.2298672952225]]}, "properties": {"source": "22647781", "target": "11012854"}}, {"type": "Feature", "geometry": {"type": "LineString", "coordinates": [[121.41350487175276, 69.23120884738793], [121.4161749138089, 69.23106656472402]]}, "properties": {"source": "22647781", "target": "10803786"}}, {"type": "Feature", "geometry": {"type": "LineString", "coordinates": [[121.41350487175276, 69.23120884738793], [121.41633495377931, 69.23075172137482]]}, "properties": {"source": "22647781", "target": "21816737"}}, {"type": "Feature", "geometry": {"type": "LineString", "coordinates": [[121.41350487175276, 69.23120884738793], [121.41507154864951, 69.23082988972132]]}, "properties": {"source": "22647781", "target": "1204282"}}, {"type": "Feature", "geometry": {"type": "LineString", "coordinates": [[121.41350487175276, 69.23120884738793], [121.41453795576359, 69.23116401953595]]}, "properties": {"source": "22647781", "target": "26783374"}}, {"type": "Feature", "geometry": {"type": "LineString", "coordinates": [[121.41350487175276, 69.23120884738793], [121.414111846185, 69.23044564618269]]}, "properties": {"source": "22647781", "target": "22807550"}}]}