{"type": "FeatureCollection", "features": [{"type": "Feature", "geometry": {"type": "LineString", "coordinates": [[145.29455589542602, 69.23018796446758], [145.29359288917897, 69.22979511153565]]}, "properties": {"source": "229826", "target": "2904227"}}, {"type": "Feature", "geometry": {"type": "LineString", "coordinates": [[145.29455589542602, 69.23018796446758], [145.29393466275064, 69.22996332151985]]}, "properties": {"source": "229826", "target": "5719352"}}, {"type": "Feature", "geometry": {"type": "LineString", "coordinates": [[145.29455589542602, 69.23018796446758], [145.29380658718344, 69.23026346509849]]}, "properties": {"source": "229826", "target": "3296496"}}, {"type": "Feature", "geometry": {"type": "LineString", "coordinates": [[145.29455589542602, 69.23018796446758], [145.29528296755598, 69.22982827705943]]}, "properties": {"source": "229826", "target": "116223"}}, {"type": "Feature", "geometry": {"type": "LineString", "coordinates": [[145.29455589542602, 69.23018796446758], [145.29473321385342, 69.23036758286304]]}, "properties": {"source": "229826", "target": "6661280"}}, {"type": "Feature", "geometry": {"type": "LineString", "coordinates": [[145.29466515667514, 69.22973717991744], [145.29547794981403, 69.22974240778413]]}, "properties": {"source": "229823", "target": "6661279"}}, {"type": "Feature", "geometry": {"type": "LineString", "coordinates": [[145.29466515667514, 69.22973717991744], [145.29504832160188, 69.23008635648688]]}, "properties": {"source": "229823", "target": "229824"}}, {"type": "Feature", "geometry": {"type": "LineString", "coordinates": [[145.29466515667514, 69.22973717991744], [145.2948979159973, 69.2298071426633]]}, "properties": {"source": "229823", "target": "5719353"}}, {"type": "Feature", "geometry": {"type": "LineString", "coordinates": [[145.29466515667514, 69.22973717991744], [145.29359288917897, 69.22979511153565]]}, "properties": {"source": "229823", "target": "2904227"}}, {"type": "Feature", "geometry": {"type": "LineString", "coordinates": [[145.29466515667514, 69.22973717991744], [145.29393466275064, 69.22996332151985]]}, "properties": {"source": "229823", "target": "5719352"}}, {"type": "Feature", "geometry": {"type": "LineString", "coordinates": [[145.29466515667514, 69.22973717991744], [145.29380658718344, 69.23026346509849]]}, "properties": {"source": "229823", "target": "3296496"}}, {"type": "Feature", "geometry": {"type": "LineString", "coordinates": [[145.29466515667514, 69.22973717991744], [145.29528296755598, 69.22982827705943]]}, "properties": {"source": "229823", "target": "116223"}}, {"type": "Feature", "geometry": {"type": "LineString", "coordinates": [[145.29547794981403, 69.22974240778413], [145.29393466275064, 69.22996332151985]]}, "properties": {"source": "6661279", "target": "5719352"}}, {"type": "Feature", "geometry": {"type": "LineString", "coordinates": [[145.29547794981403, 69.22974240778413], [145.29380658718344, 69.23026346509849]]}, "properties": {"source": "6661279", "target": "3296496"}}, {"type": "Feature", "geometry": {"type": "LineString", "coordinates": [[145.29547794981403, 69.22974240778413], [145.29528296755598, 69.22982827705943]]}, "properties": {"source": "6661279", "target": "116223"}}, {"type": "Feature", "geometry": {"type": "LineString", "coordinates": [[145.29547794981403, 69.22974240778413], [145.29473321385342, 69.23036758286304]]}, "properties": {"source": "6661279", "target": "6661280"}}, {"type": "Feature", "geometry": {"type": "LineString", "coordinates": [[145.29504832160188, 69.23008635648688], [145.2948979159973, 69.2298071426633]]}, "properties": {"source": "229824", "target": "5719353"}}, {"type": "Feature", "geometry": {"type": "LineString", "coordinates": [[145.29504832160188, 69.23008635648688], [145.29359288917897, 69.22979511153565]]}, "properties": {"source": "229824", "target": "2904227"}}, {"type": "Feature", "geometry": {"type": "LineString", "coordinates": [[145.29504832160188, 69.23008635648688], [145.29393466275064, 69.22996332151985]]}, "properties": {"source": "229824", "target": "5719352"}}, {"type": "Feature", "geometry": {"type": "LineString", "coordinates": [[145.29504832160188, 69.23008635648688], [145.29380658718344, 69.23026346509849]]}, "properties": {"source": "229824", "target": "3296496"}}, {"type": "Feature", "geometry": {"type": "LineString", "coordinates": [[145.29504832160188, 69.23008635648688], [145.29473321385342, 69.23036758286304]]}, "properties": {"source": "229824", "target": "6661280"}}, {"type": "Feature", "geometry": {"type": "LineString", "coordinates": [[145.2948979159973, 69.2298071426633], [145.29359288917897, 69.22979511153565]]}, "properties": {"source": "5719353", "target": "2904227"}}, {"type": "Feature", "geometry": {"type": "LineString", "coordinates": [[145.2948979159973, 69.2298071426633], [145.29393466275064, 69.22996332151985]]}, "properties": {"source": "5719353", "target": "5719352"}}, {"type": "Feature", "geometry": {"type": "LineString", "coordinates": [[145.2948979159973, 69.2298071426633], [145.29380658718344, 69.23026346509849]]}, "properties": {"source": "5719353", "target": "3296496"}}, {"type": "Feature", "geometry": {"type": "LineString", "coordinates": [[145.29455589542602, 69.23018796446758], [145.29466515667514, 69.22973717991744]]}, "properties": {"source": "229826", "target": "229823"}}, {"type": "Feature", "geometry": {"type": "LineString", "coordinates": [[145.29455589542602, 69.23018796446758], [145.29547794981403, 69.22974240778413]]}, "properties": {"source": "229826", "target": "6661279"}}, {"type": "Feature", "geometry": {"type": "LineString", "coordinates": [[145.29455589542602, 69.23018796446758], [145.29504832160188, 69.23008635648688]]}, "properties": {"source": "229826", "target": "229824"}}, {"type": "Feature", "geometry": {"type": "LineString", "coordinates": [[145.29455589542602, 69.23018796446758], [145.2948979159973, 69.2298071426633]]}, "properties": {"source": "229826", "target": "5719353"}}, {"type": "Feature", "geometry": {"type": "LineString", "coordinates": [[145.29359288917897, 69.22979511153565], [145.29393466275064, 69.22996332151985]]}, "properties": {"source": "2904227", "target": "5719352"}}, {"type": "Feature", "geometry": {"type": "LineString", "coordinates": [[145.29359288917897, 69.22979511153565], [145.29380658718344, 69.23026346509849]]}, "properties": {"source": "2904227", "target": "3296496"}}, {"type": "Feature", "geometry": {"type": "LineString", "coordinates": [[145.29393466275064, 69.22996332151985], [145.29380658718344, 69.23026346509849]]}, "properties": {"source": "5719352", "target": "3296496"}}, {"type": "Feature", "geometry": {"type": "LineString", "coordinates": [[145.29528296755598, 69.22982827705943], [145.29504832160188, 69.23008635648688]]}, "properties": {"source": "116223", "target": "229824"}}, {"type": "Feature", "geometry": {"type": "LineString", "coordinates": [[145.29528296755598, 69.22982827705943], [145.2948979159973, 69.2298071426633]]}, "properties": {"source": "116223", "target": "5719353"}}, {"type": "Feature", "geometry": {"type": "LineString", "coordinates": [[145.29528296755598, 69.22982827705943], [145.29359288917897, 69.22979511153565]]}, "properties": {"source": "116223", "target": "2904227"}}, {"type": "Feature", "geometry": {"type": "LineString", "coordinates": [[145.29528296755598, 69.22982827705943], [145.29393466275064, 69.22996332151985]]}, "properties": {"source": "116223", "target": "5719352"}}, {"type": "Feature", "geometry": {"type": "LineString", "coordinates": [[145.29528296755598, 69.22982827705943], [145.29380658718344, 69.23026346509849]]}, "properties": {"source": "116223", "target": "3296496"}}, {"type": "Feature", "geometry": {"type": "LineString", "coordinates": [[145.29473321385342, 69.23036758286304], [145.2948979159973, 69.2298071426633]]}, "properties": {"source": "6661280", "target": "5719353"}}, {"type": "Feature", "geometry": {"type": "LineString", "coordinates": [[145.29473321385342, 69.23036758286304], [145.29359288917897, 69.22979511153565]]}, "properties": {"source": "6661280", "target": "2904227"}}, {"type": "Feature", "geometry": {"type": "LineString", "coordinates": [[145.29473321385342, 69.23036758286304], [145.29393466275064, 69.22996332151985]]}, "properties": {"source": "6661280", "target": "5719352"}}, {"type": "Feature", "geometry": {"type": "LineString", "coordinates": [[145.29473321385342, 69.23036758286304], [145.29380658718344, 69.23026346509849]]}, "properties": {"source": "6661280", "target": "3296496"}}, {"type": "Feature", "geometry": {"type": "LineString", "coordinates": [[145.29466515667514, 69.22973717991744], [145.29473321385342, 69.23036758286304]]}, "properties": {"source": "229823", "target": "6661280"}}, {"type": "Feature", "geometry": {"type": "LineString", "coordinates": [[145.29547794981403, 69.22974240778413], [145.29504832160188, 69.23008635648688]]}, "properties": {"source": "6661279", "target": "229824"}}, {"type": "Feature", "geometry": {"type": "LineString", "coordinates": [[145.29547794981403, 69.22974240778413], [145.2948979159973, 69.2298071426633]]}, "properties": {"source": "6661279", "target": "5719353"}}, {"type": "Feature", "geometry": {"type": "LineString", "coordinates": [[145.29547794981403, 69.22974240778413], [145.29359288917897, 69.22979511153565]]}, "properties": {"source": "6661279", "target": "2904227"}}]}