{"type": "FeatureCollection", "features": [{"type": "Feature", "geometry": {"type": "LineString", "coordinates": [[-98.0810925794391, 69.03871437940626], [-98.08909355900813, 69.03838030313244]]}, "properties": {"source": "16061482", "target": "33287881"}}, {"type": "Feature", "geometry": {"type": "LineString", "coordinates": [[-98.0810925794391, 69.03871437940626], [-98.09328364861882, 69.03958246411867]]}, "properties": {"source": "16061482", "target": "34030962"}}, {"type": "Feature", "geometry": {"type": "LineString", "coordinates": [[-98.0810925794391, 69.03871437940626], [-98.08378177480733, 69.0407127517868]]}, "properties": {"source": "16061482", "target": "23003659"}}, {"type": "Feature", "geometry": {"type": "LineString", "coordinates": [[-98.0810925794391, 69.03871437940626], [-98.08968801518677, 69.04226368863021]]}, "properties": {"source": "16061482", "target": "3614544"}}, {"type": "Feature", "geometry": {"type": "LineString", "coordinates": [[-98.0810925794391, 69.03871437940626], [-98.09591638063462, 69.03845840494591]]}, "properties": {"source": "16061482", "target": "18132518"}}, {"type": "Feature", "geometry": {"type": "LineString", "coordinates": [[-98.0810925794391, 69.03871437940626], [-98.08192936676771, 69.03843326218495]]}, "properties": {"source": "16061482", "target": "21266180"}}, {"type": "Feature", "geometry": {"type": "LineString", "coordinates": [[-98.09463331604921, 69.0401690993802], [-98.09293672804411, 69.03961435573939]]}, "properties": {"source": "15838162", "target": "33636330"}}, {"type": "Feature", "geometry": {"type": "LineString", "coordinates": [[-98.09463331604921, 69.0401690993802], [-98.08884591771324, 69.04092206530086]]}, "properties": {"source": "15838162", "target": "25617926"}}, {"type": "Feature", "geometry": {"type": "LineString", "coordinates": [[-98.09463331604921, 69.0401690993802], [-98.09541000526433, 69.04009216232242]]}, "properties": {"source": "15838162", "target": "33210626"}}, {"type": "Feature", "geometry": {"type": "LineString", "coordinates": [[-98.09463331604921, 69.0401690993802], [-98.08910817199732, 69.04185412337932]]}, "properties": {"source": "15838162", "target": "35488390"}}, {"type": "Feature", "geometry": {"type": "LineString", "coordinates": [[-98.09463331604921, 69.0401690993802], [-98.08447702857453, 69.03827666004406]]}, "properties": {"source": "15838162", "target": "13556699"}}, {"type": "Feature", "geometry": {"type": "LineString", "coordinates": [[-98.08968801518677, 69.04226368863021], [-98.08489574385176, 69.03775473574325]]}, "properties": {"source": "3614544", "target": "22054062"}}, {"type": "Feature", "geometry": {"type": "LineString", "coordinates": [[-98.08968801518677, 69.04226368863021], [-98.08909355900813, 69.03838030313244]]}, "properties": {"source": "3614544", "target": "33287881"}}, {"type": "Feature", "geometry": {"type": "LineString", "coordinates": [[-98.08968801518677, 69.04226368863021], [-98.09328364861882, 69.03958246411867]]}, "properties": {"source": "3614544", "target": "34030962"}}, {"type": "Feature", "geometry": {"type": "LineString", "coordinates": [[-98.09126207857359, 69.04185220100115], [-98.08884591771324, 69.04092206530086]]}, "properties": {"source": "25426925", "target": "25617926"}}, {"type": "Feature", "geometry": {"type": "LineString", "coordinates": [[-98.09126207857359, 69.04185220100115], [-98.08910817199732, 69.04185412337932]]}, "properties": {"source": "25426925", "target": "35488390"}}, {"type": "Feature", "geometry": {"type": "LineString", "coordinates": [[-98.09591638063462, 69.03845840494591], [-98.09328364861882, 69.03958246411867]]}, "properties": {"source": "18132518", "target": "34030962"}}, {"type": "Feature", "geometry": {"type": "LineString", "coordinates": [[-98.09591638063462, 69.03845840494591], [-98.08378177480733, 69.0407127517868]]}, "properties": {"source": "18132518", "target": "23003659"}}, {"type": "Feature", "geometry": {"type": "LineString", "coordinates": [[-98.08915891802071, 69.04052725774525], [-98.09293672804411, 69.03961435573939]]}, "properties": {"source": "13248799", "target": "33636330"}}, {"type": "Feature", "geometry": {"type": "LineString", "coordinates": [[-98.08915891802071, 69.04052725774525], [-98.08884591771324, 69.04092206530086]]}, "properties": {"source": "13248799", "target": "25617926"}}, {"type": "Feature", "geometry": {"type": "LineString", "coordinates": [[-98.08915891802071, 69.04052725774525], [-98.0828608157858, 69.0375810673005]]}, "properties": {"source": "13248799", "target": "18300814"}}, {"type": "Feature", "geometry": {"type": "LineString", "coordinates": [[-98.08915891802071, 69.04052725774525], [-98.09541000526433, 69.04009216232242]]}, "properties": {"source": "13248799", "target": "33210626"}}, {"type": "Feature", "geometry": {"type": "LineString", "coordinates": [[-98.08915891802071, 69.04052725774525], [-98.08910817199732, 69.04185412337932]]}, "properties": {"source": "13248799", "target": "35488390"}}, {"type": "Feature", "geometry": {"type": "LineString", "coordinates": [[-98.09339630761467, 69.04292837680438], [-98.09293672804411, 69.03961435573939]]}, "properties": {"source": "12728322", "target": "33636330"}}, {"type": "Feature", "geometry": {"type": "LineString", "coordinates": [[-98.08331655924957, 69.03985402835642], [-98.09293672804411, 69.03961435573939]]}, "properties": {"source": "13540968", "target": "33636330"}}, {"type": "Feature", "geometry": {"type": "LineString", "coordinates": [[-98.08331655924957, 69.03985402835642], [-98.08909355900813, 69.03838030313244]]}, "properties": {"source": "13540968", "target": "33287881"}}, {"type": "Feature", "geometry": {"type": "LineString", "coordinates": [[-98.08331655924957, 69.03985402835642], [-98.09328364861882, 69.03958246411867]]}, "properties": {"source": "13540968", "target": "34030962"}}, {"type": "Feature", "geometry": {"type": "LineString", "coordinates": [[-98.08331655924957, 69.03985402835642], [-98.08378177480733, 69.0407127517868]]}, "properties": {"source": "13540968", "target": "23003659"}}, {"type": "Feature", "geometry": {"type": "LineString", "coordinates": [[-98.08331655924957, 69.03985402835642], [-98.09453826331287, 69.0421692213196]]}, "properties": {"source": "13540968", "target": "13450469"}}, {"type": "Feature", "geometry": {"type": "LineString", "coordinates": [[-98.09120418959428, 69.03979281266399], [-98.08331476253204, 69.0404680813372]]}, "properties": {"source": "32767634", "target": "32933213"}}, {"type": "Feature", "geometry": {"type": "LineString", "coordinates": [[-98.09120418959428, 69.03979281266399], [-98.0835763210951, 69.037769344413]]}, "properties": {"source": "32767634", "target": "3450324"}}, {"type": "Feature", "geometry": {"type": "LineString", "coordinates": [[-98.09120418959428, 69.03979281266399], [-98.0892576661575, 69.0378883737381]]}, "properties": {"source": "32767634", "target": "14353917"}}, {"type": "Feature", "geometry": {"type": "LineString", "coordinates": [[-98.09339630761467, 69.04292837680438], [-98.08378177480733, 69.0407127517868]]}, "properties": {"source": "12728322", "target": "23003659"}}, {"type": "Feature", "geometry": {"type": "LineString", "coordinates": [[-98.09671902014858, 69.03768088808602], [-98.09338079679411, 69.04280199431051]]}, "properties": {"source": "11854430", "target": "1292865"}}, {"type": "Feature", "geometry": {"type": "LineString", "coordinates": [[-98.09255140756746, 69.03728243766895], [-98.09293672804411, 69.03961435573939]]}, "properties": {"source": "589053", "target": "33636330"}}, {"type": "Feature", "geometry": {"type": "LineString", "coordinates": [[-98.09255140756746, 69.03728243766895], [-98.08909355900813, 69.03838030313244]]}, "properties": {"source": "589053", "target": "33287881"}}, {"type": "Feature", "geometry": {"type": "LineString", "coordinates": [[-98.09255140756746, 69.03728243766895], [-98.09328364861882, 69.03958246411867]]}, "properties": {"source": "589053", "target": "34030962"}}, {"type": "Feature", "geometry": {"type": "LineString", "coordinates": [[-98.09255140756746, 69.03728243766895], [-98.08378177480733, 69.0407127517868]]}, "properties": {"source": "589053", "target": "23003659"}}, {"type": "Feature", "geometry": {"type": "LineString", "coordinates": [[-98.09255140756746, 69.03728243766895], [-98.08968801518677, 69.04226368863021]]}, "properties": {"source": "589053", "target": "3614544"}}, {"type": "Feature", "geometry": {"type": "LineString", "coordinates": [[-98.09135268648276, 69.04169423075999], [-98.09293672804411, 69.03961435573939]]}, "properties": {"source": "16006898", "target": "33636330"}}, {"type": "Feature", "geometry": {"type": "LineString", "coordinates": [[-98.09135268648276, 69.04169423075999], [-98.08884591771324, 69.04092206530086]]}, "properties": {"source": "16006898", "target": "25617926"}}, {"type": "Feature", "geometry": {"type": "LineString", "coordinates": [[-98.09135268648276, 69.04169423075999], [-98.0828608157858, 69.0375810673005]]}, "properties": {"source": "16006898", "target": "18300814"}}, {"type": "Feature", "geometry": {"type": "LineString", "coordinates": [[-98.09135268648276, 69.04169423075999], [-98.09541000526433, 69.04009216232242]]}, "properties": {"source": "16006898", "target": "33210626"}}, {"type": "Feature", "geometry": {"type": "LineString", "coordinates": [[-98.09135268648276, 69.04169423075999], [-98.08910817199732, 69.04185412337932]]}, "properties": {"source": "16006898", "target": "35488390"}}, {"type": "Feature", "geometry": {"type": "LineString", "coordinates": [[-98.09405684083387, 69.03759617996536], [-98.09293672804411, 69.03961435573939]]}, "properties": {"source": "7907746", "target": "33636330"}}, {"type": "Feature", "geometry": {"type": "LineString", "coordinates": [[-98.09591638063462, 69.03845840494591], [-98.09293672804411, 69.03961435573939]]}, "properties": {"source": "18132518", "target": "33636330"}}, {"type": "Feature", "geometry": {"type": "LineString", "coordinates": [[-98.09591638063462, 69.03845840494591], [-98.08489574385176, 69.03775473574325]]}, "properties": {"source": "18132518", "target": "22054062"}}, {"type": "Feature", "geometry": {"type": "LineString", "coordinates": [[-98.09591638063462, 69.03845840494591], [-98.08909355900813, 69.03838030313244]]}, "properties": {"source": "18132518", "target": "33287881"}}, {"type": "Feature", "geometry": {"type": "LineString", "coordinates": [[-98.09120418959428, 69.03979281266399], [-98.09126207857359, 69.04185220100115]]}, "properties": {"source": "32767634", "target": "25426925"}}, {"type": "Feature", "geometry": {"type": "LineString", "coordinates": [[-98.09120418959428, 69.03979281266399], [-98.0833828611016, 69.03975611201591]]}, "properties": {"source": "32767634", "target": "578326"}}, {"type": "Feature", "geometry": {"type": "LineString", "coordinates": [[-98.09120418959428, 69.03979281266399], [-98.092528775584, 69.04169981524254]]}, "properties": {"source": "32767634", "target": "15726567"}}, {"type": "Feature", "geometry": {"type": "LineString", "coordinates": [[-98.09120418959428, 69.03979281266399], [-98.09673682590224, 69.04228212799711]]}, "properties": {"source": "32767634", "target": "31224971"}}, {"type": "Feature", "geometry": {"type": "LineString", "coordinates": [[-98.09120418959428, 69.03979281266399], [-98.09849231114315, 69.03790866911908]]}, "properties": {"source": "32767634", "target": "21860063"}}, {"type": "Feature", "geometry": {"type": "LineString", "coordinates": [[-98.09120418959428, 69.03979281266399], [-98.09058810683973, 69.03726100464655]]}, "properties": {"source": "32767634", "target": "147420"}}, {"type": "Feature", "geometry": {"type": "LineString", "coordinates": [[-98.09120418959428, 69.03979281266399], [-98.09393685795249, 69.03923891379927]]}, "properties": {"source": "32767634", "target": "1896443"}}, {"type": "Feature", "geometry": {"type": "LineString", "coordinates": [[-98.09120418959428, 69.03979281266399], [-98.09808864863447, 69.0389877038553]]}, "properties": {"source": "32767634", "target": "258090"}}, {"type": "Feature", "geometry": {"type": "LineString", "coordinates": [[-98.09120418959428, 69.03979281266399], [-98.08933363953197, 69.03769832783527]]}, "properties": {"source": "32767634", "target": "13001055"}}, {"type": "Feature", "geometry": {"type": "LineString", "coordinates": [[-98.09120418959428, 69.03979281266399], [-98.08972186189315, 69.04136983297579]]}, "properties": {"source": "32767634", "target": "9568989"}}, {"type": "Feature", "geometry": {"type": "LineString", "coordinates": [[-98.09120418959428, 69.03979281266399], [-98.08302036328215, 69.04131439301099]]}, "properties": {"source": "32767634", "target": "13100810"}}, {"type": "Feature", "geometry": {"type": "LineString", "coordinates": [[-98.08489574385176, 69.03775473574325], [-98.09328364861882, 69.03958246411867]]}, "properties": {"source": "22054062", "target": "34030962"}}, {"type": "Feature", "geometry": {"type": "LineString", "coordinates": [[-98.08489574385176, 69.03775473574325], [-98.09549552662028, 69.04179591215885]]}, "properties": {"source": "22054062", "target": "20810629"}}, {"type": "Feature", "geometry": {"type": "LineString", "coordinates": [[-98.0974758040801, 69.03930466857437], [-98.09058810683973, 69.03726100464655]]}, "properties": {"source": "2814557", "target": "147420"}}, {"type": "Feature", "geometry": {"type": "LineString", "coordinates": [[-98.0974758040801, 69.03930466857437], [-98.09393685795249, 69.03923891379927]]}, "properties": {"source": "2814557", "target": "1896443"}}, {"type": "Feature", "geometry": {"type": "LineString", "coordinates": [[-98.0974758040801, 69.03930466857437], [-98.09808864863447, 69.0389877038553]]}, "properties": {"source": "2814557", "target": "258090"}}, {"type": "Feature", "geometry": {"type": "LineString", "coordinates": [[-98.08489574385176, 69.03775473574325], [-98.0892576661575, 69.0378883737381]]}, "properties": {"source": "22054062", "target": "14353917"}}, {"type": "Feature", "geometry": {"type": "LineString", "coordinates": [[-98.08489574385176, 69.03775473574325], [-98.08667223463743, 69.04120129030287]]}, "properties": {"source": "22054062", "target": "18306188"}}, {"type": "Feature", "geometry": {"type": "LineString", "coordinates": [[-98.08489574385176, 69.03775473574325], [-98.0863668975142, 69.04316090265837]]}, "properties": {"source": "22054062", "target": "14287560"}}, {"type": "Feature", "geometry": {"type": "LineString", "coordinates": [[-98.08489574385176, 69.03775473574325], [-98.09306166531053, 69.04291097539269]]}, "properties": {"source": "22054062", "target": "17381652"}}, {"type": "Feature", "geometry": {"type": "LineString", "coordinates": [[-98.09082998973113, 69.04300540631274], [-98.09293672804411, 69.03961435573939]]}, "properties": {"source": "29806467", "target": "33636330"}}, {"type": "Feature", "geometry": {"type": "LineString", "coordinates": [[-98.09082998973113, 69.04300540631274], [-98.08884591771324, 69.04092206530086]]}, "properties": {"source": "29806467", "target": "25617926"}}, {"type": "Feature", "geometry": {"type": "LineString", "coordinates": [[-98.09082998973113, 69.04300540631274], [-98.09120418959428, 69.03979281266399]]}, "properties": {"source": "29806467", "target": "32767634"}}, {"type": "Feature", "geometry": {"type": "LineString", "coordinates": [[-98.09082998973113, 69.04300540631274], [-98.08489574385176, 69.03775473574325]]}, "properties": {"source": "29806467", "target": "22054062"}}, {"type": "Feature", "geometry": {"type": "LineString", "coordinates": [[-98.09082998973113, 69.04300540631274], [-98.09541000526433, 69.04009216232242]]}, "properties": {"source": "29806467", "target": "33210626"}}, {"type": "Feature", "geometry": {"type": "LineString", "coordinates": [[-98.09082998973113, 69.04300540631274], [-98.08735816524523, 69.03982008092615]]}, "properties": {"source": "29806467", "target": "32330646"}}, {"type": "Feature", "geometry": {"type": "LineString", "coordinates": [[-98.09082998973113, 69.04300540631274], [-98.08803742801481, 69.03824087634851]]}, "properties": {"source": "29806467", "target": "21479635"}}, {"type": "Feature", "geometry": {"type": "LineString", "coordinates": [[-98.09082998973113, 69.04300540631274], [-98.08910817199732, 69.04185412337932]]}, "properties": {"source": "29806467", "target": "35488390"}}, {"type": "Feature", "geometry": {"type": "LineString", "coordinates": [[-98.09082998973113, 69.04300540631274], [-98.08909355900813, 69.03838030313244]]}, "properties": {"source": "29806467", "target": "33287881"}}, {"type": "Feature", "geometry": {"type": "LineString", "coordinates": [[-98.09082998973113, 69.04300540631274], [-98.09328364861882, 69.03958246411867]]}, "properties": {"source": "29806467", "target": "34030962"}}, {"type": "Feature", "geometry": {"type": "LineString", "coordinates": [[-98.09082998973113, 69.04300540631274], [-98.08378177480733, 69.0407127517868]]}, "properties": {"source": "29806467", "target": "23003659"}}, {"type": "Feature", "geometry": {"type": "LineString", "coordinates": [[-98.09082998973113, 69.04300540631274], [-98.09058943426908, 69.04329717854509]]}, "properties": {"source": "29806467", "target": "23161818"}}, {"type": "Feature", "geometry": {"type": "LineString", "coordinates": [[-98.0983902271187, 69.04068983781295], [-98.09849231114315, 69.03790866911908]]}, "properties": {"source": "36240896", "target": "21860063"}}, {"type": "Feature", "geometry": {"type": "LineString", "coordinates": [[-98.0983902271187, 69.04068983781295], [-98.09058810683973, 69.03726100464655]]}, "properties": {"source": "36240896", "target": "147420"}}, {"type": "Feature", "geometry": {"type": "LineString", "coordinates": [[-98.0983902271187, 69.04068983781295], [-98.09808864863447, 69.0389877038553]]}, "properties": {"source": "36240896", "target": "258090"}}, {"type": "Feature", "geometry": {"type": "LineString", "coordinates": [[-98.0983902271187, 69.04068983781295], [-98.08693234342314, 69.03735044726125]]}, "properties": {"source": "36240896", "target": "7929117"}}, {"type": "Feature", "geometry": {"type": "LineString", "coordinates": [[-98.0835763210951, 69.037769344413], [-98.08735816524523, 69.03982008092615]]}, "properties": {"source": "3450324", "target": "32330646"}}, {"type": "Feature", "geometry": {"type": "LineString", "coordinates": [[-98.0835763210951, 69.037769344413], [-98.08465034538762, 69.04193469296982]]}, "properties": {"source": "3450324", "target": "32767633"}}, {"type": "Feature", "geometry": {"type": "LineString", "coordinates": [[-98.0835763210951, 69.037769344413], [-98.0974758040801, 69.03930466857437]]}, "properties": {"source": "3450324", "target": "2814557"}}, {"type": "Feature", "geometry": {"type": "LineString", "coordinates": [[-98.0835763210951, 69.037769344413], [-98.09849231114315, 69.03790866911908]]}, "properties": {"source": "3450324", "target": "21860063"}}, {"type": "Feature", "geometry": {"type": "LineString", "coordinates": [[-98.0835763210951, 69.037769344413], [-98.09058810683973, 69.03726100464655]]}, "properties": {"source": "3450324", "target": "147420"}}, {"type": "Feature", "geometry": {"type": "LineString", "coordinates": [[-98.0835763210951, 69.037769344413], [-98.09808864863447, 69.0389877038553]]}, "properties": {"source": "3450324", "target": "258090"}}, {"type": "Feature", "geometry": {"type": "LineString", "coordinates": [[-98.0835763210951, 69.037769344413], [-98.08693234342314, 69.03735044726125]]}, "properties": {"source": "3450324", "target": "7929117"}}, {"type": "Feature", "geometry": {"type": "LineString", "coordinates": [[-98.08111879480602, 69.03918136755607], [-98.09120418959428, 69.03979281266399]]}, "properties": {"source": "1896445", "target": "32767634"}}, {"type": "Feature", "geometry": {"type": "LineString", "coordinates": [[-98.08111879480602, 69.03918136755607], [-98.08735816524523, 69.03982008092615]]}, "properties": {"source": "1896445", "target": "32330646"}}, {"type": "Feature", "geometry": {"type": "LineString", "coordinates": [[-98.09339630761467, 69.04292837680438], [-98.08489574385176, 69.03775473574325]]}, "properties": {"source": "12728322", "target": "22054062"}}, {"type": "Feature", "geometry": {"type": "LineString", "coordinates": [[-98.09339630761467, 69.04292837680438], [-98.08909355900813, 69.03838030313244]]}, "properties": {"source": "12728322", "target": "33287881"}}, {"type": "Feature", "geometry": {"type": "LineString", "coordinates": [[-98.09339630761467, 69.04292837680438], [-98.09328364861882, 69.03958246411867]]}, "properties": {"source": "12728322", "target": "34030962"}}, {"type": "Feature", "geometry": {"type": "LineString", "coordinates": [[-98.092528775584, 69.04169981524254], [-98.09541000526433, 69.04009216232242]]}, "properties": {"source": "15726567", "target": "33210626"}}, {"type": "Feature", "geometry": {"type": "LineString", "coordinates": [[-98.092528775584, 69.04169981524254], [-98.08910817199732, 69.04185412337932]]}, "properties": {"source": "15726567", "target": "35488390"}}, {"type": "Feature", "geometry": {"type": "LineString", "coordinates": [[-98.09673682590224, 69.04228212799711], [-98.08884591771324, 69.04092206530086]]}, "properties": {"source": "31224971", "target": "25617926"}}, {"type": "Feature", "geometry": {"type": "LineString", "coordinates": [[-98.09673682590224, 69.04228212799711], [-98.08735816524523, 69.03982008092615]]}, "properties": {"source": "31224971", "target": "32330646"}}, {"type": "Feature", "geometry": {"type": "LineString", "coordinates": [[-98.09673682590224, 69.04228212799711], [-98.08910817199732, 69.04185412337932]]}, "properties": {"source": "31224971", "target": "35488390"}}, {"type": "Feature", "geometry": {"type": "LineString", "coordinates": [[-98.09058810683973, 69.03726100464655], [-98.08465034538762, 69.04193469296982]]}, "properties": {"source": "147420", "target": "32767633"}}, {"type": "Feature", "geometry": {"type": "LineString", "coordinates": [[-98.0903285884179, 69.04004734634677], [-98.08489574385176, 69.03775473574325]]}, "properties": {"source": "17564643", "target": "22054062"}}, {"type": "Feature", "geometry": {"type": "LineString", "coordinates": [[-98.0903285884179, 69.04004734634677], [-98.0828608157858, 69.0375810673005]]}, "properties": {"source": "17564643", "target": "18300814"}}, {"type": "Feature", "geometry": {"type": "LineString", "coordinates": [[-98.0903285884179, 69.04004734634677], [-98.08803742801481, 69.03824087634851]]}, "properties": {"source": "17564643", "target": "21479635"}}, {"type": "Feature", "geometry": {"type": "LineString", "coordinates": [[-98.0903285884179, 69.04004734634677], [-98.09058943426908, 69.04329717854509]]}, "properties": {"source": "17564643", "target": "23161818"}}, {"type": "Feature", "geometry": {"type": "LineString", "coordinates": [[-98.0903285884179, 69.04004734634677], [-98.09549552662028, 69.04179591215885]]}, "properties": {"source": "17564643", "target": "20810629"}}, {"type": "Feature", "geometry": {"type": "LineString", "coordinates": [[-98.0903285884179, 69.04004734634677], [-98.08253055090833, 69.04293521646332]]}, "properties": {"source": "17564643", "target": "17169155"}}, {"type": "Feature", "geometry": {"type": "LineString", "coordinates": [[-98.09225978517125, 69.04231924306544], [-98.09293672804411, 69.03961435573939]]}, "properties": {"source": "13496301", "target": "33636330"}}, {"type": "Feature", "geometry": {"type": "LineString", "coordinates": [[-98.09058943426908, 69.04329717854509], [-98.08884591771324, 69.04092206530086]]}, "properties": {"source": "23161818", "target": "25617926"}}, {"type": "Feature", "geometry": {"type": "LineString", "coordinates": [[-98.09058943426908, 69.04329717854509], [-98.08489574385176, 69.03775473574325]]}, "properties": {"source": "23161818", "target": "22054062"}}, {"type": "Feature", "geometry": {"type": "LineString", "coordinates": [[-98.09058943426908, 69.04329717854509], [-98.09549552662028, 69.04179591215885]]}, "properties": {"source": "23161818", "target": "20810629"}}, {"type": "Feature", "geometry": {"type": "LineString", "coordinates": [[-98.08331476253204, 69.0404680813372], [-98.09293672804411, 69.03961435573939]]}, "properties": {"source": "32933213", "target": "33636330"}}, {"type": "Feature", "geometry": {"type": "LineString", "coordinates": [[-98.08331476253204, 69.0404680813372], [-98.08884591771324, 69.04092206530086]]}, "properties": {"source": "32933213", "target": "25617926"}}, {"type": "Feature", "geometry": {"type": "LineString", "coordinates": [[-98.08331476253204, 69.0404680813372], [-98.09541000526433, 69.04009216232242]]}, "properties": {"source": "32933213", "target": "33210626"}}, {"type": "Feature", "geometry": {"type": "LineString", "coordinates": [[-98.08331476253204, 69.0404680813372], [-98.08735816524523, 69.03982008092615]]}, "properties": {"source": "32933213", "target": "32330646"}}, {"type": "Feature", "geometry": {"type": "LineString", "coordinates": [[-98.08331476253204, 69.0404680813372], [-98.08910817199732, 69.04185412337932]]}, "properties": {"source": "32933213", "target": "35488390"}}, {"type": "Feature", "geometry": {"type": "LineString", "coordinates": [[-98.08331476253204, 69.0404680813372], [-98.08465034538762, 69.04193469296982]]}, "properties": {"source": "32933213", "target": "32767633"}}, {"type": "Feature", "geometry": {"type": "LineString", "coordinates": [[-98.08331476253204, 69.0404680813372], [-98.0974758040801, 69.03930466857437]]}, "properties": {"source": "32933213", "target": "2814557"}}, {"type": "Feature", "geometry": {"type": "LineString", "coordinates": [[-98.08331476253204, 69.0404680813372], [-98.0835763210951, 69.037769344413]]}, "properties": {"source": "32933213", "target": "3450324"}}, {"type": "Feature", "geometry": {"type": "LineString", "coordinates": [[-98.08331476253204, 69.0404680813372], [-98.08972186189315, 69.04136983297579]]}, "properties": {"source": "32933213", "target": "9568989"}}, {"type": "Feature", "geometry": {"type": "LineString", "coordinates": [[-98.0983902271187, 69.04068983781295], [-98.09120418959428, 69.03979281266399]]}, "properties": {"source": "36240896", "target": "32767634"}}, {"type": "Feature", "geometry": {"type": "LineString", "coordinates": [[-98.0983902271187, 69.04068983781295], [-98.08735816524523, 69.03982008092615]]}, "properties": {"source": "36240896", "target": "32330646"}}, {"type": "Feature", "geometry": {"type": "LineString", "coordinates": [[-98.0983902271187, 69.04068983781295], [-98.08465034538762, 69.04193469296982]]}, "properties": {"source": "36240896", "target": "32767633"}}, {"type": "Feature", "geometry": {"type": "LineString", "coordinates": [[-98.0983902271187, 69.04068983781295], [-98.0974758040801, 69.03930466857437]]}, "properties": {"source": "36240896", "target": "2814557"}}, {"type": "Feature", "geometry": {"type": "LineString", "coordinates": [[-98.08901032698316, 69.03974777274638], [-98.09306166531053, 69.04291097539269]]}, "properties": {"source": "17687854", "target": "17381652"}}, {"type": "Feature", "geometry": {"type": "LineString", "coordinates": [[-98.08447702857453, 69.03827666004406], [-98.09541000526433, 69.04009216232242]]}, "properties": {"source": "13556699", "target": "33210626"}}, {"type": "Feature", "geometry": {"type": "LineString", "coordinates": [[-98.0931847748243, 69.03893105450774], [-98.09338079679411, 69.04280199431051]]}, "properties": {"source": "7763171", "target": "1292865"}}, {"type": "Feature", "geometry": {"type": "LineString", "coordinates": [[-98.09443729404177, 69.04020037942792], [-98.09849231114315, 69.03790866911908]]}, "properties": {"source": "21045663", "target": "21860063"}}, {"type": "Feature", "geometry": {"type": "LineString", "coordinates": [[-98.09223783631478, 69.04259002828042], [-98.08700131118907, 69.03819178976866]]}, "properties": {"source": "12049148", "target": "10340944"}}, {"type": "Feature", "geometry": {"type": "LineString", "coordinates": [[-98.09223783631478, 69.04259002828042], [-98.0907073533478, 69.04314602628136]]}, "properties": {"source": "12049148", "target": "11721896"}}, {"type": "Feature", "geometry": {"type": "LineString", "coordinates": [[-98.0909797253708, 69.0398473106207], [-98.09393685795249, 69.03923891379927]]}, "properties": {"source": "1627832", "target": "1896443"}}, {"type": "Feature", "geometry": {"type": "LineString", "coordinates": [[-98.0909797253708, 69.0398473106207], [-98.08632331616494, 69.04070455331865]]}, "properties": {"source": "1627832", "target": "6097921"}}, {"type": "Feature", "geometry": {"type": "LineString", "coordinates": [[-98.08632331616494, 69.04070455331865], [-98.09393685795249, 69.03923891379927]]}, "properties": {"source": "6097921", "target": "1896443"}}, {"type": "Feature", "geometry": {"type": "LineString", "coordinates": [[-98.09595513879843, 69.03870793984439], [-98.08880113668512, 69.03730778440382]]}, "properties": {"source": "11568073", "target": "15751452"}}, {"type": "Feature", "geometry": {"type": "LineString", "coordinates": [[-98.08320773856622, 69.04200703042235], [-98.09443729404177, 69.04020037942792]]}, "properties": {"source": "23204893", "target": "21045663"}}, {"type": "Feature", "geometry": {"type": "LineString", "coordinates": [[-98.09248155986482, 69.04097557703324], [-98.09393685795249, 69.03923891379927]]}, "properties": {"source": "10353529", "target": "1896443"}}, {"type": "Feature", "geometry": {"type": "LineString", "coordinates": [[-98.08884591771324, 69.04092206530086], [-98.08735816524523, 69.03982008092615]]}, "properties": {"source": "25617926", "target": "32330646"}}, {"type": "Feature", "geometry": {"type": "LineString", "coordinates": [[-98.08884591771324, 69.04092206530086], [-98.08910817199732, 69.04185412337932]]}, "properties": {"source": "25617926", "target": "35488390"}}, {"type": "Feature", "geometry": {"type": "LineString", "coordinates": [[-98.08884591771324, 69.04092206530086], [-98.09549552662028, 69.04179591215885]]}, "properties": {"source": "25617926", "target": "20810629"}}, {"type": "Feature", "geometry": {"type": "LineString", "coordinates": [[-98.0931847748243, 69.03893105450774], [-98.09671902014858, 69.03768088808602]]}, "properties": {"source": "7763171", "target": "11854430"}}, {"type": "Feature", "geometry": {"type": "LineString", "coordinates": [[-98.09225978517125, 69.04231924306544], [-98.08378177480733, 69.0407127517868]]}, "properties": {"source": "13496301", "target": "23003659"}}, {"type": "Feature", "geometry": {"type": "LineString", "coordinates": [[-98.09225978517125, 69.04231924306544], [-98.09911829496885, 69.03896576893789]]}, "properties": {"source": "13496301", "target": "13008075"}}, {"type": "Feature", "geometry": {"type": "LineString", "coordinates": [[-98.08253055090833, 69.04293521646332], [-98.08489574385176, 69.03775473574325]]}, "properties": {"source": "17169155", "target": "22054062"}}, {"type": "Feature", "geometry": {"type": "LineString", "coordinates": [[-98.08253055090833, 69.04293521646332], [-98.0828608157858, 69.0375810673005]]}, "properties": {"source": "17169155", "target": "18300814"}}, {"type": "Feature", "geometry": {"type": "LineString", "coordinates": [[-98.08253055090833, 69.04293521646332], [-98.08803742801481, 69.03824087634851]]}, "properties": {"source": "17169155", "target": "21479635"}}, {"type": "Feature", "geometry": {"type": "LineString", "coordinates": [[-98.08253055090833, 69.04293521646332], [-98.09058943426908, 69.04329717854509]]}, "properties": {"source": "17169155", "target": "23161818"}}, {"type": "Feature", "geometry": {"type": "LineString", "coordinates": [[-98.08253055090833, 69.04293521646332], [-98.09549552662028, 69.04179591215885]]}, "properties": {"source": "17169155", "target": "20810629"}}, {"type": "Feature", "geometry": {"type": "LineString", "coordinates": [[-98.08641004795325, 69.04130629583645], [-98.08884591771324, 69.04092206530086]]}, "properties": {"source": "28924961", "target": "25617926"}}, {"type": "Feature", "geometry": {"type": "LineString", "coordinates": [[-98.08641004795325, 69.04130629583645], [-98.09338079679411, 69.04280199431051]]}, "properties": {"source": "28924961", "target": "1292865"}}, {"type": "Feature", "geometry": {"type": "LineString", "coordinates": [[-98.08641004795325, 69.04130629583645], [-98.09841230263886, 69.04264971052899]]}, "properties": {"source": "28924961", "target": "29765548"}}, {"type": "Feature", "geometry": {"type": "LineString", "coordinates": [[-98.08641004795325, 69.04130629583645], [-98.09713594726261, 69.03790467506343]]}, "properties": {"source": "28924961", "target": "1264712"}}, {"type": "Feature", "geometry": {"type": "LineString", "coordinates": [[-98.08641004795325, 69.04130629583645], [-98.09589491082083, 69.04063564800276]]}, "properties": {"source": "28924961", "target": "219166"}}, {"type": "Feature", "geometry": {"type": "LineString", "coordinates": [[-98.0833828611016, 69.03975611201591], [-98.08693234342314, 69.03735044726125]]}, "properties": {"source": "578326", "target": "7929117"}}, {"type": "Feature", "geometry": {"type": "LineString", "coordinates": [[-98.092528775584, 69.04169981524254], [-98.09293672804411, 69.03961435573939]]}, "properties": {"source": "15726567", "target": "33636330"}}, {"type": "Feature", "geometry": {"type": "LineString", "coordinates": [[-98.092528775584, 69.04169981524254], [-98.08884591771324, 69.04092206530086]]}, "properties": {"source": "15726567", "target": "25617926"}}, {"type": "Feature", "geometry": {"type": "LineString", "coordinates": [[-98.08641004795325, 69.04130629583645], [-98.09671902014858, 69.03768088808602]]}, "properties": {"source": "28924961", "target": "11854430"}}, {"type": "Feature", "geometry": {"type": "LineString", "coordinates": [[-98.08111879480602, 69.03918136755607], [-98.08465034538762, 69.04193469296982]]}, "properties": {"source": "1896445", "target": "32767633"}}, {"type": "Feature", "geometry": {"type": "LineString", "coordinates": [[-98.08111879480602, 69.03918136755607], [-98.0974758040801, 69.03930466857437]]}, "properties": {"source": "1896445", "target": "2814557"}}, {"type": "Feature", "geometry": {"type": "LineString", "coordinates": [[-98.08111879480602, 69.03918136755607], [-98.0983902271187, 69.04068983781295]]}, "properties": {"source": "1896445", "target": "36240896"}}, {"type": "Feature", "geometry": {"type": "LineString", "coordinates": [[-98.08111879480602, 69.03918136755607], [-98.0835763210951, 69.037769344413]]}, "properties": {"source": "1896445", "target": "3450324"}}, {"type": "Feature", "geometry": {"type": "LineString", "coordinates": [[-98.08111879480602, 69.03918136755607], [-98.0833828611016, 69.03975611201591]]}, "properties": {"source": "1896445", "target": "578326"}}, {"type": "Feature", "geometry": {"type": "LineString", "coordinates": [[-98.08111879480602, 69.03918136755607], [-98.09058810683973, 69.03726100464655]]}, "properties": {"source": "1896445", "target": "147420"}}, {"type": "Feature", "geometry": {"type": "LineString", "coordinates": [[-98.08111879480602, 69.03918136755607], [-98.09393685795249, 69.03923891379927]]}, "properties": {"source": "1896445", "target": "1896443"}}, {"type": "Feature", "geometry": {"type": "LineString", "coordinates": [[-98.08111879480602, 69.03918136755607], [-98.08933363953197, 69.03769832783527]]}, "properties": {"source": "1896445", "target": "13001055"}}, {"type": "Feature", "geometry": {"type": "LineString", "coordinates": [[-98.08111879480602, 69.03918136755607], [-98.08302036328215, 69.04131439301099]]}, "properties": {"source": "1896445", "target": "13100810"}}, {"type": "Feature", "geometry": {"type": "LineString", "coordinates": [[-98.09549552662028, 69.04179591215885], [-98.08667223463743, 69.04120129030287]]}, "properties": {"source": "20810629", "target": "18306188"}}, {"type": "Feature", "geometry": {"type": "LineString", "coordinates": [[-98.0892576661575, 69.0378883737381], [-98.08910817199732, 69.04185412337932]]}, "properties": {"source": "14353917", "target": "35488390"}}, {"type": "Feature", "geometry": {"type": "LineString", "coordinates": [[-98.0892576661575, 69.0378883737381], [-98.0925246791319, 69.0420549888068]]}, "properties": {"source": "14353917", "target": "14452919"}}, {"type": "Feature", "geometry": {"type": "LineString", "coordinates": [[-98.09330852716248, 69.0386705041453], [-98.09293672804411, 69.03961435573939]]}, "properties": {"source": "15995734", "target": "33636330"}}, {"type": "Feature", "geometry": {"type": "LineString", "coordinates": [[-98.09330852716248, 69.0386705041453], [-98.08884591771324, 69.04092206530086]]}, "properties": {"source": "15995734", "target": "25617926"}}, {"type": "Feature", "geometry": {"type": "LineString", "coordinates": [[-98.09330852716248, 69.0386705041453], [-98.0828608157858, 69.0375810673005]]}, "properties": {"source": "15995734", "target": "18300814"}}, {"type": "Feature", "geometry": {"type": "LineString", "coordinates": [[-98.09330852716248, 69.0386705041453], [-98.09541000526433, 69.04009216232242]]}, "properties": {"source": "15995734", "target": "33210626"}}, {"type": "Feature", "geometry": {"type": "LineString", "coordinates": [[-98.09058943426908, 69.04329717854509], [-98.09126207857359, 69.04185220100115]]}, "properties": {"source": "23161818", "target": "25426925"}}, {"type": "Feature", "geometry": {"type": "LineString", "coordinates": [[-98.09058943426908, 69.04329717854509], [-98.09673682590224, 69.04228212799711]]}, "properties": {"source": "23161818", "target": "31224971"}}, {"type": "Feature", "geometry": {"type": "LineString", "coordinates": [[-98.09058943426908, 69.04329717854509], [-98.09849231114315, 69.03790866911908]]}, "properties": {"source": "23161818", "target": "21860063"}}, {"type": "Feature", "geometry": {"type": "LineString", "coordinates": [[-98.09058943426908, 69.04329717854509], [-98.08667223463743, 69.04120129030287]]}, "properties": {"source": "23161818", "target": "18306188"}}, {"type": "Feature", "geometry": {"type": "LineString", "coordinates": [[-98.09058943426908, 69.04329717854509], [-98.09653683813856, 69.03738429379436]]}, "properties": {"source": "23161818", "target": "17565347"}}, {"type": "Feature", "geometry": {"type": "LineString", "coordinates": [[-98.09058943426908, 69.04329717854509], [-98.09443729404177, 69.04020037942792]]}, "properties": {"source": "23161818", "target": "21045663"}}, {"type": "Feature", "geometry": {"type": "LineString", "coordinates": [[-98.09058943426908, 69.04329717854509], [-98.08320773856622, 69.04200703042235]]}, "properties": {"source": "23161818", "target": "23204893"}}, {"type": "Feature", "geometry": {"type": "LineString", "coordinates": [[-98.08465034538762, 69.04193469296982], [-98.09849231114315, 69.03790866911908]]}, "properties": {"source": "32767633", "target": "21860063"}}, {"type": "Feature", "geometry": {"type": "LineString", "coordinates": [[-98.08465034538762, 69.04193469296982], [-98.09393685795249, 69.03923891379927]]}, "properties": {"source": "32767633", "target": "1896443"}}, {"type": "Feature", "geometry": {"type": "LineString", "coordinates": [[-98.08465034538762, 69.04193469296982], [-98.09808864863447, 69.0389877038553]]}, "properties": {"source": "32767633", "target": "258090"}}, {"type": "Feature", "geometry": {"type": "LineString", "coordinates": [[-98.0974758040801, 69.03930466857437], [-98.08735816524523, 69.03982008092615]]}, "properties": {"source": "2814557", "target": "32330646"}}, {"type": "Feature", "geometry": {"type": "LineString", "coordinates": [[-98.0974758040801, 69.03930466857437], [-98.08465034538762, 69.04193469296982]]}, "properties": {"source": "2814557", "target": "32767633"}}, {"type": "Feature", "geometry": {"type": "LineString", "coordinates": [[-98.0974758040801, 69.03930466857437], [-98.09849231114315, 69.03790866911908]]}, "properties": {"source": "2814557", "target": "21860063"}}, {"type": "Feature", "geometry": {"type": "LineString", "coordinates": [[-98.0983902271187, 69.04068983781295], [-98.08331476253204, 69.0404680813372]]}, "properties": {"source": "36240896", "target": "32933213"}}, {"type": "Feature", "geometry": {"type": "LineString", "coordinates": [[-98.0983902271187, 69.04068983781295], [-98.0835763210951, 69.037769344413]]}, "properties": {"source": "36240896", "target": "3450324"}}, {"type": "Feature", "geometry": {"type": "LineString", "coordinates": [[-98.0983902271187, 69.04068983781295], [-98.0833828611016, 69.03975611201591]]}, "properties": {"source": "36240896", "target": "578326"}}, {"type": "Feature", "geometry": {"type": "LineString", "coordinates": [[-98.09330852716248, 69.0386705041453], [-98.08803742801481, 69.03824087634851]]}, "properties": {"source": "15995734", "target": "21479635"}}, {"type": "Feature", "geometry": {"type": "LineString", "coordinates": [[-98.09330852716248, 69.0386705041453], [-98.08910817199732, 69.04185412337932]]}, "properties": {"source": "15995734", "target": "35488390"}}, {"type": "Feature", "geometry": {"type": "LineString", "coordinates": [[-98.09330852716248, 69.0386705041453], [-98.08364276801439, 69.04057885560172]]}, "properties": {"source": "15995734", "target": "15845608"}}, {"type": "Feature", "geometry": {"type": "LineString", "coordinates": [[-98.09330852716248, 69.0386705041453], [-98.08901032698316, 69.03974777274638]]}, "properties": {"source": "15995734", "target": "17687854"}}, {"type": "Feature", "geometry": {"type": "LineString", "coordinates": [[-98.09330852716248, 69.0386705041453], [-98.08908593222623, 69.04321727408797]]}, "properties": {"source": "15995734", "target": "13438344"}}, {"type": "Feature", "geometry": {"type": "LineString", "coordinates": [[-98.0899423766051, 69.0407442544884], [-98.09293672804411, 69.03961435573939]]}, "properties": {"source": "15524270", "target": "33636330"}}, {"type": "Feature", "geometry": {"type": "LineString", "coordinates": [[-98.0899423766051, 69.0407442544884], [-98.08884591771324, 69.04092206530086]]}, "properties": {"source": "15524270", "target": "25617926"}}, {"type": "Feature", "geometry": {"type": "LineString", "coordinates": [[-98.0899423766051, 69.0407442544884], [-98.0828608157858, 69.0375810673005]]}, "properties": {"source": "15524270", "target": "18300814"}}, {"type": "Feature", "geometry": {"type": "LineString", "coordinates": [[-98.0899423766051, 69.0407442544884], [-98.09541000526433, 69.04009216232242]]}, "properties": {"source": "15524270", "target": "33210626"}}, {"type": "Feature", "geometry": {"type": "LineString", "coordinates": [[-98.0899423766051, 69.0407442544884], [-98.08803742801481, 69.03824087634851]]}, "properties": {"source": "15524270", "target": "21479635"}}, {"type": "Feature", "geometry": {"type": "LineString", "coordinates": [[-98.0899423766051, 69.0407442544884], [-98.08910817199732, 69.04185412337932]]}, "properties": {"source": "15524270", "target": "35488390"}}, {"type": "Feature", "geometry": {"type": "LineString", "coordinates": [[-98.0899423766051, 69.0407442544884], [-98.09463331604921, 69.0401690993802]]}, "properties": {"source": "15524270", "target": "15838162"}}, {"type": "Feature", "geometry": {"type": "LineString", "coordinates": [[-98.0899423766051, 69.0407442544884], [-98.08700131118907, 69.03819178976866]]}, "properties": {"source": "15524270", "target": "10340944"}}, {"type": "Feature", "geometry": {"type": "LineString", "coordinates": [[-98.0899423766051, 69.0407442544884], [-98.08447702857453, 69.03827666004406]]}, "properties": {"source": "15524270", "target": "13556699"}}, {"type": "Feature", "geometry": {"type": "LineString", "coordinates": [[-98.0810925794391, 69.03871437940626], [-98.09293672804411, 69.03961435573939]]}, "properties": {"source": "16061482", "target": "33636330"}}, {"type": "Feature", "geometry": {"type": "LineString", "coordinates": [[-98.0810925794391, 69.03871437940626], [-98.08489574385176, 69.03775473574325]]}, "properties": {"source": "16061482", "target": "22054062"}}, {"type": "Feature", "geometry": {"type": "LineString", "coordinates": [[-98.09405684083387, 69.03759617996536], [-98.08909355900813, 69.03838030313244]]}, "properties": {"source": "7907746", "target": "33287881"}}, {"type": "Feature", "geometry": {"type": "LineString", "coordinates": [[-98.09405684083387, 69.03759617996536], [-98.09328364861882, 69.03958246411867]]}, "properties": {"source": "7907746", "target": "34030962"}}, {"type": "Feature", "geometry": {"type": "LineString", "coordinates": [[-98.09405684083387, 69.03759617996536], [-98.08968801518677, 69.04226368863021]]}, "properties": {"source": "7907746", "target": "3614544"}}, {"type": "Feature", "geometry": {"type": "LineString", "coordinates": [[-98.09405684083387, 69.03759617996536], [-98.09595513879843, 69.03870793984439]]}, "properties": {"source": "7907746", "target": "11568073"}}, {"type": "Feature", "geometry": {"type": "LineString", "coordinates": [[-98.09828104303091, 69.0405971376434], [-98.08884591771324, 69.04092206530086]]}, "properties": {"source": "22589528", "target": "25617926"}}, {"type": "Feature", "geometry": {"type": "LineString", "coordinates": [[-98.09828104303091, 69.0405971376434], [-98.09058943426908, 69.04329717854509]]}, "properties": {"source": "22589528", "target": "23161818"}}, {"type": "Feature", "geometry": {"type": "LineString", "coordinates": [[-98.09841230263886, 69.04264971052899], [-98.08884591771324, 69.04092206530086]]}, "properties": {"source": "29765548", "target": "25617926"}}, {"type": "Feature", "geometry": {"type": "LineString", "coordinates": [[-98.09841230263886, 69.04264971052899], [-98.09338079679411, 69.04280199431051]]}, "properties": {"source": "29765548", "target": "1292865"}}, {"type": "Feature", "geometry": {"type": "LineString", "coordinates": [[-98.08192936676771, 69.03843326218495], [-98.09293672804411, 69.03961435573939]]}, "properties": {"source": "21266180", "target": "33636330"}}, {"type": "Feature", "geometry": {"type": "LineString", "coordinates": [[-98.08192936676771, 69.03843326218495], [-98.08909355900813, 69.03838030313244]]}, "properties": {"source": "21266180", "target": "33287881"}}, {"type": "Feature", "geometry": {"type": "LineString", "coordinates": [[-98.08192936676771, 69.03843326218495], [-98.09328364861882, 69.03958246411867]]}, "properties": {"source": "21266180", "target": "34030962"}}, {"type": "Feature", "geometry": {"type": "LineString", "coordinates": [[-98.08192936676771, 69.03843326218495], [-98.08378177480733, 69.0407127517868]]}, "properties": {"source": "21266180", "target": "23003659"}}, {"type": "Feature", "geometry": {"type": "LineString", "coordinates": [[-98.08933363953197, 69.03769832783527], [-98.08735816524523, 69.03982008092615]]}, "properties": {"source": "13001055", "target": "32330646"}}, {"type": "Feature", "geometry": {"type": "LineString", "coordinates": [[-98.08933363953197, 69.03769832783527], [-98.08465034538762, 69.04193469296982]]}, "properties": {"source": "13001055", "target": "32767633"}}, {"type": "Feature", "geometry": {"type": "LineString", "coordinates": [[-98.08933363953197, 69.03769832783527], [-98.0974758040801, 69.03930466857437]]}, "properties": {"source": "13001055", "target": "2814557"}}, {"type": "Feature", "geometry": {"type": "LineString", "coordinates": [[-98.09841230263886, 69.04264971052899], [-98.09671902014858, 69.03768088808602]]}, "properties": {"source": "29765548", "target": "11854430"}}, {"type": "Feature", "geometry": {"type": "LineString", "coordinates": [[-98.09293672804411, 69.03961435573939], [-98.08884591771324, 69.04092206530086]]}, "properties": {"source": "33636330", "target": "25617926"}}, {"type": "Feature", "geometry": {"type": "LineString", "coordinates": [[-98.09293672804411, 69.03961435573939], [-98.08489574385176, 69.03775473574325]]}, "properties": {"source": "33636330", "target": "22054062"}}, {"type": "Feature", "geometry": {"type": "LineString", "coordinates": [[-98.09293672804411, 69.03961435573939], [-98.09541000526433, 69.04009216232242]]}, "properties": {"source": "33636330", "target": "33210626"}}, {"type": "Feature", "geometry": {"type": "LineString", "coordinates": [[-98.09293672804411, 69.03961435573939], [-98.08735816524523, 69.03982008092615]]}, "properties": {"source": "33636330", "target": "32330646"}}, {"type": "Feature", "geometry": {"type": "LineString", "coordinates": [[-98.09293672804411, 69.03961435573939], [-98.08910817199732, 69.04185412337932]]}, "properties": {"source": "33636330", "target": "35488390"}}, {"type": "Feature", "geometry": {"type": "LineString", "coordinates": [[-98.09293672804411, 69.03961435573939], [-98.08909355900813, 69.03838030313244]]}, "properties": {"source": "33636330", "target": "33287881"}}, {"type": "Feature", "geometry": {"type": "LineString", "coordinates": [[-98.09293672804411, 69.03961435573939], [-98.09328364861882, 69.03958246411867]]}, "properties": {"source": "33636330", "target": "34030962"}}, {"type": "Feature", "geometry": {"type": "LineString", "coordinates": [[-98.09293672804411, 69.03961435573939], [-98.0892576661575, 69.0378883737381]]}, "properties": {"source": "33636330", "target": "14353917"}}, {"type": "Feature", "geometry": {"type": "LineString", "coordinates": [[-98.09293672804411, 69.03961435573939], [-98.08968801518677, 69.04226368863021]]}, "properties": {"source": "33636330", "target": "3614544"}}, {"type": "Feature", "geometry": {"type": "LineString", "coordinates": [[-98.09293672804411, 69.03961435573939], [-98.09126207857359, 69.04185220100115]]}, "properties": {"source": "33636330", "target": "25426925"}}, {"type": "Feature", "geometry": {"type": "LineString", "coordinates": [[-98.09293672804411, 69.03961435573939], [-98.09673682590224, 69.04228212799711]]}, "properties": {"source": "33636330", "target": "31224971"}}, {"type": "Feature", "geometry": {"type": "LineString", "coordinates": [[-98.09293672804411, 69.03961435573939], [-98.0863668975142, 69.04316090265837]]}, "properties": {"source": "33636330", "target": "14287560"}}, {"type": "Feature", "geometry": {"type": "LineString", "coordinates": [[-98.09293672804411, 69.03961435573939], [-98.08880113668512, 69.03730778440382]]}, "properties": {"source": "33636330", "target": "15751452"}}, {"type": "Feature", "geometry": {"type": "LineString", "coordinates": [[-98.09293672804411, 69.03961435573939], [-98.08257101740475, 69.03818487125267]]}, "properties": {"source": "33636330", "target": "15881018"}}, {"type": "Feature", "geometry": {"type": "LineString", "coordinates": [[-98.09293672804411, 69.03961435573939], [-98.0947126282512, 69.04176626185927]]}, "properties": {"source": "33636330", "target": "12025985"}}, {"type": "Feature", "geometry": {"type": "LineString", "coordinates": [[-98.08884591771324, 69.04092206530086], [-98.08489574385176, 69.03775473574325]]}, "properties": {"source": "25617926", "target": "22054062"}}, {"type": "Feature", "geometry": {"type": "LineString", "coordinates": [[-98.08735816524523, 69.03982008092615], [-98.09808864863447, 69.0389877038553]]}, "properties": {"source": "32330646", "target": "258090"}}, {"type": "Feature", "geometry": {"type": "LineString", "coordinates": [[-98.08735816524523, 69.03982008092615], [-98.08099559509901, 69.03792479147717]]}, "properties": {"source": "32330646", "target": "23634656"}}, {"type": "Feature", "geometry": {"type": "LineString", "coordinates": [[-98.08228763859854, 69.04307236487924], [-98.09293672804411, 69.03961435573939]]}, "properties": {"source": "25535139", "target": "33636330"}}, {"type": "Feature", "geometry": {"type": "LineString", "coordinates": [[-98.08228763859854, 69.04307236487924], [-98.08884591771324, 69.04092206530086]]}, "properties": {"source": "25535139", "target": "25617926"}}, {"type": "Feature", "geometry": {"type": "LineString", "coordinates": [[-98.08228763859854, 69.04307236487924], [-98.09120418959428, 69.03979281266399]]}, "properties": {"source": "25535139", "target": "32767634"}}, {"type": "Feature", "geometry": {"type": "LineString", "coordinates": [[-98.08228763859854, 69.04307236487924], [-98.08489574385176, 69.03775473574325]]}, "properties": {"source": "25535139", "target": "22054062"}}, {"type": "Feature", "geometry": {"type": "LineString", "coordinates": [[-98.08228763859854, 69.04307236487924], [-98.09082998973113, 69.04300540631274]]}, "properties": {"source": "25535139", "target": "29806467"}}, {"type": "Feature", "geometry": {"type": "LineString", "coordinates": [[-98.08228763859854, 69.04307236487924], [-98.0828608157858, 69.0375810673005]]}, "properties": {"source": "25535139", "target": "18300814"}}, {"type": "Feature", "geometry": {"type": "LineString", "coordinates": [[-98.08228763859854, 69.04307236487924], [-98.09541000526433, 69.04009216232242]]}, "properties": {"source": "25535139", "target": "33210626"}}, {"type": "Feature", "geometry": {"type": "LineString", "coordinates": [[-98.08228763859854, 69.04307236487924], [-98.08735816524523, 69.03982008092615]]}, "properties": {"source": "25535139", "target": "32330646"}}, {"type": "Feature", "geometry": {"type": "LineString", "coordinates": [[-98.08228763859854, 69.04307236487924], [-98.08803742801481, 69.03824087634851]]}, "properties": {"source": "25535139", "target": "21479635"}}, {"type": "Feature", "geometry": {"type": "LineString", "coordinates": [[-98.08228763859854, 69.04307236487924], [-98.08910817199732, 69.04185412337932]]}, "properties": {"source": "25535139", "target": "35488390"}}, {"type": "Feature", "geometry": {"type": "LineString", "coordinates": [[-98.08228763859854, 69.04307236487924], [-98.09058943426908, 69.04329717854509]]}, "properties": {"source": "25535139", "target": "23161818"}}, {"type": "Feature", "geometry": {"type": "LineString", "coordinates": [[-98.08228763859854, 69.04307236487924], [-98.08331476253204, 69.0404680813372]]}, "properties": {"source": "25535139", "target": "32933213"}}, {"type": "Feature", "geometry": {"type": "LineString", "coordinates": [[-98.08228763859854, 69.04307236487924], [-98.09549552662028, 69.04179591215885]]}, "properties": {"source": "25535139", "target": "20810629"}}, {"type": "Feature", "geometry": {"type": "LineString", "coordinates": [[-98.08228763859854, 69.04307236487924], [-98.0892576661575, 69.0378883737381]]}, "properties": {"source": "25535139", "target": "14353917"}}, {"type": "Feature", "geometry": {"type": "LineString", "coordinates": [[-98.08972186189315, 69.04136983297579], [-98.09293672804411, 69.03961435573939]]}, "properties": {"source": "9568989", "target": "33636330"}}, {"type": "Feature", "geometry": {"type": "LineString", "coordinates": [[-98.08972186189315, 69.04136983297579], [-98.09541000526433, 69.04009216232242]]}, "properties": {"source": "9568989", "target": "33210626"}}, {"type": "Feature", "geometry": {"type": "LineString", "coordinates": [[-98.08972186189315, 69.04136983297579], [-98.08910817199732, 69.04185412337932]]}, "properties": {"source": "9568989", "target": "35488390"}}, {"type": "Feature", "geometry": {"type": "LineString", "coordinates": [[-98.08880113668512, 69.03730778440382], [-98.08909355900813, 69.03838030313244]]}, "properties": {"source": "15751452", "target": "33287881"}}, {"type": "Feature", "geometry": {"type": "LineString", "coordinates": [[-98.08880113668512, 69.03730778440382], [-98.09328364861882, 69.03958246411867]]}, "properties": {"source": "15751452", "target": "34030962"}}, {"type": "Feature", "geometry": {"type": "LineString", "coordinates": [[-98.09653683813856, 69.03738429379436], [-98.08489574385176, 69.03775473574325]]}, "properties": {"source": "17565347", "target": "22054062"}}, {"type": "Feature", "geometry": {"type": "LineString", "coordinates": [[-98.09653683813856, 69.03738429379436], [-98.09549552662028, 69.04179591215885]]}, "properties": {"source": "17565347", "target": "20810629"}}, {"type": "Feature", "geometry": {"type": "LineString", "coordinates": [[-98.08257101740475, 69.03818487125267], [-98.08910817199732, 69.04185412337932]]}, "properties": {"source": "15881018", "target": "35488390"}}, {"type": "Feature", "geometry": {"type": "LineString", "coordinates": [[-98.08153005365918, 69.03722885102923], [-98.09120418959428, 69.03979281266399]]}, "properties": {"source": "25913788", "target": "32767634"}}, {"type": "Feature", "geometry": {"type": "LineString", "coordinates": [[-98.08153005365918, 69.03722885102923], [-98.08735816524523, 69.03982008092615]]}, "properties": {"source": "25913788", "target": "32330646"}}, {"type": "Feature", "geometry": {"type": "LineString", "coordinates": [[-98.08153005365918, 69.03722885102923], [-98.08465034538762, 69.04193469296982]]}, "properties": {"source": "25913788", "target": "32767633"}}, {"type": "Feature", "geometry": {"type": "LineString", "coordinates": [[-98.08153005365918, 69.03722885102923], [-98.0974758040801, 69.03930466857437]]}, "properties": {"source": "25913788", "target": "2814557"}}, {"type": "Feature", "geometry": {"type": "LineString", "coordinates": [[-98.09713594726261, 69.03790467506343], [-98.08884591771324, 69.04092206530086]]}, "properties": {"source": "1264712", "target": "25617926"}}, {"type": "Feature", "geometry": {"type": "LineString", "coordinates": [[-98.08700131118907, 69.03819178976866], [-98.09463331604921, 69.0401690993802]]}, "properties": {"source": "10340944", "target": "15838162"}}, {"type": "Feature", "geometry": {"type": "LineString", "coordinates": [[-98.08700131118907, 69.03819178976866], [-98.0907073533478, 69.04314602628136]]}, "properties": {"source": "10340944", "target": "11721896"}}, {"type": "Feature", "geometry": {"type": "LineString", "coordinates": [[-98.09713594726261, 69.03790467506343], [-98.09671902014858, 69.03768088808602]]}, "properties": {"source": "1264712", "target": "11854430"}}, {"type": "Feature", "geometry": {"type": "LineString", "coordinates": [[-98.09719043373558, 69.04275844946895], [-98.09293672804411, 69.03961435573939]]}, "properties": {"source": "13420791", "target": "33636330"}}, {"type": "Feature", "geometry": {"type": "LineString", "coordinates": [[-98.09719043373558, 69.04275844946895], [-98.08489574385176, 69.03775473574325]]}, "properties": {"source": "13420791", "target": "22054062"}}, {"type": "Feature", "geometry": {"type": "LineString", "coordinates": [[-98.09719043373558, 69.04275844946895], [-98.08909355900813, 69.03838030313244]]}, "properties": {"source": "13420791", "target": "33287881"}}, {"type": "Feature", "geometry": {"type": "LineString", "coordinates": [[-98.09719043373558, 69.04275844946895], [-98.09328364861882, 69.03958246411867]]}, "properties": {"source": "13420791", "target": "34030962"}}, {"type": "Feature", "geometry": {"type": "LineString", "coordinates": [[-98.09719043373558, 69.04275844946895], [-98.08378177480733, 69.0407127517868]]}, "properties": {"source": "13420791", "target": "23003659"}}, {"type": "Feature", "geometry": {"type": "LineString", "coordinates": [[-98.09719043373558, 69.04275844946895], [-98.09453826331287, 69.0421692213196]]}, "properties": {"source": "13420791", "target": "13450469"}}, {"type": "Feature", "geometry": {"type": "LineString", "coordinates": [[-98.09453826331287, 69.0421692213196], [-98.09293672804411, 69.03961435573939]]}, "properties": {"source": "13450469", "target": "33636330"}}, {"type": "Feature", "geometry": {"type": "LineString", "coordinates": [[-98.09453826331287, 69.0421692213196], [-98.08489574385176, 69.03775473574325]]}, "properties": {"source": "13450469", "target": "22054062"}}, {"type": "Feature", "geometry": {"type": "LineString", "coordinates": [[-98.09453826331287, 69.0421692213196], [-98.08909355900813, 69.03838030313244]]}, "properties": {"source": "13450469", "target": "33287881"}}, {"type": "Feature", "geometry": {"type": "LineString", "coordinates": [[-98.09453826331287, 69.0421692213196], [-98.09328364861882, 69.03958246411867]]}, "properties": {"source": "13450469", "target": "34030962"}}, {"type": "Feature", "geometry": {"type": "LineString", "coordinates": [[-98.09453826331287, 69.0421692213196], [-98.08378177480733, 69.0407127517868]]}, "properties": {"source": "13450469", "target": "23003659"}}, {"type": "Feature", "geometry": {"type": "LineString", "coordinates": [[-98.0833828611016, 69.03975611201591], [-98.08735816524523, 69.03982008092615]]}, "properties": {"source": "578326", "target": "32330646"}}, {"type": "Feature", "geometry": {"type": "LineString", "coordinates": [[-98.0833828611016, 69.03975611201591], [-98.08465034538762, 69.04193469296982]]}, "properties": {"source": "578326", "target": "32767633"}}, {"type": "Feature", "geometry": {"type": "LineString", "coordinates": [[-98.0833828611016, 69.03975611201591], [-98.0974758040801, 69.03930466857437]]}, "properties": {"source": "578326", "target": "2814557"}}, {"type": "Feature", "geometry": {"type": "LineString", "coordinates": [[-98.0833828611016, 69.03975611201591], [-98.0835763210951, 69.037769344413]]}, "properties": {"source": "578326", "target": "3450324"}}, {"type": "Feature", "geometry": {"type": "LineString", "coordinates": [[-98.09719043373558, 69.04275844946895], [-98.08331655924957, 69.03985402835642]]}, "properties": {"source": "13420791", "target": "13540968"}}, {"type": "Feature", "geometry": {"type": "LineString", "coordinates": [[-98.09713594726261, 69.03790467506343], [-98.0931847748243, 69.03893105450774]]}, "properties": {"source": "1264712", "target": "7763171"}}, {"type": "Feature", "geometry": {"type": "LineString", "coordinates": [[-98.08661207312073, 69.04210896534016], [-98.09293672804411, 69.03961435573939]]}, "properties": {"source": "29983681", "target": "33636330"}}, {"type": "Feature", "geometry": {"type": "LineString", "coordinates": [[-98.08661207312073, 69.04210896534016], [-98.09120418959428, 69.03979281266399]]}, "properties": {"source": "29983681", "target": "32767634"}}, {"type": "Feature", "geometry": {"type": "LineString", "coordinates": [[-98.08661207312073, 69.04210896534016], [-98.09541000526433, 69.04009216232242]]}, "properties": {"source": "29983681", "target": "33210626"}}, {"type": "Feature", "geometry": {"type": "LineString", "coordinates": [[-98.08661207312073, 69.04210896534016], [-98.08910817199732, 69.04185412337932]]}, "properties": {"source": "29983681", "target": "35488390"}}, {"type": "Feature", "geometry": {"type": "LineString", "coordinates": [[-98.09589491082083, 69.04063564800276], [-98.08884591771324, 69.04092206530086]]}, "properties": {"source": "219166", "target": "25617926"}}, {"type": "Feature", "geometry": {"type": "LineString", "coordinates": [[-98.09589491082083, 69.04063564800276], [-98.09338079679411, 69.04280199431051]]}, "properties": {"source": "219166", "target": "1292865"}}, {"type": "Feature", "geometry": {"type": "LineString", "coordinates": [[-98.09589491082083, 69.04063564800276], [-98.09841230263886, 69.04264971052899]]}, "properties": {"source": "219166", "target": "29765548"}}, {"type": "Feature", "geometry": {"type": "LineString", "coordinates": [[-98.08302036328215, 69.04131439301099], [-98.08465034538762, 69.04193469296982]]}, "properties": {"source": "13100810", "target": "32767633"}}, {"type": "Feature", "geometry": {"type": "LineString", "coordinates": [[-98.08302036328215, 69.04131439301099], [-98.0974758040801, 69.03930466857437]]}, "properties": {"source": "13100810", "target": "2814557"}}, {"type": "Feature", "geometry": {"type": "LineString", "coordinates": [[-98.0947126282512, 69.04176626185927], [-98.08909355900813, 69.03838030313244]]}, "properties": {"source": "12025985", "target": "33287881"}}, {"type": "Feature", "geometry": {"type": "LineString", "coordinates": [[-98.0947126282512, 69.04176626185927], [-98.09328364861882, 69.03958246411867]]}, "properties": {"source": "12025985", "target": "34030962"}}, {"type": "Feature", "geometry": {"type": "LineString", "coordinates": [[-98.08693234342314, 69.03735044726125], [-98.08465034538762, 69.04193469296982]]}, "properties": {"source": "7929117", "target": "32767633"}}, {"type": "Feature", "geometry": {"type": "LineString", "coordinates": [[-98.08364276801439, 69.04057885560172], [-98.09306166531053, 69.04291097539269]]}, "properties": {"source": "15845608", "target": "17381652"}}, {"type": "Feature", "geometry": {"type": "LineString", "coordinates": [[-98.08364276801439, 69.04057885560172], [-98.08908593222623, 69.04321727408797]]}, "properties": {"source": "15845608", "target": "13438344"}}, {"type": "Feature", "geometry": {"type": "LineString", "coordinates": [[-98.08901032698316, 69.03974777274638], [-98.0828608157858, 69.0375810673005]]}, "properties": {"source": "17687854", "target": "18300814"}}, {"type": "Feature", "geometry": {"type": "LineString", "coordinates": [[-98.08884591771324, 69.04092206530086], [-98.0892576661575, 69.0378883737381]]}, "properties": {"source": "25617926", "target": "14353917"}}, {"type": "Feature", "geometry": {"type": "LineString", "coordinates": [[-98.08884591771324, 69.04092206530086], [-98.08667223463743, 69.04120129030287]]}, "properties": {"source": "25617926", "target": "18306188"}}, {"type": "Feature", "geometry": {"type": "LineString", "coordinates": [[-98.08884591771324, 69.04092206530086], [-98.09338079679411, 69.04280199431051]]}, "properties": {"source": "25617926", "target": "1292865"}}, {"type": "Feature", "geometry": {"type": "LineString", "coordinates": [[-98.08884591771324, 69.04092206530086], [-98.08257101740475, 69.03818487125267]]}, "properties": {"source": "25617926", "target": "15881018"}}, {"type": "Feature", "geometry": {"type": "LineString", "coordinates": [[-98.08884591771324, 69.04092206530086], [-98.08099559509901, 69.03792479147717]]}, "properties": {"source": "25617926", "target": "23634656"}}, {"type": "Feature", "geometry": {"type": "LineString", "coordinates": [[-98.09120418959428, 69.03979281266399], [-98.09293672804411, 69.03961435573939]]}, "properties": {"source": "32767634", "target": "33636330"}}, {"type": "Feature", "geometry": {"type": "LineString", "coordinates": [[-98.09120418959428, 69.03979281266399], [-98.08884591771324, 69.04092206530086]]}, "properties": {"source": "32767634", "target": "25617926"}}, {"type": "Feature", "geometry": {"type": "LineString", "coordinates": [[-98.09120418959428, 69.03979281266399], [-98.09541000526433, 69.04009216232242]]}, "properties": {"source": "32767634", "target": "33210626"}}, {"type": "Feature", "geometry": {"type": "LineString", "coordinates": [[-98.09120418959428, 69.03979281266399], [-98.08735816524523, 69.03982008092615]]}, "properties": {"source": "32767634", "target": "32330646"}}, {"type": "Feature", "geometry": {"type": "LineString", "coordinates": [[-98.09120418959428, 69.03979281266399], [-98.08910817199732, 69.04185412337932]]}, "properties": {"source": "32767634", "target": "35488390"}}, {"type": "Feature", "geometry": {"type": "LineString", "coordinates": [[-98.09120418959428, 69.03979281266399], [-98.08465034538762, 69.04193469296982]]}, "properties": {"source": "32767634", "target": "32767633"}}, {"type": "Feature", "geometry": {"type": "LineString", "coordinates": [[-98.09120418959428, 69.03979281266399], [-98.0974758040801, 69.03930466857437]]}, "properties": {"source": "32767634", "target": "2814557"}}, {"type": "Feature", "geometry": {"type": "LineString", "coordinates": [[-98.09225978517125, 69.04231924306544], [-98.08489574385176, 69.03775473574325]]}, "properties": {"source": "13496301", "target": "22054062"}}, {"type": "Feature", "geometry": {"type": "LineString", "coordinates": [[-98.09225978517125, 69.04231924306544], [-98.08909355900813, 69.03838030313244]]}, "properties": {"source": "13496301", "target": "33287881"}}, {"type": "Feature", "geometry": {"type": "LineString", "coordinates": [[-98.09225978517125, 69.04231924306544], [-98.09328364861882, 69.03958246411867]]}, "properties": {"source": "13496301", "target": "34030962"}}, {"type": "Feature", "geometry": {"type": "LineString", "coordinates": [[-98.08884591771324, 69.04092206530086], [-98.09671902014858, 69.03768088808602]]}, "properties": {"source": "25617926", "target": "11854430"}}, {"type": "Feature", "geometry": {"type": "LineString", "coordinates": [[-98.0828608157858, 69.0375810673005], [-98.092528775584, 69.04169981524254]]}, "properties": {"source": "18300814", "target": "15726567"}}, {"type": "Feature", "geometry": {"type": "LineString", "coordinates": [[-98.0828608157858, 69.0375810673005], [-98.08667223463743, 69.04120129030287]]}, "properties": {"source": "18300814", "target": "18306188"}}, {"type": "Feature", "geometry": {"type": "LineString", "coordinates": [[-98.0828608157858, 69.0375810673005], [-98.09653683813856, 69.03738429379436]]}, "properties": {"source": "18300814", "target": "17565347"}}, {"type": "Feature", "geometry": {"type": "LineString", "coordinates": [[-98.0828608157858, 69.0375810673005], [-98.08257101740475, 69.03818487125267]]}, "properties": {"source": "18300814", "target": "15881018"}}, {"type": "Feature", "geometry": {"type": "LineString", "coordinates": [[-98.0828608157858, 69.0375810673005], [-98.09306166531053, 69.04291097539269]]}, "properties": {"source": "18300814", "target": "17381652"}}, {"type": "Feature", "geometry": {"type": "LineString", "coordinates": [[-98.09541000526433, 69.04009216232242], [-98.08884591771324, 69.04092206530086]]}, "properties": {"source": "33210626", "target": "25617926"}}, {"type": "Feature", "geometry": {"type": "LineString", "coordinates": [[-98.09541000526433, 69.04009216232242], [-98.08735816524523, 69.03982008092615]]}, "properties": {"source": "33210626", "target": "32330646"}}, {"type": "Feature", "geometry": {"type": "LineString", "coordinates": [[-98.09541000526433, 69.04009216232242], [-98.08910817199732, 69.04185412337932]]}, "properties": {"source": "33210626", "target": "35488390"}}, {"type": "Feature", "geometry": {"type": "LineString", "coordinates": [[-98.09541000526433, 69.04009216232242], [-98.0892576661575, 69.0378883737381]]}, "properties": {"source": "33210626", "target": "14353917"}}, {"type": "Feature", "geometry": {"type": "LineString", "coordinates": [[-98.09541000526433, 69.04009216232242], [-98.09126207857359, 69.04185220100115]]}, "properties": {"source": "33210626", "target": "25426925"}}, {"type": "Feature", "geometry": {"type": "LineString", "coordinates": [[-98.09541000526433, 69.04009216232242], [-98.09673682590224, 69.04228212799711]]}, "properties": {"source": "33210626", "target": "31224971"}}, {"type": "Feature", "geometry": {"type": "LineString", "coordinates": [[-98.09541000526433, 69.04009216232242], [-98.08257101740475, 69.03818487125267]]}, "properties": {"source": "33210626", "target": "15881018"}}, {"type": "Feature", "geometry": {"type": "LineString", "coordinates": [[-98.08735816524523, 69.03982008092615], [-98.08910817199732, 69.04185412337932]]}, "properties": {"source": "32330646", "target": "35488390"}}, {"type": "Feature", "geometry": {"type": "LineString", "coordinates": [[-98.08735816524523, 69.03982008092615], [-98.08465034538762, 69.04193469296982]]}, "properties": {"source": "32330646", "target": "32767633"}}, {"type": "Feature", "geometry": {"type": "LineString", "coordinates": [[-98.08735816524523, 69.03982008092615], [-98.09849231114315, 69.03790866911908]]}, "properties": {"source": "32330646", "target": "21860063"}}, {"type": "Feature", "geometry": {"type": "LineString", "coordinates": [[-98.08735816524523, 69.03982008092615], [-98.09058810683973, 69.03726100464655]]}, "properties": {"source": "32330646", "target": "147420"}}, {"type": "Feature", "geometry": {"type": "LineString", "coordinates": [[-98.08803742801481, 69.03824087634851], [-98.08915891802071, 69.04052725774525]]}, "properties": {"source": "21479635", "target": "13248799"}}, {"type": "Feature", "geometry": {"type": "LineString", "coordinates": [[-98.08803742801481, 69.03824087634851], [-98.09828104303091, 69.0405971376434]]}, "properties": {"source": "21479635", "target": "22589528"}}, {"type": "Feature", "geometry": {"type": "LineString", "coordinates": [[-98.08803742801481, 69.03824087634851], [-98.09653683813856, 69.03738429379436]]}, "properties": {"source": "21479635", "target": "17565347"}}, {"type": "Feature", "geometry": {"type": "LineString", "coordinates": [[-98.08803742801481, 69.03824087634851], [-98.09306166531053, 69.04291097539269]]}, "properties": {"source": "21479635", "target": "17381652"}}, {"type": "Feature", "geometry": {"type": "LineString", "coordinates": [[-98.08909355900813, 69.03838030313244], [-98.08489574385176, 69.03775473574325]]}, "properties": {"source": "33287881", "target": "22054062"}}, {"type": "Feature", "geometry": {"type": "LineString", "coordinates": [[-98.08909355900813, 69.03838030313244], [-98.09328364861882, 69.03958246411867]]}, "properties": {"source": "33287881", "target": "34030962"}}, {"type": "Feature", "geometry": {"type": "LineString", "coordinates": [[-98.08909355900813, 69.03838030313244], [-98.0863668975142, 69.04316090265837]]}, "properties": {"source": "33287881", "target": "14287560"}}, {"type": "Feature", "geometry": {"type": "LineString", "coordinates": [[-98.09328364861882, 69.03958246411867], [-98.0863668975142, 69.04316090265837]]}, "properties": {"source": "34030962", "target": "14287560"}}, {"type": "Feature", "geometry": {"type": "LineString", "coordinates": [[-98.08378177480733, 69.0407127517868], [-98.09293672804411, 69.03961435573939]]}, "properties": {"source": "23003659", "target": "33636330"}}, {"type": "Feature", "geometry": {"type": "LineString", "coordinates": [[-98.08378177480733, 69.0407127517868], [-98.08489574385176, 69.03775473574325]]}, "properties": {"source": "23003659", "target": "22054062"}}, {"type": "Feature", "geometry": {"type": "LineString", "coordinates": [[-98.08378177480733, 69.0407127517868], [-98.08909355900813, 69.03838030313244]]}, "properties": {"source": "23003659", "target": "33287881"}}, {"type": "Feature", "geometry": {"type": "LineString", "coordinates": [[-98.08378177480733, 69.0407127517868], [-98.09328364861882, 69.03958246411867]]}, "properties": {"source": "23003659", "target": "34030962"}}, {"type": "Feature", "geometry": {"type": "LineString", "coordinates": [[-98.08378177480733, 69.0407127517868], [-98.08968801518677, 69.04226368863021]]}, "properties": {"source": "23003659", "target": "3614544"}}, {"type": "Feature", "geometry": {"type": "LineString", "coordinates": [[-98.08378177480733, 69.0407127517868], [-98.0863668975142, 69.04316090265837]]}, "properties": {"source": "23003659", "target": "14287560"}}, {"type": "Feature", "geometry": {"type": "LineString", "coordinates": [[-98.08378177480733, 69.0407127517868], [-98.08880113668512, 69.03730778440382]]}, "properties": {"source": "23003659", "target": "15751452"}}, {"type": "Feature", "geometry": {"type": "LineString", "coordinates": [[-98.08378177480733, 69.0407127517868], [-98.0947126282512, 69.04176626185927]]}, "properties": {"source": "23003659", "target": "12025985"}}, {"type": "Feature", "geometry": {"type": "LineString", "coordinates": [[-98.09082998973113, 69.04300540631274], [-98.08331476253204, 69.0404680813372]]}, "properties": {"source": "29806467", "target": "32933213"}}, {"type": "Feature", "geometry": {"type": "LineString", "coordinates": [[-98.09082998973113, 69.04300540631274], [-98.0810925794391, 69.03871437940626]]}, "properties": {"source": "29806467", "target": "16061482"}}, {"type": "Feature", "geometry": {"type": "LineString", "coordinates": [[-98.09082998973113, 69.04300540631274], [-98.08968801518677, 69.04226368863021]]}, "properties": {"source": "29806467", "target": "3614544"}}, {"type": "Feature", "geometry": {"type": "LineString", "coordinates": [[-98.09082998973113, 69.04300540631274], [-98.09719043373558, 69.04275844946895]]}, "properties": {"source": "29806467", "target": "13420791"}}, {"type": "Feature", "geometry": {"type": "LineString", "coordinates": [[-98.09082998973113, 69.04300540631274], [-98.09453826331287, 69.0421692213196]]}, "properties": {"source": "29806467", "target": "13450469"}}, {"type": "Feature", "geometry": {"type": "LineString", "coordinates": [[-98.09082998973113, 69.04300540631274], [-98.09339630761467, 69.04292837680438]]}, "properties": {"source": "29806467", "target": "12728322"}}, {"type": "Feature", "geometry": {"type": "LineString", "coordinates": [[-98.09082998973113, 69.04300540631274], [-98.0863668975142, 69.04316090265837]]}, "properties": {"source": "29806467", "target": "14287560"}}, {"type": "Feature", "geometry": {"type": "LineString", "coordinates": [[-98.09082998973113, 69.04300540631274], [-98.09828104303091, 69.0405971376434]]}, "properties": {"source": "29806467", "target": "22589528"}}, {"type": "Feature", "geometry": {"type": "LineString", "coordinates": [[-98.09082998973113, 69.04300540631274], [-98.08099559509901, 69.03792479147717]]}, "properties": {"source": "29806467", "target": "23634656"}}, {"type": "Feature", "geometry": {"type": "LineString", "coordinates": [[-98.0828608157858, 69.0375810673005], [-98.08884591771324, 69.04092206530086]]}, "properties": {"source": "18300814", "target": "25617926"}}, {"type": "Feature", "geometry": {"type": "LineString", "coordinates": [[-98.0828608157858, 69.0375810673005], [-98.08489574385176, 69.03775473574325]]}, "properties": {"source": "18300814", "target": "22054062"}}, {"type": "Feature", "geometry": {"type": "LineString", "coordinates": [[-98.0828608157858, 69.0375810673005], [-98.09058943426908, 69.04329717854509]]}, "properties": {"source": "18300814", "target": "23161818"}}, {"type": "Feature", "geometry": {"type": "LineString", "coordinates": [[-98.0828608157858, 69.0375810673005], [-98.09549552662028, 69.04179591215885]]}, "properties": {"source": "18300814", "target": "20810629"}}, {"type": "Feature", "geometry": {"type": "LineString", "coordinates": [[-98.0828608157858, 69.0375810673005], [-98.0892576661575, 69.0378883737381]]}, "properties": {"source": "18300814", "target": "14353917"}}, {"type": "Feature", "geometry": {"type": "LineString", "coordinates": [[-98.0828608157858, 69.0375810673005], [-98.09463331604921, 69.0401690993802]]}, "properties": {"source": "18300814", "target": "15838162"}}, {"type": "Feature", "geometry": {"type": "LineString", "coordinates": [[-98.0828608157858, 69.0375810673005], [-98.09126207857359, 69.04185220100115]]}, "properties": {"source": "18300814", "target": "25426925"}}, {"type": "Feature", "geometry": {"type": "LineString", "coordinates": [[-98.08228763859854, 69.04307236487924], [-98.09126207857359, 69.04185220100115]]}, "properties": {"source": "25535139", "target": "25426925"}}, {"type": "Feature", "geometry": {"type": "LineString", "coordinates": [[-98.08228763859854, 69.04307236487924], [-98.092528775584, 69.04169981524254]]}, "properties": {"source": "25535139", "target": "15726567"}}, {"type": "Feature", "geometry": {"type": "LineString", "coordinates": [[-98.08228763859854, 69.04307236487924], [-98.09673682590224, 69.04228212799711]]}, "properties": {"source": "25535139", "target": "31224971"}}, {"type": "Feature", "geometry": {"type": "LineString", "coordinates": [[-98.08228763859854, 69.04307236487924], [-98.08667223463743, 69.04120129030287]]}, "properties": {"source": "25535139", "target": "18306188"}}, {"type": "Feature", "geometry": {"type": "LineString", "coordinates": [[-98.08228763859854, 69.04307236487924], [-98.09828104303091, 69.0405971376434]]}, "properties": {"source": "25535139", "target": "22589528"}}, {"type": "Feature", "geometry": {"type": "LineString", "coordinates": [[-98.08228763859854, 69.04307236487924], [-98.08099559509901, 69.03792479147717]]}, "properties": {"source": "25535139", "target": "23634656"}}, {"type": "Feature", "geometry": {"type": "LineString", "coordinates": [[-98.08803742801481, 69.03824087634851], [-98.08884591771324, 69.04092206530086]]}, "properties": {"source": "21479635", "target": "25617926"}}, {"type": "Feature", "geometry": {"type": "LineString", "coordinates": [[-98.08803742801481, 69.03824087634851], [-98.08489574385176, 69.03775473574325]]}, "properties": {"source": "21479635", "target": "22054062"}}, {"type": "Feature", "geometry": {"type": "LineString", "coordinates": [[-98.08803742801481, 69.03824087634851], [-98.0828608157858, 69.0375810673005]]}, "properties": {"source": "21479635", "target": "18300814"}}, {"type": "Feature", "geometry": {"type": "LineString", "coordinates": [[-98.08803742801481, 69.03824087634851], [-98.09058943426908, 69.04329717854509]]}, "properties": {"source": "21479635", "target": "23161818"}}, {"type": "Feature", "geometry": {"type": "LineString", "coordinates": [[-98.08803742801481, 69.03824087634851], [-98.09549552662028, 69.04179591215885]]}, "properties": {"source": "21479635", "target": "20810629"}}, {"type": "Feature", "geometry": {"type": "LineString", "coordinates": [[-98.08803742801481, 69.03824087634851], [-98.0892576661575, 69.0378883737381]]}, "properties": {"source": "21479635", "target": "14353917"}}, {"type": "Feature", "geometry": {"type": "LineString", "coordinates": [[-98.08803742801481, 69.03824087634851], [-98.09463331604921, 69.0401690993802]]}, "properties": {"source": "21479635", "target": "15838162"}}, {"type": "Feature", "geometry": {"type": "LineString", "coordinates": [[-98.08803742801481, 69.03824087634851], [-98.09126207857359, 69.04185220100115]]}, "properties": {"source": "21479635", "target": "25426925"}}, {"type": "Feature", "geometry": {"type": "LineString", "coordinates": [[-98.08803742801481, 69.03824087634851], [-98.092528775584, 69.04169981524254]]}, "properties": {"source": "21479635", "target": "15726567"}}, {"type": "Feature", "geometry": {"type": "LineString", "coordinates": [[-98.08803742801481, 69.03824087634851], [-98.08667223463743, 69.04120129030287]]}, "properties": {"source": "21479635", "target": "18306188"}}]}