{"type": "FeatureCollection", "features": [{"type": "Feature", "geometry": {"type": "LineString", "coordinates": [[171.30691028908564, 69.04111959010189], [171.31552002299713, 69.03904314388419]]}, "properties": {"source": "2920179", "target": "31291545"}}, {"type": "Feature", "geometry": {"type": "LineString", "coordinates": [[171.30952089375836, 69.03861133923809], [171.30358411854257, 69.0372110601721]]}, "properties": {"source": "29440230", "target": "29493048"}}, {"type": "Feature", "geometry": {"type": "LineString", "coordinates": [[171.30952089375836, 69.03861133923809], [171.30478756314437, 69.04136364402763]]}, "properties": {"source": "29440230", "target": "30057824"}}, {"type": "Feature", "geometry": {"type": "LineString", "coordinates": [[171.30952089375836, 69.03861133923809], [171.31263382379092, 69.0402192472539]]}, "properties": {"source": "29440230", "target": "31381759"}}, {"type": "Feature", "geometry": {"type": "LineString", "coordinates": [[171.30952089375836, 69.03861133923809], [171.30901788272632, 69.04033926570645]]}, "properties": {"source": "29440230", "target": "30302605"}}, {"type": "Feature", "geometry": {"type": "LineString", "coordinates": [[171.30952089375836, 69.03861133923809], [171.31040740658005, 69.03922456228142]]}, "properties": {"source": "29440230", "target": "29095627"}}, {"type": "Feature", "geometry": {"type": "LineString", "coordinates": [[171.3071022498816, 69.03955381940173], [171.30936812662958, 69.03737087001025]]}, "properties": {"source": "13040418", "target": "20726937"}}, {"type": "Feature", "geometry": {"type": "LineString", "coordinates": [[171.31578506822132, 69.03943123841694], [171.30631085893413, 69.0410617841545]]}, "properties": {"source": "25628101", "target": "333690"}}, {"type": "Feature", "geometry": {"type": "LineString", "coordinates": [[171.31578506822132, 69.03943123841694], [171.31484473412354, 69.04156892537554]]}, "properties": {"source": "25628101", "target": "16137714"}}, {"type": "Feature", "geometry": {"type": "LineString", "coordinates": [[171.31484473412354, 69.04156892537554], [171.30631085893413, 69.0410617841545]]}, "properties": {"source": "16137714", "target": "333690"}}, {"type": "Feature", "geometry": {"type": "LineString", "coordinates": [[171.308289958336, 69.03800600902301], [171.30420111759855, 69.04076167395891]]}, "properties": {"source": "34033591", "target": "24917848"}}, {"type": "Feature", "geometry": {"type": "LineString", "coordinates": [[171.31254848624212, 69.04114721383908], [171.30420111759855, 69.04076167395891]]}, "properties": {"source": "27426444", "target": "24917848"}}, {"type": "Feature", "geometry": {"type": "LineString", "coordinates": [[171.30364063154383, 69.03862090210268], [171.31597727461985, 69.03869057367413]]}, "properties": {"source": "31149531", "target": "25634851"}}, {"type": "Feature", "geometry": {"type": "LineString", "coordinates": [[171.30364063154383, 69.03862090210268], [171.30332410129648, 69.04112524746026]]}, "properties": {"source": "31149531", "target": "29378848"}}, {"type": "Feature", "geometry": {"type": "LineString", "coordinates": [[171.30635530666865, 69.04014021963556], [171.30358411854257, 69.0372110601721]]}, "properties": {"source": "35652720", "target": "29493048"}}, {"type": "Feature", "geometry": {"type": "LineString", "coordinates": [[171.30635530666865, 69.04014021963556], [171.30516673922472, 69.03730681729465]]}, "properties": {"source": "35652720", "target": "2218368"}}, {"type": "Feature", "geometry": {"type": "LineString", "coordinates": [[171.30635530666865, 69.04014021963556], [171.30523283301955, 69.03985752990604]]}, "properties": {"source": "35652720", "target": "25406271"}}, {"type": "Feature", "geometry": {"type": "LineString", "coordinates": [[171.31204746024355, 69.04072324010849], [171.30698943290622, 69.03878748721476]]}, "properties": {"source": "3288064", "target": "29861838"}}, {"type": "Feature", "geometry": {"type": "LineString", "coordinates": [[171.31204746024355, 69.04072324010849], [171.3125969627941, 69.03890817801403]]}, "properties": {"source": "3288064", "target": "30009402"}}, {"type": "Feature", "geometry": {"type": "LineString", "coordinates": [[171.31204746024355, 69.04072324010849], [171.30764727302432, 69.03987298084911]]}, "properties": {"source": "3288064", "target": "30285908"}}, {"type": "Feature", "geometry": {"type": "LineString", "coordinates": [[171.30523283301955, 69.03985752990604], [171.30516673922472, 69.03730681729465]]}, "properties": {"source": "25406271", "target": "2218368"}}, {"type": "Feature", "geometry": {"type": "LineString", "coordinates": [[171.30610261997532, 69.03809470088854], [171.3098560650522, 69.03743842867576]]}, "properties": {"source": "9739698", "target": "7945170"}}, {"type": "Feature", "geometry": {"type": "LineString", "coordinates": [[171.30764727302432, 69.03987298084911], [171.3068145810637, 69.03819562397945]]}, "properties": {"source": "30285908", "target": "26486587"}}, {"type": "Feature", "geometry": {"type": "LineString", "coordinates": [[171.30358411854257, 69.0372110601721], [171.30698943290622, 69.03878748721476]]}, "properties": {"source": "29493048", "target": "29861838"}}, {"type": "Feature", "geometry": {"type": "LineString", "coordinates": [[171.30898943385284, 69.03808981988035], [171.30901788272632, 69.04033926570645]]}, "properties": {"source": "30979170", "target": "30302605"}}, {"type": "Feature", "geometry": {"type": "LineString", "coordinates": [[171.30898943385284, 69.03808981988035], [171.31040740658005, 69.03922456228142]]}, "properties": {"source": "30979170", "target": "29095627"}}, {"type": "Feature", "geometry": {"type": "LineString", "coordinates": [[171.30898943385284, 69.03808981988035], [171.30875909133164, 69.03722785398486]]}, "properties": {"source": "30979170", "target": "28762817"}}, {"type": "Feature", "geometry": {"type": "LineString", "coordinates": [[171.30898943385284, 69.03808981988035], [171.31649308112657, 69.0412036229724]]}, "properties": {"source": "30979170", "target": "26858077"}}, {"type": "Feature", "geometry": {"type": "LineString", "coordinates": [[171.30476772435696, 69.04017816239542], [171.31294007209704, 69.04085422404097]]}, "properties": {"source": "24455263", "target": "16201841"}}, {"type": "Feature", "geometry": {"type": "LineString", "coordinates": [[171.30476772435696, 69.04017816239542], [171.3096063395896, 69.03868781545972]]}, "properties": {"source": "24455263", "target": "20767893"}}, {"type": "Feature", "geometry": {"type": "LineString", "coordinates": [[171.31540904969995, 69.04009254911122], [171.30691028908564, 69.04111959010189]]}, "properties": {"source": "29631778", "target": "2920179"}}, {"type": "Feature", "geometry": {"type": "LineString", "coordinates": [[171.31540904969995, 69.04009254911122], [171.31597727461985, 69.03869057367413]]}, "properties": {"source": "29631778", "target": "25634851"}}, {"type": "Feature", "geometry": {"type": "LineString", "coordinates": [[171.31540904969995, 69.04009254911122], [171.31313772712662, 69.03751457899185]]}, "properties": {"source": "29631778", "target": "15995049"}}, {"type": "Feature", "geometry": {"type": "LineString", "coordinates": [[171.31540904969995, 69.04009254911122], [171.31307241954647, 69.03785452472033]]}, "properties": {"source": "29631778", "target": "1397936"}}, {"type": "Feature", "geometry": {"type": "LineString", "coordinates": [[171.31540904969995, 69.04009254911122], [171.30332410129648, 69.04112524746026]]}, "properties": {"source": "29631778", "target": "29378848"}}, {"type": "Feature", "geometry": {"type": "LineString", "coordinates": [[171.31540904969995, 69.04009254911122], [171.30420111759855, 69.04076167395891]]}, "properties": {"source": "29631778", "target": "24917848"}}, {"type": "Feature", "geometry": {"type": "LineString", "coordinates": [[171.31540904969995, 69.04009254911122], [171.3136882276254, 69.0377641909933]]}, "properties": {"source": "29631778", "target": "25998890"}}, {"type": "Feature", "geometry": {"type": "LineString", "coordinates": [[171.31540904969995, 69.04009254911122], [171.30722261526432, 69.04015986725588]]}, "properties": {"source": "29631778", "target": "3215395"}}, {"type": "Feature", "geometry": {"type": "LineString", "coordinates": [[171.31263382379092, 69.0402192472539], [171.30901788272632, 69.04033926570645]]}, "properties": {"source": "31381759", "target": "30302605"}}, {"type": "Feature", "geometry": {"type": "LineString", "coordinates": [[171.31263382379092, 69.0402192472539], [171.30994454072504, 69.03913653463701]]}, "properties": {"source": "31381759", "target": "12197721"}}, {"type": "Feature", "geometry": {"type": "LineString", "coordinates": [[171.31263382379092, 69.0402192472539], [171.30703679898562, 69.03910093568882]]}, "properties": {"source": "31381759", "target": "11835669"}}, {"type": "Feature", "geometry": {"type": "LineString", "coordinates": [[171.31263382379092, 69.0402192472539], [171.3069774029197, 69.04077928522207]]}, "properties": {"source": "31381759", "target": "126095"}}, {"type": "Feature", "geometry": {"type": "LineString", "coordinates": [[171.31263382379092, 69.0402192472539], [171.31294007209704, 69.04085422404097]]}, "properties": {"source": "31381759", "target": "16201841"}}, {"type": "Feature", "geometry": {"type": "LineString", "coordinates": [[171.31263382379092, 69.0402192472539], [171.3096063395896, 69.03868781545972]]}, "properties": {"source": "31381759", "target": "20767893"}}, {"type": "Feature", "geometry": {"type": "LineString", "coordinates": [[171.30901788272632, 69.04033926570645], [171.3069774029197, 69.04077928522207]]}, "properties": {"source": "30302605", "target": "126095"}}, {"type": "Feature", "geometry": {"type": "LineString", "coordinates": [[171.30901788272632, 69.04033926570645], [171.3096063395896, 69.03868781545972]]}, "properties": {"source": "30302605", "target": "20767893"}}, {"type": "Feature", "geometry": {"type": "LineString", "coordinates": [[171.30476772435696, 69.04017816239542], [171.30347174829575, 69.03966028350717]]}, "properties": {"source": "24455263", "target": "31184553"}}, {"type": "Feature", "geometry": {"type": "LineString", "coordinates": [[171.30476772435696, 69.04017816239542], [171.30478756314437, 69.04136364402763]]}, "properties": {"source": "24455263", "target": "30057824"}}, {"type": "Feature", "geometry": {"type": "LineString", "coordinates": [[171.30476772435696, 69.04017816239542], [171.31263382379092, 69.0402192472539]]}, "properties": {"source": "24455263", "target": "31381759"}}, {"type": "Feature", "geometry": {"type": "LineString", "coordinates": [[171.30476772435696, 69.04017816239542], [171.30901788272632, 69.04033926570645]]}, "properties": {"source": "24455263", "target": "30302605"}}, {"type": "Feature", "geometry": {"type": "LineString", "coordinates": [[171.30476772435696, 69.04017816239542], [171.30994454072504, 69.03913653463701]]}, "properties": {"source": "24455263", "target": "12197721"}}, {"type": "Feature", "geometry": {"type": "LineString", "coordinates": [[171.30476772435696, 69.04017816239542], [171.30703679898562, 69.03910093568882]]}, "properties": {"source": "24455263", "target": "11835669"}}, {"type": "Feature", "geometry": {"type": "LineString", "coordinates": [[171.30476772435696, 69.04017816239542], [171.3069774029197, 69.04077928522207]]}, "properties": {"source": "24455263", "target": "126095"}}, {"type": "Feature", "geometry": {"type": "LineString", "coordinates": [[171.30476772435696, 69.04017816239542], [171.30898943385284, 69.03808981988035]]}, "properties": {"source": "24455263", "target": "30979170"}}, {"type": "Feature", "geometry": {"type": "LineString", "coordinates": [[171.31122162686444, 69.04018447040716], [171.30901788272632, 69.04033926570645]]}, "properties": {"source": "23198493", "target": "30302605"}}, {"type": "Feature", "geometry": {"type": "LineString", "coordinates": [[171.31122162686444, 69.04018447040716], [171.30476772435696, 69.04017816239542]]}, "properties": {"source": "23198493", "target": "24455263"}}, {"type": "Feature", "geometry": {"type": "LineString", "coordinates": [[171.30347278987915, 69.03738754050312], [171.30347174829575, 69.03966028350717]]}, "properties": {"source": "28453813", "target": "31184553"}}, {"type": "Feature", "geometry": {"type": "LineString", "coordinates": [[171.30347278987915, 69.03738754050312], [171.30698943290622, 69.03878748721476]]}, "properties": {"source": "28453813", "target": "29861838"}}, {"type": "Feature", "geometry": {"type": "LineString", "coordinates": [[171.30347278987915, 69.03738754050312], [171.3125969627941, 69.03890817801403]]}, "properties": {"source": "28453813", "target": "30009402"}}, {"type": "Feature", "geometry": {"type": "LineString", "coordinates": [[171.30347278987915, 69.03738754050312], [171.30764727302432, 69.03987298084911]]}, "properties": {"source": "28453813", "target": "30285908"}}, {"type": "Feature", "geometry": {"type": "LineString", "coordinates": [[171.30347278987915, 69.03738754050312], [171.30699018238477, 69.03767126673173]]}, "properties": {"source": "28453813", "target": "2895016"}}, {"type": "Feature", "geometry": {"type": "LineString", "coordinates": [[171.31294007209704, 69.04085422404097], [171.30478756314437, 69.04136364402763]]}, "properties": {"source": "16201841", "target": "30057824"}}, {"type": "Feature", "geometry": {"type": "LineString", "coordinates": [[171.31294007209704, 69.04085422404097], [171.30901788272632, 69.04033926570645]]}, "properties": {"source": "16201841", "target": "30302605"}}, {"type": "Feature", "geometry": {"type": "LineString", "coordinates": [[171.30831803070447, 69.04113157987842], [171.31307241954647, 69.03785452472033]]}, "properties": {"source": "621031", "target": "1397936"}}, {"type": "Feature", "geometry": {"type": "LineString", "coordinates": [[171.30831803070447, 69.04113157987842], [171.31490312296484, 69.04055142739182]]}, "properties": {"source": "621031", "target": "879550"}}, {"type": "Feature", "geometry": {"type": "LineString", "coordinates": [[171.30831803070447, 69.04113157987842], [171.31453532864407, 69.03961491295419]]}, "properties": {"source": "621031", "target": "6882935"}}, {"type": "Feature", "geometry": {"type": "LineString", "coordinates": [[171.30831803070447, 69.04113157987842], [171.3098560650522, 69.03743842867576]]}, "properties": {"source": "621031", "target": "7945170"}}, {"type": "Feature", "geometry": {"type": "LineString", "coordinates": [[171.31490312296484, 69.04055142739182], [171.31453532864407, 69.03961491295419]]}, "properties": {"source": "879550", "target": "6882935"}}, {"type": "Feature", "geometry": {"type": "LineString", "coordinates": [[171.31490312296484, 69.04055142739182], [171.3098560650522, 69.03743842867576]]}, "properties": {"source": "879550", "target": "7945170"}}, {"type": "Feature", "geometry": {"type": "LineString", "coordinates": [[171.31453532864407, 69.03961491295419], [171.3098560650522, 69.03743842867576]]}, "properties": {"source": "6882935", "target": "7945170"}}, {"type": "Feature", "geometry": {"type": "LineString", "coordinates": [[171.31170063974918, 69.03800209199886], [171.30516673922472, 69.03730681729465]]}, "properties": {"source": "12838467", "target": "2218368"}}, {"type": "Feature", "geometry": {"type": "LineString", "coordinates": [[171.31170063974918, 69.03800209199886], [171.31380639182998, 69.03974294062726]]}, "properties": {"source": "12838467", "target": "15768488"}}, {"type": "Feature", "geometry": {"type": "LineString", "coordinates": [[171.30390438050716, 69.0389791791226], [171.30610261997532, 69.03809470088854]]}, "properties": {"source": "978173", "target": "9739698"}}, {"type": "Feature", "geometry": {"type": "LineString", "coordinates": [[171.3071022498816, 69.03955381940173], [171.30332410129648, 69.04112524746026]]}, "properties": {"source": "13040418", "target": "29378848"}}, {"type": "Feature", "geometry": {"type": "LineString", "coordinates": [[171.30842956833607, 69.04024204480592], [171.30478756314437, 69.04136364402763]]}, "properties": {"source": "25970641", "target": "30057824"}}, {"type": "Feature", "geometry": {"type": "LineString", "coordinates": [[171.30842956833607, 69.04024204480592], [171.3136882276254, 69.0377641909933]]}, "properties": {"source": "25970641", "target": "25998890"}}, {"type": "Feature", "geometry": {"type": "LineString", "coordinates": [[171.30347174829575, 69.03966028350717], [171.31389086928812, 69.03891440301618]]}, "properties": {"source": "31184553", "target": "1252148"}}, {"type": "Feature", "geometry": {"type": "LineString", "coordinates": [[171.30347174829575, 69.03966028350717], [171.3068145810637, 69.03819562397945]]}, "properties": {"source": "31184553", "target": "26486587"}}, {"type": "Feature", "geometry": {"type": "LineString", "coordinates": [[171.30698943290622, 69.03878748721476], [171.31040740658005, 69.03922456228142]]}, "properties": {"source": "29861838", "target": "29095627"}}, {"type": "Feature", "geometry": {"type": "LineString", "coordinates": [[171.30698943290622, 69.03878748721476], [171.30631085893413, 69.0410617841545]]}, "properties": {"source": "29861838", "target": "333690"}}, {"type": "Feature", "geometry": {"type": "LineString", "coordinates": [[171.30698943290622, 69.03878748721476], [171.30875909133164, 69.03722785398486]]}, "properties": {"source": "29861838", "target": "28762817"}}, {"type": "Feature", "geometry": {"type": "LineString", "coordinates": [[171.30698943290622, 69.03878748721476], [171.31649308112657, 69.0412036229724]]}, "properties": {"source": "29861838", "target": "26858077"}}, {"type": "Feature", "geometry": {"type": "LineString", "coordinates": [[171.30698943290622, 69.03878748721476], [171.31206704448215, 69.04027943769691]]}, "properties": {"source": "29861838", "target": "353894"}}, {"type": "Feature", "geometry": {"type": "LineString", "coordinates": [[171.30698943290622, 69.03878748721476], [171.3068145810637, 69.03819562397945]]}, "properties": {"source": "29861838", "target": "26486587"}}, {"type": "Feature", "geometry": {"type": "LineString", "coordinates": [[171.3125969627941, 69.03890817801403], [171.30698943290622, 69.03878748721476]]}, "properties": {"source": "30009402", "target": "29861838"}}, {"type": "Feature", "geometry": {"type": "LineString", "coordinates": [[171.30698943290622, 69.03878748721476], [171.30898943385284, 69.03808981988035]]}, "properties": {"source": "29861838", "target": "30979170"}}, {"type": "Feature", "geometry": {"type": "LineString", "coordinates": [[171.31096798842418, 69.04097363145058], [171.3125969627941, 69.03890817801403]]}, "properties": {"source": "25486217", "target": "30009402"}}, {"type": "Feature", "geometry": {"type": "LineString", "coordinates": [[171.31096798842418, 69.04097363145058], [171.30764727302432, 69.03987298084911]]}, "properties": {"source": "25486217", "target": "30285908"}}, {"type": "Feature", "geometry": {"type": "LineString", "coordinates": [[171.31096798842418, 69.04097363145058], [171.30699018238477, 69.03767126673173]]}, "properties": {"source": "25486217", "target": "2895016"}}, {"type": "Feature", "geometry": {"type": "LineString", "coordinates": [[171.31096798842418, 69.04097363145058], [171.31649308112657, 69.0412036229724]]}, "properties": {"source": "25486217", "target": "26858077"}}, {"type": "Feature", "geometry": {"type": "LineString", "coordinates": [[171.3136882276254, 69.0377641909933], [171.30478756314437, 69.04136364402763]]}, "properties": {"source": "25998890", "target": "30057824"}}, {"type": "Feature", "geometry": {"type": "LineString", "coordinates": [[171.3136882276254, 69.0377641909933], [171.30420111759855, 69.04076167395891]]}, "properties": {"source": "25998890", "target": "24917848"}}, {"type": "Feature", "geometry": {"type": "LineString", "coordinates": [[171.30722261526432, 69.04015986725588], [171.31552002299713, 69.03904314388419]]}, "properties": {"source": "3215395", "target": "31291545"}}, {"type": "Feature", "geometry": {"type": "LineString", "coordinates": [[171.3080813320305, 69.03978639691198], [171.31540904969995, 69.04009254911122]]}, "properties": {"source": "15706081", "target": "29631778"}}, {"type": "Feature", "geometry": {"type": "LineString", "coordinates": [[171.3080813320305, 69.03978639691198], [171.3089020406133, 69.03896346386654]]}, "properties": {"source": "15706081", "target": "15775062"}}, {"type": "Feature", "geometry": {"type": "LineString", "coordinates": [[171.3080813320305, 69.03978639691198], [171.30420111759855, 69.04076167395891]]}, "properties": {"source": "15706081", "target": "24917848"}}, {"type": "Feature", "geometry": {"type": "LineString", "coordinates": [[171.3080813320305, 69.03978639691198], [171.31192238040967, 69.04092592623621]]}, "properties": {"source": "15706081", "target": "15851864"}}, {"type": "Feature", "geometry": {"type": "LineString", "coordinates": [[171.3080813320305, 69.03978639691198], [171.3136882276254, 69.0377641909933]]}, "properties": {"source": "15706081", "target": "25998890"}}, {"type": "Feature", "geometry": {"type": "LineString", "coordinates": [[171.31122162686444, 69.04018447040716], [171.30347174829575, 69.03966028350717]]}, "properties": {"source": "23198493", "target": "31184553"}}, {"type": "Feature", "geometry": {"type": "LineString", "coordinates": [[171.31122162686444, 69.04018447040716], [171.30478756314437, 69.04136364402763]]}, "properties": {"source": "23198493", "target": "30057824"}}, {"type": "Feature", "geometry": {"type": "LineString", "coordinates": [[171.31122162686444, 69.04018447040716], [171.31263382379092, 69.0402192472539]]}, "properties": {"source": "23198493", "target": "31381759"}}, {"type": "Feature", "geometry": {"type": "LineString", "coordinates": [[171.31096798842418, 69.04097363145058], [171.30898943385284, 69.03808981988035]]}, "properties": {"source": "25486217", "target": "30979170"}}, {"type": "Feature", "geometry": {"type": "LineString", "coordinates": [[171.3125969627941, 69.03890817801403], [171.30764727302432, 69.03987298084911]]}, "properties": {"source": "30009402", "target": "30285908"}}, {"type": "Feature", "geometry": {"type": "LineString", "coordinates": [[171.3125969627941, 69.03890817801403], [171.30699018238477, 69.03767126673173]]}, "properties": {"source": "30009402", "target": "2895016"}}, {"type": "Feature", "geometry": {"type": "LineString", "coordinates": [[171.3125969627941, 69.03890817801403], [171.31040740658005, 69.03922456228142]]}, "properties": {"source": "30009402", "target": "29095627"}}, {"type": "Feature", "geometry": {"type": "LineString", "coordinates": [[171.3125969627941, 69.03890817801403], [171.30631085893413, 69.0410617841545]]}, "properties": {"source": "30009402", "target": "333690"}}, {"type": "Feature", "geometry": {"type": "LineString", "coordinates": [[171.3125969627941, 69.03890817801403], [171.30875909133164, 69.03722785398486]]}, "properties": {"source": "30009402", "target": "28762817"}}, {"type": "Feature", "geometry": {"type": "LineString", "coordinates": [[171.3125969627941, 69.03890817801403], [171.31649308112657, 69.0412036229724]]}, "properties": {"source": "30009402", "target": "26858077"}}, {"type": "Feature", "geometry": {"type": "LineString", "coordinates": [[171.3125969627941, 69.03890817801403], [171.31206704448215, 69.04027943769691]]}, "properties": {"source": "30009402", "target": "353894"}}, {"type": "Feature", "geometry": {"type": "LineString", "coordinates": [[171.3125969627941, 69.03890817801403], [171.3068145810637, 69.03819562397945]]}, "properties": {"source": "30009402", "target": "26486587"}}, {"type": "Feature", "geometry": {"type": "LineString", "coordinates": [[171.30764727302432, 69.03987298084911], [171.30698943290622, 69.03878748721476]]}, "properties": {"source": "30285908", "target": "29861838"}}, {"type": "Feature", "geometry": {"type": "LineString", "coordinates": [[171.30764727302432, 69.03987298084911], [171.31040740658005, 69.03922456228142]]}, "properties": {"source": "30285908", "target": "29095627"}}, {"type": "Feature", "geometry": {"type": "LineString", "coordinates": [[171.30764727302432, 69.03987298084911], [171.30631085893413, 69.0410617841545]]}, "properties": {"source": "30285908", "target": "333690"}}, {"type": "Feature", "geometry": {"type": "LineString", "coordinates": [[171.30764727302432, 69.03987298084911], [171.30875909133164, 69.03722785398486]]}, "properties": {"source": "30285908", "target": "28762817"}}, {"type": "Feature", "geometry": {"type": "LineString", "coordinates": [[171.30764727302432, 69.03987298084911], [171.31649308112657, 69.0412036229724]]}, "properties": {"source": "30285908", "target": "26858077"}}, {"type": "Feature", "geometry": {"type": "LineString", "coordinates": [[171.30764727302432, 69.03987298084911], [171.31206704448215, 69.04027943769691]]}, "properties": {"source": "30285908", "target": "353894"}}, {"type": "Feature", "geometry": {"type": "LineString", "coordinates": [[171.3125969627941, 69.03890817801403], [171.30898943385284, 69.03808981988035]]}, "properties": {"source": "30009402", "target": "30979170"}}, {"type": "Feature", "geometry": {"type": "LineString", "coordinates": [[171.30764727302432, 69.03987298084911], [171.30898943385284, 69.03808981988035]]}, "properties": {"source": "30285908", "target": "30979170"}}, {"type": "Feature", "geometry": {"type": "LineString", "coordinates": [[171.31425085920284, 69.039184630775], [171.30691028908564, 69.04111959010189]]}, "properties": {"source": "29634524", "target": "2920179"}}, {"type": "Feature", "geometry": {"type": "LineString", "coordinates": [[171.31425085920284, 69.039184630775], [171.31597727461985, 69.03869057367413]]}, "properties": {"source": "29634524", "target": "25634851"}}, {"type": "Feature", "geometry": {"type": "LineString", "coordinates": [[171.31425085920284, 69.039184630775], [171.30332410129648, 69.04112524746026]]}, "properties": {"source": "29634524", "target": "29378848"}}, {"type": "Feature", "geometry": {"type": "LineString", "coordinates": [[171.31425085920284, 69.039184630775], [171.30722261526432, 69.04015986725588]]}, "properties": {"source": "29634524", "target": "3215395"}}, {"type": "Feature", "geometry": {"type": "LineString", "coordinates": [[171.31389086928812, 69.03891440301618], [171.30698943290622, 69.03878748721476]]}, "properties": {"source": "1252148", "target": "29861838"}}, {"type": "Feature", "geometry": {"type": "LineString", "coordinates": [[171.31389086928812, 69.03891440301618], [171.3125969627941, 69.03890817801403]]}, "properties": {"source": "1252148", "target": "30009402"}}, {"type": "Feature", "geometry": {"type": "LineString", "coordinates": [[171.31389086928812, 69.03891440301618], [171.30764727302432, 69.03987298084911]]}, "properties": {"source": "1252148", "target": "30285908"}}, {"type": "Feature", "geometry": {"type": "LineString", "coordinates": [[171.30368436933804, 69.03904198530103], [171.30698943290622, 69.03878748721476]]}, "properties": {"source": "27743205", "target": "29861838"}}, {"type": "Feature", "geometry": {"type": "LineString", "coordinates": [[171.30368436933804, 69.03904198530103], [171.30699018238477, 69.03767126673173]]}, "properties": {"source": "27743205", "target": "2895016"}}, {"type": "Feature", "geometry": {"type": "LineString", "coordinates": [[171.30368436933804, 69.03904198530103], [171.31040740658005, 69.03922456228142]]}, "properties": {"source": "27743205", "target": "29095627"}}, {"type": "Feature", "geometry": {"type": "LineString", "coordinates": [[171.31552002299713, 69.03904314388419], [171.31597727461985, 69.03869057367413]]}, "properties": {"source": "31291545", "target": "25634851"}}, {"type": "Feature", "geometry": {"type": "LineString", "coordinates": [[171.31552002299713, 69.03904314388419], [171.30332410129648, 69.04112524746026]]}, "properties": {"source": "31291545", "target": "29378848"}}, {"type": "Feature", "geometry": {"type": "LineString", "coordinates": [[171.30988285609953, 69.03941926578378], [171.3098560650522, 69.03743842867576]]}, "properties": {"source": "8433944", "target": "7945170"}}, {"type": "Feature", "geometry": {"type": "LineString", "coordinates": [[171.30988285609953, 69.03941926578378], [171.30610261997532, 69.03809470088854]]}, "properties": {"source": "8433944", "target": "9739698"}}, {"type": "Feature", "geometry": {"type": "LineString", "coordinates": [[171.30988285609953, 69.03941926578378], [171.30390438050716, 69.0389791791226]]}, "properties": {"source": "8433944", "target": "978173"}}, {"type": "Feature", "geometry": {"type": "LineString", "coordinates": [[171.30364063154383, 69.03862090210268], [171.30691028908564, 69.04111959010189]]}, "properties": {"source": "31149531", "target": "2920179"}}, {"type": "Feature", "geometry": {"type": "LineString", "coordinates": [[171.3089020406133, 69.03896346386654], [171.30347174829575, 69.03966028350717]]}, "properties": {"source": "15775062", "target": "31184553"}}, {"type": "Feature", "geometry": {"type": "LineString", "coordinates": [[171.3089020406133, 69.03896346386654], [171.30478756314437, 69.04136364402763]]}, "properties": {"source": "15775062", "target": "30057824"}}, {"type": "Feature", "geometry": {"type": "LineString", "coordinates": [[171.3089020406133, 69.03896346386654], [171.31263382379092, 69.0402192472539]]}, "properties": {"source": "15775062", "target": "31381759"}}, {"type": "Feature", "geometry": {"type": "LineString", "coordinates": [[171.3089020406133, 69.03896346386654], [171.30901788272632, 69.04033926570645]]}, "properties": {"source": "15775062", "target": "30302605"}}, {"type": "Feature", "geometry": {"type": "LineString", "coordinates": [[171.3089020406133, 69.03896346386654], [171.30476772435696, 69.04017816239542]]}, "properties": {"source": "15775062", "target": "24455263"}}, {"type": "Feature", "geometry": {"type": "LineString", "coordinates": [[171.3089020406133, 69.03896346386654], [171.30420111759855, 69.04076167395891]]}, "properties": {"source": "15775062", "target": "24917848"}}, {"type": "Feature", "geometry": {"type": "LineString", "coordinates": [[171.3089020406133, 69.03896346386654], [171.31192238040967, 69.04092592623621]]}, "properties": {"source": "15775062", "target": "15851864"}}, {"type": "Feature", "geometry": {"type": "LineString", "coordinates": [[171.30994454072504, 69.03913653463701], [171.30478756314437, 69.04136364402763]]}, "properties": {"source": "12197721", "target": "30057824"}}, {"type": "Feature", "geometry": {"type": "LineString", "coordinates": [[171.30994454072504, 69.03913653463701], [171.30901788272632, 69.04033926570645]]}, "properties": {"source": "12197721", "target": "30302605"}}, {"type": "Feature", "geometry": {"type": "LineString", "coordinates": [[171.30994454072504, 69.03913653463701], [171.30703679898562, 69.03910093568882]]}, "properties": {"source": "12197721", "target": "11835669"}}, {"type": "Feature", "geometry": {"type": "LineString", "coordinates": [[171.30994454072504, 69.03913653463701], [171.3069774029197, 69.04077928522207]]}, "properties": {"source": "12197721", "target": "126095"}}, {"type": "Feature", "geometry": {"type": "LineString", "coordinates": [[171.30631085893413, 69.0410617841545], [171.31040740658005, 69.03922456228142]]}, "properties": {"source": "333690", "target": "29095627"}}, {"type": "Feature", "geometry": {"type": "LineString", "coordinates": [[171.31313772712662, 69.03751457899185], [171.30691028908564, 69.04111959010189]]}, "properties": {"source": "15995049", "target": "2920179"}}, {"type": "Feature", "geometry": {"type": "LineString", "coordinates": [[171.31313772712662, 69.03751457899185], [171.31597727461985, 69.03869057367413]]}, "properties": {"source": "15995049", "target": "25634851"}}, {"type": "Feature", "geometry": {"type": "LineString", "coordinates": [[171.31313772712662, 69.03751457899185], [171.30722261526432, 69.04015986725588]]}, "properties": {"source": "15995049", "target": "3215395"}}, {"type": "Feature", "geometry": {"type": "LineString", "coordinates": [[171.30994454072504, 69.03913653463701], [171.30898943385284, 69.03808981988035]]}, "properties": {"source": "12197721", "target": "30979170"}}, {"type": "Feature", "geometry": {"type": "LineString", "coordinates": [[171.30952089375836, 69.03861133923809], [171.30347174829575, 69.03966028350717]]}, "properties": {"source": "29440230", "target": "31184553"}}, {"type": "Feature", "geometry": {"type": "LineString", "coordinates": [[171.30952089375836, 69.03861133923809], [171.30698943290622, 69.03878748721476]]}, "properties": {"source": "29440230", "target": "29861838"}}, {"type": "Feature", "geometry": {"type": "LineString", "coordinates": [[171.30952089375836, 69.03861133923809], [171.3125969627941, 69.03890817801403]]}, "properties": {"source": "29440230", "target": "30009402"}}, {"type": "Feature", "geometry": {"type": "LineString", "coordinates": [[171.30952089375836, 69.03861133923809], [171.30764727302432, 69.03987298084911]]}, "properties": {"source": "29440230", "target": "30285908"}}, {"type": "Feature", "geometry": {"type": "LineString", "coordinates": [[171.30699018238477, 69.03767126673173], [171.30698943290622, 69.03878748721476]]}, "properties": {"source": "2895016", "target": "29861838"}}, {"type": "Feature", "geometry": {"type": "LineString", "coordinates": [[171.30699018238477, 69.03767126673173], [171.30764727302432, 69.03987298084911]]}, "properties": {"source": "2895016", "target": "30285908"}}, {"type": "Feature", "geometry": {"type": "LineString", "coordinates": [[171.30699018238477, 69.03767126673173], [171.30875909133164, 69.03722785398486]]}, "properties": {"source": "2895016", "target": "28762817"}}, {"type": "Feature", "geometry": {"type": "LineString", "coordinates": [[171.30699018238477, 69.03767126673173], [171.31649308112657, 69.0412036229724]]}, "properties": {"source": "2895016", "target": "26858077"}}, {"type": "Feature", "geometry": {"type": "LineString", "coordinates": [[171.31040740658005, 69.03922456228142], [171.31206704448215, 69.04027943769691]]}, "properties": {"source": "29095627", "target": "353894"}}, {"type": "Feature", "geometry": {"type": "LineString", "coordinates": [[171.30691028908564, 69.04111959010189], [171.31597727461985, 69.03869057367413]]}, "properties": {"source": "2920179", "target": "25634851"}}, {"type": "Feature", "geometry": {"type": "LineString", "coordinates": [[171.30691028908564, 69.04111959010189], [171.31307241954647, 69.03785452472033]]}, "properties": {"source": "2920179", "target": "1397936"}}, {"type": "Feature", "geometry": {"type": "LineString", "coordinates": [[171.30691028908564, 69.04111959010189], [171.30332410129648, 69.04112524746026]]}, "properties": {"source": "2920179", "target": "29378848"}}, {"type": "Feature", "geometry": {"type": "LineString", "coordinates": [[171.30691028908564, 69.04111959010189], [171.30722261526432, 69.04015986725588]]}, "properties": {"source": "2920179", "target": "3215395"}}, {"type": "Feature", "geometry": {"type": "LineString", "coordinates": [[171.31540904969995, 69.04009254911122], [171.31254848624212, 69.04114721383908]]}, "properties": {"source": "29631778", "target": "27426444"}}, {"type": "Feature", "geometry": {"type": "LineString", "coordinates": [[171.30952089375836, 69.03861133923809], [171.30898943385284, 69.03808981988035]]}, "properties": {"source": "29440230", "target": "30979170"}}, {"type": "Feature", "geometry": {"type": "LineString", "coordinates": [[171.30699018238477, 69.03767126673173], [171.30898943385284, 69.03808981988035]]}, "properties": {"source": "2895016", "target": "30979170"}}, {"type": "Feature", "geometry": {"type": "LineString", "coordinates": [[171.31313772712662, 69.03751457899185], [171.30831803070447, 69.04113157987842]]}, "properties": {"source": "15995049", "target": "621031"}}, {"type": "Feature", "geometry": {"type": "LineString", "coordinates": [[171.31313772712662, 69.03751457899185], [171.31490312296484, 69.04055142739182]]}, "properties": {"source": "15995049", "target": "879550"}}, {"type": "Feature", "geometry": {"type": "LineString", "coordinates": [[171.31313772712662, 69.03751457899185], [171.31453532864407, 69.03961491295419]]}, "properties": {"source": "15995049", "target": "6882935"}}, {"type": "Feature", "geometry": {"type": "LineString", "coordinates": [[171.30703679898562, 69.03910093568882], [171.30478756314437, 69.04136364402763]]}, "properties": {"source": "11835669", "target": "30057824"}}, {"type": "Feature", "geometry": {"type": "LineString", "coordinates": [[171.30703679898562, 69.03910093568882], [171.30901788272632, 69.04033926570645]]}, "properties": {"source": "11835669", "target": "30302605"}}, {"type": "Feature", "geometry": {"type": "LineString", "coordinates": [[171.31307241954647, 69.03785452472033], [171.31597727461985, 69.03869057367413]]}, "properties": {"source": "1397936", "target": "25634851"}}, {"type": "Feature", "geometry": {"type": "LineString", "coordinates": [[171.31307241954647, 69.03785452472033], [171.30722261526432, 69.04015986725588]]}, "properties": {"source": "1397936", "target": "3215395"}}, {"type": "Feature", "geometry": {"type": "LineString", "coordinates": [[171.31307241954647, 69.03785452472033], [171.31490312296484, 69.04055142739182]]}, "properties": {"source": "1397936", "target": "879550"}}, {"type": "Feature", "geometry": {"type": "LineString", "coordinates": [[171.31307241954647, 69.03785452472033], [171.31453532864407, 69.03961491295419]]}, "properties": {"source": "1397936", "target": "6882935"}}, {"type": "Feature", "geometry": {"type": "LineString", "coordinates": [[171.30332410129648, 69.04112524746026], [171.31597727461985, 69.03869057367413]]}, "properties": {"source": "29378848", "target": "25634851"}}, {"type": "Feature", "geometry": {"type": "LineString", "coordinates": [[171.31192238040967, 69.04092592623621], [171.31540904969995, 69.04009254911122]]}, "properties": {"source": "15851864", "target": "29631778"}}, {"type": "Feature", "geometry": {"type": "LineString", "coordinates": [[171.31192238040967, 69.04092592623621], [171.30420111759855, 69.04076167395891]]}, "properties": {"source": "15851864", "target": "24917848"}}, {"type": "Feature", "geometry": {"type": "LineString", "coordinates": [[171.31192238040967, 69.04092592623621], [171.3136882276254, 69.0377641909933]]}, "properties": {"source": "15851864", "target": "25998890"}}, {"type": "Feature", "geometry": {"type": "LineString", "coordinates": [[171.31192238040967, 69.04092592623621], [171.308289958336, 69.03800600902301]]}, "properties": {"source": "15851864", "target": "34033591"}}, {"type": "Feature", "geometry": {"type": "LineString", "coordinates": [[171.31096798842418, 69.04097363145058], [171.30698943290622, 69.03878748721476]]}, "properties": {"source": "25486217", "target": "29861838"}}, {"type": "Feature", "geometry": {"type": "LineString", "coordinates": [[171.30703679898562, 69.03910093568882], [171.30898943385284, 69.03808981988035]]}, "properties": {"source": "11835669", "target": "30979170"}}, {"type": "Feature", "geometry": {"type": "LineString", "coordinates": [[171.30347174829575, 69.03966028350717], [171.30698943290622, 69.03878748721476]]}, "properties": {"source": "31184553", "target": "29861838"}}, {"type": "Feature", "geometry": {"type": "LineString", "coordinates": [[171.30347174829575, 69.03966028350717], [171.3125969627941, 69.03890817801403]]}, "properties": {"source": "31184553", "target": "30009402"}}, {"type": "Feature", "geometry": {"type": "LineString", "coordinates": [[171.30347174829575, 69.03966028350717], [171.30764727302432, 69.03987298084911]]}, "properties": {"source": "31184553", "target": "30285908"}}, {"type": "Feature", "geometry": {"type": "LineString", "coordinates": [[171.30347174829575, 69.03966028350717], [171.30358411854257, 69.0372110601721]]}, "properties": {"source": "31184553", "target": "29493048"}}, {"type": "Feature", "geometry": {"type": "LineString", "coordinates": [[171.30347174829575, 69.03966028350717], [171.30478756314437, 69.04136364402763]]}, "properties": {"source": "31184553", "target": "30057824"}}, {"type": "Feature", "geometry": {"type": "LineString", "coordinates": [[171.30347174829575, 69.03966028350717], [171.30901788272632, 69.04033926570645]]}, "properties": {"source": "31184553", "target": "30302605"}}, {"type": "Feature", "geometry": {"type": "LineString", "coordinates": [[171.30347174829575, 69.03966028350717], [171.30699018238477, 69.03767126673173]]}, "properties": {"source": "31184553", "target": "2895016"}}, {"type": "Feature", "geometry": {"type": "LineString", "coordinates": [[171.30347174829575, 69.03966028350717], [171.31040740658005, 69.03922456228142]]}, "properties": {"source": "31184553", "target": "29095627"}}, {"type": "Feature", "geometry": {"type": "LineString", "coordinates": [[171.30347174829575, 69.03966028350717], [171.30994454072504, 69.03913653463701]]}, "properties": {"source": "31184553", "target": "12197721"}}, {"type": "Feature", "geometry": {"type": "LineString", "coordinates": [[171.30347174829575, 69.03966028350717], [171.30631085893413, 69.0410617841545]]}, "properties": {"source": "31184553", "target": "333690"}}, {"type": "Feature", "geometry": {"type": "LineString", "coordinates": [[171.30347174829575, 69.03966028350717], [171.30703679898562, 69.03910093568882]]}, "properties": {"source": "31184553", "target": "11835669"}}, {"type": "Feature", "geometry": {"type": "LineString", "coordinates": [[171.30347174829575, 69.03966028350717], [171.30875909133164, 69.03722785398486]]}, "properties": {"source": "31184553", "target": "28762817"}}, {"type": "Feature", "geometry": {"type": "LineString", "coordinates": [[171.30347174829575, 69.03966028350717], [171.31649308112657, 69.0412036229724]]}, "properties": {"source": "31184553", "target": "26858077"}}, {"type": "Feature", "geometry": {"type": "LineString", "coordinates": [[171.30347174829575, 69.03966028350717], [171.3069774029197, 69.04077928522207]]}, "properties": {"source": "31184553", "target": "126095"}}, {"type": "Feature", "geometry": {"type": "LineString", "coordinates": [[171.30347174829575, 69.03966028350717], [171.31294007209704, 69.04085422404097]]}, "properties": {"source": "31184553", "target": "16201841"}}, {"type": "Feature", "geometry": {"type": "LineString", "coordinates": [[171.30347174829575, 69.03966028350717], [171.30898943385284, 69.03808981988035]]}, "properties": {"source": "31184553", "target": "30979170"}}, {"type": "Feature", "geometry": {"type": "LineString", "coordinates": [[171.30358411854257, 69.0372110601721], [171.3125969627941, 69.03890817801403]]}, "properties": {"source": "29493048", "target": "30009402"}}, {"type": "Feature", "geometry": {"type": "LineString", "coordinates": [[171.30358411854257, 69.0372110601721], [171.30764727302432, 69.03987298084911]]}, "properties": {"source": "29493048", "target": "30285908"}}, {"type": "Feature", "geometry": {"type": "LineString", "coordinates": [[171.30358411854257, 69.0372110601721], [171.31040740658005, 69.03922456228142]]}, "properties": {"source": "29493048", "target": "29095627"}}, {"type": "Feature", "geometry": {"type": "LineString", "coordinates": [[171.30358411854257, 69.0372110601721], [171.30631085893413, 69.0410617841545]]}, "properties": {"source": "29493048", "target": "333690"}}, {"type": "Feature", "geometry": {"type": "LineString", "coordinates": [[171.30358411854257, 69.0372110601721], [171.30875909133164, 69.03722785398486]]}, "properties": {"source": "29493048", "target": "28762817"}}, {"type": "Feature", "geometry": {"type": "LineString", "coordinates": [[171.30358411854257, 69.0372110601721], [171.31206704448215, 69.04027943769691]]}, "properties": {"source": "29493048", "target": "353894"}}, {"type": "Feature", "geometry": {"type": "LineString", "coordinates": [[171.30358411854257, 69.0372110601721], [171.30368436933804, 69.03904198530103]]}, "properties": {"source": "29493048", "target": "27743205"}}, {"type": "Feature", "geometry": {"type": "LineString", "coordinates": [[171.30358411854257, 69.0372110601721], [171.30516673922472, 69.03730681729465]]}, "properties": {"source": "29493048", "target": "2218368"}}, {"type": "Feature", "geometry": {"type": "LineString", "coordinates": [[171.30358411854257, 69.0372110601721], [171.30523283301955, 69.03985752990604]]}, "properties": {"source": "29493048", "target": "25406271"}}, {"type": "Feature", "geometry": {"type": "LineString", "coordinates": [[171.30478756314437, 69.04136364402763], [171.30901788272632, 69.04033926570645]]}, "properties": {"source": "30057824", "target": "30302605"}}, {"type": "Feature", "geometry": {"type": "LineString", "coordinates": [[171.30478756314437, 69.04136364402763], [171.3069774029197, 69.04077928522207]]}, "properties": {"source": "30057824", "target": "126095"}}, {"type": "Feature", "geometry": {"type": "LineString", "coordinates": [[171.30478756314437, 69.04136364402763], [171.3096063395896, 69.03868781545972]]}, "properties": {"source": "30057824", "target": "20767893"}}, {"type": "Feature", "geometry": {"type": "LineString", "coordinates": [[171.31263382379092, 69.0402192472539], [171.30347174829575, 69.03966028350717]]}, "properties": {"source": "31381759", "target": "31184553"}}, {"type": "Feature", "geometry": {"type": "LineString", "coordinates": [[171.31263382379092, 69.0402192472539], [171.30478756314437, 69.04136364402763]]}, "properties": {"source": "31381759", "target": "30057824"}}, {"type": "Feature", "geometry": {"type": "LineString", "coordinates": [[171.30358411854257, 69.0372110601721], [171.30898943385284, 69.03808981988035]]}, "properties": {"source": "29493048", "target": "30979170"}}, {"type": "Feature", "geometry": {"type": "LineString", "coordinates": [[171.31263382379092, 69.0402192472539], [171.30898943385284, 69.03808981988035]]}, "properties": {"source": "31381759", "target": "30979170"}}]}