{"type": "FeatureCollection", "features": [{"type": "Feature", "geometry": {"type": "LineString", "coordinates": [[4.090187115162507, 69.04001034765787], [4.092096195079591, 69.04214277161486]]}, "properties": {"source": "19485370", "target": "10032057"}}, {"type": "Feature", "geometry": {"type": "LineString", "coordinates": [[4.090187115162507, 69.04001034765787], [4.098071502594962, 69.03734555998008]]}, "properties": {"source": "19485370", "target": "13184332"}}, {"type": "Feature", "geometry": {"type": "LineString", "coordinates": [[4.090187115162507, 69.04001034765787], [4.101596061039544, 69.03814570054925]]}, "properties": {"source": "19485370", "target": "275056"}}, {"type": "Feature", "geometry": {"type": "LineString", "coordinates": [[4.090187115162507, 69.04001034765787], [4.09982881308548, 69.03970688146788]]}, "properties": {"source": "19485370", "target": "15059456"}}, {"type": "Feature", "geometry": {"type": "LineString", "coordinates": [[4.090187115162507, 69.04001034765787], [4.090225371542886, 69.038262118944]]}, "properties": {"source": "19485370", "target": "13253786"}}, {"type": "Feature", "geometry": {"type": "LineString", "coordinates": [[4.090187115162507, 69.04001034765787], [4.096455876268749, 69.04070798538166]]}, "properties": {"source": "19485370", "target": "1057981"}}, {"type": "Feature", "geometry": {"type": "LineString", "coordinates": [[4.090187115162507, 69.04001034765787], [4.096518631603658, 69.039650681143]]}, "properties": {"source": "19485370", "target": "1237449"}}, {"type": "Feature", "geometry": {"type": "LineString", "coordinates": [[4.090187115162507, 69.04001034765787], [4.104040899072999, 69.04080055398873]]}, "properties": {"source": "19485370", "target": "257047"}}, {"type": "Feature", "geometry": {"type": "LineString", "coordinates": [[4.090187115162507, 69.04001034765787], [4.100324589502179, 69.03935130184851]]}, "properties": {"source": "19485370", "target": "13549696"}}, {"type": "Feature", "geometry": {"type": "LineString", "coordinates": [[4.090187115162507, 69.04001034765787], [4.097247611174339, 69.04182425159902]]}, "properties": {"source": "19485370", "target": "14741018"}}, {"type": "Feature", "geometry": {"type": "LineString", "coordinates": [[4.090187115162507, 69.04001034765787], [4.099513000620533, 69.04120498376966]]}, "properties": {"source": "19485370", "target": "1755682"}}, {"type": "Feature", "geometry": {"type": "LineString", "coordinates": [[4.090187115162507, 69.04001034765787], [4.104375325125659, 69.040631530529]]}, "properties": {"source": "19485370", "target": "15006473"}}, {"type": "Feature", "geometry": {"type": "LineString", "coordinates": [[4.091685425499804, 69.04143758554346], [4.096808150629556, 69.0390127829462]]}, "properties": {"source": "21424934", "target": "2740335"}}, {"type": "Feature", "geometry": {"type": "LineString", "coordinates": [[4.091685425499804, 69.04143758554346], [4.093302041428785, 69.0388533780685]]}, "properties": {"source": "21424934", "target": "18069226"}}, {"type": "Feature", "geometry": {"type": "LineString", "coordinates": [[4.091685425499804, 69.04143758554346], [4.090021298581831, 69.03903050719433]]}, "properties": {"source": "21424934", "target": "18197990"}}, {"type": "Feature", "geometry": {"type": "LineString", "coordinates": [[4.091685425499804, 69.04143758554346], [4.092020196591278, 69.03915402395063]]}, "properties": {"source": "21424934", "target": "2423979"}}, {"type": "Feature", "geometry": {"type": "LineString", "coordinates": [[4.091685425499804, 69.04143758554346], [4.102575015714763, 69.03754339689695]]}, "properties": {"source": "21424934", "target": "1637772"}}, {"type": "Feature", "geometry": {"type": "LineString", "coordinates": [[4.091685425499804, 69.04143758554346], [4.104657642229455, 69.03883617806613]]}, "properties": {"source": "21424934", "target": "200766"}}, {"type": "Feature", "geometry": {"type": "LineString", "coordinates": [[4.091685425499804, 69.04143758554346], [4.102110888130454, 69.04010144625249]]}, "properties": {"source": "21424934", "target": "1895190"}}, {"type": "Feature", "geometry": {"type": "LineString", "coordinates": [[4.091685425499804, 69.04143758554346], [4.091235072402185, 69.04246625984709]]}, "properties": {"source": "21424934", "target": "1843733"}}, {"type": "Feature", "geometry": {"type": "LineString", "coordinates": [[4.091685425499804, 69.04143758554346], [4.104470927569565, 69.0391709821042]]}, "properties": {"source": "21424934", "target": "197066"}}, {"type": "Feature", "geometry": {"type": "LineString", "coordinates": [[4.091685425499804, 69.04143758554346], [4.098446102806321, 69.0400750054527]]}, "properties": {"source": "21424934", "target": "1790939"}}, {"type": "Feature", "geometry": {"type": "LineString", "coordinates": [[4.091685425499804, 69.04143758554346], [4.094443597262938, 69.03982846914411]]}, "properties": {"source": "21424934", "target": "27135582"}}, {"type": "Feature", "geometry": {"type": "LineString", "coordinates": [[4.091685425499804, 69.04143758554346], [4.104040899072999, 69.04080055398873]]}, "properties": {"source": "21424934", "target": "257047"}}, {"type": "Feature", "geometry": {"type": "LineString", "coordinates": [[4.091685425499804, 69.04143758554346], [4.099189404156533, 69.0417368522834]]}, "properties": {"source": "21424934", "target": "20797537"}}, {"type": "Feature", "geometry": {"type": "LineString", "coordinates": [[4.091685425499804, 69.04143758554346], [4.1052953277940105, 69.04191428269749]]}, "properties": {"source": "21424934", "target": "20507376"}}, {"type": "Feature", "geometry": {"type": "LineString", "coordinates": [[4.091685425499804, 69.04143758554346], [4.097234726437279, 69.04160673256555]]}, "properties": {"source": "21424934", "target": "10771183"}}, {"type": "Feature", "geometry": {"type": "LineString", "coordinates": [[4.091685425499804, 69.04143758554346], [4.091134815019785, 69.03780465121824]]}, "properties": {"source": "21424934", "target": "24826362"}}, {"type": "Feature", "geometry": {"type": "LineString", "coordinates": [[4.091685425499804, 69.04143758554346], [4.098499419189807, 69.04254750749698]]}, "properties": {"source": "21424934", "target": "1044705"}}, {"type": "Feature", "geometry": {"type": "LineString", "coordinates": [[4.090021298581831, 69.03903050719433], [4.092020196591278, 69.03915402395063]]}, "properties": {"source": "18197990", "target": "2423979"}}, {"type": "Feature", "geometry": {"type": "LineString", "coordinates": [[4.090021298581831, 69.03903050719433], [4.104657642229455, 69.03883617806613]]}, "properties": {"source": "18197990", "target": "200766"}}, {"type": "Feature", "geometry": {"type": "LineString", "coordinates": [[4.090021298581831, 69.03903050719433], [4.102110888130454, 69.04010144625249]]}, "properties": {"source": "18197990", "target": "1895190"}}, {"type": "Feature", "geometry": {"type": "LineString", "coordinates": [[4.105862847277962, 69.04084098748527], [4.104792877512011, 69.0402246956385]]}, "properties": {"source": "289399", "target": "13015684"}}, {"type": "Feature", "geometry": {"type": "LineString", "coordinates": [[4.105862847277962, 69.04084098748527], [4.103557939114296, 69.04226099703877]]}, "properties": {"source": "289399", "target": "272793"}}, {"type": "Feature", "geometry": {"type": "LineString", "coordinates": [[4.093302041428785, 69.0388533780685], [4.090021298581831, 69.03903050719433]]}, "properties": {"source": "18069226", "target": "18197990"}}, {"type": "Feature", "geometry": {"type": "LineString", "coordinates": [[4.093302041428785, 69.0388533780685], [4.092020196591278, 69.03915402395063]]}, "properties": {"source": "18069226", "target": "2423979"}}, {"type": "Feature", "geometry": {"type": "LineString", "coordinates": [[4.093302041428785, 69.0388533780685], [4.104657642229455, 69.03883617806613]]}, "properties": {"source": "18069226", "target": "200766"}}, {"type": "Feature", "geometry": {"type": "LineString", "coordinates": [[4.093302041428785, 69.0388533780685], [4.102110888130454, 69.04010144625249]]}, "properties": {"source": "18069226", "target": "1895190"}}, {"type": "Feature", "geometry": {"type": "LineString", "coordinates": [[4.093302041428785, 69.0388533780685], [4.091235072402185, 69.04246625984709]]}, "properties": {"source": "18069226", "target": "1843733"}}, {"type": "Feature", "geometry": {"type": "LineString", "coordinates": [[4.093302041428785, 69.0388533780685], [4.104470927569565, 69.0391709821042]]}, "properties": {"source": "18069226", "target": "197066"}}, {"type": "Feature", "geometry": {"type": "LineString", "coordinates": [[4.093302041428785, 69.0388533780685], [4.098446102806321, 69.0400750054527]]}, "properties": {"source": "18069226", "target": "1790939"}}, {"type": "Feature", "geometry": {"type": "LineString", "coordinates": [[4.093302041428785, 69.0388533780685], [4.091532411376335, 69.04173475733546]]}, "properties": {"source": "18069226", "target": "13587632"}}, {"type": "Feature", "geometry": {"type": "LineString", "coordinates": [[4.093302041428785, 69.0388533780685], [4.098071502594962, 69.03734555998008]]}, "properties": {"source": "18069226", "target": "13184332"}}, {"type": "Feature", "geometry": {"type": "LineString", "coordinates": [[4.093302041428785, 69.0388533780685], [4.09982881308548, 69.03970688146788]]}, "properties": {"source": "18069226", "target": "15059456"}}, {"type": "Feature", "geometry": {"type": "LineString", "coordinates": [[4.093302041428785, 69.0388533780685], [4.097247611174339, 69.04182425159902]]}, "properties": {"source": "18069226", "target": "14741018"}}, {"type": "Feature", "geometry": {"type": "LineString", "coordinates": [[4.093302041428785, 69.0388533780685], [4.105867711723704, 69.04246012962702]]}, "properties": {"source": "18069226", "target": "1237451"}}, {"type": "Feature", "geometry": {"type": "LineString", "coordinates": [[4.093302041428785, 69.0388533780685], [4.104792877512011, 69.0402246956385]]}, "properties": {"source": "18069226", "target": "13015684"}}, {"type": "Feature", "geometry": {"type": "LineString", "coordinates": [[4.093302041428785, 69.0388533780685], [4.104375325125659, 69.040631530529]]}, "properties": {"source": "18069226", "target": "15006473"}}, {"type": "Feature", "geometry": {"type": "LineString", "coordinates": [[4.090021298581831, 69.03903050719433], [4.091235072402185, 69.04246625984709]]}, "properties": {"source": "18197990", "target": "1843733"}}, {"type": "Feature", "geometry": {"type": "LineString", "coordinates": [[4.090021298581831, 69.03903050719433], [4.104470927569565, 69.0391709821042]]}, "properties": {"source": "18197990", "target": "197066"}}, {"type": "Feature", "geometry": {"type": "LineString", "coordinates": [[4.090021298581831, 69.03903050719433], [4.098446102806321, 69.0400750054527]]}, "properties": {"source": "18197990", "target": "1790939"}}, {"type": "Feature", "geometry": {"type": "LineString", "coordinates": [[4.090021298581831, 69.03903050719433], [4.091532411376335, 69.04173475733546]]}, "properties": {"source": "18197990", "target": "13587632"}}, {"type": "Feature", "geometry": {"type": "LineString", "coordinates": [[4.090021298581831, 69.03903050719433], [4.098071502594962, 69.03734555998008]]}, "properties": {"source": "18197990", "target": "13184332"}}, {"type": "Feature", "geometry": {"type": "LineString", "coordinates": [[4.090021298581831, 69.03903050719433], [4.09982881308548, 69.03970688146788]]}, "properties": {"source": "18197990", "target": "15059456"}}, {"type": "Feature", "geometry": {"type": "LineString", "coordinates": [[4.090021298581831, 69.03903050719433], [4.104040899072999, 69.04080055398873]]}, "properties": {"source": "18197990", "target": "257047"}}, {"type": "Feature", "geometry": {"type": "LineString", "coordinates": [[4.090021298581831, 69.03903050719433], [4.104375325125659, 69.040631530529]]}, "properties": {"source": "18197990", "target": "15006473"}}, {"type": "Feature", "geometry": {"type": "LineString", "coordinates": [[4.092020196591278, 69.03915402395063], [4.096808150629556, 69.0390127829462]]}, "properties": {"source": "2423979", "target": "2740335"}}, {"type": "Feature", "geometry": {"type": "LineString", "coordinates": [[4.092020196591278, 69.03915402395063], [4.104657642229455, 69.03883617806613]]}, "properties": {"source": "2423979", "target": "200766"}}, {"type": "Feature", "geometry": {"type": "LineString", "coordinates": [[4.092020196591278, 69.03915402395063], [4.102110888130454, 69.04010144625249]]}, "properties": {"source": "2423979", "target": "1895190"}}, {"type": "Feature", "geometry": {"type": "LineString", "coordinates": [[4.092020196591278, 69.03915402395063], [4.091235072402185, 69.04246625984709]]}, "properties": {"source": "2423979", "target": "1843733"}}, {"type": "Feature", "geometry": {"type": "LineString", "coordinates": [[4.092020196591278, 69.03915402395063], [4.098446102806321, 69.0400750054527]]}, "properties": {"source": "2423979", "target": "1790939"}}, {"type": "Feature", "geometry": {"type": "LineString", "coordinates": [[4.092020196591278, 69.03915402395063], [4.091532411376335, 69.04173475733546]]}, "properties": {"source": "2423979", "target": "13587632"}}, {"type": "Feature", "geometry": {"type": "LineString", "coordinates": [[4.102575015714763, 69.03754339689695], [4.093302041428785, 69.0388533780685]]}, "properties": {"source": "1637772", "target": "18069226"}}, {"type": "Feature", "geometry": {"type": "LineString", "coordinates": [[4.102575015714763, 69.03754339689695], [4.090021298581831, 69.03903050719433]]}, "properties": {"source": "1637772", "target": "18197990"}}, {"type": "Feature", "geometry": {"type": "LineString", "coordinates": [[4.096518631603658, 69.039650681143], [4.096762266861077, 69.04234260405889]]}, "properties": {"source": "1237449", "target": "3045840"}}, {"type": "Feature", "geometry": {"type": "LineString", "coordinates": [[4.096518631603658, 69.039650681143], [4.093302041428785, 69.0388533780685]]}, "properties": {"source": "1237449", "target": "18069226"}}, {"type": "Feature", "geometry": {"type": "LineString", "coordinates": [[4.096518631603658, 69.039650681143], [4.090021298581831, 69.03903050719433]]}, "properties": {"source": "1237449", "target": "18197990"}}, {"type": "Feature", "geometry": {"type": "LineString", "coordinates": [[4.096518631603658, 69.039650681143], [4.092020196591278, 69.03915402395063]]}, "properties": {"source": "1237449", "target": "2423979"}}, {"type": "Feature", "geometry": {"type": "LineString", "coordinates": [[4.096518631603658, 69.039650681143], [4.102575015714763, 69.03754339689695]]}, "properties": {"source": "1237449", "target": "1637772"}}, {"type": "Feature", "geometry": {"type": "LineString", "coordinates": [[4.104040899072999, 69.04080055398873], [4.096808150629556, 69.0390127829462]]}, "properties": {"source": "257047", "target": "2740335"}}, {"type": "Feature", "geometry": {"type": "LineString", "coordinates": [[4.104040899072999, 69.04080055398873], [4.104657642229455, 69.03883617806613]]}, "properties": {"source": "257047", "target": "200766"}}, {"type": "Feature", "geometry": {"type": "LineString", "coordinates": [[4.104040899072999, 69.04080055398873], [4.102110888130454, 69.04010144625249]]}, "properties": {"source": "257047", "target": "1895190"}}, {"type": "Feature", "geometry": {"type": "LineString", "coordinates": [[4.104040899072999, 69.04080055398873], [4.091235072402185, 69.04246625984709]]}, "properties": {"source": "257047", "target": "1843733"}}, {"type": "Feature", "geometry": {"type": "LineString", "coordinates": [[4.104040899072999, 69.04080055398873], [4.102871357859669, 69.03746720104024]]}, "properties": {"source": "257047", "target": "18444337"}}, {"type": "Feature", "geometry": {"type": "LineString", "coordinates": [[4.099189404156533, 69.0417368522834], [4.1052953277940105, 69.04191428269749]]}, "properties": {"source": "20797537", "target": "20507376"}}, {"type": "Feature", "geometry": {"type": "LineString", "coordinates": [[4.100324589502179, 69.03935130184851], [4.096808150629556, 69.0390127829462]]}, "properties": {"source": "13549696", "target": "2740335"}}, {"type": "Feature", "geometry": {"type": "LineString", "coordinates": [[4.100324589502179, 69.03935130184851], [4.093302041428785, 69.0388533780685]]}, "properties": {"source": "13549696", "target": "18069226"}}, {"type": "Feature", "geometry": {"type": "LineString", "coordinates": [[4.100324589502179, 69.03935130184851], [4.090021298581831, 69.03903050719433]]}, "properties": {"source": "13549696", "target": "18197990"}}, {"type": "Feature", "geometry": {"type": "LineString", "coordinates": [[4.100324589502179, 69.03935130184851], [4.092020196591278, 69.03915402395063]]}, "properties": {"source": "13549696", "target": "2423979"}}, {"type": "Feature", "geometry": {"type": "LineString", "coordinates": [[4.100324589502179, 69.03935130184851], [4.102575015714763, 69.03754339689695]]}, "properties": {"source": "13549696", "target": "1637772"}}, {"type": "Feature", "geometry": {"type": "LineString", "coordinates": [[4.1006617505040595, 69.03874359146457], [4.102575015714763, 69.03754339689695]]}, "properties": {"source": "1177911", "target": "1637772"}}, {"type": "Feature", "geometry": {"type": "LineString", "coordinates": [[4.103806300391938, 69.03919546917871], [4.096808150629556, 69.0390127829462]]}, "properties": {"source": "1185190", "target": "2740335"}}, {"type": "Feature", "geometry": {"type": "LineString", "coordinates": [[4.103806300391938, 69.03919546917871], [4.096762266861077, 69.04234260405889]]}, "properties": {"source": "1185190", "target": "3045840"}}, {"type": "Feature", "geometry": {"type": "LineString", "coordinates": [[4.103806300391938, 69.03919546917871], [4.105862847277962, 69.04084098748527]]}, "properties": {"source": "1185190", "target": "289399"}}, {"type": "Feature", "geometry": {"type": "LineString", "coordinates": [[4.103806300391938, 69.03919546917871], [4.093302041428785, 69.0388533780685]]}, "properties": {"source": "1185190", "target": "18069226"}}, {"type": "Feature", "geometry": {"type": "LineString", "coordinates": [[4.103806300391938, 69.03919546917871], [4.091685425499804, 69.04143758554346]]}, "properties": {"source": "1185190", "target": "21424934"}}, {"type": "Feature", "geometry": {"type": "LineString", "coordinates": [[4.103806300391938, 69.03919546917871], [4.090021298581831, 69.03903050719433]]}, "properties": {"source": "1185190", "target": "18197990"}}, {"type": "Feature", "geometry": {"type": "LineString", "coordinates": [[4.103806300391938, 69.03919546917871], [4.092020196591278, 69.03915402395063]]}, "properties": {"source": "1185190", "target": "2423979"}}, {"type": "Feature", "geometry": {"type": "LineString", "coordinates": [[4.103806300391938, 69.03919546917871], [4.102575015714763, 69.03754339689695]]}, "properties": {"source": "1185190", "target": "1637772"}}, {"type": "Feature", "geometry": {"type": "LineString", "coordinates": [[4.105726888401335, 69.03880802082278], [4.096808150629556, 69.0390127829462]]}, "properties": {"source": "1265978", "target": "2740335"}}, {"type": "Feature", "geometry": {"type": "LineString", "coordinates": [[4.105726888401335, 69.03880802082278], [4.096762266861077, 69.04234260405889]]}, "properties": {"source": "1265978", "target": "3045840"}}, {"type": "Feature", "geometry": {"type": "LineString", "coordinates": [[4.105726888401335, 69.03880802082278], [4.093302041428785, 69.0388533780685]]}, "properties": {"source": "1265978", "target": "18069226"}}, {"type": "Feature", "geometry": {"type": "LineString", "coordinates": [[4.105726888401335, 69.03880802082278], [4.090021298581831, 69.03903050719433]]}, "properties": {"source": "1265978", "target": "18197990"}}, {"type": "Feature", "geometry": {"type": "LineString", "coordinates": [[4.105726888401335, 69.03880802082278], [4.092020196591278, 69.03915402395063]]}, "properties": {"source": "1265978", "target": "2423979"}}, {"type": "Feature", "geometry": {"type": "LineString", "coordinates": [[4.105726888401335, 69.03880802082278], [4.102575015714763, 69.03754339689695]]}, "properties": {"source": "1265978", "target": "1637772"}}, {"type": "Feature", "geometry": {"type": "LineString", "coordinates": [[4.105726888401335, 69.03880802082278], [4.104806891761683, 69.03841785710677]]}, "properties": {"source": "1265978", "target": "361509"}}, {"type": "Feature", "geometry": {"type": "LineString", "coordinates": [[4.104806891761683, 69.03841785710677], [4.090437686367665, 69.03993909326243]]}, "properties": {"source": "361509", "target": "347795"}}, {"type": "Feature", "geometry": {"type": "LineString", "coordinates": [[4.104806891761683, 69.03841785710677], [4.094443597262938, 69.03982846914411]]}, "properties": {"source": "361509", "target": "27135582"}}, {"type": "Feature", "geometry": {"type": "LineString", "coordinates": [[4.104806891761683, 69.03841785710677], [4.098071502594962, 69.03734555998008]]}, "properties": {"source": "361509", "target": "13184332"}}, {"type": "Feature", "geometry": {"type": "LineString", "coordinates": [[4.104806891761683, 69.03841785710677], [4.089994530022324, 69.0423837237233]]}, "properties": {"source": "361509", "target": "29619217"}}, {"type": "Feature", "geometry": {"type": "LineString", "coordinates": [[4.104806891761683, 69.03841785710677], [4.101596061039544, 69.03814570054925]]}, "properties": {"source": "361509", "target": "275056"}}, {"type": "Feature", "geometry": {"type": "LineString", "coordinates": [[4.104806891761683, 69.03841785710677], [4.090408080260346, 69.03788564704513]]}, "properties": {"source": "361509", "target": "55592"}}, {"type": "Feature", "geometry": {"type": "LineString", "coordinates": [[4.104806891761683, 69.03841785710677], [4.090201590812171, 69.03745534883004]]}, "properties": {"source": "361509", "target": "4643636"}}, {"type": "Feature", "geometry": {"type": "LineString", "coordinates": [[4.104806891761683, 69.03841785710677], [4.105947684567269, 69.03931101993305]]}, "properties": {"source": "361509", "target": "289421"}}, {"type": "Feature", "geometry": {"type": "LineString", "coordinates": [[4.104657642229455, 69.03883617806613], [4.102110888130454, 69.04010144625249]]}, "properties": {"source": "200766", "target": "1895190"}}, {"type": "Feature", "geometry": {"type": "LineString", "coordinates": [[4.104657642229455, 69.03883617806613], [4.091235072402185, 69.04246625984709]]}, "properties": {"source": "200766", "target": "1843733"}}, {"type": "Feature", "geometry": {"type": "LineString", "coordinates": [[4.104657642229455, 69.03883617806613], [4.098446102806321, 69.0400750054527]]}, "properties": {"source": "200766", "target": "1790939"}}, {"type": "Feature", "geometry": {"type": "LineString", "coordinates": [[4.104657642229455, 69.03883617806613], [4.101596061039544, 69.03814570054925]]}, "properties": {"source": "200766", "target": "275056"}}, {"type": "Feature", "geometry": {"type": "LineString", "coordinates": [[4.104657642229455, 69.03883617806613], [4.09982881308548, 69.03970688146788]]}, "properties": {"source": "200766", "target": "15059456"}}, {"type": "Feature", "geometry": {"type": "LineString", "coordinates": [[4.102110888130454, 69.04010144625249], [4.091235072402185, 69.04246625984709]]}, "properties": {"source": "1895190", "target": "1843733"}}, {"type": "Feature", "geometry": {"type": "LineString", "coordinates": [[4.102110888130454, 69.04010144625249], [4.09982881308548, 69.03970688146788]]}, "properties": {"source": "1895190", "target": "15059456"}}, {"type": "Feature", "geometry": {"type": "LineString", "coordinates": [[4.09630059810209, 69.03768963356808], [4.09614239958222, 69.0372432747252]]}, "properties": {"source": "404714", "target": "34656649"}}, {"type": "Feature", "geometry": {"type": "LineString", "coordinates": [[4.102575015714763, 69.03754339689695], [4.104657642229455, 69.03883617806613]]}, "properties": {"source": "1637772", "target": "200766"}}, {"type": "Feature", "geometry": {"type": "LineString", "coordinates": [[4.102575015714763, 69.03754339689695], [4.102110888130454, 69.04010144625249]]}, "properties": {"source": "1637772", "target": "1895190"}}, {"type": "Feature", "geometry": {"type": "LineString", "coordinates": [[4.102575015714763, 69.03754339689695], [4.091235072402185, 69.04246625984709]]}, "properties": {"source": "1637772", "target": "1843733"}}, {"type": "Feature", "geometry": {"type": "LineString", "coordinates": [[4.102575015714763, 69.03754339689695], [4.104470927569565, 69.0391709821042]]}, "properties": {"source": "1637772", "target": "197066"}}, {"type": "Feature", "geometry": {"type": "LineString", "coordinates": [[4.102575015714763, 69.03754339689695], [4.098446102806321, 69.0400750054527]]}, "properties": {"source": "1637772", "target": "1790939"}}, {"type": "Feature", "geometry": {"type": "LineString", "coordinates": [[4.102575015714763, 69.03754339689695], [4.091532411376335, 69.04173475733546]]}, "properties": {"source": "1637772", "target": "13587632"}}, {"type": "Feature", "geometry": {"type": "LineString", "coordinates": [[4.102575015714763, 69.03754339689695], [4.098071502594962, 69.03734555998008]]}, "properties": {"source": "1637772", "target": "13184332"}}, {"type": "Feature", "geometry": {"type": "LineString", "coordinates": [[4.102575015714763, 69.03754339689695], [4.09982881308548, 69.03970688146788]]}, "properties": {"source": "1637772", "target": "15059456"}}, {"type": "Feature", "geometry": {"type": "LineString", "coordinates": [[4.102575015714763, 69.03754339689695], [4.097247611174339, 69.04182425159902]]}, "properties": {"source": "1637772", "target": "14741018"}}, {"type": "Feature", "geometry": {"type": "LineString", "coordinates": [[4.102575015714763, 69.03754339689695], [4.104792877512011, 69.0402246956385]]}, "properties": {"source": "1637772", "target": "13015684"}}, {"type": "Feature", "geometry": {"type": "LineString", "coordinates": [[4.102575015714763, 69.03754339689695], [4.104375325125659, 69.040631530529]]}, "properties": {"source": "1637772", "target": "15006473"}}, {"type": "Feature", "geometry": {"type": "LineString", "coordinates": [[4.104806891761683, 69.03841785710677], [4.096808150629556, 69.0390127829462]]}, "properties": {"source": "361509", "target": "2740335"}}, {"type": "Feature", "geometry": {"type": "LineString", "coordinates": [[4.104806891761683, 69.03841785710677], [4.09614239958222, 69.0372432747252]]}, "properties": {"source": "361509", "target": "34656649"}}, {"type": "Feature", "geometry": {"type": "LineString", "coordinates": [[4.104806891761683, 69.03841785710677], [4.102786479335691, 69.04051412341488]]}, "properties": {"source": "361509", "target": "289401"}}, {"type": "Feature", "geometry": {"type": "LineString", "coordinates": [[4.104806891761683, 69.03841785710677], [4.098923312498641, 69.03835183007646]]}, "properties": {"source": "361509", "target": "4630559"}}, {"type": "Feature", "geometry": {"type": "LineString", "coordinates": [[4.104806891761683, 69.03841785710677], [4.09630059810209, 69.03768963356808]]}, "properties": {"source": "361509", "target": "404714"}}, {"type": "Feature", "geometry": {"type": "LineString", "coordinates": [[4.097247611174339, 69.04182425159902], [4.090021298581831, 69.03903050719433]]}, "properties": {"source": "14741018", "target": "18197990"}}, {"type": "Feature", "geometry": {"type": "LineString", "coordinates": [[4.097247611174339, 69.04182425159902], [4.102110888130454, 69.04010144625249]]}, "properties": {"source": "14741018", "target": "1895190"}}, {"type": "Feature", "geometry": {"type": "LineString", "coordinates": [[4.097247611174339, 69.04182425159902], [4.091235072402185, 69.04246625984709]]}, "properties": {"source": "14741018", "target": "1843733"}}, {"type": "Feature", "geometry": {"type": "LineString", "coordinates": [[4.097247611174339, 69.04182425159902], [4.098446102806321, 69.0400750054527]]}, "properties": {"source": "14741018", "target": "1790939"}}, {"type": "Feature", "geometry": {"type": "LineString", "coordinates": [[4.097247611174339, 69.04182425159902], [4.09982881308548, 69.03970688146788]]}, "properties": {"source": "14741018", "target": "15059456"}}, {"type": "Feature", "geometry": {"type": "LineString", "coordinates": [[4.090408080260346, 69.03788564704513], [4.09614239958222, 69.0372432747252]]}, "properties": {"source": "55592", "target": "34656649"}}, {"type": "Feature", "geometry": {"type": "LineString", "coordinates": [[4.090408080260346, 69.03788564704513], [4.098923312498641, 69.03835183007646]]}, "properties": {"source": "55592", "target": "4630559"}}, {"type": "Feature", "geometry": {"type": "LineString", "coordinates": [[4.090408080260346, 69.03788564704513], [4.090201590812171, 69.03745534883004]]}, "properties": {"source": "55592", "target": "4643636"}}, {"type": "Feature", "geometry": {"type": "LineString", "coordinates": [[4.099513000620533, 69.04120498376966], [4.093302041428785, 69.0388533780685]]}, "properties": {"source": "1755682", "target": "18069226"}}, {"type": "Feature", "geometry": {"type": "LineString", "coordinates": [[4.099513000620533, 69.04120498376966], [4.091685425499804, 69.04143758554346]]}, "properties": {"source": "1755682", "target": "21424934"}}, {"type": "Feature", "geometry": {"type": "LineString", "coordinates": [[4.099513000620533, 69.04120498376966], [4.090021298581831, 69.03903050719433]]}, "properties": {"source": "1755682", "target": "18197990"}}, {"type": "Feature", "geometry": {"type": "LineString", "coordinates": [[4.099513000620533, 69.04120498376966], [4.092020196591278, 69.03915402395063]]}, "properties": {"source": "1755682", "target": "2423979"}}, {"type": "Feature", "geometry": {"type": "LineString", "coordinates": [[4.099513000620533, 69.04120498376966], [4.098446102806321, 69.0400750054527]]}, "properties": {"source": "1755682", "target": "1790939"}}, {"type": "Feature", "geometry": {"type": "LineString", "coordinates": [[4.099513000620533, 69.04120498376966], [4.105867711723704, 69.04246012962702]]}, "properties": {"source": "1755682", "target": "1237451"}}, {"type": "Feature", "geometry": {"type": "LineString", "coordinates": [[4.0929782259846945, 69.03965808234767], [4.091685425499804, 69.04143758554346]]}, "properties": {"source": "18144282", "target": "21424934"}}, {"type": "Feature", "geometry": {"type": "LineString", "coordinates": [[4.090408080260346, 69.03788564704513], [4.09630059810209, 69.03768963356808]]}, "properties": {"source": "55592", "target": "404714"}}, {"type": "Feature", "geometry": {"type": "LineString", "coordinates": [[4.096808150629556, 69.0390127829462], [4.104657642229455, 69.03883617806613]]}, "properties": {"source": "2740335", "target": "200766"}}, {"type": "Feature", "geometry": {"type": "LineString", "coordinates": [[4.096808150629556, 69.0390127829462], [4.09614239958222, 69.0372432747252]]}, "properties": {"source": "2740335", "target": "34656649"}}, {"type": "Feature", "geometry": {"type": "LineString", "coordinates": [[4.096808150629556, 69.0390127829462], [4.102110888130454, 69.04010144625249]]}, "properties": {"source": "2740335", "target": "1895190"}}, {"type": "Feature", "geometry": {"type": "LineString", "coordinates": [[4.096808150629556, 69.0390127829462], [4.094443597262938, 69.03982846914411]]}, "properties": {"source": "2740335", "target": "27135582"}}, {"type": "Feature", "geometry": {"type": "LineString", "coordinates": [[4.096808150629556, 69.0390127829462], [4.091532411376335, 69.04173475733546]]}, "properties": {"source": "2740335", "target": "13587632"}}, {"type": "Feature", "geometry": {"type": "LineString", "coordinates": [[4.096808150629556, 69.0390127829462], [4.104792877512011, 69.0402246956385]]}, "properties": {"source": "2740335", "target": "13015684"}}, {"type": "Feature", "geometry": {"type": "LineString", "coordinates": [[4.096808150629556, 69.0390127829462], [4.097234726437279, 69.04160673256555]]}, "properties": {"source": "2740335", "target": "10771183"}}, {"type": "Feature", "geometry": {"type": "LineString", "coordinates": [[4.096762266861077, 69.04234260405889], [4.096808150629556, 69.0390127829462]]}, "properties": {"source": "3045840", "target": "2740335"}}, {"type": "Feature", "geometry": {"type": "LineString", "coordinates": [[4.096762266861077, 69.04234260405889], [4.104806891761683, 69.03841785710677]]}, "properties": {"source": "3045840", "target": "361509"}}, {"type": "Feature", "geometry": {"type": "LineString", "coordinates": [[4.096762266861077, 69.04234260405889], [4.09614239958222, 69.0372432747252]]}, "properties": {"source": "3045840", "target": "34656649"}}, {"type": "Feature", "geometry": {"type": "LineString", "coordinates": [[4.096762266861077, 69.04234260405889], [4.102786479335691, 69.04051412341488]]}, "properties": {"source": "3045840", "target": "289401"}}, {"type": "Feature", "geometry": {"type": "LineString", "coordinates": [[4.096762266861077, 69.04234260405889], [4.098923312498641, 69.03835183007646]]}, "properties": {"source": "3045840", "target": "4630559"}}, {"type": "Feature", "geometry": {"type": "LineString", "coordinates": [[4.096762266861077, 69.04234260405889], [4.090437686367665, 69.03993909326243]]}, "properties": {"source": "3045840", "target": "347795"}}, {"type": "Feature", "geometry": {"type": "LineString", "coordinates": [[4.096762266861077, 69.04234260405889], [4.094443597262938, 69.03982846914411]]}, "properties": {"source": "3045840", "target": "27135582"}}, {"type": "Feature", "geometry": {"type": "LineString", "coordinates": [[4.096808150629556, 69.0390127829462], [4.09630059810209, 69.03768963356808]]}, "properties": {"source": "2740335", "target": "404714"}}, {"type": "Feature", "geometry": {"type": "LineString", "coordinates": [[4.096762266861077, 69.04234260405889], [4.09630059810209, 69.03768963356808]]}, "properties": {"source": "3045840", "target": "404714"}}, {"type": "Feature", "geometry": {"type": "LineString", "coordinates": [[4.105862847277962, 69.04084098748527], [4.09614239958222, 69.0372432747252]]}, "properties": {"source": "289399", "target": "34656649"}}, {"type": "Feature", "geometry": {"type": "LineString", "coordinates": [[4.105862847277962, 69.04084098748527], [4.104470927569565, 69.0391709821042]]}, "properties": {"source": "289399", "target": "197066"}}, {"type": "Feature", "geometry": {"type": "LineString", "coordinates": [[4.105862847277962, 69.04084098748527], [4.102786479335691, 69.04051412341488]]}, "properties": {"source": "289399", "target": "289401"}}, {"type": "Feature", "geometry": {"type": "LineString", "coordinates": [[4.105862847277962, 69.04084098748527], [4.098923312498641, 69.03835183007646]]}, "properties": {"source": "289399", "target": "4630559"}}, {"type": "Feature", "geometry": {"type": "LineString", "coordinates": [[4.105862847277962, 69.04084098748527], [4.090437686367665, 69.03993909326243]]}, "properties": {"source": "289399", "target": "347795"}}, {"type": "Feature", "geometry": {"type": "LineString", "coordinates": [[4.105862847277962, 69.04084098748527], [4.094443597262938, 69.03982846914411]]}, "properties": {"source": "289399", "target": "27135582"}}, {"type": "Feature", "geometry": {"type": "LineString", "coordinates": [[4.105862847277962, 69.04084098748527], [4.091532411376335, 69.04173475733546]]}, "properties": {"source": "289399", "target": "13587632"}}, {"type": "Feature", "geometry": {"type": "LineString", "coordinates": [[4.105862847277962, 69.04084098748527], [4.105726888401335, 69.03880802082278]]}, "properties": {"source": "289399", "target": "1265978"}}, {"type": "Feature", "geometry": {"type": "LineString", "coordinates": [[4.105862847277962, 69.04084098748527], [4.092096195079591, 69.04214277161486]]}, "properties": {"source": "289399", "target": "10032057"}}, {"type": "Feature", "geometry": {"type": "LineString", "coordinates": [[4.105862847277962, 69.04084098748527], [4.098071502594962, 69.03734555998008]]}, "properties": {"source": "289399", "target": "13184332"}}, {"type": "Feature", "geometry": {"type": "LineString", "coordinates": [[4.105862847277962, 69.04084098748527], [4.101596061039544, 69.03814570054925]]}, "properties": {"source": "289399", "target": "275056"}}, {"type": "Feature", "geometry": {"type": "LineString", "coordinates": [[4.105862847277962, 69.04084098748527], [4.096518631603658, 69.039650681143]]}, "properties": {"source": "289399", "target": "1237449"}}, {"type": "Feature", "geometry": {"type": "LineString", "coordinates": [[4.105862847277962, 69.04084098748527], [4.100324589502179, 69.03935130184851]]}, "properties": {"source": "289399", "target": "13549696"}}, {"type": "Feature", "geometry": {"type": "LineString", "coordinates": [[4.105862847277962, 69.04084098748527], [4.093338185775167, 69.04216044413096]]}, "properties": {"source": "289399", "target": "13498772"}}, {"type": "Feature", "geometry": {"type": "LineString", "coordinates": [[4.105862847277962, 69.04084098748527], [4.105867711723704, 69.04246012962702]]}, "properties": {"source": "289399", "target": "1237451"}}, {"type": "Feature", "geometry": {"type": "LineString", "coordinates": [[4.105862847277962, 69.04084098748527], [4.09630059810209, 69.03768963356808]]}, "properties": {"source": "289399", "target": "404714"}}, {"type": "Feature", "geometry": {"type": "LineString", "coordinates": [[4.092096195079591, 69.04214277161486], [4.096808150629556, 69.0390127829462]]}, "properties": {"source": "10032057", "target": "2740335"}}, {"type": "Feature", "geometry": {"type": "LineString", "coordinates": [[4.092096195079591, 69.04214277161486], [4.096762266861077, 69.04234260405889]]}, "properties": {"source": "10032057", "target": "3045840"}}, {"type": "Feature", "geometry": {"type": "LineString", "coordinates": [[4.092096195079591, 69.04214277161486], [4.093302041428785, 69.0388533780685]]}, "properties": {"source": "10032057", "target": "18069226"}}, {"type": "Feature", "geometry": {"type": "LineString", "coordinates": [[4.092096195079591, 69.04214277161486], [4.091685425499804, 69.04143758554346]]}, "properties": {"source": "10032057", "target": "21424934"}}, {"type": "Feature", "geometry": {"type": "LineString", "coordinates": [[4.092096195079591, 69.04214277161486], [4.090021298581831, 69.03903050719433]]}, "properties": {"source": "10032057", "target": "18197990"}}, {"type": "Feature", "geometry": {"type": "LineString", "coordinates": [[4.092096195079591, 69.04214277161486], [4.092020196591278, 69.03915402395063]]}, "properties": {"source": "10032057", "target": "2423979"}}, {"type": "Feature", "geometry": {"type": "LineString", "coordinates": [[4.092096195079591, 69.04214277161486], [4.102575015714763, 69.03754339689695]]}, "properties": {"source": "10032057", "target": "1637772"}}, {"type": "Feature", "geometry": {"type": "LineString", "coordinates": [[4.098071502594962, 69.03734555998008], [4.096808150629556, 69.0390127829462]]}, "properties": {"source": "13184332", "target": "2740335"}}, {"type": "Feature", "geometry": {"type": "LineString", "coordinates": [[4.098071502594962, 69.03734555998008], [4.092020196591278, 69.03915402395063]]}, "properties": {"source": "13184332", "target": "2423979"}}, {"type": "Feature", "geometry": {"type": "LineString", "coordinates": [[4.089994530022324, 69.0423837237233], [4.09614239958222, 69.0372432747252]]}, "properties": {"source": "29619217", "target": "34656649"}}, {"type": "Feature", "geometry": {"type": "LineString", "coordinates": [[4.089994530022324, 69.0423837237233], [4.098923312498641, 69.03835183007646]]}, "properties": {"source": "29619217", "target": "4630559"}}, {"type": "Feature", "geometry": {"type": "LineString", "coordinates": [[4.089994530022324, 69.0423837237233], [4.105947684567269, 69.03931101993305]]}, "properties": {"source": "29619217", "target": "289421"}}, {"type": "Feature", "geometry": {"type": "LineString", "coordinates": [[4.101596061039544, 69.03814570054925], [4.09614239958222, 69.0372432747252]]}, "properties": {"source": "275056", "target": "34656649"}}, {"type": "Feature", "geometry": {"type": "LineString", "coordinates": [[4.09982881308548, 69.03970688146788], [4.091235072402185, 69.04246625984709]]}, "properties": {"source": "15059456", "target": "1843733"}}, {"type": "Feature", "geometry": {"type": "LineString", "coordinates": [[4.089994530022324, 69.0423837237233], [4.09630059810209, 69.03768963356808]]}, "properties": {"source": "29619217", "target": "404714"}}, {"type": "Feature", "geometry": {"type": "LineString", "coordinates": [[4.101596061039544, 69.03814570054925], [4.09630059810209, 69.03768963356808]]}, "properties": {"source": "275056", "target": "404714"}}, {"type": "Feature", "geometry": {"type": "LineString", "coordinates": [[4.090437686367665, 69.03993909326243], [4.096808150629556, 69.0390127829462]]}, "properties": {"source": "347795", "target": "2740335"}}, {"type": "Feature", "geometry": {"type": "LineString", "coordinates": [[4.090437686367665, 69.03993909326243], [4.09614239958222, 69.0372432747252]]}, "properties": {"source": "347795", "target": "34656649"}}, {"type": "Feature", "geometry": {"type": "LineString", "coordinates": [[4.090437686367665, 69.03993909326243], [4.098923312498641, 69.03835183007646]]}, "properties": {"source": "347795", "target": "4630559"}}, {"type": "Feature", "geometry": {"type": "LineString", "coordinates": [[4.090437686367665, 69.03993909326243], [4.094443597262938, 69.03982846914411]]}, "properties": {"source": "347795", "target": "27135582"}}, {"type": "Feature", "geometry": {"type": "LineString", "coordinates": [[4.090437686367665, 69.03993909326243], [4.089994530022324, 69.0423837237233]]}, "properties": {"source": "347795", "target": "29619217"}}, {"type": "Feature", "geometry": {"type": "LineString", "coordinates": [[4.094443597262938, 69.03982846914411], [4.09614239958222, 69.0372432747252]]}, "properties": {"source": "27135582", "target": "34656649"}}, {"type": "Feature", "geometry": {"type": "LineString", "coordinates": [[4.091532411376335, 69.04173475733546], [4.09916155599538, 69.04189902393779]]}, "properties": {"source": "13587632", "target": "13495653"}}, {"type": "Feature", "geometry": {"type": "LineString", "coordinates": [[4.1006617505040595, 69.03874359146457], [4.096808150629556, 69.0390127829462]]}, "properties": {"source": "1177911", "target": "2740335"}}, {"type": "Feature", "geometry": {"type": "LineString", "coordinates": [[4.1006617505040595, 69.03874359146457], [4.096762266861077, 69.04234260405889]]}, "properties": {"source": "1177911", "target": "3045840"}}, {"type": "Feature", "geometry": {"type": "LineString", "coordinates": [[4.1006617505040595, 69.03874359146457], [4.105862847277962, 69.04084098748527]]}, "properties": {"source": "1177911", "target": "289399"}}, {"type": "Feature", "geometry": {"type": "LineString", "coordinates": [[4.1006617505040595, 69.03874359146457], [4.093302041428785, 69.0388533780685]]}, "properties": {"source": "1177911", "target": "18069226"}}, {"type": "Feature", "geometry": {"type": "LineString", "coordinates": [[4.1006617505040595, 69.03874359146457], [4.090187115162507, 69.04001034765787]]}, "properties": {"source": "1177911", "target": "19485370"}}, {"type": "Feature", "geometry": {"type": "LineString", "coordinates": [[4.1006617505040595, 69.03874359146457], [4.091685425499804, 69.04143758554346]]}, "properties": {"source": "1177911", "target": "21424934"}}, {"type": "Feature", "geometry": {"type": "LineString", "coordinates": [[4.1006617505040595, 69.03874359146457], [4.090021298581831, 69.03903050719433]]}, "properties": {"source": "1177911", "target": "18197990"}}, {"type": "Feature", "geometry": {"type": "LineString", "coordinates": [[4.1006617505040595, 69.03874359146457], [4.092020196591278, 69.03915402395063]]}, "properties": {"source": "1177911", "target": "2423979"}}, {"type": "Feature", "geometry": {"type": "LineString", "coordinates": [[4.090437686367665, 69.03993909326243], [4.09630059810209, 69.03768963356808]]}, "properties": {"source": "347795", "target": "404714"}}, {"type": "Feature", "geometry": {"type": "LineString", "coordinates": [[4.096271525922987, 69.04124845567495], [4.090187115162507, 69.04001034765787]]}, "properties": {"source": "2597362", "target": "19485370"}}, {"type": "Feature", "geometry": {"type": "LineString", "coordinates": [[4.096271525922987, 69.04124845567495], [4.091685425499804, 69.04143758554346]]}, "properties": {"source": "2597362", "target": "21424934"}}, {"type": "Feature", "geometry": {"type": "LineString", "coordinates": [[4.096271525922987, 69.04124845567495], [4.090021298581831, 69.03903050719433]]}, "properties": {"source": "2597362", "target": "18197990"}}, {"type": "Feature", "geometry": {"type": "LineString", "coordinates": [[4.096271525922987, 69.04124845567495], [4.092020196591278, 69.03915402395063]]}, "properties": {"source": "2597362", "target": "2423979"}}, {"type": "Feature", "geometry": {"type": "LineString", "coordinates": [[4.096271525922987, 69.04124845567495], [4.104806891761683, 69.03841785710677]]}, "properties": {"source": "2597362", "target": "361509"}}, {"type": "Feature", "geometry": {"type": "LineString", "coordinates": [[4.096271525922987, 69.04124845567495], [4.104657642229455, 69.03883617806613]]}, "properties": {"source": "2597362", "target": "200766"}}, {"type": "Feature", "geometry": {"type": "LineString", "coordinates": [[4.096271525922987, 69.04124845567495], [4.09614239958222, 69.0372432747252]]}, "properties": {"source": "2597362", "target": "34656649"}}, {"type": "Feature", "geometry": {"type": "LineString", "coordinates": [[4.096271525922987, 69.04124845567495], [4.102110888130454, 69.04010144625249]]}, "properties": {"source": "2597362", "target": "1895190"}}, {"type": "Feature", "geometry": {"type": "LineString", "coordinates": [[4.096271525922987, 69.04124845567495], [4.091235072402185, 69.04246625984709]]}, "properties": {"source": "2597362", "target": "1843733"}}, {"type": "Feature", "geometry": {"type": "LineString", "coordinates": [[4.096271525922987, 69.04124845567495], [4.104470927569565, 69.0391709821042]]}, "properties": {"source": "2597362", "target": "197066"}}, {"type": "Feature", "geometry": {"type": "LineString", "coordinates": [[4.096271525922987, 69.04124845567495], [4.098446102806321, 69.0400750054527]]}, "properties": {"source": "2597362", "target": "1790939"}}, {"type": "Feature", "geometry": {"type": "LineString", "coordinates": [[4.096271525922987, 69.04124845567495], [4.103825375928892, 69.03853700178658]]}, "properties": {"source": "2597362", "target": "24793045"}}, {"type": "Feature", "geometry": {"type": "LineString", "coordinates": [[4.096271525922987, 69.04124845567495], [4.102786479335691, 69.04051412341488]]}, "properties": {"source": "2597362", "target": "289401"}}, {"type": "Feature", "geometry": {"type": "LineString", "coordinates": [[4.096271525922987, 69.04124845567495], [4.097638124408547, 69.03945835288664]]}, "properties": {"source": "2597362", "target": "289407"}}, {"type": "Feature", "geometry": {"type": "LineString", "coordinates": [[4.096271525922987, 69.04124845567495], [4.090852053274858, 69.0387126648312]]}, "properties": {"source": "2597362", "target": "289990"}}, {"type": "Feature", "geometry": {"type": "LineString", "coordinates": [[4.096271525922987, 69.04124845567495], [4.090437686367665, 69.03993909326243]]}, "properties": {"source": "2597362", "target": "347795"}}, {"type": "Feature", "geometry": {"type": "LineString", "coordinates": [[4.093264687422987, 69.04161785240379], [4.104806891761683, 69.03841785710677]]}, "properties": {"source": "289416", "target": "361509"}}, {"type": "Feature", "geometry": {"type": "LineString", "coordinates": [[4.103557939114296, 69.04226099703877], [4.096808150629556, 69.0390127829462]]}, "properties": {"source": "272793", "target": "2740335"}}, {"type": "Feature", "geometry": {"type": "LineString", "coordinates": [[4.091134815019785, 69.03780465121824], [4.096808150629556, 69.0390127829462]]}, "properties": {"source": "24826362", "target": "2740335"}}, {"type": "Feature", "geometry": {"type": "LineString", "coordinates": [[4.098499419189807, 69.04254750749698], [4.099189404156533, 69.0417368522834]]}, "properties": {"source": "1044705", "target": "20797537"}}, {"type": "Feature", "geometry": {"type": "LineString", "coordinates": [[4.098499419189807, 69.04254750749698], [4.1052953277940105, 69.04191428269749]]}, "properties": {"source": "1044705", "target": "20507376"}}, {"type": "Feature", "geometry": {"type": "LineString", "coordinates": [[4.092898391671724, 69.03828957743636], [4.099189404156533, 69.0417368522834]]}, "properties": {"source": "13236844", "target": "20797537"}}, {"type": "Feature", "geometry": {"type": "LineString", "coordinates": [[4.092898391671724, 69.03828957743636], [4.1052953277940105, 69.04191428269749]]}, "properties": {"source": "13236844", "target": "20507376"}}, {"type": "Feature", "geometry": {"type": "LineString", "coordinates": [[4.092659330638696, 69.04024025577468], [4.093560881535865, 69.03947589527468]]}, "properties": {"source": "76832", "target": "2940465"}}, {"type": "Feature", "geometry": {"type": "LineString", "coordinates": [[4.100564754704436, 69.03776400905096], [4.099189404156533, 69.0417368522834]]}, "properties": {"source": "22731001", "target": "20797537"}}, {"type": "Feature", "geometry": {"type": "LineString", "coordinates": [[4.100564754704436, 69.03776400905096], [4.1052953277940105, 69.04191428269749]]}, "properties": {"source": "22731001", "target": "20507376"}}, {"type": "Feature", "geometry": {"type": "LineString", "coordinates": [[4.090808100789218, 69.03724186385614], [4.0916918087743, 69.04042125800586]]}, "properties": {"source": "26846508", "target": "25175871"}}, {"type": "Feature", "geometry": {"type": "LineString", "coordinates": [[4.09564595076165, 69.04223065693745], [4.094443597262938, 69.03982846914411]]}, "properties": {"source": "29997478", "target": "27135582"}}, {"type": "Feature", "geometry": {"type": "LineString", "coordinates": [[4.094356090825187, 69.04214212225176], [4.090408080260346, 69.03788564704513]]}, "properties": {"source": "7147536", "target": "55592"}}, {"type": "Feature", "geometry": {"type": "LineString", "coordinates": [[4.10120917826913, 69.03934339771178], [4.105947684567269, 69.03931101993305]]}, "properties": {"source": "32062360", "target": "289421"}}, {"type": "Feature", "geometry": {"type": "LineString", "coordinates": [[4.093264687422987, 69.04161785240379], [4.09630059810209, 69.03768963356808]]}, "properties": {"source": "289416", "target": "404714"}}, {"type": "Feature", "geometry": {"type": "LineString", "coordinates": [[4.096271525922987, 69.04124845567495], [4.091532411376335, 69.04173475733546]]}, "properties": {"source": "2597362", "target": "13587632"}}, {"type": "Feature", "geometry": {"type": "LineString", "coordinates": [[4.096271525922987, 69.04124845567495], [4.1006617505040595, 69.03874359146457]]}, "properties": {"source": "2597362", "target": "1177911"}}, {"type": "Feature", "geometry": {"type": "LineString", "coordinates": [[4.096271525922987, 69.04124845567495], [4.103806300391938, 69.03919546917871]]}, "properties": {"source": "2597362", "target": "1185190"}}, {"type": "Feature", "geometry": {"type": "LineString", "coordinates": [[4.096271525922987, 69.04124845567495], [4.105726888401335, 69.03880802082278]]}, "properties": {"source": "2597362", "target": "1265978"}}, {"type": "Feature", "geometry": {"type": "LineString", "coordinates": [[4.096271525922987, 69.04124845567495], [4.092096195079591, 69.04214277161486]]}, "properties": {"source": "2597362", "target": "10032057"}}, {"type": "Feature", "geometry": {"type": "LineString", "coordinates": [[4.096271525922987, 69.04124845567495], [4.098071502594962, 69.03734555998008]]}, "properties": {"source": "2597362", "target": "13184332"}}, {"type": "Feature", "geometry": {"type": "LineString", "coordinates": [[4.096271525922987, 69.04124845567495], [4.089994530022324, 69.0423837237233]]}, "properties": {"source": "2597362", "target": "29619217"}}, {"type": "Feature", "geometry": {"type": "LineString", "coordinates": [[4.096271525922987, 69.04124845567495], [4.090225371542886, 69.038262118944]]}, "properties": {"source": "2597362", "target": "13253786"}}, {"type": "Feature", "geometry": {"type": "LineString", "coordinates": [[4.096271525922987, 69.04124845567495], [4.096518631603658, 69.039650681143]]}, "properties": {"source": "2597362", "target": "1237449"}}, {"type": "Feature", "geometry": {"type": "LineString", "coordinates": [[4.096271525922987, 69.04124845567495], [4.104040899072999, 69.04080055398873]]}, "properties": {"source": "2597362", "target": "257047"}}, {"type": "Feature", "geometry": {"type": "LineString", "coordinates": [[4.096271525922987, 69.04124845567495], [4.091134815019785, 69.03780465121824]]}, "properties": {"source": "2597362", "target": "24826362"}}, {"type": "Feature", "geometry": {"type": "LineString", "coordinates": [[4.105862847277962, 69.04084098748527], [4.096808150629556, 69.0390127829462]]}, "properties": {"source": "289399", "target": "2740335"}}, {"type": "Feature", "geometry": {"type": "LineString", "coordinates": [[4.105862847277962, 69.04084098748527], [4.096762266861077, 69.04234260405889]]}, "properties": {"source": "289399", "target": "3045840"}}, {"type": "Feature", "geometry": {"type": "LineString", "coordinates": [[4.105862847277962, 69.04084098748527], [4.092020196591278, 69.03915402395063]]}, "properties": {"source": "289399", "target": "2423979"}}, {"type": "Feature", "geometry": {"type": "LineString", "coordinates": [[4.105862847277962, 69.04084098748527], [4.104806891761683, 69.03841785710677]]}, "properties": {"source": "289399", "target": "361509"}}, {"type": "Feature", "geometry": {"type": "LineString", "coordinates": [[4.105862847277962, 69.04084098748527], [4.104657642229455, 69.03883617806613]]}, "properties": {"source": "289399", "target": "200766"}}, {"type": "Feature", "geometry": {"type": "LineString", "coordinates": [[4.096762266861077, 69.04234260405889], [4.091532411376335, 69.04173475733546]]}, "properties": {"source": "3045840", "target": "13587632"}}, {"type": "Feature", "geometry": {"type": "LineString", "coordinates": [[4.096762266861077, 69.04234260405889], [4.098071502594962, 69.03734555998008]]}, "properties": {"source": "3045840", "target": "13184332"}}, {"type": "Feature", "geometry": {"type": "LineString", "coordinates": [[4.096762266861077, 69.04234260405889], [4.089994530022324, 69.0423837237233]]}, "properties": {"source": "3045840", "target": "29619217"}}, {"type": "Feature", "geometry": {"type": "LineString", "coordinates": [[4.096762266861077, 69.04234260405889], [4.101596061039544, 69.03814570054925]]}, "properties": {"source": "3045840", "target": "275056"}}, {"type": "Feature", "geometry": {"type": "LineString", "coordinates": [[4.096762266861077, 69.04234260405889], [4.100324589502179, 69.03935130184851]]}, "properties": {"source": "3045840", "target": "13549696"}}, {"type": "Feature", "geometry": {"type": "LineString", "coordinates": [[4.096762266861077, 69.04234260405889], [4.090408080260346, 69.03788564704513]]}, "properties": {"source": "3045840", "target": "55592"}}, {"type": "Feature", "geometry": {"type": "LineString", "coordinates": [[4.096762266861077, 69.04234260405889], [4.090201590812171, 69.03745534883004]]}, "properties": {"source": "3045840", "target": "4643636"}}, {"type": "Feature", "geometry": {"type": "LineString", "coordinates": [[4.096762266861077, 69.04234260405889], [4.105867711723704, 69.04246012962702]]}, "properties": {"source": "3045840", "target": "1237451"}}, {"type": "Feature", "geometry": {"type": "LineString", "coordinates": [[4.096762266861077, 69.04234260405889], [4.104792877512011, 69.0402246956385]]}, "properties": {"source": "3045840", "target": "13015684"}}, {"type": "Feature", "geometry": {"type": "LineString", "coordinates": [[4.096762266861077, 69.04234260405889], [4.105947684567269, 69.03931101993305]]}, "properties": {"source": "3045840", "target": "289421"}}, {"type": "Feature", "geometry": {"type": "LineString", "coordinates": [[4.096762266861077, 69.04234260405889], [4.097234726437279, 69.04160673256555]]}, "properties": {"source": "3045840", "target": "10771183"}}, {"type": "Feature", "geometry": {"type": "LineString", "coordinates": [[4.096762266861077, 69.04234260405889], [4.103557939114296, 69.04226099703877]]}, "properties": {"source": "3045840", "target": "272793"}}, {"type": "Feature", "geometry": {"type": "LineString", "coordinates": [[4.096271525922987, 69.04124845567495], [4.096808150629556, 69.0390127829462]]}, "properties": {"source": "2597362", "target": "2740335"}}, {"type": "Feature", "geometry": {"type": "LineString", "coordinates": [[4.096271525922987, 69.04124845567495], [4.096762266861077, 69.04234260405889]]}, "properties": {"source": "2597362", "target": "3045840"}}, {"type": "Feature", "geometry": {"type": "LineString", "coordinates": [[4.096271525922987, 69.04124845567495], [4.105862847277962, 69.04084098748527]]}, "properties": {"source": "2597362", "target": "289399"}}, {"type": "Feature", "geometry": {"type": "LineString", "coordinates": [[4.096271525922987, 69.04124845567495], [4.093302041428785, 69.0388533780685]]}, "properties": {"source": "2597362", "target": "18069226"}}, {"type": "Feature", "geometry": {"type": "LineString", "coordinates": [[4.104470927569565, 69.0391709821042], [4.096808150629556, 69.0390127829462]]}, "properties": {"source": "197066", "target": "2740335"}}, {"type": "Feature", "geometry": {"type": "LineString", "coordinates": [[4.104470927569565, 69.0391709821042], [4.092020196591278, 69.03915402395063]]}, "properties": {"source": "197066", "target": "2423979"}}, {"type": "Feature", "geometry": {"type": "LineString", "coordinates": [[4.104470927569565, 69.0391709821042], [4.104657642229455, 69.03883617806613]]}, "properties": {"source": "197066", "target": "200766"}}, {"type": "Feature", "geometry": {"type": "LineString", "coordinates": [[4.104470927569565, 69.0391709821042], [4.102110888130454, 69.04010144625249]]}, "properties": {"source": "197066", "target": "1895190"}}, {"type": "Feature", "geometry": {"type": "LineString", "coordinates": [[4.104470927569565, 69.0391709821042], [4.091235072402185, 69.04246625984709]]}, "properties": {"source": "197066", "target": "1843733"}}, {"type": "Feature", "geometry": {"type": "LineString", "coordinates": [[4.104470927569565, 69.0391709821042], [4.09982881308548, 69.03970688146788]]}, "properties": {"source": "197066", "target": "15059456"}}, {"type": "Feature", "geometry": {"type": "LineString", "coordinates": [[4.098446102806321, 69.0400750054527], [4.102110888130454, 69.04010144625249]]}, "properties": {"source": "1790939", "target": "1895190"}}, {"type": "Feature", "geometry": {"type": "LineString", "coordinates": [[4.098446102806321, 69.0400750054527], [4.091235072402185, 69.04246625984709]]}, "properties": {"source": "1790939", "target": "1843733"}}, {"type": "Feature", "geometry": {"type": "LineString", "coordinates": [[4.098446102806321, 69.0400750054527], [4.09982881308548, 69.03970688146788]]}, "properties": {"source": "1790939", "target": "15059456"}}, {"type": "Feature", "geometry": {"type": "LineString", "coordinates": [[4.103825375928892, 69.03853700178658], [4.096808150629556, 69.0390127829462]]}, "properties": {"source": "24793045", "target": "2740335"}}, {"type": "Feature", "geometry": {"type": "LineString", "coordinates": [[4.103825375928892, 69.03853700178658], [4.093302041428785, 69.0388533780685]]}, "properties": {"source": "24793045", "target": "18069226"}}, {"type": "Feature", "geometry": {"type": "LineString", "coordinates": [[4.103825375928892, 69.03853700178658], [4.091685425499804, 69.04143758554346]]}, "properties": {"source": "24793045", "target": "21424934"}}, {"type": "Feature", "geometry": {"type": "LineString", "coordinates": [[4.103825375928892, 69.03853700178658], [4.090021298581831, 69.03903050719433]]}, "properties": {"source": "24793045", "target": "18197990"}}, {"type": "Feature", "geometry": {"type": "LineString", "coordinates": [[4.103825375928892, 69.03853700178658], [4.092020196591278, 69.03915402395063]]}, "properties": {"source": "24793045", "target": "2423979"}}, {"type": "Feature", "geometry": {"type": "LineString", "coordinates": [[4.103825375928892, 69.03853700178658], [4.104657642229455, 69.03883617806613]]}, "properties": {"source": "24793045", "target": "200766"}}, {"type": "Feature", "geometry": {"type": "LineString", "coordinates": [[4.103825375928892, 69.03853700178658], [4.102110888130454, 69.04010144625249]]}, "properties": {"source": "24793045", "target": "1895190"}}, {"type": "Feature", "geometry": {"type": "LineString", "coordinates": [[4.090225371542886, 69.038262118944], [4.096808150629556, 69.0390127829462]]}, "properties": {"source": "13253786", "target": "2740335"}}, {"type": "Feature", "geometry": {"type": "LineString", "coordinates": [[4.090225371542886, 69.038262118944], [4.096762266861077, 69.04234260405889]]}, "properties": {"source": "13253786", "target": "3045840"}}, {"type": "Feature", "geometry": {"type": "LineString", "coordinates": [[4.090225371542886, 69.038262118944], [4.105862847277962, 69.04084098748527]]}, "properties": {"source": "13253786", "target": "289399"}}, {"type": "Feature", "geometry": {"type": "LineString", "coordinates": [[4.090225371542886, 69.038262118944], [4.093302041428785, 69.0388533780685]]}, "properties": {"source": "13253786", "target": "18069226"}}, {"type": "Feature", "geometry": {"type": "LineString", "coordinates": [[4.090225371542886, 69.038262118944], [4.090021298581831, 69.03903050719433]]}, "properties": {"source": "13253786", "target": "18197990"}}, {"type": "Feature", "geometry": {"type": "LineString", "coordinates": [[4.090225371542886, 69.038262118944], [4.092020196591278, 69.03915402395063]]}, "properties": {"source": "13253786", "target": "2423979"}}, {"type": "Feature", "geometry": {"type": "LineString", "coordinates": [[4.090225371542886, 69.038262118944], [4.102575015714763, 69.03754339689695]]}, "properties": {"source": "13253786", "target": "1637772"}}, {"type": "Feature", "geometry": {"type": "LineString", "coordinates": [[4.096455876268749, 69.04070798538166], [4.096808150629556, 69.0390127829462]]}, "properties": {"source": "1057981", "target": "2740335"}}, {"type": "Feature", "geometry": {"type": "LineString", "coordinates": [[4.096455876268749, 69.04070798538166], [4.096762266861077, 69.04234260405889]]}, "properties": {"source": "1057981", "target": "3045840"}}, {"type": "Feature", "geometry": {"type": "LineString", "coordinates": [[4.096455876268749, 69.04070798538166], [4.105862847277962, 69.04084098748527]]}, "properties": {"source": "1057981", "target": "289399"}}, {"type": "Feature", "geometry": {"type": "LineString", "coordinates": [[4.096455876268749, 69.04070798538166], [4.093302041428785, 69.0388533780685]]}, "properties": {"source": "1057981", "target": "18069226"}}, {"type": "Feature", "geometry": {"type": "LineString", "coordinates": [[4.096455876268749, 69.04070798538166], [4.091685425499804, 69.04143758554346]]}, "properties": {"source": "1057981", "target": "21424934"}}, {"type": "Feature", "geometry": {"type": "LineString", "coordinates": [[4.096455876268749, 69.04070798538166], [4.090021298581831, 69.03903050719433]]}, "properties": {"source": "1057981", "target": "18197990"}}, {"type": "Feature", "geometry": {"type": "LineString", "coordinates": [[4.096455876268749, 69.04070798538166], [4.092020196591278, 69.03915402395063]]}, "properties": {"source": "1057981", "target": "2423979"}}, {"type": "Feature", "geometry": {"type": "LineString", "coordinates": [[4.096455876268749, 69.04070798538166], [4.102575015714763, 69.03754339689695]]}, "properties": {"source": "1057981", "target": "1637772"}}, {"type": "Feature", "geometry": {"type": "LineString", "coordinates": [[4.096518631603658, 69.039650681143], [4.096808150629556, 69.0390127829462]]}, "properties": {"source": "1237449", "target": "2740335"}}, {"type": "Feature", "geometry": {"type": "LineString", "coordinates": [[4.093302041428785, 69.0388533780685], [4.097234726437279, 69.04160673256555]]}, "properties": {"source": "18069226", "target": "10771183"}}, {"type": "Feature", "geometry": {"type": "LineString", "coordinates": [[4.090187115162507, 69.04001034765787], [4.096808150629556, 69.0390127829462]]}, "properties": {"source": "19485370", "target": "2740335"}}, {"type": "Feature", "geometry": {"type": "LineString", "coordinates": [[4.090187115162507, 69.04001034765787], [4.093302041428785, 69.0388533780685]]}, "properties": {"source": "19485370", "target": "18069226"}}, {"type": "Feature", "geometry": {"type": "LineString", "coordinates": [[4.090187115162507, 69.04001034765787], [4.091685425499804, 69.04143758554346]]}, "properties": {"source": "19485370", "target": "21424934"}}, {"type": "Feature", "geometry": {"type": "LineString", "coordinates": [[4.090187115162507, 69.04001034765787], [4.090021298581831, 69.03903050719433]]}, "properties": {"source": "19485370", "target": "18197990"}}, {"type": "Feature", "geometry": {"type": "LineString", "coordinates": [[4.090187115162507, 69.04001034765787], [4.092020196591278, 69.03915402395063]]}, "properties": {"source": "19485370", "target": "2423979"}}, {"type": "Feature", "geometry": {"type": "LineString", "coordinates": [[4.090187115162507, 69.04001034765787], [4.102575015714763, 69.03754339689695]]}, "properties": {"source": "19485370", "target": "1637772"}}, {"type": "Feature", "geometry": {"type": "LineString", "coordinates": [[4.090187115162507, 69.04001034765787], [4.104657642229455, 69.03883617806613]]}, "properties": {"source": "19485370", "target": "200766"}}, {"type": "Feature", "geometry": {"type": "LineString", "coordinates": [[4.090187115162507, 69.04001034765787], [4.102110888130454, 69.04010144625249]]}, "properties": {"source": "19485370", "target": "1895190"}}, {"type": "Feature", "geometry": {"type": "LineString", "coordinates": [[4.090187115162507, 69.04001034765787], [4.091235072402185, 69.04246625984709]]}, "properties": {"source": "19485370", "target": "1843733"}}, {"type": "Feature", "geometry": {"type": "LineString", "coordinates": [[4.090187115162507, 69.04001034765787], [4.104470927569565, 69.0391709821042]]}, "properties": {"source": "19485370", "target": "197066"}}, {"type": "Feature", "geometry": {"type": "LineString", "coordinates": [[4.090187115162507, 69.04001034765787], [4.098446102806321, 69.0400750054527]]}, "properties": {"source": "19485370", "target": "1790939"}}, {"type": "Feature", "geometry": {"type": "LineString", "coordinates": [[4.090187115162507, 69.04001034765787], [4.103825375928892, 69.03853700178658]]}, "properties": {"source": "19485370", "target": "24793045"}}, {"type": "Feature", "geometry": {"type": "LineString", "coordinates": [[4.090187115162507, 69.04001034765787], [4.091532411376335, 69.04173475733546]]}, "properties": {"source": "19485370", "target": "13587632"}}, {"type": "Feature", "geometry": {"type": "LineString", "coordinates": [[4.090187115162507, 69.04001034765787], [4.103806300391938, 69.03919546917871]]}, "properties": {"source": "19485370", "target": "1185190"}}, {"type": "Feature", "geometry": {"type": "LineString", "coordinates": [[4.090187115162507, 69.04001034765787], [4.105726888401335, 69.03880802082278]]}, "properties": {"source": "19485370", "target": "1265978"}}, {"type": "Feature", "geometry": {"type": "LineString", "coordinates": [[4.098823436964409, 69.04216180823644], [4.096808150629556, 69.0390127829462]]}, "properties": {"source": "11542478", "target": "2740335"}}, {"type": "Feature", "geometry": {"type": "LineString", "coordinates": [[4.098823436964409, 69.04216180823644], [4.096762266861077, 69.04234260405889]]}, "properties": {"source": "11542478", "target": "3045840"}}, {"type": "Feature", "geometry": {"type": "LineString", "coordinates": [[4.098823436964409, 69.04216180823644], [4.105862847277962, 69.04084098748527]]}, "properties": {"source": "11542478", "target": "289399"}}, {"type": "Feature", "geometry": {"type": "LineString", "coordinates": [[4.098823436964409, 69.04216180823644], [4.093302041428785, 69.0388533780685]]}, "properties": {"source": "11542478", "target": "18069226"}}, {"type": "Feature", "geometry": {"type": "LineString", "coordinates": [[4.098823436964409, 69.04216180823644], [4.091685425499804, 69.04143758554346]]}, "properties": {"source": "11542478", "target": "21424934"}}, {"type": "Feature", "geometry": {"type": "LineString", "coordinates": [[4.098823436964409, 69.04216180823644], [4.102575015714763, 69.03754339689695]]}, "properties": {"source": "11542478", "target": "1637772"}}, {"type": "Feature", "geometry": {"type": "LineString", "coordinates": [[4.102986751519893, 69.04258780246155], [4.096762266861077, 69.04234260405889]]}, "properties": {"source": "5070839", "target": "3045840"}}, {"type": "Feature", "geometry": {"type": "LineString", "coordinates": [[4.102986751519893, 69.04258780246155], [4.104806891761683, 69.03841785710677]]}, "properties": {"source": "5070839", "target": "361509"}}, {"type": "Feature", "geometry": {"type": "LineString", "coordinates": [[4.102986751519893, 69.04258780246155], [4.098923312498641, 69.03835183007646]]}, "properties": {"source": "5070839", "target": "4630559"}}, {"type": "Feature", "geometry": {"type": "LineString", "coordinates": [[4.102986751519893, 69.04258780246155], [4.089994530022324, 69.0423837237233]]}, "properties": {"source": "5070839", "target": "29619217"}}, {"type": "Feature", "geometry": {"type": "LineString", "coordinates": [[4.102986751519893, 69.04258780246155], [4.090408080260346, 69.03788564704513]]}, "properties": {"source": "5070839", "target": "55592"}}, {"type": "Feature", "geometry": {"type": "LineString", "coordinates": [[4.0929782259846945, 69.03965808234767], [4.099189404156533, 69.0417368522834]]}, "properties": {"source": "18144282", "target": "20797537"}}, {"type": "Feature", "geometry": {"type": "LineString", "coordinates": [[4.0929782259846945, 69.03965808234767], [4.1052953277940105, 69.04191428269749]]}, "properties": {"source": "18144282", "target": "20507376"}}, {"type": "Feature", "geometry": {"type": "LineString", "coordinates": [[4.0929782259846945, 69.03965808234767], [4.092898391671724, 69.03828957743636]]}, "properties": {"source": "18144282", "target": "13236844"}}, {"type": "Feature", "geometry": {"type": "LineString", "coordinates": [[4.102986751519893, 69.04258780246155], [4.09630059810209, 69.03768963356808]]}, "properties": {"source": "5070839", "target": "404714"}}, {"type": "Feature", "geometry": {"type": "LineString", "coordinates": [[4.090201590812171, 69.03745534883004], [4.09630059810209, 69.03768963356808]]}, "properties": {"source": "4643636", "target": "404714"}}, {"type": "Feature", "geometry": {"type": "LineString", "coordinates": [[4.103825375928892, 69.03853700178658], [4.091235072402185, 69.04246625984709]]}, "properties": {"source": "24793045", "target": "1843733"}}, {"type": "Feature", "geometry": {"type": "LineString", "coordinates": [[4.103825375928892, 69.03853700178658], [4.104470927569565, 69.0391709821042]]}, "properties": {"source": "24793045", "target": "197066"}}, {"type": "Feature", "geometry": {"type": "LineString", "coordinates": [[4.103825375928892, 69.03853700178658], [4.098446102806321, 69.0400750054527]]}, "properties": {"source": "24793045", "target": "1790939"}}, {"type": "Feature", "geometry": {"type": "LineString", "coordinates": [[4.102786479335691, 69.04051412341488], [4.096808150629556, 69.0390127829462]]}, "properties": {"source": "289401", "target": "2740335"}}, {"type": "Feature", "geometry": {"type": "LineString", "coordinates": [[4.102786479335691, 69.04051412341488], [4.092020196591278, 69.03915402395063]]}, "properties": {"source": "289401", "target": "2423979"}}, {"type": "Feature", "geometry": {"type": "LineString", "coordinates": [[4.102786479335691, 69.04051412341488], [4.104657642229455, 69.03883617806613]]}, "properties": {"source": "289401", "target": "200766"}}, {"type": "Feature", "geometry": {"type": "LineString", "coordinates": [[4.102786479335691, 69.04051412341488], [4.09614239958222, 69.0372432747252]]}, "properties": {"source": "289401", "target": "34656649"}}, {"type": "Feature", "geometry": {"type": "LineString", "coordinates": [[4.102786479335691, 69.04051412341488], [4.098923312498641, 69.03835183007646]]}, "properties": {"source": "289401", "target": "4630559"}}, {"type": "Feature", "geometry": {"type": "LineString", "coordinates": [[4.102786479335691, 69.04051412341488], [4.094443597262938, 69.03982846914411]]}, "properties": {"source": "289401", "target": "27135582"}}, {"type": "Feature", "geometry": {"type": "LineString", "coordinates": [[4.102786479335691, 69.04051412341488], [4.101596061039544, 69.03814570054925]]}, "properties": {"source": "289401", "target": "275056"}}, {"type": "Feature", "geometry": {"type": "LineString", "coordinates": [[4.098923312498641, 69.03835183007646], [4.09614239958222, 69.0372432747252]]}, "properties": {"source": "4630559", "target": "34656649"}}, {"type": "Feature", "geometry": {"type": "LineString", "coordinates": [[4.097638124408547, 69.03945835288664], [4.096808150629556, 69.0390127829462]]}, "properties": {"source": "289407", "target": "2740335"}}, {"type": "Feature", "geometry": {"type": "LineString", "coordinates": [[4.097638124408547, 69.03945835288664], [4.096762266861077, 69.04234260405889]]}, "properties": {"source": "289407", "target": "3045840"}}, {"type": "Feature", "geometry": {"type": "LineString", "coordinates": [[4.097638124408547, 69.03945835288664], [4.105862847277962, 69.04084098748527]]}, "properties": {"source": "289407", "target": "289399"}}, {"type": "Feature", "geometry": {"type": "LineString", "coordinates": [[4.102786479335691, 69.04051412341488], [4.09630059810209, 69.03768963356808]]}, "properties": {"source": "289401", "target": "404714"}}, {"type": "Feature", "geometry": {"type": "LineString", "coordinates": [[4.098923312498641, 69.03835183007646], [4.09630059810209, 69.03768963356808]]}, "properties": {"source": "4630559", "target": "404714"}}, {"type": "Feature", "geometry": {"type": "LineString", "coordinates": [[4.097638124408547, 69.03945835288664], [4.092020196591278, 69.03915402395063]]}, "properties": {"source": "289407", "target": "2423979"}}, {"type": "Feature", "geometry": {"type": "LineString", "coordinates": [[4.097638124408547, 69.03945835288664], [4.104806891761683, 69.03841785710677]]}, "properties": {"source": "289407", "target": "361509"}}, {"type": "Feature", "geometry": {"type": "LineString", "coordinates": [[4.097638124408547, 69.03945835288664], [4.09614239958222, 69.0372432747252]]}, "properties": {"source": "289407", "target": "34656649"}}, {"type": "Feature", "geometry": {"type": "LineString", "coordinates": [[4.097638124408547, 69.03945835288664], [4.090852053274858, 69.0387126648312]]}, "properties": {"source": "289407", "target": "289990"}}, {"type": "Feature", "geometry": {"type": "LineString", "coordinates": [[4.097638124408547, 69.03945835288664], [4.090437686367665, 69.03993909326243]]}, "properties": {"source": "289407", "target": "347795"}}, {"type": "Feature", "geometry": {"type": "LineString", "coordinates": [[4.097638124408547, 69.03945835288664], [4.094443597262938, 69.03982846914411]]}, "properties": {"source": "289407", "target": "27135582"}}, {"type": "Feature", "geometry": {"type": "LineString", "coordinates": [[4.097638124408547, 69.03945835288664], [4.101596061039544, 69.03814570054925]]}, "properties": {"source": "289407", "target": "275056"}}, {"type": "Feature", "geometry": {"type": "LineString", "coordinates": [[4.090852053274858, 69.0387126648312], [4.096808150629556, 69.0390127829462]]}, "properties": {"source": "289990", "target": "2740335"}}, {"type": "Feature", "geometry": {"type": "LineString", "coordinates": [[4.090852053274858, 69.0387126648312], [4.096762266861077, 69.04234260405889]]}, "properties": {"source": "289990", "target": "3045840"}}, {"type": "Feature", "geometry": {"type": "LineString", "coordinates": [[4.090852053274858, 69.0387126648312], [4.105862847277962, 69.04084098748527]]}, "properties": {"source": "289990", "target": "289399"}}, {"type": "Feature", "geometry": {"type": "LineString", "coordinates": [[4.090852053274858, 69.0387126648312], [4.104806891761683, 69.03841785710677]]}, "properties": {"source": "289990", "target": "361509"}}, {"type": "Feature", "geometry": {"type": "LineString", "coordinates": [[4.090852053274858, 69.0387126648312], [4.09614239958222, 69.0372432747252]]}, "properties": {"source": "289990", "target": "34656649"}}, {"type": "Feature", "geometry": {"type": "LineString", "coordinates": [[4.090852053274858, 69.0387126648312], [4.098923312498641, 69.03835183007646]]}, "properties": {"source": "289990", "target": "4630559"}}, {"type": "Feature", "geometry": {"type": "LineString", "coordinates": [[4.090852053274858, 69.0387126648312], [4.094443597262938, 69.03982846914411]]}, "properties": {"source": "289990", "target": "27135582"}}, {"type": "Feature", "geometry": {"type": "LineString", "coordinates": [[4.090852053274858, 69.0387126648312], [4.101596061039544, 69.03814570054925]]}, "properties": {"source": "289990", "target": "275056"}}, {"type": "Feature", "geometry": {"type": "LineString", "coordinates": [[4.090852053274858, 69.0387126648312], [4.09630059810209, 69.03768963356808]]}, "properties": {"source": "289990", "target": "404714"}}, {"type": "Feature", "geometry": {"type": "LineString", "coordinates": [[4.090201590812171, 69.03745534883004], [4.098923312498641, 69.03835183007646]]}, "properties": {"source": "4643636", "target": "4630559"}}, {"type": "Feature", "geometry": {"type": "LineString", "coordinates": [[4.090201590812171, 69.03745534883004], [4.089994530022324, 69.0423837237233]]}, "properties": {"source": "4643636", "target": "29619217"}}, {"type": "Feature", "geometry": {"type": "LineString", "coordinates": [[4.101552448984847, 69.03877646091976], [4.091685425499804, 69.04143758554346]]}, "properties": {"source": "19416573", "target": "21424934"}}, {"type": "Feature", "geometry": {"type": "LineString", "coordinates": [[4.101552448984847, 69.03877646091976], [4.099189404156533, 69.0417368522834]]}, "properties": {"source": "19416573", "target": "20797537"}}, {"type": "Feature", "geometry": {"type": "LineString", "coordinates": [[4.101552448984847, 69.03877646091976], [4.1052953277940105, 69.04191428269749]]}, "properties": {"source": "19416573", "target": "20507376"}}, {"type": "Feature", "geometry": {"type": "LineString", "coordinates": [[4.101552448984847, 69.03877646091976], [4.093155793259228, 69.04202871273611]]}, "properties": {"source": "19416573", "target": "17875237"}}, {"type": "Feature", "geometry": {"type": "LineString", "coordinates": [[4.093338185775167, 69.04216044413096], [4.096808150629556, 69.0390127829462]]}, "properties": {"source": "13498772", "target": "2740335"}}, {"type": "Feature", "geometry": {"type": "LineString", "coordinates": [[4.093338185775167, 69.04216044413096], [4.096762266861077, 69.04234260405889]]}, "properties": {"source": "13498772", "target": "3045840"}}, {"type": "Feature", "geometry": {"type": "LineString", "coordinates": [[4.093338185775167, 69.04216044413096], [4.093302041428785, 69.0388533780685]]}, "properties": {"source": "13498772", "target": "18069226"}}, {"type": "Feature", "geometry": {"type": "LineString", "coordinates": [[4.093338185775167, 69.04216044413096], [4.102575015714763, 69.03754339689695]]}, "properties": {"source": "13498772", "target": "1637772"}}, {"type": "Feature", "geometry": {"type": "LineString", "coordinates": [[4.105867711723704, 69.04246012962702], [4.096808150629556, 69.0390127829462]]}, "properties": {"source": "1237451", "target": "2740335"}}, {"type": "Feature", "geometry": {"type": "LineString", "coordinates": [[4.105947684567269, 69.03931101993305], [4.09614239958222, 69.0372432747252]]}, "properties": {"source": "289421", "target": "34656649"}}, {"type": "Feature", "geometry": {"type": "LineString", "coordinates": [[4.096693586876199, 69.03962206164627], [4.091532411376335, 69.04173475733546]]}, "properties": {"source": "13566098", "target": "13587632"}}, {"type": "Feature", "geometry": {"type": "LineString", "coordinates": [[4.096693586876199, 69.03962206164627], [4.094102756844791, 69.04057391981334]]}, "properties": {"source": "13566098", "target": "3578585"}}, {"type": "Feature", "geometry": {"type": "LineString", "coordinates": [[4.096693586876199, 69.03962206164627], [4.09916155599538, 69.04189902393779]]}, "properties": {"source": "13566098", "target": "13495653"}}, {"type": "Feature", "geometry": {"type": "LineString", "coordinates": [[4.101552448984847, 69.03877646091976], [4.0929782259846945, 69.03965808234767]]}, "properties": {"source": "19416573", "target": "18144282"}}, {"type": "Feature", "geometry": {"type": "LineString", "coordinates": [[4.096693586876199, 69.03962206164627], [4.093560881535865, 69.03947589527468]]}, "properties": {"source": "13566098", "target": "2940465"}}, {"type": "Feature", "geometry": {"type": "LineString", "coordinates": [[4.094102756844791, 69.04057391981334], [4.09916155599538, 69.04189902393779]]}, "properties": {"source": "3578585", "target": "13495653"}}, {"type": "Feature", "geometry": {"type": "LineString", "coordinates": [[4.094102756844791, 69.04057391981334], [4.093560881535865, 69.03947589527468]]}, "properties": {"source": "3578585", "target": "2940465"}}, {"type": "Feature", "geometry": {"type": "LineString", "coordinates": [[4.094102756844791, 69.04057391981334], [4.092659330638696, 69.04024025577468]]}, "properties": {"source": "3578585", "target": "76832"}}, {"type": "Feature", "geometry": {"type": "LineString", "coordinates": [[4.0922582150924995, 69.03799270852517], [4.091685425499804, 69.04143758554346]]}, "properties": {"source": "19199312", "target": "21424934"}}, {"type": "Feature", "geometry": {"type": "LineString", "coordinates": [[4.0922582150924995, 69.03799270852517], [4.099189404156533, 69.0417368522834]]}, "properties": {"source": "19199312", "target": "20797537"}}, {"type": "Feature", "geometry": {"type": "LineString", "coordinates": [[4.0922582150924995, 69.03799270852517], [4.1052953277940105, 69.04191428269749]]}, "properties": {"source": "19199312", "target": "20507376"}}, {"type": "Feature", "geometry": {"type": "LineString", "coordinates": [[4.09916155599538, 69.04189902393779], [4.093560881535865, 69.03947589527468]]}, "properties": {"source": "13495653", "target": "2940465"}}, {"type": "Feature", "geometry": {"type": "LineString", "coordinates": [[4.104354984530801, 69.03745977803044], [4.09614239958222, 69.0372432747252]]}, "properties": {"source": "30280686", "target": "34656649"}}, {"type": "Feature", "geometry": {"type": "LineString", "coordinates": [[4.104354984530801, 69.03745977803044], [4.090808100789218, 69.03724186385614]]}, "properties": {"source": "30280686", "target": "26846508"}}, {"type": "Feature", "geometry": {"type": "LineString", "coordinates": [[4.104354984530801, 69.03745977803044], [4.0916918087743, 69.04042125800586]]}, "properties": {"source": "30280686", "target": "25175871"}}, {"type": "Feature", "geometry": {"type": "LineString", "coordinates": [[4.093099792802036, 69.03845879613795], [4.099189404156533, 69.0417368522834]]}, "properties": {"source": "24241486", "target": "20797537"}}, {"type": "Feature", "geometry": {"type": "LineString", "coordinates": [[4.093099792802036, 69.03845879613795], [4.1052953277940105, 69.04191428269749]]}, "properties": {"source": "24241486", "target": "20507376"}}, {"type": "Feature", "geometry": {"type": "LineString", "coordinates": [[4.093264687422987, 69.04161785240379], [4.096762266861077, 69.04234260405889]]}, "properties": {"source": "289416", "target": "3045840"}}, {"type": "Feature", "geometry": {"type": "LineString", "coordinates": [[4.0922582150924995, 69.03799270852517], [4.0929782259846945, 69.03965808234767]]}, "properties": {"source": "19199312", "target": "18144282"}}, {"type": "Feature", "geometry": {"type": "LineString", "coordinates": [[4.093099792802036, 69.03845879613795], [4.0929782259846945, 69.03965808234767]]}, "properties": {"source": "24241486", "target": "18144282"}}]}