{"type": "FeatureCollection", "features": [{"type": "Feature", "geometry": {"type": "LineString", "coordinates": [[51.964521328171486, 69.23061409407237], [51.96257990771693, 69.22996048896587]]}, "properties": {"source": "6620321", "target": "6412202"}}, {"type": "Feature", "geometry": {"type": "LineString", "coordinates": [[51.964521328171486, 69.23061409407237], [51.966844775074975, 69.23102088361341]]}, "properties": {"source": "6620321", "target": "748568"}}, {"type": "Feature", "geometry": {"type": "LineString", "coordinates": [[51.964521328171486, 69.23061409407237], [51.96347782671532, 69.23205044919334]]}, "properties": {"source": "6620321", "target": "17286935"}}, {"type": "Feature", "geometry": {"type": "LineString", "coordinates": [[51.966794892182605, 69.23069548793171], [51.967199548238824, 69.2304311558537]]}, "properties": {"source": "11348305", "target": "91044"}}, {"type": "Feature", "geometry": {"type": "LineString", "coordinates": [[51.966794892182605, 69.23069548793171], [51.96666514827015, 69.23186341933533]]}, "properties": {"source": "11348305", "target": "566623"}}, {"type": "Feature", "geometry": {"type": "LineString", "coordinates": [[51.966794892182605, 69.23069548793171], [51.964716459044354, 69.23008820546752]]}, "properties": {"source": "11348305", "target": "90356"}}, {"type": "Feature", "geometry": {"type": "LineString", "coordinates": [[51.966794892182605, 69.23069548793171], [51.9601987983128, 69.22991677207608]]}, "properties": {"source": "11348305", "target": "3108058"}}, {"type": "Feature", "geometry": {"type": "LineString", "coordinates": [[51.966794892182605, 69.23069548793171], [51.961252735579535, 69.23188561069259]]}, "properties": {"source": "11348305", "target": "2588133"}}, {"type": "Feature", "geometry": {"type": "LineString", "coordinates": [[51.965090776666415, 69.23125330829495], [51.962371562826775, 69.23227416228207]]}, "properties": {"source": "713518", "target": "483357"}}, {"type": "Feature", "geometry": {"type": "LineString", "coordinates": [[51.965090776666415, 69.23125330829495], [51.964170431161534, 69.23087539724366]]}, "properties": {"source": "713518", "target": "9301725"}}, {"type": "Feature", "geometry": {"type": "LineString", "coordinates": [[51.96302914725078, 69.2304998433381], [51.967199548238824, 69.2304311558537]]}, "properties": {"source": "90769", "target": "91044"}}, {"type": "Feature", "geometry": {"type": "LineString", "coordinates": [[51.96302914725078, 69.2304998433381], [51.96605819286745, 69.23053956279676]]}, "properties": {"source": "90769", "target": "921619"}}, {"type": "Feature", "geometry": {"type": "LineString", "coordinates": [[51.96302914725078, 69.2304998433381], [51.95978328874611, 69.2309857824684]]}, "properties": {"source": "90769", "target": "792220"}}, {"type": "Feature", "geometry": {"type": "LineString", "coordinates": [[51.96302914725078, 69.2304998433381], [51.960620116409814, 69.23156940349583]]}, "properties": {"source": "90769", "target": "831871"}}, {"type": "Feature", "geometry": {"type": "LineString", "coordinates": [[51.96605819286745, 69.23053956279676], [51.967199548238824, 69.2304311558537]]}, "properties": {"source": "921619", "target": "91044"}}, {"type": "Feature", "geometry": {"type": "LineString", "coordinates": [[51.96605819286745, 69.23053956279676], [51.95978328874611, 69.2309857824684]]}, "properties": {"source": "921619", "target": "792220"}}, {"type": "Feature", "geometry": {"type": "LineString", "coordinates": [[51.96605819286745, 69.23053956279676], [51.960620116409814, 69.23156940349583]]}, "properties": {"source": "921619", "target": "831871"}}, {"type": "Feature", "geometry": {"type": "LineString", "coordinates": [[51.965451870944946, 69.23169859824955], [51.964170431161534, 69.23087539724366]]}, "properties": {"source": "9307359", "target": "9301725"}}, {"type": "Feature", "geometry": {"type": "LineString", "coordinates": [[51.95978328874611, 69.2309857824684], [51.960620116409814, 69.23156940349583]]}, "properties": {"source": "792220", "target": "831871"}}, {"type": "Feature", "geometry": {"type": "LineString", "coordinates": [[51.96192146320385, 69.23023806051461], [51.962371562826775, 69.23227416228207]]}, "properties": {"source": "6802478", "target": "483357"}}, {"type": "Feature", "geometry": {"type": "LineString", "coordinates": [[51.96192146320385, 69.23023806051461], [51.964170431161534, 69.23087539724366]]}, "properties": {"source": "6802478", "target": "9301725"}}, {"type": "Feature", "geometry": {"type": "LineString", "coordinates": [[51.96139942431671, 69.22993970602104], [51.96666514827015, 69.23186341933533]]}, "properties": {"source": "565986", "target": "566623"}}, {"type": "Feature", "geometry": {"type": "LineString", "coordinates": [[51.96139942431671, 69.22993970602104], [51.963082357461644, 69.2314835390329]]}, "properties": {"source": "565986", "target": "604533"}}, {"type": "Feature", "geometry": {"type": "LineString", "coordinates": [[51.96139942431671, 69.22993970602104], [51.967607014755515, 69.23046268602073]]}, "properties": {"source": "565986", "target": "6164075"}}, {"type": "Feature", "geometry": {"type": "LineString", "coordinates": [[51.96135861793485, 69.23185672942569], [51.963301768973224, 69.23067315548764]]}, "properties": {"source": "6732000", "target": "6084927"}}, {"type": "Feature", "geometry": {"type": "LineString", "coordinates": [[51.96135861793485, 69.23185672942569], [51.96079979553468, 69.23213577247117]]}, "properties": {"source": "6732000", "target": "6307751"}}, {"type": "Feature", "geometry": {"type": "LineString", "coordinates": [[51.963301768973224, 69.23067315548764], [51.96079979553468, 69.23213577247117]]}, "properties": {"source": "6084927", "target": "6307751"}}, {"type": "Feature", "geometry": {"type": "LineString", "coordinates": [[51.965717724210634, 69.23044739819971], [51.96666514827015, 69.23186341933533]]}, "properties": {"source": "477440", "target": "566623"}}, {"type": "Feature", "geometry": {"type": "LineString", "coordinates": [[51.96158534053146, 69.22980628519434], [51.960304970460726, 69.2320259828455]]}, "properties": {"source": "31191978", "target": "335456"}}, {"type": "Feature", "geometry": {"type": "LineString", "coordinates": [[51.96158534053146, 69.22980628519434], [51.96736468558203, 69.23018338870074]]}, "properties": {"source": "31191978", "target": "35035160"}}, {"type": "Feature", "geometry": {"type": "LineString", "coordinates": [[51.96538762348973, 69.2322332750337], [51.964521328171486, 69.23061409407237]]}, "properties": {"source": "456909", "target": "6620321"}}, {"type": "Feature", "geometry": {"type": "LineString", "coordinates": [[51.966259351314136, 69.22995939102978], [51.965451870944946, 69.23169859824955]]}, "properties": {"source": "9366748", "target": "9307359"}}, {"type": "Feature", "geometry": {"type": "LineString", "coordinates": [[51.967199548238824, 69.2304311558537], [51.964170431161534, 69.23087539724366]]}, "properties": {"source": "91044", "target": "9301725"}}, {"type": "Feature", "geometry": {"type": "LineString", "coordinates": [[51.967199548238824, 69.2304311558537], [51.96662425726274, 69.23058768855196]]}, "properties": {"source": "91044", "target": "1341399"}}, {"type": "Feature", "geometry": {"type": "LineString", "coordinates": [[51.967199548238824, 69.2304311558537], [51.965451870944946, 69.23169859824955]]}, "properties": {"source": "91044", "target": "9307359"}}, {"type": "Feature", "geometry": {"type": "LineString", "coordinates": [[51.967199548238824, 69.2304311558537], [51.95978328874611, 69.2309857824684]]}, "properties": {"source": "91044", "target": "792220"}}, {"type": "Feature", "geometry": {"type": "LineString", "coordinates": [[51.967199548238824, 69.2304311558537], [51.96192146320385, 69.23023806051461]]}, "properties": {"source": "91044", "target": "6802478"}}, {"type": "Feature", "geometry": {"type": "LineString", "coordinates": [[51.967199548238824, 69.2304311558537], [51.960620116409814, 69.23156940349583]]}, "properties": {"source": "91044", "target": "831871"}}, {"type": "Feature", "geometry": {"type": "LineString", "coordinates": [[51.96666514827015, 69.23186341933533], [51.96662425726274, 69.23058768855196]]}, "properties": {"source": "566623", "target": "1341399"}}, {"type": "Feature", "geometry": {"type": "LineString", "coordinates": [[51.967462256369174, 69.2307269592362], [51.967199548238824, 69.2304311558537]]}, "properties": {"source": "6926573", "target": "91044"}}, {"type": "Feature", "geometry": {"type": "LineString", "coordinates": [[51.967462256369174, 69.2307269592362], [51.96666514827015, 69.23186341933533]]}, "properties": {"source": "6926573", "target": "566623"}}, {"type": "Feature", "geometry": {"type": "LineString", "coordinates": [[51.967462256369174, 69.2307269592362], [51.964716459044354, 69.23008820546752]]}, "properties": {"source": "6926573", "target": "90356"}}, {"type": "Feature", "geometry": {"type": "LineString", "coordinates": [[51.967462256369174, 69.2307269592362], [51.962371562826775, 69.23227416228207]]}, "properties": {"source": "6926573", "target": "483357"}}, {"type": "Feature", "geometry": {"type": "LineString", "coordinates": [[51.967462256369174, 69.2307269592362], [51.964170431161534, 69.23087539724366]]}, "properties": {"source": "6926573", "target": "9301725"}}, {"type": "Feature", "geometry": {"type": "LineString", "coordinates": [[51.967462256369174, 69.2307269592362], [51.96252435652451, 69.23022908440646]]}, "properties": {"source": "6926573", "target": "520213"}}, {"type": "Feature", "geometry": {"type": "LineString", "coordinates": [[51.967462256369174, 69.2307269592362], [51.96135861793485, 69.23185672942569]]}, "properties": {"source": "6926573", "target": "6732000"}}, {"type": "Feature", "geometry": {"type": "LineString", "coordinates": [[51.967462256369174, 69.2307269592362], [51.963301768973224, 69.23067315548764]]}, "properties": {"source": "6926573", "target": "6084927"}}, {"type": "Feature", "geometry": {"type": "LineString", "coordinates": [[51.967462256369174, 69.2307269592362], [51.96079979553468, 69.23213577247117]]}, "properties": {"source": "6926573", "target": "6307751"}}, {"type": "Feature", "geometry": {"type": "LineString", "coordinates": [[51.966794892182605, 69.23069548793171], [51.964170431161534, 69.23087539724366]]}, "properties": {"source": "11348305", "target": "9301725"}}, {"type": "Feature", "geometry": {"type": "LineString", "coordinates": [[51.966794892182605, 69.23069548793171], [51.96456180930335, 69.23170657043465]]}, "properties": {"source": "11348305", "target": "100277"}}, {"type": "Feature", "geometry": {"type": "LineString", "coordinates": [[51.9601987983128, 69.22991677207608], [51.961252735579535, 69.23188561069259]]}, "properties": {"source": "3108058", "target": "2588133"}}, {"type": "Feature", "geometry": {"type": "LineString", "coordinates": [[51.9601987983128, 69.22991677207608], [51.962371562826775, 69.23227416228207]]}, "properties": {"source": "3108058", "target": "483357"}}, {"type": "Feature", "geometry": {"type": "LineString", "coordinates": [[51.9601987983128, 69.22991677207608], [51.96252435652451, 69.23022908440646]]}, "properties": {"source": "3108058", "target": "520213"}}, {"type": "Feature", "geometry": {"type": "LineString", "coordinates": [[51.9601987983128, 69.22991677207608], [51.96662425726274, 69.23058768855196]]}, "properties": {"source": "3108058", "target": "1341399"}}, {"type": "Feature", "geometry": {"type": "LineString", "coordinates": [[51.9601987983128, 69.22991677207608], [51.96456180930335, 69.23170657043465]]}, "properties": {"source": "3108058", "target": "100277"}}, {"type": "Feature", "geometry": {"type": "LineString", "coordinates": [[51.9601987983128, 69.22991677207608], [51.960304970460726, 69.2320259828455]]}, "properties": {"source": "3108058", "target": "335456"}}, {"type": "Feature", "geometry": {"type": "LineString", "coordinates": [[51.963082357461644, 69.2314835390329], [51.96666514827015, 69.23186341933533]]}, "properties": {"source": "604533", "target": "566623"}}, {"type": "Feature", "geometry": {"type": "LineString", "coordinates": [[51.963082357461644, 69.2314835390329], [51.964521328171486, 69.23061409407237]]}, "properties": {"source": "604533", "target": "6620321"}}, {"type": "Feature", "geometry": {"type": "LineString", "coordinates": [[51.963082357461644, 69.2314835390329], [51.967607014755515, 69.23046268602073]]}, "properties": {"source": "604533", "target": "6164075"}}, {"type": "Feature", "geometry": {"type": "LineString", "coordinates": [[51.963082357461644, 69.2314835390329], [51.96257990771693, 69.22996048896587]]}, "properties": {"source": "604533", "target": "6412202"}}, {"type": "Feature", "geometry": {"type": "LineString", "coordinates": [[51.963082357461644, 69.2314835390329], [51.965717724210634, 69.23044739819971]]}, "properties": {"source": "604533", "target": "477440"}}, {"type": "Feature", "geometry": {"type": "LineString", "coordinates": [[51.961252735579535, 69.23188561069259], [51.962371562826775, 69.23227416228207]]}, "properties": {"source": "2588133", "target": "483357"}}, {"type": "Feature", "geometry": {"type": "LineString", "coordinates": [[51.961252735579535, 69.23188561069259], [51.96252435652451, 69.23022908440646]]}, "properties": {"source": "2588133", "target": "520213"}}, {"type": "Feature", "geometry": {"type": "LineString", "coordinates": [[51.961252735579535, 69.23188561069259], [51.96662425726274, 69.23058768855196]]}, "properties": {"source": "2588133", "target": "1341399"}}, {"type": "Feature", "geometry": {"type": "LineString", "coordinates": [[51.961252735579535, 69.23188561069259], [51.96456180930335, 69.23170657043465]]}, "properties": {"source": "2588133", "target": "100277"}}, {"type": "Feature", "geometry": {"type": "LineString", "coordinates": [[51.961252735579535, 69.23188561069259], [51.960304970460726, 69.2320259828455]]}, "properties": {"source": "2588133", "target": "335456"}}, {"type": "Feature", "geometry": {"type": "LineString", "coordinates": [[51.962371562826775, 69.23227416228207], [51.96666514827015, 69.23186341933533]]}, "properties": {"source": "483357", "target": "566623"}}, {"type": "Feature", "geometry": {"type": "LineString", "coordinates": [[51.962371562826775, 69.23227416228207], [51.96252435652451, 69.23022908440646]]}, "properties": {"source": "483357", "target": "520213"}}, {"type": "Feature", "geometry": {"type": "LineString", "coordinates": [[51.967607014755515, 69.23046268602073], [51.96666514827015, 69.23186341933533]]}, "properties": {"source": "6164075", "target": "566623"}}, {"type": "Feature", "geometry": {"type": "LineString", "coordinates": [[51.967607014755515, 69.23046268602073], [51.965717724210634, 69.23044739819971]]}, "properties": {"source": "6164075", "target": "477440"}}, {"type": "Feature", "geometry": {"type": "LineString", "coordinates": [[51.962439356313155, 69.23018212876698], [51.96666514827015, 69.23186341933533]]}, "properties": {"source": "6627219", "target": "566623"}}, {"type": "Feature", "geometry": {"type": "LineString", "coordinates": [[51.962439356313155, 69.23018212876698], [51.964521328171486, 69.23061409407237]]}, "properties": {"source": "6627219", "target": "6620321"}}, {"type": "Feature", "geometry": {"type": "LineString", "coordinates": [[51.962439356313155, 69.23018212876698], [51.963082357461644, 69.2314835390329]]}, "properties": {"source": "6627219", "target": "604533"}}, {"type": "Feature", "geometry": {"type": "LineString", "coordinates": [[51.962439356313155, 69.23018212876698], [51.967607014755515, 69.23046268602073]]}, "properties": {"source": "6627219", "target": "6164075"}}, {"type": "Feature", "geometry": {"type": "LineString", "coordinates": [[51.962439356313155, 69.23018212876698], [51.96257990771693, 69.22996048896587]]}, "properties": {"source": "6627219", "target": "6412202"}}, {"type": "Feature", "geometry": {"type": "LineString", "coordinates": [[51.96257990771693, 69.22996048896587], [51.967607014755515, 69.23046268602073]]}, "properties": {"source": "6412202", "target": "6164075"}}, {"type": "Feature", "geometry": {"type": "LineString", "coordinates": [[51.96257990771693, 69.22996048896587], [51.966844775074975, 69.23102088361341]]}, "properties": {"source": "6412202", "target": "748568"}}, {"type": "Feature", "geometry": {"type": "LineString", "coordinates": [[51.96252435652451, 69.23022908440646], [51.96666514827015, 69.23186341933533]]}, "properties": {"source": "520213", "target": "566623"}}, {"type": "Feature", "geometry": {"type": "LineString", "coordinates": [[51.965090776666415, 69.23125330829495], [51.967199548238824, 69.2304311558537]]}, "properties": {"source": "713518", "target": "91044"}}, {"type": "Feature", "geometry": {"type": "LineString", "coordinates": [[51.965090776666415, 69.23125330829495], [51.964716459044354, 69.23008820546752]]}, "properties": {"source": "713518", "target": "90356"}}, {"type": "Feature", "geometry": {"type": "LineString", "coordinates": [[51.964716459044354, 69.23008820546752], [51.967199548238824, 69.2304311558537]]}, "properties": {"source": "90356", "target": "91044"}}, {"type": "Feature", "geometry": {"type": "LineString", "coordinates": [[51.964716459044354, 69.23008820546752], [51.964170431161534, 69.23087539724366]]}, "properties": {"source": "90356", "target": "9301725"}}, {"type": "Feature", "geometry": {"type": "LineString", "coordinates": [[51.964716459044354, 69.23008820546752], [51.96662425726274, 69.23058768855196]]}, "properties": {"source": "90356", "target": "1341399"}}, {"type": "Feature", "geometry": {"type": "LineString", "coordinates": [[51.964716459044354, 69.23008820546752], [51.965451870944946, 69.23169859824955]]}, "properties": {"source": "90356", "target": "9307359"}}, {"type": "Feature", "geometry": {"type": "LineString", "coordinates": [[51.964716459044354, 69.23008820546752], [51.96192146320385, 69.23023806051461]]}, "properties": {"source": "90356", "target": "6802478"}}, {"type": "Feature", "geometry": {"type": "LineString", "coordinates": [[51.964521328171486, 69.23061409407237], [51.96666514827015, 69.23186341933533]]}, "properties": {"source": "6620321", "target": "566623"}}, {"type": "Feature", "geometry": {"type": "LineString", "coordinates": [[51.964521328171486, 69.23061409407237], [51.967607014755515, 69.23046268602073]]}, "properties": {"source": "6620321", "target": "6164075"}}, {"type": "Feature", "geometry": {"type": "LineString", "coordinates": [[51.964716459044354, 69.23008820546752], [51.96568105921051, 69.23162291764228]]}, "properties": {"source": "90356", "target": "8440118"}}]}