{"type": "FeatureCollection", "features": [{"type": "Feature", "geometry": {"type": "LineString", "coordinates": [[-118.30446129378026, 69.23304956073224], [-118.30904619171814, 69.22989293832396]]}, "properties": {"source": "31680816", "target": "13273482"}}, {"type": "Feature", "geometry": {"type": "LineString", "coordinates": [[-118.30446129378026, 69.23304956073224], [-118.30726306292323, 69.22977454653324]]}, "properties": {"source": "31680816", "target": "12657821"}}, {"type": "Feature", "geometry": {"type": "LineString", "coordinates": [[-118.30446129378026, 69.23304956073224], [-118.30767546045979, 69.23220562544071]]}, "properties": {"source": "31680816", "target": "52179"}}, {"type": "Feature", "geometry": {"type": "LineString", "coordinates": [[-118.30085854621423, 69.230502556515], [-118.30243147613731, 69.23301998201694]]}, "properties": {"source": "345095", "target": "1795134"}}, {"type": "Feature", "geometry": {"type": "LineString", "coordinates": [[-118.30085854621423, 69.230502556515], [-118.30788785571765, 69.23160428147466]]}, "properties": {"source": "345095", "target": "1474902"}}, {"type": "Feature", "geometry": {"type": "LineString", "coordinates": [[-118.30085854621423, 69.230502556515], [-118.30298764116908, 69.23086385792442]]}, "properties": {"source": "345095", "target": "98900"}}, {"type": "Feature", "geometry": {"type": "LineString", "coordinates": [[-118.30243147613731, 69.23301998201694], [-118.3109019034651, 69.23047946981103]]}, "properties": {"source": "1795134", "target": "177182"}}, {"type": "Feature", "geometry": {"type": "LineString", "coordinates": [[-118.30243147613731, 69.23301998201694], [-118.30743054828116, 69.23050772945675]]}, "properties": {"source": "1795134", "target": "177185"}}, {"type": "Feature", "geometry": {"type": "LineString", "coordinates": [[-118.30243147613731, 69.23301998201694], [-118.30629918199804, 69.23164474330068]]}, "properties": {"source": "1795134", "target": "177138"}}, {"type": "Feature", "geometry": {"type": "LineString", "coordinates": [[-118.30243147613731, 69.23301998201694], [-118.30788785571765, 69.23160428147466]]}, "properties": {"source": "1795134", "target": "1474902"}}, {"type": "Feature", "geometry": {"type": "LineString", "coordinates": [[-118.31086699162185, 69.2333711694123], [-118.3109019034651, 69.23047946981103]]}, "properties": {"source": "177176", "target": "177182"}}, {"type": "Feature", "geometry": {"type": "LineString", "coordinates": [[-118.31007583131233, 69.23059727556961], [-118.30949184239005, 69.23353365075283]]}, "properties": {"source": "177151", "target": "177139"}}, {"type": "Feature", "geometry": {"type": "LineString", "coordinates": [[-118.31007583131233, 69.23059727556961], [-118.30629918199804, 69.23164474330068]]}, "properties": {"source": "177151", "target": "177138"}}, {"type": "Feature", "geometry": {"type": "LineString", "coordinates": [[-118.31007583131233, 69.23059727556961], [-118.30591356051838, 69.23219026807217]]}, "properties": {"source": "177151", "target": "177141"}}, {"type": "Feature", "geometry": {"type": "LineString", "coordinates": [[-118.31007583131233, 69.23059727556961], [-118.30243147613731, 69.23301998201694]]}, "properties": {"source": "177151", "target": "1795134"}}, {"type": "Feature", "geometry": {"type": "LineString", "coordinates": [[-118.31007583131233, 69.23059727556961], [-118.30298843489777, 69.23168428238091]]}, "properties": {"source": "177151", "target": "720326"}}, {"type": "Feature", "geometry": {"type": "LineString", "coordinates": [[-118.31007583131233, 69.23059727556961], [-118.30794247891717, 69.23130537125283]]}, "properties": {"source": "177151", "target": "11988"}}, {"type": "Feature", "geometry": {"type": "LineString", "coordinates": [[-118.30057760748636, 69.2335129804633], [-118.3109019034651, 69.23047946981103]]}, "properties": {"source": "177174", "target": "177182"}}, {"type": "Feature", "geometry": {"type": "LineString", "coordinates": [[-118.30057760748636, 69.2335129804633], [-118.30770096473418, 69.23156258276472]]}, "properties": {"source": "177174", "target": "177160"}}, {"type": "Feature", "geometry": {"type": "LineString", "coordinates": [[-118.30057760748636, 69.2335129804633], [-118.31007583131233, 69.23059727556961]]}, "properties": {"source": "177174", "target": "177151"}}, {"type": "Feature", "geometry": {"type": "LineString", "coordinates": [[-118.30057760748636, 69.2335129804633], [-118.30949184239005, 69.23353365075283]]}, "properties": {"source": "177174", "target": "177139"}}, {"type": "Feature", "geometry": {"type": "LineString", "coordinates": [[-118.30057760748636, 69.2335129804633], [-118.31029284255455, 69.23033759718354]]}, "properties": {"source": "177174", "target": "177135"}}, {"type": "Feature", "geometry": {"type": "LineString", "coordinates": [[-118.30069566222096, 69.23216061244656], [-118.30591356051838, 69.23219026807217]]}, "properties": {"source": "1211649", "target": "177141"}}, {"type": "Feature", "geometry": {"type": "LineString", "coordinates": [[-118.30069566222096, 69.23216061244656], [-118.30298843489777, 69.23168428238091]]}, "properties": {"source": "1211649", "target": "720326"}}, {"type": "Feature", "geometry": {"type": "LineString", "coordinates": [[-118.30098884743205, 69.23090179338686], [-118.3109019034651, 69.23047946981103]]}, "properties": {"source": "12390468", "target": "177182"}}, {"type": "Feature", "geometry": {"type": "LineString", "coordinates": [[-118.30098884743205, 69.23090179338686], [-118.30629918199804, 69.23164474330068]]}, "properties": {"source": "12390468", "target": "177138"}}, {"type": "Feature", "geometry": {"type": "LineString", "coordinates": [[-118.30098884743205, 69.23090179338686], [-118.30591356051838, 69.23219026807217]]}, "properties": {"source": "12390468", "target": "177141"}}, {"type": "Feature", "geometry": {"type": "LineString", "coordinates": [[-118.31029284255455, 69.23033759718354], [-118.30949184239005, 69.23353365075283]]}, "properties": {"source": "177135", "target": "177139"}}, {"type": "Feature", "geometry": {"type": "LineString", "coordinates": [[-118.31029284255455, 69.23033759718354], [-118.30540285211326, 69.23173853550745]]}, "properties": {"source": "177135", "target": "177156"}}, {"type": "Feature", "geometry": {"type": "LineString", "coordinates": [[-118.31029284255455, 69.23033759718354], [-118.30541537287738, 69.23347879522191]]}, "properties": {"source": "177135", "target": "177136"}}, {"type": "Feature", "geometry": {"type": "LineString", "coordinates": [[-118.30721950675562, 69.23003389970157], [-118.3109019034651, 69.23047946981103]]}, "properties": {"source": "177152", "target": "177182"}}, {"type": "Feature", "geometry": {"type": "LineString", "coordinates": [[-118.30721950675562, 69.23003389970157], [-118.30770096473418, 69.23156258276472]]}, "properties": {"source": "177152", "target": "177160"}}, {"type": "Feature", "geometry": {"type": "LineString", "coordinates": [[-118.30721950675562, 69.23003389970157], [-118.31007583131233, 69.23059727556961]]}, "properties": {"source": "177152", "target": "177151"}}, {"type": "Feature", "geometry": {"type": "LineString", "coordinates": [[-118.30721950675562, 69.23003389970157], [-118.30057760748636, 69.2335129804633]]}, "properties": {"source": "177152", "target": "177174"}}, {"type": "Feature", "geometry": {"type": "LineString", "coordinates": [[-118.30721950675562, 69.23003389970157], [-118.30743054828116, 69.23050772945675]]}, "properties": {"source": "177152", "target": "177185"}}, {"type": "Feature", "geometry": {"type": "LineString", "coordinates": [[-118.30721950675562, 69.23003389970157], [-118.30949184239005, 69.23353365075283]]}, "properties": {"source": "177152", "target": "177139"}}, {"type": "Feature", "geometry": {"type": "LineString", "coordinates": [[-118.30721950675562, 69.23003389970157], [-118.31029284255455, 69.23033759718354]]}, "properties": {"source": "177152", "target": "177135"}}, {"type": "Feature", "geometry": {"type": "LineString", "coordinates": [[-118.30721950675562, 69.23003389970157], [-118.30540285211326, 69.23173853550745]]}, "properties": {"source": "177152", "target": "177156"}}, {"type": "Feature", "geometry": {"type": "LineString", "coordinates": [[-118.30721950675562, 69.23003389970157], [-118.31179819133688, 69.23129062195406]]}, "properties": {"source": "177152", "target": "449818"}}, {"type": "Feature", "geometry": {"type": "LineString", "coordinates": [[-118.30721950675562, 69.23003389970157], [-118.30014585724453, 69.22975962571144]]}, "properties": {"source": "177152", "target": "177132"}}, {"type": "Feature", "geometry": {"type": "LineString", "coordinates": [[-118.30721950675562, 69.23003389970157], [-118.30069566222096, 69.23216061244656]]}, "properties": {"source": "177152", "target": "1211649"}}, {"type": "Feature", "geometry": {"type": "LineString", "coordinates": [[-118.30540285211326, 69.23173853550745], [-118.30541537287738, 69.23347879522191]]}, "properties": {"source": "177156", "target": "177136"}}, {"type": "Feature", "geometry": {"type": "LineString", "coordinates": [[-118.30540285211326, 69.23173853550745], [-118.30298843489777, 69.23168428238091]]}, "properties": {"source": "177156", "target": "720326"}}, {"type": "Feature", "geometry": {"type": "LineString", "coordinates": [[-118.31077750218392, 69.23316054287537], [-118.30629918199804, 69.23164474330068]]}, "properties": {"source": "177175", "target": "177138"}}, {"type": "Feature", "geometry": {"type": "LineString", "coordinates": [[-118.31077750218392, 69.23316054287537], [-118.30014585724453, 69.22975962571144]]}, "properties": {"source": "177175", "target": "177132"}}, {"type": "Feature", "geometry": {"type": "LineString", "coordinates": [[-118.31077750218392, 69.23316054287537], [-118.31055992662769, 69.23350784362108]]}, "properties": {"source": "177175", "target": "204687"}}, {"type": "Feature", "geometry": {"type": "LineString", "coordinates": [[-118.31077750218392, 69.23316054287537], [-118.30085854621423, 69.230502556515]]}, "properties": {"source": "177175", "target": "345095"}}, {"type": "Feature", "geometry": {"type": "LineString", "coordinates": [[-118.31077750218392, 69.23316054287537], [-118.30298843489777, 69.23168428238091]]}, "properties": {"source": "177175", "target": "720326"}}, {"type": "Feature", "geometry": {"type": "LineString", "coordinates": [[-118.31077750218392, 69.23316054287537], [-118.31086699162185, 69.2333711694123]]}, "properties": {"source": "177175", "target": "177176"}}, {"type": "Feature", "geometry": {"type": "LineString", "coordinates": [[-118.30743054828116, 69.23050772945675], [-118.3109019034651, 69.23047946981103]]}, "properties": {"source": "177185", "target": "177182"}}, {"type": "Feature", "geometry": {"type": "LineString", "coordinates": [[-118.30743054828116, 69.23050772945675], [-118.30949184239005, 69.23353365075283]]}, "properties": {"source": "177185", "target": "177139"}}, {"type": "Feature", "geometry": {"type": "LineString", "coordinates": [[-118.30743054828116, 69.23050772945675], [-118.30591356051838, 69.23219026807217]]}, "properties": {"source": "177185", "target": "177141"}}, {"type": "Feature", "geometry": {"type": "LineString", "coordinates": [[-118.30949184239005, 69.23353365075283], [-118.3109019034651, 69.23047946981103]]}, "properties": {"source": "177139", "target": "177182"}}, {"type": "Feature", "geometry": {"type": "LineString", "coordinates": [[-118.30949184239005, 69.23353365075283], [-118.30540285211326, 69.23173853550745]]}, "properties": {"source": "177139", "target": "177156"}}, {"type": "Feature", "geometry": {"type": "LineString", "coordinates": [[-118.30949184239005, 69.23353365075283], [-118.30629918199804, 69.23164474330068]]}, "properties": {"source": "177139", "target": "177138"}}, {"type": "Feature", "geometry": {"type": "LineString", "coordinates": [[-118.30949184239005, 69.23353365075283], [-118.30794247891717, 69.23130537125283]]}, "properties": {"source": "177139", "target": "11988"}}, {"type": "Feature", "geometry": {"type": "LineString", "coordinates": [[-118.31029284255455, 69.23033759718354], [-118.3109019034651, 69.23047946981103]]}, "properties": {"source": "177135", "target": "177182"}}, {"type": "Feature", "geometry": {"type": "LineString", "coordinates": [[-118.31029284255455, 69.23033759718354], [-118.31007583131233, 69.23059727556961]]}, "properties": {"source": "177135", "target": "177151"}}, {"type": "Feature", "geometry": {"type": "LineString", "coordinates": [[-118.31029284255455, 69.23033759718354], [-118.30743054828116, 69.23050772945675]]}, "properties": {"source": "177135", "target": "177185"}}, {"type": "Feature", "geometry": {"type": "LineString", "coordinates": [[-118.30830644777093, 69.23322240389126], [-118.30816829860971, 69.23014363454371]]}, "properties": {"source": "7121540", "target": "966146"}}, {"type": "Feature", "geometry": {"type": "LineString", "coordinates": [[-118.30848251887676, 69.23291874214422], [-118.30676313142354, 69.23206890526203]]}, "properties": {"source": "548102", "target": "1074489"}}, {"type": "Feature", "geometry": {"type": "LineString", "coordinates": [[-118.30848251887676, 69.23291874214422], [-118.3037157420946, 69.23373424182435]]}, "properties": {"source": "548102", "target": "3064356"}}, {"type": "Feature", "geometry": {"type": "LineString", "coordinates": [[-118.30816829860971, 69.23014363454371], [-118.3018905074743, 69.23328831263387]]}, "properties": {"source": "966146", "target": "1214536"}}, {"type": "Feature", "geometry": {"type": "LineString", "coordinates": [[-118.30055640707312, 69.23036106715006], [-118.30904619171814, 69.22989293832396]]}, "properties": {"source": "159963", "target": "13273482"}}, {"type": "Feature", "geometry": {"type": "LineString", "coordinates": [[-118.30002460248193, 69.2305269573809], [-118.30061411706345, 69.23344179963894]]}, "properties": {"source": "270897", "target": "92545"}}, {"type": "Feature", "geometry": {"type": "LineString", "coordinates": [[-118.30301710516117, 69.23062297058013], [-118.30599597628733, 69.23083170906125]]}, "properties": {"source": "3093843", "target": "3147630"}}, {"type": "Feature", "geometry": {"type": "LineString", "coordinates": [[-118.30301710516117, 69.23062297058013], [-118.30842973205577, 69.23323062746252]]}, "properties": {"source": "3093843", "target": "2684673"}}, {"type": "Feature", "geometry": {"type": "LineString", "coordinates": [[-118.30057365053005, 69.23319513143505], [-118.31007583131233, 69.23059727556961]]}, "properties": {"source": "15732197", "target": "177151"}}, {"type": "Feature", "geometry": {"type": "LineString", "coordinates": [[-118.30057365053005, 69.23319513143505], [-118.30919760891436, 69.23343611466808]]}, "properties": {"source": "15732197", "target": "21765506"}}, {"type": "Feature", "geometry": {"type": "LineString", "coordinates": [[-118.30340146743208, 69.23270916240563], [-118.30599597628733, 69.23083170906125]]}, "properties": {"source": "528146", "target": "3147630"}}, {"type": "Feature", "geometry": {"type": "LineString", "coordinates": [[-118.30770096473418, 69.23156258276472], [-118.30541537287738, 69.23347879522191]]}, "properties": {"source": "177160", "target": "177136"}}, {"type": "Feature", "geometry": {"type": "LineString", "coordinates": [[-118.30770096473418, 69.23156258276472], [-118.30298843489777, 69.23168428238091]]}, "properties": {"source": "177160", "target": "720326"}}, {"type": "Feature", "geometry": {"type": "LineString", "coordinates": [[-118.30770096473418, 69.23156258276472], [-118.30788785571765, 69.23160428147466]]}, "properties": {"source": "177160", "target": "1474902"}}, {"type": "Feature", "geometry": {"type": "LineString", "coordinates": [[-118.31007583131233, 69.23059727556961], [-118.3109019034651, 69.23047946981103]]}, "properties": {"source": "177151", "target": "177182"}}, {"type": "Feature", "geometry": {"type": "LineString", "coordinates": [[-118.31007583131233, 69.23059727556961], [-118.30743054828116, 69.23050772945675]]}, "properties": {"source": "177151", "target": "177185"}}, {"type": "Feature", "geometry": {"type": "LineString", "coordinates": [[-118.30057760748636, 69.2335129804633], [-118.30540285211326, 69.23173853550745]]}, "properties": {"source": "177174", "target": "177156"}}, {"type": "Feature", "geometry": {"type": "LineString", "coordinates": [[-118.30057760748636, 69.2335129804633], [-118.30629918199804, 69.23164474330068]]}, "properties": {"source": "177174", "target": "177138"}}, {"type": "Feature", "geometry": {"type": "LineString", "coordinates": [[-118.30057760748636, 69.2335129804633], [-118.30356985325429, 69.23284438459092]]}, "properties": {"source": "177174", "target": "177173"}}, {"type": "Feature", "geometry": {"type": "LineString", "coordinates": [[-118.30057760748636, 69.2335129804633], [-118.30591356051838, 69.23219026807217]]}, "properties": {"source": "177174", "target": "177141"}}, {"type": "Feature", "geometry": {"type": "LineString", "coordinates": [[-118.30057760748636, 69.2335129804633], [-118.30098884743205, 69.23090179338686]]}, "properties": {"source": "177174", "target": "12390468"}}, {"type": "Feature", "geometry": {"type": "LineString", "coordinates": [[-118.30057760748636, 69.2335129804633], [-118.30541537287738, 69.23347879522191]]}, "properties": {"source": "177174", "target": "177136"}}, {"type": "Feature", "geometry": {"type": "LineString", "coordinates": [[-118.30057760748636, 69.2335129804633], [-118.30298843489777, 69.23168428238091]]}, "properties": {"source": "177174", "target": "720326"}}, {"type": "Feature", "geometry": {"type": "LineString", "coordinates": [[-118.31077750218392, 69.23316054287537], [-118.3109019034651, 69.23047946981103]]}, "properties": {"source": "177175", "target": "177182"}}, {"type": "Feature", "geometry": {"type": "LineString", "coordinates": [[-118.31077750218392, 69.23316054287537], [-118.30770096473418, 69.23156258276472]]}, "properties": {"source": "177175", "target": "177160"}}, {"type": "Feature", "geometry": {"type": "LineString", "coordinates": [[-118.31077750218392, 69.23316054287537], [-118.31007583131233, 69.23059727556961]]}, "properties": {"source": "177175", "target": "177151"}}, {"type": "Feature", "geometry": {"type": "LineString", "coordinates": [[-118.31077750218392, 69.23316054287537], [-118.30057760748636, 69.2335129804633]]}, "properties": {"source": "177175", "target": "177174"}}, {"type": "Feature", "geometry": {"type": "LineString", "coordinates": [[-118.31077750218392, 69.23316054287537], [-118.30743054828116, 69.23050772945675]]}, "properties": {"source": "177175", "target": "177185"}}, {"type": "Feature", "geometry": {"type": "LineString", "coordinates": [[-118.31077750218392, 69.23316054287537], [-118.30949184239005, 69.23353365075283]]}, "properties": {"source": "177175", "target": "177139"}}, {"type": "Feature", "geometry": {"type": "LineString", "coordinates": [[-118.31077750218392, 69.23316054287537], [-118.30721950675562, 69.23003389970157]]}, "properties": {"source": "177175", "target": "177152"}}, {"type": "Feature", "geometry": {"type": "LineString", "coordinates": [[-118.31077750218392, 69.23316054287537], [-118.30540285211326, 69.23173853550745]]}, "properties": {"source": "177175", "target": "177156"}}, {"type": "Feature", "geometry": {"type": "LineString", "coordinates": [[-118.31077750218392, 69.23316054287537], [-118.31179819133688, 69.23129062195406]]}, "properties": {"source": "177175", "target": "449818"}}, {"type": "Feature", "geometry": {"type": "LineString", "coordinates": [[-118.2999569630341, 69.23052512798824], [-118.30726306292323, 69.22977454653324]]}, "properties": {"source": "18070326", "target": "12657821"}}, {"type": "Feature", "geometry": {"type": "LineString", "coordinates": [[-118.2999569630341, 69.23052512798824], [-118.31103336213141, 69.23036214791472]]}, "properties": {"source": "18070326", "target": "11280889"}}, {"type": "Feature", "geometry": {"type": "LineString", "coordinates": [[-118.2999569630341, 69.23052512798824], [-118.30739155403076, 69.2334530022537]]}, "properties": {"source": "18070326", "target": "1066732"}}, {"type": "Feature", "geometry": {"type": "LineString", "coordinates": [[-118.2999569630341, 69.23052512798824], [-118.30815698387629, 69.2305273780897]]}, "properties": {"source": "18070326", "target": "15793051"}}, {"type": "Feature", "geometry": {"type": "LineString", "coordinates": [[-118.2999569630341, 69.23052512798824], [-118.30566772922069, 69.23140068190355]]}, "properties": {"source": "18070326", "target": "15798590"}}, {"type": "Feature", "geometry": {"type": "LineString", "coordinates": [[-118.2999569630341, 69.23052512798824], [-118.30055640707312, 69.23036106715006]]}, "properties": {"source": "18070326", "target": "159963"}}, {"type": "Feature", "geometry": {"type": "LineString", "coordinates": [[-118.31060266780489, 69.23229011049636], [-118.30356985325429, 69.23284438459092]]}, "properties": {"source": "1704465", "target": "177173"}}, {"type": "Feature", "geometry": {"type": "LineString", "coordinates": [[-118.31060266780489, 69.23229011049636], [-118.30904619171814, 69.22989293832396]]}, "properties": {"source": "1704465", "target": "13273482"}}, {"type": "Feature", "geometry": {"type": "LineString", "coordinates": [[-118.31060266780489, 69.23229011049636], [-118.30726306292323, 69.22977454653324]]}, "properties": {"source": "1704465", "target": "12657821"}}, {"type": "Feature", "geometry": {"type": "LineString", "coordinates": [[-118.31060266780489, 69.23229011049636], [-118.31103336213141, 69.23036214791472]]}, "properties": {"source": "1704465", "target": "11280889"}}, {"type": "Feature", "geometry": {"type": "LineString", "coordinates": [[-118.31060266780489, 69.23229011049636], [-118.3037157420946, 69.23373424182435]]}, "properties": {"source": "1704465", "target": "3064356"}}, {"type": "Feature", "geometry": {"type": "LineString", "coordinates": [[-118.31060266780489, 69.23229011049636], [-118.30055640707312, 69.23036106715006]]}, "properties": {"source": "1704465", "target": "159963"}}, {"type": "Feature", "geometry": {"type": "LineString", "coordinates": [[-118.30726306292323, 69.22977454653324], [-118.30904619171814, 69.22989293832396]]}, "properties": {"source": "12657821", "target": "13273482"}}, {"type": "Feature", "geometry": {"type": "LineString", "coordinates": [[-118.30224730294144, 69.2301837426233], [-118.3109019034651, 69.23047946981103]]}, "properties": {"source": "12440988", "target": "177182"}}, {"type": "Feature", "geometry": {"type": "LineString", "coordinates": [[-118.30224730294144, 69.2301837426233], [-118.30770096473418, 69.23156258276472]]}, "properties": {"source": "12440988", "target": "177160"}}, {"type": "Feature", "geometry": {"type": "LineString", "coordinates": [[-118.30224730294144, 69.2301837426233], [-118.30057760748636, 69.2335129804633]]}, "properties": {"source": "12440988", "target": "177174"}}, {"type": "Feature", "geometry": {"type": "LineString", "coordinates": [[-118.31179819133688, 69.23129062195406], [-118.3109019034651, 69.23047946981103]]}, "properties": {"source": "449818", "target": "177182"}}, {"type": "Feature", "geometry": {"type": "LineString", "coordinates": [[-118.31179819133688, 69.23129062195406], [-118.30770096473418, 69.23156258276472]]}, "properties": {"source": "449818", "target": "177160"}}, {"type": "Feature", "geometry": {"type": "LineString", "coordinates": [[-118.31179819133688, 69.23129062195406], [-118.31007583131233, 69.23059727556961]]}, "properties": {"source": "449818", "target": "177151"}}, {"type": "Feature", "geometry": {"type": "LineString", "coordinates": [[-118.31179819133688, 69.23129062195406], [-118.30743054828116, 69.23050772945675]]}, "properties": {"source": "449818", "target": "177185"}}, {"type": "Feature", "geometry": {"type": "LineString", "coordinates": [[-118.31179819133688, 69.23129062195406], [-118.30949184239005, 69.23353365075283]]}, "properties": {"source": "449818", "target": "177139"}}, {"type": "Feature", "geometry": {"type": "LineString", "coordinates": [[-118.31179819133688, 69.23129062195406], [-118.31029284255455, 69.23033759718354]]}, "properties": {"source": "449818", "target": "177135"}}, {"type": "Feature", "geometry": {"type": "LineString", "coordinates": [[-118.31179819133688, 69.23129062195406], [-118.30158372614301, 69.23055103103837]]}, "properties": {"source": "449818", "target": "29284823"}}, {"type": "Feature", "geometry": {"type": "LineString", "coordinates": [[-118.30629918199804, 69.23164474330068], [-118.3109019034651, 69.23047946981103]]}, "properties": {"source": "177138", "target": "177182"}}, {"type": "Feature", "geometry": {"type": "LineString", "coordinates": [[-118.30629918199804, 69.23164474330068], [-118.30788785571765, 69.23160428147466]]}, "properties": {"source": "177138", "target": "1474902"}}, {"type": "Feature", "geometry": {"type": "LineString", "coordinates": [[-118.30014585724453, 69.22975962571144], [-118.3109019034651, 69.23047946981103]]}, "properties": {"source": "177132", "target": "177182"}}, {"type": "Feature", "geometry": {"type": "LineString", "coordinates": [[-118.30014585724453, 69.22975962571144], [-118.30770096473418, 69.23156258276472]]}, "properties": {"source": "177132", "target": "177160"}}, {"type": "Feature", "geometry": {"type": "LineString", "coordinates": [[-118.30014585724453, 69.22975962571144], [-118.31007583131233, 69.23059727556961]]}, "properties": {"source": "177132", "target": "177151"}}, {"type": "Feature", "geometry": {"type": "LineString", "coordinates": [[-118.30014585724453, 69.22975962571144], [-118.30057760748636, 69.2335129804633]]}, "properties": {"source": "177132", "target": "177174"}}, {"type": "Feature", "geometry": {"type": "LineString", "coordinates": [[-118.30014585724453, 69.22975962571144], [-118.30949184239005, 69.23353365075283]]}, "properties": {"source": "177132", "target": "177139"}}, {"type": "Feature", "geometry": {"type": "LineString", "coordinates": [[-118.30014585724453, 69.22975962571144], [-118.31029284255455, 69.23033759718354]]}, "properties": {"source": "177132", "target": "177135"}}, {"type": "Feature", "geometry": {"type": "LineString", "coordinates": [[-118.30014585724453, 69.22975962571144], [-118.30540285211326, 69.23173853550745]]}, "properties": {"source": "177132", "target": "177156"}}, {"type": "Feature", "geometry": {"type": "LineString", "coordinates": [[-118.30815698387629, 69.2305273780897], [-118.30767546045979, 69.23220562544071]]}, "properties": {"source": "15793051", "target": "52179"}}, {"type": "Feature", "geometry": {"type": "LineString", "coordinates": [[-118.30599597628733, 69.23083170906125], [-118.3018905074743, 69.23328831263387]]}, "properties": {"source": "3147630", "target": "1214536"}}, {"type": "Feature", "geometry": {"type": "LineString", "coordinates": [[-118.30265884633289, 69.23319879556371], [-118.31060266780489, 69.23229011049636]]}, "properties": {"source": "16251320", "target": "1704465"}}, {"type": "Feature", "geometry": {"type": "LineString", "coordinates": [[-118.30265884633289, 69.23319879556371], [-118.30676313142354, 69.23206890526203]]}, "properties": {"source": "16251320", "target": "1074489"}}, {"type": "Feature", "geometry": {"type": "LineString", "coordinates": [[-118.30265884633289, 69.23319879556371], [-118.3037157420946, 69.23373424182435]]}, "properties": {"source": "16251320", "target": "3064356"}}, {"type": "Feature", "geometry": {"type": "LineString", "coordinates": [[-118.30265884633289, 69.23319879556371], [-118.30848251887676, 69.23291874214422]]}, "properties": {"source": "16251320", "target": "548102"}}, {"type": "Feature", "geometry": {"type": "LineString", "coordinates": [[-118.30676313142354, 69.23206890526203], [-118.31060266780489, 69.23229011049636]]}, "properties": {"source": "1074489", "target": "1704465"}}, {"type": "Feature", "geometry": {"type": "LineString", "coordinates": [[-118.30676313142354, 69.23206890526203], [-118.3037157420946, 69.23373424182435]]}, "properties": {"source": "1074489", "target": "3064356"}}, {"type": "Feature", "geometry": {"type": "LineString", "coordinates": [[-118.30842973205577, 69.23323062746252], [-118.30599597628733, 69.23083170906125]]}, "properties": {"source": "2684673", "target": "3147630"}}, {"type": "Feature", "geometry": {"type": "LineString", "coordinates": [[-118.30842973205577, 69.23323062746252], [-118.3018905074743, 69.23328831263387]]}, "properties": {"source": "2684673", "target": "1214536"}}, {"type": "Feature", "geometry": {"type": "LineString", "coordinates": [[-118.30842973205577, 69.23323062746252], [-118.30816829860971, 69.23014363454371]]}, "properties": {"source": "2684673", "target": "966146"}}, {"type": "Feature", "geometry": {"type": "LineString", "coordinates": [[-118.30566772922069, 69.23140068190355], [-118.30904619171814, 69.22989293832396]]}, "properties": {"source": "15798590", "target": "13273482"}}, {"type": "Feature", "geometry": {"type": "LineString", "coordinates": [[-118.30566772922069, 69.23140068190355], [-118.30726306292323, 69.22977454653324]]}, "properties": {"source": "15798590", "target": "12657821"}}, {"type": "Feature", "geometry": {"type": "LineString", "coordinates": [[-118.30566772922069, 69.23140068190355], [-118.30446129378026, 69.23304956073224]]}, "properties": {"source": "15798590", "target": "31680816"}}, {"type": "Feature", "geometry": {"type": "LineString", "coordinates": [[-118.30830644777093, 69.23322240389126], [-118.30739155403076, 69.2334530022537]]}, "properties": {"source": "7121540", "target": "1066732"}}, {"type": "Feature", "geometry": {"type": "LineString", "coordinates": [[-118.30830644777093, 69.23322240389126], [-118.3018905074743, 69.23328831263387]]}, "properties": {"source": "7121540", "target": "1214536"}}, {"type": "Feature", "geometry": {"type": "LineString", "coordinates": [[-118.31086699162185, 69.2333711694123], [-118.30770096473418, 69.23156258276472]]}, "properties": {"source": "177176", "target": "177160"}}, {"type": "Feature", "geometry": {"type": "LineString", "coordinates": [[-118.31086699162185, 69.2333711694123], [-118.30057760748636, 69.2335129804633]]}, "properties": {"source": "177176", "target": "177174"}}, {"type": "Feature", "geometry": {"type": "LineString", "coordinates": [[-118.31086699162185, 69.2333711694123], [-118.30743054828116, 69.23050772945675]]}, "properties": {"source": "177176", "target": "177185"}}, {"type": "Feature", "geometry": {"type": "LineString", "coordinates": [[-118.31086699162185, 69.2333711694123], [-118.30540285211326, 69.23173853550745]]}, "properties": {"source": "177176", "target": "177156"}}, {"type": "Feature", "geometry": {"type": "LineString", "coordinates": [[-118.31103336213141, 69.23036214791472], [-118.30904619171814, 69.22989293832396]]}, "properties": {"source": "11280889", "target": "13273482"}}, {"type": "Feature", "geometry": {"type": "LineString", "coordinates": [[-118.31103336213141, 69.23036214791472], [-118.30726306292323, 69.22977454653324]]}, "properties": {"source": "11280889", "target": "12657821"}}, {"type": "Feature", "geometry": {"type": "LineString", "coordinates": [[-118.31103336213141, 69.23036214791472], [-118.30446129378026, 69.23304956073224]]}, "properties": {"source": "11280889", "target": "31680816"}}, {"type": "Feature", "geometry": {"type": "LineString", "coordinates": [[-118.31103336213141, 69.23036214791472], [-118.30767546045979, 69.23220562544071]]}, "properties": {"source": "11280889", "target": "52179"}}, {"type": "Feature", "geometry": {"type": "LineString", "coordinates": [[-118.30739155403076, 69.2334530022537], [-118.30726306292323, 69.22977454653324]]}, "properties": {"source": "1066732", "target": "12657821"}}, {"type": "Feature", "geometry": {"type": "LineString", "coordinates": [[-118.30739155403076, 69.2334530022537], [-118.30446129378026, 69.23304956073224]]}, "properties": {"source": "1066732", "target": "31680816"}}, {"type": "Feature", "geometry": {"type": "LineString", "coordinates": [[-118.30739155403076, 69.2334530022537], [-118.30767546045979, 69.23220562544071]]}, "properties": {"source": "1066732", "target": "52179"}}, {"type": "Feature", "geometry": {"type": "LineString", "coordinates": [[-118.30739155403076, 69.2334530022537], [-118.30599597628733, 69.23083170906125]]}, "properties": {"source": "1066732", "target": "3147630"}}, {"type": "Feature", "geometry": {"type": "LineString", "coordinates": [[-118.30767546045979, 69.23220562544071], [-118.30904619171814, 69.22989293832396]]}, "properties": {"source": "52179", "target": "13273482"}}, {"type": "Feature", "geometry": {"type": "LineString", "coordinates": [[-118.30767546045979, 69.23220562544071], [-118.30726306292323, 69.22977454653324]]}, "properties": {"source": "52179", "target": "12657821"}}, {"type": "Feature", "geometry": {"type": "LineString", "coordinates": [[-118.30788785571765, 69.23160428147466], [-118.3109019034651, 69.23047946981103]]}, "properties": {"source": "1474902", "target": "177182"}}, {"type": "Feature", "geometry": {"type": "LineString", "coordinates": [[-118.30059754839854, 69.22993543190381], [-118.30743054828116, 69.23050772945675]]}, "properties": {"source": "1062310", "target": "177185"}}, {"type": "Feature", "geometry": {"type": "LineString", "coordinates": [[-118.30014585724453, 69.22975962571144], [-118.31179819133688, 69.23129062195406]]}, "properties": {"source": "177132", "target": "449818"}}, {"type": "Feature", "geometry": {"type": "LineString", "coordinates": [[-118.30356985325429, 69.23284438459092], [-118.30540285211326, 69.23173853550745]]}, "properties": {"source": "177173", "target": "177156"}}, {"type": "Feature", "geometry": {"type": "LineString", "coordinates": [[-118.30356985325429, 69.23284438459092], [-118.30629918199804, 69.23164474330068]]}, "properties": {"source": "177173", "target": "177138"}}, {"type": "Feature", "geometry": {"type": "LineString", "coordinates": [[-118.30356985325429, 69.23284438459092], [-118.30904619171814, 69.22989293832396]]}, "properties": {"source": "177173", "target": "13273482"}}, {"type": "Feature", "geometry": {"type": "LineString", "coordinates": [[-118.30356985325429, 69.23284438459092], [-118.30541537287738, 69.23347879522191]]}, "properties": {"source": "177173", "target": "177136"}}, {"type": "Feature", "geometry": {"type": "LineString", "coordinates": [[-118.31055992662769, 69.23350784362108], [-118.3109019034651, 69.23047946981103]]}, "properties": {"source": "204687", "target": "177182"}}, {"type": "Feature", "geometry": {"type": "LineString", "coordinates": [[-118.31055992662769, 69.23350784362108], [-118.31007583131233, 69.23059727556961]]}, "properties": {"source": "204687", "target": "177151"}}, {"type": "Feature", "geometry": {"type": "LineString", "coordinates": [[-118.31055992662769, 69.23350784362108], [-118.30743054828116, 69.23050772945675]]}, "properties": {"source": "204687", "target": "177185"}}, {"type": "Feature", "geometry": {"type": "LineString", "coordinates": [[-118.31055992662769, 69.23350784362108], [-118.30949184239005, 69.23353365075283]]}, "properties": {"source": "204687", "target": "177139"}}, {"type": "Feature", "geometry": {"type": "LineString", "coordinates": [[-118.31055992662769, 69.23350784362108], [-118.30721950675562, 69.23003389970157]]}, "properties": {"source": "204687", "target": "177152"}}, {"type": "Feature", "geometry": {"type": "LineString", "coordinates": [[-118.31055992662769, 69.23350784362108], [-118.31179819133688, 69.23129062195406]]}, "properties": {"source": "204687", "target": "449818"}}, {"type": "Feature", "geometry": {"type": "LineString", "coordinates": [[-118.31055992662769, 69.23350784362108], [-118.30085854621423, 69.230502556515]]}, "properties": {"source": "204687", "target": "345095"}}, {"type": "Feature", "geometry": {"type": "LineString", "coordinates": [[-118.31055992662769, 69.23350784362108], [-118.30788785571765, 69.23160428147466]]}, "properties": {"source": "204687", "target": "1474902"}}, {"type": "Feature", "geometry": {"type": "LineString", "coordinates": [[-118.2999569630341, 69.23052512798824], [-118.30356985325429, 69.23284438459092]]}, "properties": {"source": "18070326", "target": "177173"}}, {"type": "Feature", "geometry": {"type": "LineString", "coordinates": [[-118.2999569630341, 69.23052512798824], [-118.30904619171814, 69.22989293832396]]}, "properties": {"source": "18070326", "target": "13273482"}}, {"type": "Feature", "geometry": {"type": "LineString", "coordinates": [[-118.2999569630341, 69.23052512798824], [-118.31060266780489, 69.23229011049636]]}, "properties": {"source": "18070326", "target": "1704465"}}, {"type": "Feature", "geometry": {"type": "LineString", "coordinates": [[-118.3109019034651, 69.23047946981103], [-118.30540285211326, 69.23173853550745]]}, "properties": {"source": "177182", "target": "177156"}}, {"type": "Feature", "geometry": {"type": "LineString", "coordinates": [[-118.3109019034651, 69.23047946981103], [-118.30591356051838, 69.23219026807217]]}, "properties": {"source": "177182", "target": "177141"}}, {"type": "Feature", "geometry": {"type": "LineString", "coordinates": [[-118.3109019034651, 69.23047946981103], [-118.30541537287738, 69.23347879522191]]}, "properties": {"source": "177182", "target": "177136"}}, {"type": "Feature", "geometry": {"type": "LineString", "coordinates": [[-118.3109019034651, 69.23047946981103], [-118.30298843489777, 69.23168428238091]]}, "properties": {"source": "177182", "target": "720326"}}, {"type": "Feature", "geometry": {"type": "LineString", "coordinates": [[-118.3109019034651, 69.23047946981103], [-118.30794247891717, 69.23130537125283]]}, "properties": {"source": "177182", "target": "11988"}}, {"type": "Feature", "geometry": {"type": "LineString", "coordinates": [[-118.30770096473418, 69.23156258276472], [-118.3109019034651, 69.23047946981103]]}, "properties": {"source": "177160", "target": "177182"}}, {"type": "Feature", "geometry": {"type": "LineString", "coordinates": [[-118.30770096473418, 69.23156258276472], [-118.31007583131233, 69.23059727556961]]}, "properties": {"source": "177160", "target": "177151"}}, {"type": "Feature", "geometry": {"type": "LineString", "coordinates": [[-118.30770096473418, 69.23156258276472], [-118.30743054828116, 69.23050772945675]]}, "properties": {"source": "177160", "target": "177185"}}, {"type": "Feature", "geometry": {"type": "LineString", "coordinates": [[-118.30770096473418, 69.23156258276472], [-118.30949184239005, 69.23353365075283]]}, "properties": {"source": "177160", "target": "177139"}}, {"type": "Feature", "geometry": {"type": "LineString", "coordinates": [[-118.30770096473418, 69.23156258276472], [-118.31029284255455, 69.23033759718354]]}, "properties": {"source": "177160", "target": "177135"}}, {"type": "Feature", "geometry": {"type": "LineString", "coordinates": [[-118.30770096473418, 69.23156258276472], [-118.30540285211326, 69.23173853550745]]}, "properties": {"source": "177160", "target": "177156"}}, {"type": "Feature", "geometry": {"type": "LineString", "coordinates": [[-118.30770096473418, 69.23156258276472], [-118.30629918199804, 69.23164474330068]]}, "properties": {"source": "177160", "target": "177138"}}, {"type": "Feature", "geometry": {"type": "LineString", "coordinates": [[-118.30770096473418, 69.23156258276472], [-118.30356985325429, 69.23284438459092]]}, "properties": {"source": "177160", "target": "177173"}}, {"type": "Feature", "geometry": {"type": "LineString", "coordinates": [[-118.30770096473418, 69.23156258276472], [-118.30591356051838, 69.23219026807217]]}, "properties": {"source": "177160", "target": "177141"}}, {"type": "Feature", "geometry": {"type": "LineString", "coordinates": [[-118.30770096473418, 69.23156258276472], [-118.30098884743205, 69.23090179338686]]}, "properties": {"source": "177160", "target": "12390468"}}, {"type": "Feature", "geometry": {"type": "LineString", "coordinates": [[-118.30770096473418, 69.23156258276472], [-118.30243147613731, 69.23301998201694]]}, "properties": {"source": "177160", "target": "1795134"}}, {"type": "Feature", "geometry": {"type": "LineString", "coordinates": [[-118.30059754839854, 69.22993543190381], [-118.31029284255455, 69.23033759718354]]}, "properties": {"source": "1062310", "target": "177135"}}, {"type": "Feature", "geometry": {"type": "LineString", "coordinates": [[-118.30059754839854, 69.22993543190381], [-118.30213797331591, 69.23290728249657]]}, "properties": {"source": "1062310", "target": "128636"}}, {"type": "Feature", "geometry": {"type": "LineString", "coordinates": [[-118.30059754839854, 69.22993543190381], [-118.30986472537987, 69.23180391320389]]}, "properties": {"source": "1062310", "target": "219951"}}, {"type": "Feature", "geometry": {"type": "LineString", "coordinates": [[-118.30059754839854, 69.22993543190381], [-118.30061411706345, 69.23344179963894]]}, "properties": {"source": "1062310", "target": "92545"}}, {"type": "Feature", "geometry": {"type": "LineString", "coordinates": [[-118.30986472537987, 69.23180391320389], [-118.30044959003878, 69.23229147709105]]}, "properties": {"source": "219951", "target": "905156"}}, {"type": "Feature", "geometry": {"type": "LineString", "coordinates": [[-118.30986472537987, 69.23180391320389], [-118.30061411706345, 69.23344179963894]]}, "properties": {"source": "219951", "target": "92545"}}, {"type": "Feature", "geometry": {"type": "LineString", "coordinates": [[-118.30986472537987, 69.23180391320389], [-118.30298764116908, 69.23086385792442]]}, "properties": {"source": "219951", "target": "98900"}}, {"type": "Feature", "geometry": {"type": "LineString", "coordinates": [[-118.30986472537987, 69.23180391320389], [-118.30002460248193, 69.2305269573809]]}, "properties": {"source": "219951", "target": "270897"}}, {"type": "Feature", "geometry": {"type": "LineString", "coordinates": [[-118.30044959003878, 69.23229147709105], [-118.31179819133688, 69.23129062195406]]}, "properties": {"source": "905156", "target": "449818"}}, {"type": "Feature", "geometry": {"type": "LineString", "coordinates": [[-118.30044959003878, 69.23229147709105], [-118.30085854621423, 69.230502556515]]}, "properties": {"source": "905156", "target": "345095"}}, {"type": "Feature", "geometry": {"type": "LineString", "coordinates": [[-118.30044959003878, 69.23229147709105], [-118.30061411706345, 69.23344179963894]]}, "properties": {"source": "905156", "target": "92545"}}, {"type": "Feature", "geometry": {"type": "LineString", "coordinates": [[-118.30044959003878, 69.23229147709105], [-118.30298764116908, 69.23086385792442]]}, "properties": {"source": "905156", "target": "98900"}}, {"type": "Feature", "geometry": {"type": "LineString", "coordinates": [[-118.30061411706345, 69.23344179963894], [-118.30085854621423, 69.230502556515]]}, "properties": {"source": "92545", "target": "345095"}}, {"type": "Feature", "geometry": {"type": "LineString", "coordinates": [[-118.30815698387629, 69.2305273780897], [-118.30904619171814, 69.22989293832396]]}, "properties": {"source": "15793051", "target": "13273482"}}, {"type": "Feature", "geometry": {"type": "LineString", "coordinates": [[-118.30815698387629, 69.2305273780897], [-118.30726306292323, 69.22977454653324]]}, "properties": {"source": "15793051", "target": "12657821"}}, {"type": "Feature", "geometry": {"type": "LineString", "coordinates": [[-118.30815698387629, 69.2305273780897], [-118.30446129378026, 69.23304956073224]]}, "properties": {"source": "15793051", "target": "31680816"}}, {"type": "Feature", "geometry": {"type": "LineString", "coordinates": [[-118.30224730294144, 69.2301837426233], [-118.30743054828116, 69.23050772945675]]}, "properties": {"source": "12440988", "target": "177185"}}, {"type": "Feature", "geometry": {"type": "LineString", "coordinates": [[-118.30224730294144, 69.2301837426233], [-118.30629918199804, 69.23164474330068]]}, "properties": {"source": "12440988", "target": "177138"}}, {"type": "Feature", "geometry": {"type": "LineString", "coordinates": [[-118.30224730294144, 69.2301837426233], [-118.30591356051838, 69.23219026807217]]}, "properties": {"source": "12440988", "target": "177141"}}, {"type": "Feature", "geometry": {"type": "LineString", "coordinates": [[-118.30224730294144, 69.2301837426233], [-118.30213797331591, 69.23290728249657]]}, "properties": {"source": "12440988", "target": "128636"}}, {"type": "Feature", "geometry": {"type": "LineString", "coordinates": [[-118.30224730294144, 69.2301837426233], [-118.30098884743205, 69.23090179338686]]}, "properties": {"source": "12440988", "target": "12390468"}}, {"type": "Feature", "geometry": {"type": "LineString", "coordinates": [[-118.30213797331591, 69.23290728249657], [-118.30743054828116, 69.23050772945675]]}, "properties": {"source": "128636", "target": "177185"}}, {"type": "Feature", "geometry": {"type": "LineString", "coordinates": [[-118.30213797331591, 69.23290728249657], [-118.31029284255455, 69.23033759718354]]}, "properties": {"source": "128636", "target": "177135"}}, {"type": "Feature", "geometry": {"type": "LineString", "coordinates": [[-118.30213797331591, 69.23290728249657], [-118.30356985325429, 69.23284438459092]]}, "properties": {"source": "128636", "target": "177173"}}, {"type": "Feature", "geometry": {"type": "LineString", "coordinates": [[-118.30213797331591, 69.23290728249657], [-118.30591356051838, 69.23219026807217]]}, "properties": {"source": "128636", "target": "177141"}}, {"type": "Feature", "geometry": {"type": "LineString", "coordinates": [[-118.30213797331591, 69.23290728249657], [-118.30098884743205, 69.23090179338686]]}, "properties": {"source": "128636", "target": "12390468"}}, {"type": "Feature", "geometry": {"type": "LineString", "coordinates": [[-118.30213797331591, 69.23290728249657], [-118.30541537287738, 69.23347879522191]]}, "properties": {"source": "128636", "target": "177136"}}, {"type": "Feature", "geometry": {"type": "LineString", "coordinates": [[-118.30069566222096, 69.23216061244656], [-118.31007583131233, 69.23059727556961]]}, "properties": {"source": "1211649", "target": "177151"}}, {"type": "Feature", "geometry": {"type": "LineString", "coordinates": [[-118.30069566222096, 69.23216061244656], [-118.30949184239005, 69.23353365075283]]}, "properties": {"source": "1211649", "target": "177139"}}, {"type": "Feature", "geometry": {"type": "LineString", "coordinates": [[-118.30069566222096, 69.23216061244656], [-118.31029284255455, 69.23033759718354]]}, "properties": {"source": "1211649", "target": "177135"}}, {"type": "Feature", "geometry": {"type": "LineString", "coordinates": [[-118.30069566222096, 69.23216061244656], [-118.30540285211326, 69.23173853550745]]}, "properties": {"source": "1211649", "target": "177156"}}, {"type": "Feature", "geometry": {"type": "LineString", "coordinates": [[-118.30069566222096, 69.23216061244656], [-118.30356985325429, 69.23284438459092]]}, "properties": {"source": "1211649", "target": "177173"}}]}