{"type": "FeatureCollection", "features": [{"type": "Feature", "geometry": {"type": "LineString", "coordinates": [[-98.1738042162176, 69.23185088358937], [-98.17198192444516, 69.23069227041373]]}, "properties": {"source": "23331726", "target": "23214176"}}, {"type": "Feature", "geometry": {"type": "LineString", "coordinates": [[-98.1738042162176, 69.23185088358937], [-98.16822697782692, 69.23275365414236]]}, "properties": {"source": "23331726", "target": "23249678"}}, {"type": "Feature", "geometry": {"type": "LineString", "coordinates": [[-98.1738042162176, 69.23185088358937], [-98.17013330032876, 69.231280036649]]}, "properties": {"source": "23331726", "target": "22571591"}}, {"type": "Feature", "geometry": {"type": "LineString", "coordinates": [[-98.16611516464583, 69.2335221948803], [-98.17198192444516, 69.23069227041373]]}, "properties": {"source": "24872560", "target": "23214176"}}, {"type": "Feature", "geometry": {"type": "LineString", "coordinates": [[-98.16611516464583, 69.2335221948803], [-98.16822697782692, 69.23275365414236]]}, "properties": {"source": "24872560", "target": "23249678"}}, {"type": "Feature", "geometry": {"type": "LineString", "coordinates": [[-98.16611516464583, 69.2335221948803], [-98.16267461190169, 69.23319819971064]]}, "properties": {"source": "24872560", "target": "23622201"}}, {"type": "Feature", "geometry": {"type": "LineString", "coordinates": [[-98.16486871051565, 69.22978825194886], [-98.16354177957103, 69.2336453989735]]}, "properties": {"source": "17204601", "target": "18689940"}}, {"type": "Feature", "geometry": {"type": "LineString", "coordinates": [[-98.16486871051565, 69.22978825194886], [-98.16913180848795, 69.22988995822283]]}, "properties": {"source": "17204601", "target": "18165219"}}, {"type": "Feature", "geometry": {"type": "LineString", "coordinates": [[-98.16486871051565, 69.22978825194886], [-98.16397004487162, 69.23162132986576]]}, "properties": {"source": "17204601", "target": "17471493"}}, {"type": "Feature", "geometry": {"type": "LineString", "coordinates": [[-98.17102283815227, 69.23328356813477], [-98.17198192444516, 69.23069227041373]]}, "properties": {"source": "23453127", "target": "23214176"}}, {"type": "Feature", "geometry": {"type": "LineString", "coordinates": [[-98.17102283815227, 69.23328356813477], [-98.16822697782692, 69.23275365414236]]}, "properties": {"source": "23453127", "target": "23249678"}}, {"type": "Feature", "geometry": {"type": "LineString", "coordinates": [[-98.17102283815227, 69.23328356813477], [-98.16267461190169, 69.23319819971064]]}, "properties": {"source": "23453127", "target": "23622201"}}, {"type": "Feature", "geometry": {"type": "LineString", "coordinates": [[-98.16648367345717, 69.23016500377855], [-98.1695436979486, 69.23296581975492]]}, "properties": {"source": "5032534", "target": "1042065"}}, {"type": "Feature", "geometry": {"type": "LineString", "coordinates": [[-98.16648367345717, 69.23016500377855], [-98.16604525198099, 69.23023597834481]]}, "properties": {"source": "5032534", "target": "10578"}}, {"type": "Feature", "geometry": {"type": "LineString", "coordinates": [[-98.16558810744817, 69.23125062391154], [-98.1630098266599, 69.22997540871836]]}, "properties": {"source": "18015712", "target": "20423012"}}, {"type": "Feature", "geometry": {"type": "LineString", "coordinates": [[-98.16643293365355, 69.23164331946518], [-98.16267461190169, 69.23319819971064]]}, "properties": {"source": "25506662", "target": "23622201"}}, {"type": "Feature", "geometry": {"type": "LineString", "coordinates": [[-98.16373261469478, 69.23102305379206], [-98.16873168694562, 69.23122256670266]]}, "properties": {"source": "23119338", "target": "23366053"}}, {"type": "Feature", "geometry": {"type": "LineString", "coordinates": [[-98.16373261469478, 69.23102305379206], [-98.17093981193636, 69.232647470306]]}, "properties": {"source": "23119338", "target": "23119393"}}, {"type": "Feature", "geometry": {"type": "LineString", "coordinates": [[-98.16666907826625, 69.2300689176094], [-98.16617294611696, 69.23006958161562]]}, "properties": {"source": "19300931", "target": "21425045"}}, {"type": "Feature", "geometry": {"type": "LineString", "coordinates": [[-98.16818933104463, 69.23210415349405], [-98.16267014227489, 69.23091907956334]]}, "properties": {"source": "22599493", "target": "23083764"}}, {"type": "Feature", "geometry": {"type": "LineString", "coordinates": [[-98.16818933104463, 69.23210415349405], [-98.16277390969091, 69.23213326642573]]}, "properties": {"source": "22599493", "target": "23596754"}}, {"type": "Feature", "geometry": {"type": "LineString", "coordinates": [[-98.16818933104463, 69.23210415349405], [-98.16390244622634, 69.23281144461757]]}, "properties": {"source": "22599493", "target": "23411912"}}, {"type": "Feature", "geometry": {"type": "LineString", "coordinates": [[-98.16818933104463, 69.23210415349405], [-98.16873168694562, 69.23122256670266]]}, "properties": {"source": "22599493", "target": "23366053"}}, {"type": "Feature", "geometry": {"type": "LineString", "coordinates": [[-98.17253450650743, 69.2310044758033], [-98.16354177957103, 69.2336453989735]]}, "properties": {"source": "18114126", "target": "18689940"}}, {"type": "Feature", "geometry": {"type": "LineString", "coordinates": [[-98.17253450650743, 69.2310044758033], [-98.17282791217092, 69.230930299898]]}, "properties": {"source": "18114126", "target": "20637776"}}, {"type": "Feature", "geometry": {"type": "LineString", "coordinates": [[-98.17253450650743, 69.2310044758033], [-98.16913180848795, 69.22988995822283]]}, "properties": {"source": "18114126", "target": "18165219"}}, {"type": "Feature", "geometry": {"type": "LineString", "coordinates": [[-98.17253450650743, 69.2310044758033], [-98.16397004487162, 69.23162132986576]]}, "properties": {"source": "18114126", "target": "17471493"}}, {"type": "Feature", "geometry": {"type": "LineString", "coordinates": [[-98.16604525198099, 69.23023597834481], [-98.17311692383338, 69.23257792038001]]}, "properties": {"source": "10578", "target": "19115149"}}, {"type": "Feature", "geometry": {"type": "LineString", "coordinates": [[-98.16604525198099, 69.23023597834481], [-98.17330187326152, 69.2319248031855]]}, "properties": {"source": "10578", "target": "1714493"}}, {"type": "Feature", "geometry": {"type": "LineString", "coordinates": [[-98.16216943044354, 69.23304378849289], [-98.16617294611696, 69.23006958161562]]}, "properties": {"source": "22544045", "target": "21425045"}}, {"type": "Feature", "geometry": {"type": "LineString", "coordinates": [[-98.16216943044354, 69.23304378849289], [-98.17330187326152, 69.2319248031855]]}, "properties": {"source": "22544045", "target": "1714493"}}, {"type": "Feature", "geometry": {"type": "LineString", "coordinates": [[-98.16216943044354, 69.23304378849289], [-98.16791191980163, 69.23002995294638]]}, "properties": {"source": "22544045", "target": "17707931"}}, {"type": "Feature", "geometry": {"type": "LineString", "coordinates": [[-98.16277390969091, 69.23213326642573], [-98.17097263469095, 69.2334083596941]]}, "properties": {"source": "23596754", "target": "18816475"}}, {"type": "Feature", "geometry": {"type": "LineString", "coordinates": [[-98.16390244622634, 69.23281144461757], [-98.16873168694562, 69.23122256670266]]}, "properties": {"source": "23411912", "target": "23366053"}}, {"type": "Feature", "geometry": {"type": "LineString", "coordinates": [[-98.16390244622634, 69.23281144461757], [-98.16624180745995, 69.23237174360295]]}, "properties": {"source": "23411912", "target": "22773114"}}, {"type": "Feature", "geometry": {"type": "LineString", "coordinates": [[-98.16390244622634, 69.23281144461757], [-98.17046813234998, 69.23029481007356]]}, "properties": {"source": "23411912", "target": "22077518"}}, {"type": "Feature", "geometry": {"type": "LineString", "coordinates": [[-98.16390244622634, 69.23281144461757], [-98.17038166409212, 69.23002752699415]]}, "properties": {"source": "23411912", "target": "23295447"}}, {"type": "Feature", "geometry": {"type": "LineString", "coordinates": [[-98.16390244622634, 69.23281144461757], [-98.16598345606019, 69.23006162792845]]}, "properties": {"source": "23411912", "target": "2396830"}}, {"type": "Feature", "geometry": {"type": "LineString", "coordinates": [[-98.16390244622634, 69.23281144461757], [-98.16570678051387, 69.23076484604601]]}, "properties": {"source": "23411912", "target": "22797738"}}, {"type": "Feature", "geometry": {"type": "LineString", "coordinates": [[-98.16390244622634, 69.23281144461757], [-98.1645632970411, 69.23023868867372]]}, "properties": {"source": "23411912", "target": "17801733"}}, {"type": "Feature", "geometry": {"type": "LineString", "coordinates": [[-98.16390244622634, 69.23281144461757], [-98.17097263469095, 69.2334083596941]]}, "properties": {"source": "23411912", "target": "18816475"}}, {"type": "Feature", "geometry": {"type": "LineString", "coordinates": [[-98.16873168694562, 69.23122256670266], [-98.16624180745995, 69.23237174360295]]}, "properties": {"source": "23366053", "target": "22773114"}}, {"type": "Feature", "geometry": {"type": "LineString", "coordinates": [[-98.16873168694562, 69.23122256670266], [-98.17038166409212, 69.23002752699415]]}, "properties": {"source": "23366053", "target": "23295447"}}, {"type": "Feature", "geometry": {"type": "LineString", "coordinates": [[-98.16873168694562, 69.23122256670266], [-98.16598345606019, 69.23006162792845]]}, "properties": {"source": "23366053", "target": "2396830"}}, {"type": "Feature", "geometry": {"type": "LineString", "coordinates": [[-98.16873168694562, 69.23122256670266], [-98.1645632970411, 69.23023868867372]]}, "properties": {"source": "23366053", "target": "17801733"}}, {"type": "Feature", "geometry": {"type": "LineString", "coordinates": [[-98.16617294611696, 69.23006958161562], [-98.17198192444516, 69.23069227041373]]}, "properties": {"source": "21425045", "target": "23214176"}}, {"type": "Feature", "geometry": {"type": "LineString", "coordinates": [[-98.16617294611696, 69.23006958161562], [-98.17013330032876, 69.231280036649]]}, "properties": {"source": "21425045", "target": "22571591"}}, {"type": "Feature", "geometry": {"type": "LineString", "coordinates": [[-98.17046813234998, 69.23029481007356], [-98.16873168694562, 69.23122256670266]]}, "properties": {"source": "22077518", "target": "23366053"}}, {"type": "Feature", "geometry": {"type": "LineString", "coordinates": [[-98.16267014227489, 69.23091907956334], [-98.1645632970411, 69.23023868867372]]}, "properties": {"source": "23083764", "target": "17801733"}}, {"type": "Feature", "geometry": {"type": "LineString", "coordinates": [[-98.16267014227489, 69.23091907956334], [-98.17097263469095, 69.2334083596941]]}, "properties": {"source": "23083764", "target": "18816475"}}, {"type": "Feature", "geometry": {"type": "LineString", "coordinates": [[-98.16267014227489, 69.23091907956334], [-98.16479175892955, 69.23332842972056]]}, "properties": {"source": "23083764", "target": "22351798"}}, {"type": "Feature", "geometry": {"type": "LineString", "coordinates": [[-98.16267014227489, 69.23091907956334], [-98.16373261469478, 69.23102305379206]]}, "properties": {"source": "23083764", "target": "23119338"}}, {"type": "Feature", "geometry": {"type": "LineString", "coordinates": [[-98.16277390969091, 69.23213326642573], [-98.16293207057498, 69.23083054972835]]}, "properties": {"source": "23596754", "target": "23256864"}}, {"type": "Feature", "geometry": {"type": "LineString", "coordinates": [[-98.16277390969091, 69.23213326642573], [-98.16390244622634, 69.23281144461757]]}, "properties": {"source": "23596754", "target": "23411912"}}, {"type": "Feature", "geometry": {"type": "LineString", "coordinates": [[-98.16277390969091, 69.23213326642573], [-98.16873168694562, 69.23122256670266]]}, "properties": {"source": "23596754", "target": "23366053"}}, {"type": "Feature", "geometry": {"type": "LineString", "coordinates": [[-98.16277390969091, 69.23213326642573], [-98.16624180745995, 69.23237174360295]]}, "properties": {"source": "23596754", "target": "22773114"}}, {"type": "Feature", "geometry": {"type": "LineString", "coordinates": [[-98.16277390969091, 69.23213326642573], [-98.17046813234998, 69.23029481007356]]}, "properties": {"source": "23596754", "target": "22077518"}}, {"type": "Feature", "geometry": {"type": "LineString", "coordinates": [[-98.16277390969091, 69.23213326642573], [-98.17038166409212, 69.23002752699415]]}, "properties": {"source": "23596754", "target": "23295447"}}, {"type": "Feature", "geometry": {"type": "LineString", "coordinates": [[-98.16277390969091, 69.23213326642573], [-98.16233111072329, 69.23113747983305]]}, "properties": {"source": "23596754", "target": "19226500"}}, {"type": "Feature", "geometry": {"type": "LineString", "coordinates": [[-98.16277390969091, 69.23213326642573], [-98.17093981193636, 69.232647470306]]}, "properties": {"source": "23596754", "target": "23119393"}}, {"type": "Feature", "geometry": {"type": "LineString", "coordinates": [[-98.16277390969091, 69.23213326642573], [-98.17153518126668, 69.23283394827754]]}, "properties": {"source": "23596754", "target": "19511063"}}, {"type": "Feature", "geometry": {"type": "LineString", "coordinates": [[-98.16277390969091, 69.23213326642573], [-98.16598345606019, 69.23006162792845]]}, "properties": {"source": "23596754", "target": "2396830"}}, {"type": "Feature", "geometry": {"type": "LineString", "coordinates": [[-98.16277390969091, 69.23213326642573], [-98.16570678051387, 69.23076484604601]]}, "properties": {"source": "23596754", "target": "22797738"}}, {"type": "Feature", "geometry": {"type": "LineString", "coordinates": [[-98.16277390969091, 69.23213326642573], [-98.1645632970411, 69.23023868867372]]}, "properties": {"source": "23596754", "target": "17801733"}}, {"type": "Feature", "geometry": {"type": "LineString", "coordinates": [[-98.17046813234998, 69.23029481007356], [-98.16624180745995, 69.23237174360295]]}, "properties": {"source": "22077518", "target": "22773114"}}, {"type": "Feature", "geometry": {"type": "LineString", "coordinates": [[-98.17046813234998, 69.23029481007356], [-98.17038166409212, 69.23002752699415]]}, "properties": {"source": "22077518", "target": "23295447"}}, {"type": "Feature", "geometry": {"type": "LineString", "coordinates": [[-98.17046813234998, 69.23029481007356], [-98.16598345606019, 69.23006162792845]]}, "properties": {"source": "22077518", "target": "2396830"}}, {"type": "Feature", "geometry": {"type": "LineString", "coordinates": [[-98.17046813234998, 69.23029481007356], [-98.1645632970411, 69.23023868867372]]}, "properties": {"source": "22077518", "target": "17801733"}}, {"type": "Feature", "geometry": {"type": "LineString", "coordinates": [[-98.17038166409212, 69.23002752699415], [-98.16624180745995, 69.23237174360295]]}, "properties": {"source": "23295447", "target": "22773114"}}, {"type": "Feature", "geometry": {"type": "LineString", "coordinates": [[-98.17311692383338, 69.23257792038001], [-98.16617294611696, 69.23006958161562]]}, "properties": {"source": "19115149", "target": "21425045"}}, {"type": "Feature", "geometry": {"type": "LineString", "coordinates": [[-98.17311692383338, 69.23257792038001], [-98.17330187326152, 69.2319248031855]]}, "properties": {"source": "19115149", "target": "1714493"}}, {"type": "Feature", "geometry": {"type": "LineString", "coordinates": [[-98.17311692383338, 69.23257792038001], [-98.16791191980163, 69.23002995294638]]}, "properties": {"source": "19115149", "target": "17707931"}}, {"type": "Feature", "geometry": {"type": "LineString", "coordinates": [[-98.17311692383338, 69.23257792038001], [-98.17167123066054, 69.23217080947728]]}, "properties": {"source": "19115149", "target": "16112781"}}, {"type": "Feature", "geometry": {"type": "LineString", "coordinates": [[-98.17311692383338, 69.23257792038001], [-98.1695436979486, 69.23296581975492]]}, "properties": {"source": "19115149", "target": "1042065"}}, {"type": "Feature", "geometry": {"type": "LineString", "coordinates": [[-98.17311692383338, 69.23257792038001], [-98.16666907826625, 69.2300689176094]]}, "properties": {"source": "19115149", "target": "19300931"}}, {"type": "Feature", "geometry": {"type": "LineString", "coordinates": [[-98.17311692383338, 69.23257792038001], [-98.16216943044354, 69.23304378849289]]}, "properties": {"source": "19115149", "target": "22544045"}}, {"type": "Feature", "geometry": {"type": "LineString", "coordinates": [[-98.17311692383338, 69.23257792038001], [-98.1630098266599, 69.22997540871836]]}, "properties": {"source": "19115149", "target": "20423012"}}, {"type": "Feature", "geometry": {"type": "LineString", "coordinates": [[-98.16233111072329, 69.23113747983305], [-98.16293207057498, 69.23083054972835]]}, "properties": {"source": "19226500", "target": "23256864"}}, {"type": "Feature", "geometry": {"type": "LineString", "coordinates": [[-98.16233111072329, 69.23113747983305], [-98.16390244622634, 69.23281144461757]]}, "properties": {"source": "19226500", "target": "23411912"}}, {"type": "Feature", "geometry": {"type": "LineString", "coordinates": [[-98.16233111072329, 69.23113747983305], [-98.16873168694562, 69.23122256670266]]}, "properties": {"source": "19226500", "target": "23366053"}}, {"type": "Feature", "geometry": {"type": "LineString", "coordinates": [[-98.1634303518063, 69.23014318138573], [-98.1695436979486, 69.23296581975492]]}, "properties": {"source": "1635057", "target": "1042065"}}, {"type": "Feature", "geometry": {"type": "LineString", "coordinates": [[-98.1634303518063, 69.23014318138573], [-98.16666907826625, 69.2300689176094]]}, "properties": {"source": "1635057", "target": "19300931"}}, {"type": "Feature", "geometry": {"type": "LineString", "coordinates": [[-98.1634303518063, 69.23014318138573], [-98.16604525198099, 69.23023597834481]]}, "properties": {"source": "1635057", "target": "10578"}}, {"type": "Feature", "geometry": {"type": "LineString", "coordinates": [[-98.1634303518063, 69.23014318138573], [-98.1630098266599, 69.22997540871836]]}, "properties": {"source": "1635057", "target": "20423012"}}, {"type": "Feature", "geometry": {"type": "LineString", "coordinates": [[-98.17214321499146, 69.23214727885713], [-98.16617294611696, 69.23006958161562]]}, "properties": {"source": "22928409", "target": "21425045"}}, {"type": "Feature", "geometry": {"type": "LineString", "coordinates": [[-98.17214321499146, 69.23214727885713], [-98.17198192444516, 69.23069227041373]]}, "properties": {"source": "22928409", "target": "23214176"}}, {"type": "Feature", "geometry": {"type": "LineString", "coordinates": [[-98.17214321499146, 69.23214727885713], [-98.16711896486987, 69.23164002966595]]}, "properties": {"source": "22928409", "target": "20702824"}}, {"type": "Feature", "geometry": {"type": "LineString", "coordinates": [[-98.17214321499146, 69.23214727885713], [-98.16658951644744, 69.23288502558307]]}, "properties": {"source": "22928409", "target": "21499049"}}, {"type": "Feature", "geometry": {"type": "LineString", "coordinates": [[-98.17214321499146, 69.23214727885713], [-98.17282791217092, 69.230930299898]]}, "properties": {"source": "22928409", "target": "20637776"}}, {"type": "Feature", "geometry": {"type": "LineString", "coordinates": [[-98.17214321499146, 69.23214727885713], [-98.16822697782692, 69.23275365414236]]}, "properties": {"source": "22928409", "target": "23249678"}}, {"type": "Feature", "geometry": {"type": "LineString", "coordinates": [[-98.17214321499146, 69.23214727885713], [-98.17013330032876, 69.231280036649]]}, "properties": {"source": "22928409", "target": "22571591"}}, {"type": "Feature", "geometry": {"type": "LineString", "coordinates": [[-98.17214321499146, 69.23214727885713], [-98.16267461190169, 69.23319819971064]]}, "properties": {"source": "22928409", "target": "23622201"}}, {"type": "Feature", "geometry": {"type": "LineString", "coordinates": [[-98.17214321499146, 69.23214727885713], [-98.1738042162176, 69.23185088358937]]}, "properties": {"source": "22928409", "target": "23331726"}}, {"type": "Feature", "geometry": {"type": "LineString", "coordinates": [[-98.17214321499146, 69.23214727885713], [-98.17200510052325, 69.23005640811863]]}, "properties": {"source": "22928409", "target": "25253071"}}, {"type": "Feature", "geometry": {"type": "LineString", "coordinates": [[-98.16692941428457, 69.23131488324637], [-98.16293207057498, 69.23083054972835]]}, "properties": {"source": "18195604", "target": "23256864"}}, {"type": "Feature", "geometry": {"type": "LineString", "coordinates": [[-98.16692941428457, 69.23131488324637], [-98.16277390969091, 69.23213326642573]]}, "properties": {"source": "18195604", "target": "23596754"}}, {"type": "Feature", "geometry": {"type": "LineString", "coordinates": [[-98.16233111072329, 69.23113747983305], [-98.16624180745995, 69.23237174360295]]}, "properties": {"source": "19226500", "target": "22773114"}}, {"type": "Feature", "geometry": {"type": "LineString", "coordinates": [[-98.16233111072329, 69.23113747983305], [-98.17046813234998, 69.23029481007356]]}, "properties": {"source": "19226500", "target": "22077518"}}, {"type": "Feature", "geometry": {"type": "LineString", "coordinates": [[-98.16233111072329, 69.23113747983305], [-98.17038166409212, 69.23002752699415]]}, "properties": {"source": "19226500", "target": "23295447"}}, {"type": "Feature", "geometry": {"type": "LineString", "coordinates": [[-98.16233111072329, 69.23113747983305], [-98.1645632970411, 69.23023868867372]]}, "properties": {"source": "19226500", "target": "17801733"}}, {"type": "Feature", "geometry": {"type": "LineString", "coordinates": [[-98.16233111072329, 69.23113747983305], [-98.17097263469095, 69.2334083596941]]}, "properties": {"source": "19226500", "target": "18816475"}}, {"type": "Feature", "geometry": {"type": "LineString", "coordinates": [[-98.17330187326152, 69.2319248031855], [-98.16617294611696, 69.23006958161562]]}, "properties": {"source": "1714493", "target": "21425045"}}, {"type": "Feature", "geometry": {"type": "LineString", "coordinates": [[-98.17330187326152, 69.2319248031855], [-98.17167123066054, 69.23217080947728]]}, "properties": {"source": "1714493", "target": "16112781"}}, {"type": "Feature", "geometry": {"type": "LineString", "coordinates": [[-98.17330187326152, 69.2319248031855], [-98.1695436979486, 69.23296581975492]]}, "properties": {"source": "1714493", "target": "1042065"}}, {"type": "Feature", "geometry": {"type": "LineString", "coordinates": [[-98.17330187326152, 69.2319248031855], [-98.16666907826625, 69.2300689176094]]}, "properties": {"source": "1714493", "target": "19300931"}}, {"type": "Feature", "geometry": {"type": "LineString", "coordinates": [[-98.17330187326152, 69.2319248031855], [-98.1630098266599, 69.22997540871836]]}, "properties": {"source": "1714493", "target": "20423012"}}, {"type": "Feature", "geometry": {"type": "LineString", "coordinates": [[-98.1634303518063, 69.23014318138573], [-98.16617294611696, 69.23006958161562]]}, "properties": {"source": "1635057", "target": "21425045"}}, {"type": "Feature", "geometry": {"type": "LineString", "coordinates": [[-98.1634303518063, 69.23014318138573], [-98.17311692383338, 69.23257792038001]]}, "properties": {"source": "1635057", "target": "19115149"}}, {"type": "Feature", "geometry": {"type": "LineString", "coordinates": [[-98.1634303518063, 69.23014318138573], [-98.17330187326152, 69.2319248031855]]}, "properties": {"source": "1635057", "target": "1714493"}}, {"type": "Feature", "geometry": {"type": "LineString", "coordinates": [[-98.1634303518063, 69.23014318138573], [-98.17323023214084, 69.23018849459646]]}, "properties": {"source": "1635057", "target": "16161476"}}, {"type": "Feature", "geometry": {"type": "LineString", "coordinates": [[-98.1634303518063, 69.23014318138573], [-98.16791191980163, 69.23002995294638]]}, "properties": {"source": "1635057", "target": "17707931"}}, {"type": "Feature", "geometry": {"type": "LineString", "coordinates": [[-98.1634303518063, 69.23014318138573], [-98.17167123066054, 69.23217080947728]]}, "properties": {"source": "1635057", "target": "16112781"}}, {"type": "Feature", "geometry": {"type": "LineString", "coordinates": [[-98.17153518126668, 69.23283394827754], [-98.17038166409212, 69.23002752699415]]}, "properties": {"source": "19511063", "target": "23295447"}}, {"type": "Feature", "geometry": {"type": "LineString", "coordinates": [[-98.17153518126668, 69.23283394827754], [-98.16656955586927, 69.23067569787997]]}, "properties": {"source": "19511063", "target": "17153452"}}, {"type": "Feature", "geometry": {"type": "LineString", "coordinates": [[-98.16598345606019, 69.23006162792845], [-98.16624180745995, 69.23237174360295]]}, "properties": {"source": "2396830", "target": "22773114"}}, {"type": "Feature", "geometry": {"type": "LineString", "coordinates": [[-98.16598345606019, 69.23006162792845], [-98.17038166409212, 69.23002752699415]]}, "properties": {"source": "2396830", "target": "23295447"}}, {"type": "Feature", "geometry": {"type": "LineString", "coordinates": [[-98.16570678051387, 69.23076484604601], [-98.16873168694562, 69.23122256670266]]}, "properties": {"source": "22797738", "target": "23366053"}}, {"type": "Feature", "geometry": {"type": "LineString", "coordinates": [[-98.16570678051387, 69.23076484604601], [-98.17038166409212, 69.23002752699415]]}, "properties": {"source": "22797738", "target": "23295447"}}, {"type": "Feature", "geometry": {"type": "LineString", "coordinates": [[-98.16570678051387, 69.23076484604601], [-98.16598345606019, 69.23006162792845]]}, "properties": {"source": "22797738", "target": "2396830"}}, {"type": "Feature", "geometry": {"type": "LineString", "coordinates": [[-98.1645632970411, 69.23023868867372], [-98.16624180745995, 69.23237174360295]]}, "properties": {"source": "17801733", "target": "22773114"}}, {"type": "Feature", "geometry": {"type": "LineString", "coordinates": [[-98.16711896486987, 69.23164002966595], [-98.16617294611696, 69.23006958161562]]}, "properties": {"source": "20702824", "target": "21425045"}}, {"type": "Feature", "geometry": {"type": "LineString", "coordinates": [[-98.16711896486987, 69.23164002966595], [-98.16658951644744, 69.23288502558307]]}, "properties": {"source": "20702824", "target": "21499049"}}, {"type": "Feature", "geometry": {"type": "LineString", "coordinates": [[-98.16711896486987, 69.23164002966595], [-98.16354177957103, 69.2336453989735]]}, "properties": {"source": "20702824", "target": "18689940"}}, {"type": "Feature", "geometry": {"type": "LineString", "coordinates": [[-98.16711896486987, 69.23164002966595], [-98.17282791217092, 69.230930299898]]}, "properties": {"source": "20702824", "target": "20637776"}}, {"type": "Feature", "geometry": {"type": "LineString", "coordinates": [[-98.16711896486987, 69.23164002966595], [-98.17013330032876, 69.231280036649]]}, "properties": {"source": "20702824", "target": "22571591"}}, {"type": "Feature", "geometry": {"type": "LineString", "coordinates": [[-98.16711896486987, 69.23164002966595], [-98.16913180848795, 69.22988995822283]]}, "properties": {"source": "20702824", "target": "18165219"}}, {"type": "Feature", "geometry": {"type": "LineString", "coordinates": [[-98.16711896486987, 69.23164002966595], [-98.17253450650743, 69.2310044758033]]}, "properties": {"source": "20702824", "target": "18114126"}}, {"type": "Feature", "geometry": {"type": "LineString", "coordinates": [[-98.16658951644744, 69.23288502558307], [-98.16617294611696, 69.23006958161562]]}, "properties": {"source": "21499049", "target": "21425045"}}, {"type": "Feature", "geometry": {"type": "LineString", "coordinates": [[-98.16658951644744, 69.23288502558307], [-98.17198192444516, 69.23069227041373]]}, "properties": {"source": "21499049", "target": "23214176"}}, {"type": "Feature", "geometry": {"type": "LineString", "coordinates": [[-98.16658951644744, 69.23288502558307], [-98.16354177957103, 69.2336453989735]]}, "properties": {"source": "21499049", "target": "18689940"}}, {"type": "Feature", "geometry": {"type": "LineString", "coordinates": [[-98.16658951644744, 69.23288502558307], [-98.17282791217092, 69.230930299898]]}, "properties": {"source": "21499049", "target": "20637776"}}, {"type": "Feature", "geometry": {"type": "LineString", "coordinates": [[-98.16658951644744, 69.23288502558307], [-98.16822697782692, 69.23275365414236]]}, "properties": {"source": "21499049", "target": "23249678"}}, {"type": "Feature", "geometry": {"type": "LineString", "coordinates": [[-98.16658951644744, 69.23288502558307], [-98.17013330032876, 69.231280036649]]}, "properties": {"source": "21499049", "target": "22571591"}}, {"type": "Feature", "geometry": {"type": "LineString", "coordinates": [[-98.16354177957103, 69.2336453989735], [-98.16617294611696, 69.23006958161562]]}, "properties": {"source": "18689940", "target": "21425045"}}, {"type": "Feature", "geometry": {"type": "LineString", "coordinates": [[-98.16354177957103, 69.2336453989735], [-98.17282791217092, 69.230930299898]]}, "properties": {"source": "18689940", "target": "20637776"}}, {"type": "Feature", "geometry": {"type": "LineString", "coordinates": [[-98.16354177957103, 69.2336453989735], [-98.16397004487162, 69.23162132986576]]}, "properties": {"source": "18689940", "target": "17471493"}}, {"type": "Feature", "geometry": {"type": "LineString", "coordinates": [[-98.17323023214084, 69.23018849459646], [-98.16617294611696, 69.23006958161562]]}, "properties": {"source": "16161476", "target": "21425045"}}, {"type": "Feature", "geometry": {"type": "LineString", "coordinates": [[-98.17323023214084, 69.23018849459646], [-98.17311692383338, 69.23257792038001]]}, "properties": {"source": "16161476", "target": "19115149"}}, {"type": "Feature", "geometry": {"type": "LineString", "coordinates": [[-98.17323023214084, 69.23018849459646], [-98.17330187326152, 69.2319248031855]]}, "properties": {"source": "16161476", "target": "1714493"}}, {"type": "Feature", "geometry": {"type": "LineString", "coordinates": [[-98.17323023214084, 69.23018849459646], [-98.17167123066054, 69.23217080947728]]}, "properties": {"source": "16161476", "target": "16112781"}}, {"type": "Feature", "geometry": {"type": "LineString", "coordinates": [[-98.17323023214084, 69.23018849459646], [-98.1695436979486, 69.23296581975492]]}, "properties": {"source": "16161476", "target": "1042065"}}, {"type": "Feature", "geometry": {"type": "LineString", "coordinates": [[-98.17323023214084, 69.23018849459646], [-98.16252525077043, 69.23360495359915]]}, "properties": {"source": "16161476", "target": "13277929"}}, {"type": "Feature", "geometry": {"type": "LineString", "coordinates": [[-98.17323023214084, 69.23018849459646], [-98.16998740121446, 69.2300511013897]]}, "properties": {"source": "16161476", "target": "13278160"}}, {"type": "Feature", "geometry": {"type": "LineString", "coordinates": [[-98.16791191980163, 69.23002995294638], [-98.16617294611696, 69.23006958161562]]}, "properties": {"source": "17707931", "target": "21425045"}}, {"type": "Feature", "geometry": {"type": "LineString", "coordinates": [[-98.16778117840772, 69.23131904409496], [-98.16293207057498, 69.23083054972835]]}, "properties": {"source": "23345280", "target": "23256864"}}, {"type": "Feature", "geometry": {"type": "LineString", "coordinates": [[-98.16778117840772, 69.23131904409496], [-98.16267014227489, 69.23091907956334]]}, "properties": {"source": "23345280", "target": "23083764"}}, {"type": "Feature", "geometry": {"type": "LineString", "coordinates": [[-98.16778117840772, 69.23131904409496], [-98.16277390969091, 69.23213326642573]]}, "properties": {"source": "23345280", "target": "23596754"}}, {"type": "Feature", "geometry": {"type": "LineString", "coordinates": [[-98.16778117840772, 69.23131904409496], [-98.16390244622634, 69.23281144461757]]}, "properties": {"source": "23345280", "target": "23411912"}}, {"type": "Feature", "geometry": {"type": "LineString", "coordinates": [[-98.16778117840772, 69.23131904409496], [-98.16873168694562, 69.23122256670266]]}, "properties": {"source": "23345280", "target": "23366053"}}, {"type": "Feature", "geometry": {"type": "LineString", "coordinates": [[-98.16778117840772, 69.23131904409496], [-98.16624180745995, 69.23237174360295]]}, "properties": {"source": "23345280", "target": "22773114"}}, {"type": "Feature", "geometry": {"type": "LineString", "coordinates": [[-98.16778117840772, 69.23131904409496], [-98.17046813234998, 69.23029481007356]]}, "properties": {"source": "23345280", "target": "22077518"}}, {"type": "Feature", "geometry": {"type": "LineString", "coordinates": [[-98.16778117840772, 69.23131904409496], [-98.17038166409212, 69.23002752699415]]}, "properties": {"source": "23345280", "target": "23295447"}}, {"type": "Feature", "geometry": {"type": "LineString", "coordinates": [[-98.16778117840772, 69.23131904409496], [-98.16233111072329, 69.23113747983305]]}, "properties": {"source": "23345280", "target": "19226500"}}, {"type": "Feature", "geometry": {"type": "LineString", "coordinates": [[-98.16778117840772, 69.23131904409496], [-98.16692941428457, 69.23131488324637]]}, "properties": {"source": "23345280", "target": "18195604"}}, {"type": "Feature", "geometry": {"type": "LineString", "coordinates": [[-98.16778117840772, 69.23131904409496], [-98.17093981193636, 69.232647470306]]}, "properties": {"source": "23345280", "target": "23119393"}}, {"type": "Feature", "geometry": {"type": "LineString", "coordinates": [[-98.16778117840772, 69.23131904409496], [-98.17153518126668, 69.23283394827754]]}, "properties": {"source": "23345280", "target": "19511063"}}, {"type": "Feature", "geometry": {"type": "LineString", "coordinates": [[-98.16778117840772, 69.23131904409496], [-98.16598345606019, 69.23006162792845]]}, "properties": {"source": "23345280", "target": "2396830"}}, {"type": "Feature", "geometry": {"type": "LineString", "coordinates": [[-98.16778117840772, 69.23131904409496], [-98.16570678051387, 69.23076484604601]]}, "properties": {"source": "23345280", "target": "22797738"}}, {"type": "Feature", "geometry": {"type": "LineString", "coordinates": [[-98.16778117840772, 69.23131904409496], [-98.1645632970411, 69.23023868867372]]}, "properties": {"source": "23345280", "target": "17801733"}}, {"type": "Feature", "geometry": {"type": "LineString", "coordinates": [[-98.16778117840772, 69.23131904409496], [-98.17097263469095, 69.2334083596941]]}, "properties": {"source": "23345280", "target": "18816475"}}, {"type": "Feature", "geometry": {"type": "LineString", "coordinates": [[-98.16778117840772, 69.23131904409496], [-98.16479175892955, 69.23332842972056]]}, "properties": {"source": "23345280", "target": "22351798"}}, {"type": "Feature", "geometry": {"type": "LineString", "coordinates": [[-98.16778117840772, 69.23131904409496], [-98.16373261469478, 69.23102305379206]]}, "properties": {"source": "23345280", "target": "23119338"}}, {"type": "Feature", "geometry": {"type": "LineString", "coordinates": [[-98.16778117840772, 69.23131904409496], [-98.16818933104463, 69.23210415349405]]}, "properties": {"source": "23345280", "target": "22599493"}}, {"type": "Feature", "geometry": {"type": "LineString", "coordinates": [[-98.16267014227489, 69.23091907956334], [-98.16293207057498, 69.23083054972835]]}, "properties": {"source": "23083764", "target": "23256864"}}, {"type": "Feature", "geometry": {"type": "LineString", "coordinates": [[-98.16267014227489, 69.23091907956334], [-98.16277390969091, 69.23213326642573]]}, "properties": {"source": "23083764", "target": "23596754"}}, {"type": "Feature", "geometry": {"type": "LineString", "coordinates": [[-98.16267014227489, 69.23091907956334], [-98.16390244622634, 69.23281144461757]]}, "properties": {"source": "23083764", "target": "23411912"}}, {"type": "Feature", "geometry": {"type": "LineString", "coordinates": [[-98.16267014227489, 69.23091907956334], [-98.16873168694562, 69.23122256670266]]}, "properties": {"source": "23083764", "target": "23366053"}}, {"type": "Feature", "geometry": {"type": "LineString", "coordinates": [[-98.16267014227489, 69.23091907956334], [-98.16624180745995, 69.23237174360295]]}, "properties": {"source": "23083764", "target": "22773114"}}, {"type": "Feature", "geometry": {"type": "LineString", "coordinates": [[-98.16267014227489, 69.23091907956334], [-98.17046813234998, 69.23029481007356]]}, "properties": {"source": "23083764", "target": "22077518"}}, {"type": "Feature", "geometry": {"type": "LineString", "coordinates": [[-98.16267014227489, 69.23091907956334], [-98.17038166409212, 69.23002752699415]]}, "properties": {"source": "23083764", "target": "23295447"}}, {"type": "Feature", "geometry": {"type": "LineString", "coordinates": [[-98.16267014227489, 69.23091907956334], [-98.16233111072329, 69.23113747983305]]}, "properties": {"source": "23083764", "target": "19226500"}}, {"type": "Feature", "geometry": {"type": "LineString", "coordinates": [[-98.16267014227489, 69.23091907956334], [-98.16692941428457, 69.23131488324637]]}, "properties": {"source": "23083764", "target": "18195604"}}, {"type": "Feature", "geometry": {"type": "LineString", "coordinates": [[-98.16267014227489, 69.23091907956334], [-98.17093981193636, 69.232647470306]]}, "properties": {"source": "23083764", "target": "23119393"}}, {"type": "Feature", "geometry": {"type": "LineString", "coordinates": [[-98.16267014227489, 69.23091907956334], [-98.17153518126668, 69.23283394827754]]}, "properties": {"source": "23083764", "target": "19511063"}}, {"type": "Feature", "geometry": {"type": "LineString", "coordinates": [[-98.16267014227489, 69.23091907956334], [-98.16598345606019, 69.23006162792845]]}, "properties": {"source": "23083764", "target": "2396830"}}, {"type": "Feature", "geometry": {"type": "LineString", "coordinates": [[-98.16267014227489, 69.23091907956334], [-98.16570678051387, 69.23076484604601]]}, "properties": {"source": "23083764", "target": "22797738"}}, {"type": "Feature", "geometry": {"type": "LineString", "coordinates": [[-98.16791191980163, 69.23002995294638], [-98.17330187326152, 69.2319248031855]]}, "properties": {"source": "17707931", "target": "1714493"}}, {"type": "Feature", "geometry": {"type": "LineString", "coordinates": [[-98.16791191980163, 69.23002995294638], [-98.17167123066054, 69.23217080947728]]}, "properties": {"source": "17707931", "target": "16112781"}}, {"type": "Feature", "geometry": {"type": "LineString", "coordinates": [[-98.17282791217092, 69.230930299898], [-98.16617294611696, 69.23006958161562]]}, "properties": {"source": "20637776", "target": "21425045"}}, {"type": "Feature", "geometry": {"type": "LineString", "coordinates": [[-98.17282791217092, 69.230930299898], [-98.17013330032876, 69.231280036649]]}, "properties": {"source": "20637776", "target": "22571591"}}, {"type": "Feature", "geometry": {"type": "LineString", "coordinates": [[-98.17167123066054, 69.23217080947728], [-98.1695436979486, 69.23296581975492]]}, "properties": {"source": "16112781", "target": "1042065"}}, {"type": "Feature", "geometry": {"type": "LineString", "coordinates": [[-98.17167123066054, 69.23217080947728], [-98.16666907826625, 69.2300689176094]]}, "properties": {"source": "16112781", "target": "19300931"}}, {"type": "Feature", "geometry": {"type": "LineString", "coordinates": [[-98.17167123066054, 69.23217080947728], [-98.1630098266599, 69.22997540871836]]}, "properties": {"source": "16112781", "target": "20423012"}}, {"type": "Feature", "geometry": {"type": "LineString", "coordinates": [[-98.1695436979486, 69.23296581975492], [-98.16617294611696, 69.23006958161562]]}, "properties": {"source": "1042065", "target": "21425045"}}, {"type": "Feature", "geometry": {"type": "LineString", "coordinates": [[-98.16822697782692, 69.23275365414236], [-98.17198192444516, 69.23069227041373]]}, "properties": {"source": "23249678", "target": "23214176"}}, {"type": "Feature", "geometry": {"type": "LineString", "coordinates": [[-98.16822697782692, 69.23275365414236], [-98.17013330032876, 69.231280036649]]}, "properties": {"source": "23249678", "target": "22571591"}}, {"type": "Feature", "geometry": {"type": "LineString", "coordinates": [[-98.17013330032876, 69.231280036649], [-98.17198192444516, 69.23069227041373]]}, "properties": {"source": "22571591", "target": "23214176"}}, {"type": "Feature", "geometry": {"type": "LineString", "coordinates": [[-98.16913180848795, 69.22988995822283], [-98.16617294611696, 69.23006958161562]]}, "properties": {"source": "18165219", "target": "21425045"}}, {"type": "Feature", "geometry": {"type": "LineString", "coordinates": [[-98.16913180848795, 69.22988995822283], [-98.16354177957103, 69.2336453989735]]}, "properties": {"source": "18165219", "target": "18689940"}}, {"type": "Feature", "geometry": {"type": "LineString", "coordinates": [[-98.16913180848795, 69.22988995822283], [-98.17282791217092, 69.230930299898]]}, "properties": {"source": "18165219", "target": "20637776"}}, {"type": "Feature", "geometry": {"type": "LineString", "coordinates": [[-98.16913180848795, 69.22988995822283], [-98.16397004487162, 69.23162132986576]]}, "properties": {"source": "18165219", "target": "17471493"}}, {"type": "Feature", "geometry": {"type": "LineString", "coordinates": [[-98.17097263469095, 69.2334083596941], [-98.16873168694562, 69.23122256670266]]}, "properties": {"source": "18816475", "target": "23366053"}}, {"type": "Feature", "geometry": {"type": "LineString", "coordinates": [[-98.16293207057498, 69.23083054972835], [-98.16390244622634, 69.23281144461757]]}, "properties": {"source": "23256864", "target": "23411912"}}, {"type": "Feature", "geometry": {"type": "LineString", "coordinates": [[-98.16293207057498, 69.23083054972835], [-98.16873168694562, 69.23122256670266]]}, "properties": {"source": "23256864", "target": "23366053"}}, {"type": "Feature", "geometry": {"type": "LineString", "coordinates": [[-98.16293207057498, 69.23083054972835], [-98.16617294611696, 69.23006958161562]]}, "properties": {"source": "23256864", "target": "21425045"}}, {"type": "Feature", "geometry": {"type": "LineString", "coordinates": [[-98.16293207057498, 69.23083054972835], [-98.16624180745995, 69.23237174360295]]}, "properties": {"source": "23256864", "target": "22773114"}}, {"type": "Feature", "geometry": {"type": "LineString", "coordinates": [[-98.16293207057498, 69.23083054972835], [-98.17046813234998, 69.23029481007356]]}, "properties": {"source": "23256864", "target": "22077518"}}, {"type": "Feature", "geometry": {"type": "LineString", "coordinates": [[-98.16293207057498, 69.23083054972835], [-98.17038166409212, 69.23002752699415]]}, "properties": {"source": "23256864", "target": "23295447"}}, {"type": "Feature", "geometry": {"type": "LineString", "coordinates": [[-98.16293207057498, 69.23083054972835], [-98.17311692383338, 69.23257792038001]]}, "properties": {"source": "23256864", "target": "19115149"}}, {"type": "Feature", "geometry": {"type": "LineString", "coordinates": [[-98.16293207057498, 69.23083054972835], [-98.17153518126668, 69.23283394827754]]}, "properties": {"source": "23256864", "target": "19511063"}}, {"type": "Feature", "geometry": {"type": "LineString", "coordinates": [[-98.16293207057498, 69.23083054972835], [-98.16598345606019, 69.23006162792845]]}, "properties": {"source": "23256864", "target": "2396830"}}, {"type": "Feature", "geometry": {"type": "LineString", "coordinates": [[-98.16293207057498, 69.23083054972835], [-98.16570678051387, 69.23076484604601]]}, "properties": {"source": "23256864", "target": "22797738"}}, {"type": "Feature", "geometry": {"type": "LineString", "coordinates": [[-98.16293207057498, 69.23083054972835], [-98.1645632970411, 69.23023868867372]]}, "properties": {"source": "23256864", "target": "17801733"}}, {"type": "Feature", "geometry": {"type": "LineString", "coordinates": [[-98.16293207057498, 69.23083054972835], [-98.16791191980163, 69.23002995294638]]}, "properties": {"source": "23256864", "target": "17707931"}}, {"type": "Feature", "geometry": {"type": "LineString", "coordinates": [[-98.16293207057498, 69.23083054972835], [-98.1695436979486, 69.23296581975492]]}, "properties": {"source": "23256864", "target": "1042065"}}, {"type": "Feature", "geometry": {"type": "LineString", "coordinates": [[-98.16293207057498, 69.23083054972835], [-98.16666907826625, 69.2300689176094]]}, "properties": {"source": "23256864", "target": "19300931"}}, {"type": "Feature", "geometry": {"type": "LineString", "coordinates": [[-98.16293207057498, 69.23083054972835], [-98.16604525198099, 69.23023597834481]]}, "properties": {"source": "23256864", "target": "10578"}}, {"type": "Feature", "geometry": {"type": "LineString", "coordinates": [[-98.16293207057498, 69.23083054972835], [-98.16216943044354, 69.23304378849289]]}, "properties": {"source": "23256864", "target": "22544045"}}, {"type": "Feature", "geometry": {"type": "LineString", "coordinates": [[-98.17097263469095, 69.2334083596941], [-98.17046813234998, 69.23029481007356]]}, "properties": {"source": "18816475", "target": "22077518"}}, {"type": "Feature", "geometry": {"type": "LineString", "coordinates": [[-98.16267461190169, 69.23319819971064], [-98.17198192444516, 69.23069227041373]]}, "properties": {"source": "23622201", "target": "23214176"}}, {"type": "Feature", "geometry": {"type": "LineString", "coordinates": [[-98.16267461190169, 69.23319819971064], [-98.16822697782692, 69.23275365414236]]}, "properties": {"source": "23622201", "target": "23249678"}}, {"type": "Feature", "geometry": {"type": "LineString", "coordinates": [[-98.16267461190169, 69.23319819971064], [-98.1738042162176, 69.23185088358937]]}, "properties": {"source": "23622201", "target": "23331726"}}, {"type": "Feature", "geometry": {"type": "LineString", "coordinates": [[-98.16719053064382, 69.22973470879552], [-98.16293207057498, 69.23083054972835]]}, "properties": {"source": "2189525", "target": "23256864"}}, {"type": "Feature", "geometry": {"type": "LineString", "coordinates": [[-98.16719053064382, 69.22973470879552], [-98.16617294611696, 69.23006958161562]]}, "properties": {"source": "2189525", "target": "21425045"}}, {"type": "Feature", "geometry": {"type": "LineString", "coordinates": [[-98.16719053064382, 69.22973470879552], [-98.17311692383338, 69.23257792038001]]}, "properties": {"source": "2189525", "target": "19115149"}}, {"type": "Feature", "geometry": {"type": "LineString", "coordinates": [[-98.16719053064382, 69.22973470879552], [-98.17330187326152, 69.2319248031855]]}, "properties": {"source": "2189525", "target": "1714493"}}, {"type": "Feature", "geometry": {"type": "LineString", "coordinates": [[-98.16719053064382, 69.22973470879552], [-98.1634303518063, 69.23014318138573]]}, "properties": {"source": "2189525", "target": "1635057"}}, {"type": "Feature", "geometry": {"type": "LineString", "coordinates": [[-98.16719053064382, 69.22973470879552], [-98.16791191980163, 69.23002995294638]]}, "properties": {"source": "2189525", "target": "17707931"}}, {"type": "Feature", "geometry": {"type": "LineString", "coordinates": [[-98.16479175892955, 69.23332842972056], [-98.16277390969091, 69.23213326642573]]}, "properties": {"source": "22351798", "target": "23596754"}}, {"type": "Feature", "geometry": {"type": "LineString", "coordinates": [[-98.16479175892955, 69.23332842972056], [-98.16390244622634, 69.23281144461757]]}, "properties": {"source": "22351798", "target": "23411912"}}, {"type": "Feature", "geometry": {"type": "LineString", "coordinates": [[-98.16479175892955, 69.23332842972056], [-98.16873168694562, 69.23122256670266]]}, "properties": {"source": "22351798", "target": "23366053"}}, {"type": "Feature", "geometry": {"type": "LineString", "coordinates": [[-98.16479175892955, 69.23332842972056], [-98.16624180745995, 69.23237174360295]]}, "properties": {"source": "22351798", "target": "22773114"}}, {"type": "Feature", "geometry": {"type": "LineString", "coordinates": [[-98.16373261469478, 69.23102305379206], [-98.16277390969091, 69.23213326642573]]}, "properties": {"source": "23119338", "target": "23596754"}}, {"type": "Feature", "geometry": {"type": "LineString", "coordinates": [[-98.16373261469478, 69.23102305379206], [-98.16390244622634, 69.23281144461757]]}, "properties": {"source": "23119338", "target": "23411912"}}, {"type": "Feature", "geometry": {"type": "LineString", "coordinates": [[-98.16692941428457, 69.23131488324637], [-98.16390244622634, 69.23281144461757]]}, "properties": {"source": "18195604", "target": "23411912"}}, {"type": "Feature", "geometry": {"type": "LineString", "coordinates": [[-98.16692941428457, 69.23131488324637], [-98.16873168694562, 69.23122256670266]]}, "properties": {"source": "18195604", "target": "23366053"}}, {"type": "Feature", "geometry": {"type": "LineString", "coordinates": [[-98.16692941428457, 69.23131488324637], [-98.16624180745995, 69.23237174360295]]}, "properties": {"source": "18195604", "target": "22773114"}}, {"type": "Feature", "geometry": {"type": "LineString", "coordinates": [[-98.16692941428457, 69.23131488324637], [-98.17046813234998, 69.23029481007356]]}, "properties": {"source": "18195604", "target": "22077518"}}, {"type": "Feature", "geometry": {"type": "LineString", "coordinates": [[-98.16692941428457, 69.23131488324637], [-98.17038166409212, 69.23002752699415]]}, "properties": {"source": "18195604", "target": "23295447"}}, {"type": "Feature", "geometry": {"type": "LineString", "coordinates": [[-98.16692941428457, 69.23131488324637], [-98.16233111072329, 69.23113747983305]]}, "properties": {"source": "18195604", "target": "19226500"}}, {"type": "Feature", "geometry": {"type": "LineString", "coordinates": [[-98.17093981193636, 69.232647470306], [-98.16293207057498, 69.23083054972835]]}, "properties": {"source": "23119393", "target": "23256864"}}, {"type": "Feature", "geometry": {"type": "LineString", "coordinates": [[-98.17093981193636, 69.232647470306], [-98.16390244622634, 69.23281144461757]]}, "properties": {"source": "23119393", "target": "23411912"}}, {"type": "Feature", "geometry": {"type": "LineString", "coordinates": [[-98.17093981193636, 69.232647470306], [-98.16873168694562, 69.23122256670266]]}, "properties": {"source": "23119393", "target": "23366053"}}, {"type": "Feature", "geometry": {"type": "LineString", "coordinates": [[-98.17093981193636, 69.232647470306], [-98.16624180745995, 69.23237174360295]]}, "properties": {"source": "23119393", "target": "22773114"}}, {"type": "Feature", "geometry": {"type": "LineString", "coordinates": [[-98.17093981193636, 69.232647470306], [-98.17038166409212, 69.23002752699415]]}, "properties": {"source": "23119393", "target": "23295447"}}, {"type": "Feature", "geometry": {"type": "LineString", "coordinates": [[-98.17093981193636, 69.232647470306], [-98.16570678051387, 69.23076484604601]]}, "properties": {"source": "23119393", "target": "22797738"}}, {"type": "Feature", "geometry": {"type": "LineString", "coordinates": [[-98.17153518126668, 69.23283394827754], [-98.16390244622634, 69.23281144461757]]}, "properties": {"source": "19511063", "target": "23411912"}}, {"type": "Feature", "geometry": {"type": "LineString", "coordinates": [[-98.17153518126668, 69.23283394827754], [-98.16873168694562, 69.23122256670266]]}, "properties": {"source": "19511063", "target": "23366053"}}, {"type": "Feature", "geometry": {"type": "LineString", "coordinates": [[-98.17153518126668, 69.23283394827754], [-98.16624180745995, 69.23237174360295]]}, "properties": {"source": "19511063", "target": "22773114"}}, {"type": "Feature", "geometry": {"type": "LineString", "coordinates": [[-98.17153518126668, 69.23283394827754], [-98.17046813234998, 69.23029481007356]]}, "properties": {"source": "19511063", "target": "22077518"}}]}