{"type": "FeatureCollection", "features": [{"type": "Feature", "geometry": {"type": "LineString", "coordinates": [[115.4024022335015, 69.2305792226957], [115.40246818618061, 69.23001312726558]]}, "properties": {"source": "1464813", "target": "1251183"}}, {"type": "Feature", "geometry": {"type": "LineString", "coordinates": [[115.4024022335015, 69.2305792226957], [115.40600142383101, 69.23123522738581]]}, "properties": {"source": "1464813", "target": "1464838"}}, {"type": "Feature", "geometry": {"type": "LineString", "coordinates": [[115.40559215525599, 69.23110857895392], [115.40246818618061, 69.23001312726558]]}, "properties": {"source": "1464812", "target": "1251183"}}, {"type": "Feature", "geometry": {"type": "LineString", "coordinates": [[115.40559215525599, 69.23110857895392], [115.40600142383101, 69.23123522738581]]}, "properties": {"source": "1464812", "target": "1464838"}}, {"type": "Feature", "geometry": {"type": "LineString", "coordinates": [[115.40421354090932, 69.2310495082765], [115.40600142383101, 69.23123522738581]]}, "properties": {"source": "1464831", "target": "1464838"}}, {"type": "Feature", "geometry": {"type": "LineString", "coordinates": [[115.40246818618061, 69.23001312726558], [115.40421354090932, 69.2310495082765]]}, "properties": {"source": "1251183", "target": "1464831"}}, {"type": "Feature", "geometry": {"type": "LineString", "coordinates": [[115.40246818618061, 69.23001312726558], [115.40600142383101, 69.23123522738581]]}, "properties": {"source": "1251183", "target": "1464838"}}, {"type": "Feature", "geometry": {"type": "LineString", "coordinates": [[115.402838267167, 69.2302067547366], [115.40525027296906, 69.23053854324633]]}, "properties": {"source": "23695534", "target": "13191551"}}, {"type": "Feature", "geometry": {"type": "LineString", "coordinates": [[115.402838267167, 69.2302067547366], [115.40480088243777, 69.22986208515493]]}, "properties": {"source": "23695534", "target": "24984458"}}, {"type": "Feature", "geometry": {"type": "LineString", "coordinates": [[115.40462868023167, 69.23097716409012], [115.402838267167, 69.2302067547366]]}, "properties": {"source": "12743826", "target": "23695534"}}, {"type": "Feature", "geometry": {"type": "LineString", "coordinates": [[115.40462868023167, 69.23097716409012], [115.40547013485963, 69.2306721899646]]}, "properties": {"source": "12743826", "target": "1651256"}}, {"type": "Feature", "geometry": {"type": "LineString", "coordinates": [[115.40462319188299, 69.2299901100763], [115.40145797956234, 69.23003797136786]]}, "properties": {"source": "15861915", "target": "15765819"}}, {"type": "Feature", "geometry": {"type": "LineString", "coordinates": [[115.40385816503903, 69.23095479050258], [115.40145797956234, 69.23003797136786]]}, "properties": {"source": "13178886", "target": "15765819"}}, {"type": "Feature", "geometry": {"type": "LineString", "coordinates": [[115.40385816503903, 69.23095479050258], [115.40525027296906, 69.23053854324633]]}, "properties": {"source": "13178886", "target": "13191551"}}, {"type": "Feature", "geometry": {"type": "LineString", "coordinates": [[115.40447638449973, 69.23051662627495], [115.40525027296906, 69.23053854324633]]}, "properties": {"source": "16448532", "target": "13191551"}}, {"type": "Feature", "geometry": {"type": "LineString", "coordinates": [[115.40447638449973, 69.23051662627495], [115.40228734964501, 69.23030413671543]]}, "properties": {"source": "16448532", "target": "18307661"}}, {"type": "Feature", "geometry": {"type": "LineString", "coordinates": [[115.402838267167, 69.2302067547366], [115.40416700433065, 69.23047892547703]]}, "properties": {"source": "23695534", "target": "2205158"}}, {"type": "Feature", "geometry": {"type": "LineString", "coordinates": [[115.40462868023167, 69.23097716409012], [115.40416700433065, 69.23047892547703]]}, "properties": {"source": "12743826", "target": "2205158"}}, {"type": "Feature", "geometry": {"type": "LineString", "coordinates": [[115.40201915534504, 69.23062551259272], [115.4017146231082, 69.22971787058532]]}, "properties": {"source": "181254", "target": "1464814"}}, {"type": "Feature", "geometry": {"type": "LineString", "coordinates": [[115.40201915534504, 69.23062551259272], [115.40421354090932, 69.2310495082765]]}, "properties": {"source": "181254", "target": "1464831"}}, {"type": "Feature", "geometry": {"type": "LineString", "coordinates": [[115.40201915534504, 69.23062551259272], [115.40246818618061, 69.23001312726558]]}, "properties": {"source": "181254", "target": "1251183"}}, {"type": "Feature", "geometry": {"type": "LineString", "coordinates": [[115.40201915534504, 69.23062551259272], [115.40600142383101, 69.23123522738581]]}, "properties": {"source": "181254", "target": "1464838"}}, {"type": "Feature", "geometry": {"type": "LineString", "coordinates": [[115.40201915534504, 69.23062551259272], [115.40462319188299, 69.2299901100763]]}, "properties": {"source": "181254", "target": "15861915"}}, {"type": "Feature", "geometry": {"type": "LineString", "coordinates": [[115.40145797956234, 69.23003797136786], [115.40421354090932, 69.2310495082765]]}, "properties": {"source": "15765819", "target": "1464831"}}, {"type": "Feature", "geometry": {"type": "LineString", "coordinates": [[115.40145797956234, 69.23003797136786], [115.40525027296906, 69.23053854324633]]}, "properties": {"source": "15765819", "target": "13191551"}}, {"type": "Feature", "geometry": {"type": "LineString", "coordinates": [[115.40559215525599, 69.23110857895392], [115.40201915534504, 69.23062551259272]]}, "properties": {"source": "1464812", "target": "181254"}}, {"type": "Feature", "geometry": {"type": "LineString", "coordinates": [[115.40559215525599, 69.23110857895392], [115.40145797956234, 69.23003797136786]]}, "properties": {"source": "1464812", "target": "15765819"}}, {"type": "Feature", "geometry": {"type": "LineString", "coordinates": [[115.40559215525599, 69.23110857895392], [115.4052710821282, 69.23038843325523]]}, "properties": {"source": "1464812", "target": "1464811"}}, {"type": "Feature", "geometry": {"type": "LineString", "coordinates": [[115.40559215525599, 69.23110857895392], [115.40242416316289, 69.23057117990075]]}, "properties": {"source": "1464812", "target": "3214170"}}, {"type": "Feature", "geometry": {"type": "LineString", "coordinates": [[115.40559215525599, 69.23110857895392], [115.40217068709308, 69.23067024502092]]}, "properties": {"source": "1464812", "target": "1464832"}}, {"type": "Feature", "geometry": {"type": "LineString", "coordinates": [[115.40559215525599, 69.23110857895392], [115.4017146231082, 69.22971787058532]]}, "properties": {"source": "1464812", "target": "1464814"}}, {"type": "Feature", "geometry": {"type": "LineString", "coordinates": [[115.40559215525599, 69.23110857895392], [115.40421354090932, 69.2310495082765]]}, "properties": {"source": "1464812", "target": "1464831"}}, {"type": "Feature", "geometry": {"type": "LineString", "coordinates": [[115.40201915534504, 69.23062551259272], [115.4024022335015, 69.2305792226957]]}, "properties": {"source": "181254", "target": "1464813"}}, {"type": "Feature", "geometry": {"type": "LineString", "coordinates": [[115.40559215525599, 69.23110857895392], [115.4024022335015, 69.2305792226957]]}, "properties": {"source": "1464812", "target": "1464813"}}, {"type": "Feature", "geometry": {"type": "LineString", "coordinates": [[115.40242416316289, 69.23057117990075], [115.40421354090932, 69.2310495082765]]}, "properties": {"source": "3214170", "target": "1464831"}}, {"type": "Feature", "geometry": {"type": "LineString", "coordinates": [[115.40242416316289, 69.23057117990075], [115.40246818618061, 69.23001312726558]]}, "properties": {"source": "3214170", "target": "1251183"}}, {"type": "Feature", "geometry": {"type": "LineString", "coordinates": [[115.40569949232133, 69.22994750392479], [115.40201915534504, 69.23062551259272]]}, "properties": {"source": "1628627", "target": "181254"}}, {"type": "Feature", "geometry": {"type": "LineString", "coordinates": [[115.40569949232133, 69.22994750392479], [115.40145797956234, 69.23003797136786]]}, "properties": {"source": "1628627", "target": "15765819"}}, {"type": "Feature", "geometry": {"type": "LineString", "coordinates": [[115.40569949232133, 69.22994750392479], [115.40559215525599, 69.23110857895392]]}, "properties": {"source": "1628627", "target": "1464812"}}, {"type": "Feature", "geometry": {"type": "LineString", "coordinates": [[115.40569949232133, 69.22994750392479], [115.4052710821282, 69.23038843325523]]}, "properties": {"source": "1628627", "target": "1464811"}}, {"type": "Feature", "geometry": {"type": "LineString", "coordinates": [[115.40569949232133, 69.22994750392479], [115.40242416316289, 69.23057117990075]]}, "properties": {"source": "1628627", "target": "3214170"}}, {"type": "Feature", "geometry": {"type": "LineString", "coordinates": [[115.40569949232133, 69.22994750392479], [115.40217068709308, 69.23067024502092]]}, "properties": {"source": "1628627", "target": "1464832"}}, {"type": "Feature", "geometry": {"type": "LineString", "coordinates": [[115.40569949232133, 69.22994750392479], [115.4017146231082, 69.22971787058532]]}, "properties": {"source": "1628627", "target": "1464814"}}, {"type": "Feature", "geometry": {"type": "LineString", "coordinates": [[115.40569949232133, 69.22994750392479], [115.40421354090932, 69.2310495082765]]}, "properties": {"source": "1628627", "target": "1464831"}}, {"type": "Feature", "geometry": {"type": "LineString", "coordinates": [[115.40569949232133, 69.22994750392479], [115.40246818618061, 69.23001312726558]]}, "properties": {"source": "1628627", "target": "1251183"}}, {"type": "Feature", "geometry": {"type": "LineString", "coordinates": [[115.40569949232133, 69.22994750392479], [115.40600142383101, 69.23123522738581]]}, "properties": {"source": "1628627", "target": "1464838"}}, {"type": "Feature", "geometry": {"type": "LineString", "coordinates": [[115.40569949232133, 69.22994750392479], [115.40462319188299, 69.2299901100763]]}, "properties": {"source": "1628627", "target": "15861915"}}, {"type": "Feature", "geometry": {"type": "LineString", "coordinates": [[115.40201915534504, 69.23062551259272], [115.40145797956234, 69.23003797136786]]}, "properties": {"source": "181254", "target": "15765819"}}, {"type": "Feature", "geometry": {"type": "LineString", "coordinates": [[115.40201915534504, 69.23062551259272], [115.40217068709308, 69.23067024502092]]}, "properties": {"source": "181254", "target": "1464832"}}, {"type": "Feature", "geometry": {"type": "LineString", "coordinates": [[115.40569949232133, 69.22994750392479], [115.4024022335015, 69.2305792226957]]}, "properties": {"source": "1628627", "target": "1464813"}}, {"type": "Feature", "geometry": {"type": "LineString", "coordinates": [[115.40416700433065, 69.23047892547703], [115.40525027296906, 69.23053854324633]]}, "properties": {"source": "2205158", "target": "13191551"}}, {"type": "Feature", "geometry": {"type": "LineString", "coordinates": [[115.40416700433065, 69.23047892547703], [115.40523098753437, 69.23043986964774]]}, "properties": {"source": "2205158", "target": "6687264"}}, {"type": "Feature", "geometry": {"type": "LineString", "coordinates": [[115.40242416316289, 69.23057117990075], [115.40600142383101, 69.23123522738581]]}, "properties": {"source": "3214170", "target": "1464838"}}, {"type": "Feature", "geometry": {"type": "LineString", "coordinates": [[115.40217068709308, 69.23067024502092], [115.40145797956234, 69.23003797136786]]}, "properties": {"source": "1464832", "target": "15765819"}}, {"type": "Feature", "geometry": {"type": "LineString", "coordinates": [[115.40217068709308, 69.23067024502092], [115.4017146231082, 69.22971787058532]]}, "properties": {"source": "1464832", "target": "1464814"}}, {"type": "Feature", "geometry": {"type": "LineString", "coordinates": [[115.40217068709308, 69.23067024502092], [115.40421354090932, 69.2310495082765]]}, "properties": {"source": "1464832", "target": "1464831"}}, {"type": "Feature", "geometry": {"type": "LineString", "coordinates": [[115.40217068709308, 69.23067024502092], [115.40246818618061, 69.23001312726558]]}, "properties": {"source": "1464832", "target": "1251183"}}, {"type": "Feature", "geometry": {"type": "LineString", "coordinates": [[115.40217068709308, 69.23067024502092], [115.40600142383101, 69.23123522738581]]}, "properties": {"source": "1464832", "target": "1464838"}}, {"type": "Feature", "geometry": {"type": "LineString", "coordinates": [[115.4017146231082, 69.22971787058532], [115.40145797956234, 69.23003797136786]]}, "properties": {"source": "1464814", "target": "15765819"}}, {"type": "Feature", "geometry": {"type": "LineString", "coordinates": [[115.4017146231082, 69.22971787058532], [115.40421354090932, 69.2310495082765]]}, "properties": {"source": "1464814", "target": "1464831"}}, {"type": "Feature", "geometry": {"type": "LineString", "coordinates": [[115.4017146231082, 69.22971787058532], [115.40246818618061, 69.23001312726558]]}, "properties": {"source": "1464814", "target": "1251183"}}, {"type": "Feature", "geometry": {"type": "LineString", "coordinates": [[115.4017146231082, 69.22971787058532], [115.40600142383101, 69.23123522738581]]}, "properties": {"source": "1464814", "target": "1464838"}}, {"type": "Feature", "geometry": {"type": "LineString", "coordinates": [[115.4024022335015, 69.2305792226957], [115.40145797956234, 69.23003797136786]]}, "properties": {"source": "1464813", "target": "15765819"}}, {"type": "Feature", "geometry": {"type": "LineString", "coordinates": [[115.4024022335015, 69.2305792226957], [115.4017146231082, 69.22971787058532]]}, "properties": {"source": "1464813", "target": "1464814"}}, {"type": "Feature", "geometry": {"type": "LineString", "coordinates": [[115.4024022335015, 69.2305792226957], [115.40421354090932, 69.2310495082765]]}, "properties": {"source": "1464813", "target": "1464831"}}, {"type": "Feature", "geometry": {"type": "LineString", "coordinates": [[115.40217068709308, 69.23067024502092], [115.4024022335015, 69.2305792226957]]}, "properties": {"source": "1464832", "target": "1464813"}}, {"type": "Feature", "geometry": {"type": "LineString", "coordinates": [[115.40228734964501, 69.23030413671543], [115.40525027296906, 69.23053854324633]]}, "properties": {"source": "18307661", "target": "13191551"}}, {"type": "Feature", "geometry": {"type": "LineString", "coordinates": [[115.4052710821282, 69.23038843325523], [115.40201915534504, 69.23062551259272]]}, "properties": {"source": "1464811", "target": "181254"}}, {"type": "Feature", "geometry": {"type": "LineString", "coordinates": [[115.4052710821282, 69.23038843325523], [115.40145797956234, 69.23003797136786]]}, "properties": {"source": "1464811", "target": "15765819"}}, {"type": "Feature", "geometry": {"type": "LineString", "coordinates": [[115.4052710821282, 69.23038843325523], [115.40242416316289, 69.23057117990075]]}, "properties": {"source": "1464811", "target": "3214170"}}, {"type": "Feature", "geometry": {"type": "LineString", "coordinates": [[115.4052710821282, 69.23038843325523], [115.40217068709308, 69.23067024502092]]}, "properties": {"source": "1464811", "target": "1464832"}}, {"type": "Feature", "geometry": {"type": "LineString", "coordinates": [[115.4052710821282, 69.23038843325523], [115.4017146231082, 69.22971787058532]]}, "properties": {"source": "1464811", "target": "1464814"}}, {"type": "Feature", "geometry": {"type": "LineString", "coordinates": [[115.4052710821282, 69.23038843325523], [115.40421354090932, 69.2310495082765]]}, "properties": {"source": "1464811", "target": "1464831"}}, {"type": "Feature", "geometry": {"type": "LineString", "coordinates": [[115.4052710821282, 69.23038843325523], [115.40246818618061, 69.23001312726558]]}, "properties": {"source": "1464811", "target": "1251183"}}, {"type": "Feature", "geometry": {"type": "LineString", "coordinates": [[115.4052710821282, 69.23038843325523], [115.40600142383101, 69.23123522738581]]}, "properties": {"source": "1464811", "target": "1464838"}}, {"type": "Feature", "geometry": {"type": "LineString", "coordinates": [[115.40242416316289, 69.23057117990075], [115.40201915534504, 69.23062551259272]]}, "properties": {"source": "3214170", "target": "181254"}}, {"type": "Feature", "geometry": {"type": "LineString", "coordinates": [[115.40242416316289, 69.23057117990075], [115.40145797956234, 69.23003797136786]]}, "properties": {"source": "3214170", "target": "15765819"}}, {"type": "Feature", "geometry": {"type": "LineString", "coordinates": [[115.40242416316289, 69.23057117990075], [115.40217068709308, 69.23067024502092]]}, "properties": {"source": "3214170", "target": "1464832"}}, {"type": "Feature", "geometry": {"type": "LineString", "coordinates": [[115.40242416316289, 69.23057117990075], [115.4017146231082, 69.22971787058532]]}, "properties": {"source": "3214170", "target": "1464814"}}, {"type": "Feature", "geometry": {"type": "LineString", "coordinates": [[115.40547013485963, 69.2306721899646], [115.40416700433065, 69.23047892547703]]}, "properties": {"source": "1651256", "target": "2205158"}}, {"type": "Feature", "geometry": {"type": "LineString", "coordinates": [[115.4052710821282, 69.23038843325523], [115.4024022335015, 69.2305792226957]]}, "properties": {"source": "1464811", "target": "1464813"}}, {"type": "Feature", "geometry": {"type": "LineString", "coordinates": [[115.40242416316289, 69.23057117990075], [115.4024022335015, 69.2305792226957]]}, "properties": {"source": "3214170", "target": "1464813"}}]}