{"type": "FeatureCollection", "features": [{"type": "Feature", "geometry": {"type": "LineString", "coordinates": [[-24.29189410589666, 69.04040212555853], [-24.29324845483785, 69.03870101980905]]}, "properties": {"source": "15332213", "target": "1359926"}}, {"type": "Feature", "geometry": {"type": "LineString", "coordinates": [[-24.29189410589666, 69.04040212555853], [-24.29940193092017, 69.04248471695865]]}, "properties": {"source": "15332213", "target": "697361"}}, {"type": "Feature", "geometry": {"type": "LineString", "coordinates": [[-24.29189410589666, 69.04040212555853], [-24.297823852771756, 69.04087262012897]]}, "properties": {"source": "15332213", "target": "4824424"}}, {"type": "Feature", "geometry": {"type": "LineString", "coordinates": [[-24.29189410589666, 69.04040212555853], [-24.30066944603263, 69.0395221137633]]}, "properties": {"source": "15332213", "target": "1826928"}}, {"type": "Feature", "geometry": {"type": "LineString", "coordinates": [[-24.29189410589666, 69.04040212555853], [-24.304866451634837, 69.03965703086848]]}, "properties": {"source": "15332213", "target": "18596537"}}, {"type": "Feature", "geometry": {"type": "LineString", "coordinates": [[-24.291637934421942, 69.04279207681006], [-24.297992767234263, 69.04035580013161]]}, "properties": {"source": "292605", "target": "3345470"}}, {"type": "Feature", "geometry": {"type": "LineString", "coordinates": [[-24.291637934421942, 69.04279207681006], [-24.295814679593633, 69.04115374405973]]}, "properties": {"source": "292605", "target": "29548494"}}, {"type": "Feature", "geometry": {"type": "LineString", "coordinates": [[-24.291637934421942, 69.04279207681006], [-24.294499300639785, 69.04052142435]]}, "properties": {"source": "292605", "target": "29436339"}}, {"type": "Feature", "geometry": {"type": "LineString", "coordinates": [[-24.291637934421942, 69.04279207681006], [-24.301460366889415, 69.04282592866326]]}, "properties": {"source": "292605", "target": "2970141"}}, {"type": "Feature", "geometry": {"type": "LineString", "coordinates": [[-24.290785365607093, 69.03785942099148], [-24.301789717168162, 69.04044403411282]]}, "properties": {"source": "1120699", "target": "18952442"}}, {"type": "Feature", "geometry": {"type": "LineString", "coordinates": [[-24.291574562971107, 69.03990244309432], [-24.291701826182504, 69.0380273670396]]}, "properties": {"source": "332806", "target": "29771782"}}, {"type": "Feature", "geometry": {"type": "LineString", "coordinates": [[-24.291574562971107, 69.03990244309432], [-24.297992767234263, 69.04035580013161]]}, "properties": {"source": "332806", "target": "3345470"}}, {"type": "Feature", "geometry": {"type": "LineString", "coordinates": [[-24.291574562971107, 69.03990244309432], [-24.301649271702445, 69.04125997834606]]}, "properties": {"source": "332806", "target": "316835"}}, {"type": "Feature", "geometry": {"type": "LineString", "coordinates": [[-24.291574562971107, 69.03990244309432], [-24.290974270110667, 69.03792895774959]]}, "properties": {"source": "332806", "target": "451947"}}, {"type": "Feature", "geometry": {"type": "LineString", "coordinates": [[-24.29940193092017, 69.04248471695865], [-24.29324845483785, 69.03870101980905]]}, "properties": {"source": "697361", "target": "1359926"}}, {"type": "Feature", "geometry": {"type": "LineString", "coordinates": [[-24.29940193092017, 69.04248471695865], [-24.297823852771756, 69.04087262012897]]}, "properties": {"source": "697361", "target": "4824424"}}, {"type": "Feature", "geometry": {"type": "LineString", "coordinates": [[-24.292890540292944, 69.03993786955306], [-24.288421706730503, 69.04130517527435]]}, "properties": {"source": "28501", "target": "2009965"}}, {"type": "Feature", "geometry": {"type": "LineString", "coordinates": [[-24.292890540292944, 69.03993786955306], [-24.290406803713864, 69.04212015072957]]}, "properties": {"source": "28501", "target": "3094638"}}, {"type": "Feature", "geometry": {"type": "LineString", "coordinates": [[-24.288395943297587, 69.0403330261856], [-24.29324845483785, 69.03870101980905]]}, "properties": {"source": "3571178", "target": "1359926"}}, {"type": "Feature", "geometry": {"type": "LineString", "coordinates": [[-24.288395943297587, 69.0403330261856], [-24.297823852771756, 69.04087262012897]]}, "properties": {"source": "3571178", "target": "4824424"}}, {"type": "Feature", "geometry": {"type": "LineString", "coordinates": [[-24.30271095294583, 69.0378209371676], [-24.296501035204614, 69.03831891853716]]}, "properties": {"source": "391855", "target": "3581958"}}, {"type": "Feature", "geometry": {"type": "LineString", "coordinates": [[-24.29467648942557, 69.03834234012209], [-24.294499300639785, 69.04052142435]]}, "properties": {"source": "10855891", "target": "29436339"}}, {"type": "Feature", "geometry": {"type": "LineString", "coordinates": [[-24.293978886967295, 69.03728641794413], [-24.288421706730503, 69.04130517527435]]}, "properties": {"source": "18042224", "target": "2009965"}}, {"type": "Feature", "geometry": {"type": "LineString", "coordinates": [[-24.288180232522336, 69.0380441310894], [-24.295744270604445, 69.04260708632114]]}, "properties": {"source": "1184697", "target": "9151153"}}, {"type": "Feature", "geometry": {"type": "LineString", "coordinates": [[-24.29307554979428, 69.03934198376083], [-24.298837128836055, 69.03975779827809]]}, "properties": {"source": "1025424", "target": "33198"}}, {"type": "Feature", "geometry": {"type": "LineString", "coordinates": [[-24.29307554979428, 69.03934198376083], [-24.301460366889415, 69.04282592866326]]}, "properties": {"source": "1025424", "target": "2970141"}}, {"type": "Feature", "geometry": {"type": "LineString", "coordinates": [[-24.29032526465261, 69.04017245934102], [-24.294499300639785, 69.04052142435]]}, "properties": {"source": "30761346", "target": "29436339"}}, {"type": "Feature", "geometry": {"type": "LineString", "coordinates": [[-24.29032526465261, 69.04017245934102], [-24.29467648942557, 69.03834234012209]]}, "properties": {"source": "30761346", "target": "10855891"}}, {"type": "Feature", "geometry": {"type": "LineString", "coordinates": [[-24.304341968803698, 69.041860657684], [-24.29467648942557, 69.03834234012209]]}, "properties": {"source": "9831263", "target": "10855891"}}, {"type": "Feature", "geometry": {"type": "LineString", "coordinates": [[-24.293155212711497, 69.03787941697354], [-24.30372915000561, 69.04083556524364]]}, "properties": {"source": "32987722", "target": "2016284"}}, {"type": "Feature", "geometry": {"type": "LineString", "coordinates": [[-24.29644152865012, 69.03752961583697], [-24.294695146590556, 69.04147152841696]]}, "properties": {"source": "503558", "target": "372504"}}, {"type": "Feature", "geometry": {"type": "LineString", "coordinates": [[-24.29644152865012, 69.03752961583697], [-24.296501035204614, 69.03831891853716]]}, "properties": {"source": "503558", "target": "3581958"}}, {"type": "Feature", "geometry": {"type": "LineString", "coordinates": [[-24.29940193092017, 69.04248471695865], [-24.288395943297587, 69.0403330261856]]}, "properties": {"source": "697361", "target": "3571178"}}, {"type": "Feature", "geometry": {"type": "LineString", "coordinates": [[-24.29940193092017, 69.04248471695865], [-24.28945209008782, 69.0396124428222]]}, "properties": {"source": "697361", "target": "9395558"}}, {"type": "Feature", "geometry": {"type": "LineString", "coordinates": [[-24.29196959117928, 69.0412055924294], [-24.29745130501371, 69.04192147914176]]}, "properties": {"source": "1755380", "target": "18453473"}}, {"type": "Feature", "geometry": {"type": "LineString", "coordinates": [[-24.29196959117928, 69.0412055924294], [-24.29041947090846, 69.0428902463008]]}, "properties": {"source": "1755380", "target": "1453504"}}, {"type": "Feature", "geometry": {"type": "LineString", "coordinates": [[-24.29196959117928, 69.0412055924294], [-24.300216511561757, 69.03815914818776]]}, "properties": {"source": "1755380", "target": "16104101"}}, {"type": "Feature", "geometry": {"type": "LineString", "coordinates": [[-24.293046762299326, 69.03954254138657], [-24.301789717168162, 69.04044403411282]]}, "properties": {"source": "1074813", "target": "18952442"}}, {"type": "Feature", "geometry": {"type": "LineString", "coordinates": [[-24.293046762299326, 69.03954254138657], [-24.291701826182504, 69.0380273670396]]}, "properties": {"source": "1074813", "target": "29771782"}}, {"type": "Feature", "geometry": {"type": "LineString", "coordinates": [[-24.297823852771756, 69.04087262012897], [-24.29324845483785, 69.03870101980905]]}, "properties": {"source": "4824424", "target": "1359926"}}, {"type": "Feature", "geometry": {"type": "LineString", "coordinates": [[-24.297823852771756, 69.04087262012897], [-24.28945209008782, 69.0396124428222]]}, "properties": {"source": "4824424", "target": "9395558"}}, {"type": "Feature", "geometry": {"type": "LineString", "coordinates": [[-24.300889970243475, 69.03989561806881], [-24.288421706730503, 69.04130517527435]]}, "properties": {"source": "1494990", "target": "2009965"}}, {"type": "Feature", "geometry": {"type": "LineString", "coordinates": [[-24.300889970243475, 69.03989561806881], [-24.296501035204614, 69.03831891853716]]}, "properties": {"source": "1494990", "target": "3581958"}}, {"type": "Feature", "geometry": {"type": "LineString", "coordinates": [[-24.300889970243475, 69.03989561806881], [-24.293978886967295, 69.03728641794413]]}, "properties": {"source": "1494990", "target": "18042224"}}, {"type": "Feature", "geometry": {"type": "LineString", "coordinates": [[-24.290406803713864, 69.04212015072957], [-24.296501035204614, 69.03831891853716]]}, "properties": {"source": "3094638", "target": "3581958"}}, {"type": "Feature", "geometry": {"type": "LineString", "coordinates": [[-24.298527388046125, 69.04274557695615], [-24.288421706730503, 69.04130517527435]]}, "properties": {"source": "1484137", "target": "2009965"}}, {"type": "Feature", "geometry": {"type": "LineString", "coordinates": [[-24.298527388046125, 69.04274557695615], [-24.294695146590556, 69.04147152841696]]}, "properties": {"source": "1484137", "target": "372504"}}, {"type": "Feature", "geometry": {"type": "LineString", "coordinates": [[-24.298527388046125, 69.04274557695615], [-24.296501035204614, 69.03831891853716]]}, "properties": {"source": "1484137", "target": "3581958"}}, {"type": "Feature", "geometry": {"type": "LineString", "coordinates": [[-24.290406803713864, 69.04212015072957], [-24.30271095294583, 69.0378209371676]]}, "properties": {"source": "3094638", "target": "391855"}}, {"type": "Feature", "geometry": {"type": "LineString", "coordinates": [[-24.30073971251784, 69.0393236014138], [-24.301789717168162, 69.04044403411282]]}, "properties": {"source": "22631573", "target": "18952442"}}, {"type": "Feature", "geometry": {"type": "LineString", "coordinates": [[-24.30073971251784, 69.0393236014138], [-24.288421706730503, 69.04130517527435]]}, "properties": {"source": "22631573", "target": "2009965"}}, {"type": "Feature", "geometry": {"type": "LineString", "coordinates": [[-24.28956453891027, 69.0391441262052], [-24.297992767234263, 69.04035580013161]]}, "properties": {"source": "3305485", "target": "3345470"}}, {"type": "Feature", "geometry": {"type": "LineString", "coordinates": [[-24.28956453891027, 69.0391441262052], [-24.290974270110667, 69.03792895774959]]}, "properties": {"source": "3305485", "target": "451947"}}, {"type": "Feature", "geometry": {"type": "LineString", "coordinates": [[-24.290974270110667, 69.03792895774959], [-24.294431473939028, 69.04047995575118]]}, "properties": {"source": "451947", "target": "408703"}}, {"type": "Feature", "geometry": {"type": "LineString", "coordinates": [[-24.290974270110667, 69.03792895774959], [-24.30170673382358, 69.04211931290604]]}, "properties": {"source": "451947", "target": "50280"}}, {"type": "Feature", "geometry": {"type": "LineString", "coordinates": [[-24.299883145828233, 69.04023461920525], [-24.304370989311195, 69.0415972891918]]}, "properties": {"source": "1616573", "target": "1420087"}}, {"type": "Feature", "geometry": {"type": "LineString", "coordinates": [[-24.300398009152218, 69.03942439111825], [-24.29041947090846, 69.0428902463008]]}, "properties": {"source": "1303501", "target": "1453504"}}, {"type": "Feature", "geometry": {"type": "LineString", "coordinates": [[-24.300398009152218, 69.03942439111825], [-24.300216511561757, 69.03815914818776]]}, "properties": {"source": "1303501", "target": "16104101"}}, {"type": "Feature", "geometry": {"type": "LineString", "coordinates": [[-24.300398009152218, 69.03942439111825], [-24.295904263259303, 69.0383396966813]]}, "properties": {"source": "1303501", "target": "1395580"}}, {"type": "Feature", "geometry": {"type": "LineString", "coordinates": [[-24.29798143529348, 69.03736775123241], [-24.291701826182504, 69.0380273670396]]}, "properties": {"source": "352679", "target": "29771782"}}, {"type": "Feature", "geometry": {"type": "LineString", "coordinates": [[-24.29798143529348, 69.03736775123241], [-24.297992767234263, 69.04035580013161]]}, "properties": {"source": "352679", "target": "3345470"}}, {"type": "Feature", "geometry": {"type": "LineString", "coordinates": [[-24.29798143529348, 69.03736775123241], [-24.301649271702445, 69.04125997834606]]}, "properties": {"source": "352679", "target": "316835"}}, {"type": "Feature", "geometry": {"type": "LineString", "coordinates": [[-24.301570618296182, 69.037509174311], [-24.291701826182504, 69.0380273670396]]}, "properties": {"source": "336095", "target": "29771782"}}, {"type": "Feature", "geometry": {"type": "LineString", "coordinates": [[-24.30073971251784, 69.0393236014138], [-24.2988150681916, 69.0407816132849]]}, "properties": {"source": "22631573", "target": "2315534"}}, {"type": "Feature", "geometry": {"type": "LineString", "coordinates": [[-24.294155956378688, 69.04277778370479], [-24.301789717168162, 69.04044403411282]]}, "properties": {"source": "19733468", "target": "18952442"}}, {"type": "Feature", "geometry": {"type": "LineString", "coordinates": [[-24.294155956378688, 69.04277778370479], [-24.29745130501371, 69.04192147914176]]}, "properties": {"source": "19733468", "target": "18453473"}}, {"type": "Feature", "geometry": {"type": "LineString", "coordinates": [[-24.294155956378688, 69.04277778370479], [-24.288421706730503, 69.04130517527435]]}, "properties": {"source": "19733468", "target": "2009965"}}, {"type": "Feature", "geometry": {"type": "LineString", "coordinates": [[-24.294155956378688, 69.04277778370479], [-24.30372915000561, 69.04083556524364]]}, "properties": {"source": "19733468", "target": "2016284"}}, {"type": "Feature", "geometry": {"type": "LineString", "coordinates": [[-24.294155956378688, 69.04277778370479], [-24.293242006572626, 69.03867077089438]]}, "properties": {"source": "19733468", "target": "2035958"}}, {"type": "Feature", "geometry": {"type": "LineString", "coordinates": [[-24.298837128836055, 69.03975779827809], [-24.297992767234263, 69.04035580013161]]}, "properties": {"source": "33198", "target": "3345470"}}, {"type": "Feature", "geometry": {"type": "LineString", "coordinates": [[-24.298837128836055, 69.03975779827809], [-24.295814679593633, 69.04115374405973]]}, "properties": {"source": "33198", "target": "29548494"}}, {"type": "Feature", "geometry": {"type": "LineString", "coordinates": [[-24.298837128836055, 69.03975779827809], [-24.294499300639785, 69.04052142435]]}, "properties": {"source": "33198", "target": "29436339"}}, {"type": "Feature", "geometry": {"type": "LineString", "coordinates": [[-24.298837128836055, 69.03975779827809], [-24.301460366889415, 69.04282592866326]]}, "properties": {"source": "33198", "target": "2970141"}}, {"type": "Feature", "geometry": {"type": "LineString", "coordinates": [[-24.298837128836055, 69.03975779827809], [-24.291637934421942, 69.04279207681006]]}, "properties": {"source": "33198", "target": "292605"}}, {"type": "Feature", "geometry": {"type": "LineString", "coordinates": [[-24.298837128836055, 69.03975779827809], [-24.299812535228284, 69.04172427567332]]}, "properties": {"source": "33198", "target": "4151150"}}, {"type": "Feature", "geometry": {"type": "LineString", "coordinates": [[-24.298901567443238, 69.04115459222217], [-24.301789717168162, 69.04044403411282]]}, "properties": {"source": "10344286", "target": "18952442"}}, {"type": "Feature", "geometry": {"type": "LineString", "coordinates": [[-24.298901567443238, 69.04115459222217], [-24.291701826182504, 69.0380273670396]]}, "properties": {"source": "10344286", "target": "29771782"}}, {"type": "Feature", "geometry": {"type": "LineString", "coordinates": [[-24.298901567443238, 69.04115459222217], [-24.301649271702445, 69.04125997834606]]}, "properties": {"source": "10344286", "target": "316835"}}, {"type": "Feature", "geometry": {"type": "LineString", "coordinates": [[-24.30372915000561, 69.04083556524364], [-24.301789717168162, 69.04044403411282]]}, "properties": {"source": "2016284", "target": "18952442"}}, {"type": "Feature", "geometry": {"type": "LineString", "coordinates": [[-24.298901567443238, 69.04115459222217], [-24.2988150681916, 69.0407816132849]]}, "properties": {"source": "10344286", "target": "2315534"}}, {"type": "Feature", "geometry": {"type": "LineString", "coordinates": [[-24.302810490666133, 69.04182439906984], [-24.301789717168162, 69.04044403411282]]}, "properties": {"source": "155652", "target": "18952442"}}, {"type": "Feature", "geometry": {"type": "LineString", "coordinates": [[-24.302810490666133, 69.04182439906984], [-24.29041947090846, 69.0428902463008]]}, "properties": {"source": "155652", "target": "1453504"}}, {"type": "Feature", "geometry": {"type": "LineString", "coordinates": [[-24.302810490666133, 69.04182439906984], [-24.300216511561757, 69.03815914818776]]}, "properties": {"source": "155652", "target": "16104101"}}, {"type": "Feature", "geometry": {"type": "LineString", "coordinates": [[-24.302810490666133, 69.04182439906984], [-24.304370989311195, 69.0415972891918]]}, "properties": {"source": "155652", "target": "1420087"}}, {"type": "Feature", "geometry": {"type": "LineString", "coordinates": [[-24.303473699922336, 69.04049146657181], [-24.300553052946753, 69.0407916212082]]}, "properties": {"source": "1697453", "target": "17559323"}}, {"type": "Feature", "geometry": {"type": "LineString", "coordinates": [[-24.303473699922336, 69.04049146657181], [-24.301789717168162, 69.04044403411282]]}, "properties": {"source": "1697453", "target": "18952442"}}, {"type": "Feature", "geometry": {"type": "LineString", "coordinates": [[-24.303473699922336, 69.04049146657181], [-24.29745130501371, 69.04192147914176]]}, "properties": {"source": "1697453", "target": "18453473"}}, {"type": "Feature", "geometry": {"type": "LineString", "coordinates": [[-24.303473699922336, 69.04049146657181], [-24.288421706730503, 69.04130517527435]]}, "properties": {"source": "1697453", "target": "2009965"}}, {"type": "Feature", "geometry": {"type": "LineString", "coordinates": [[-24.303473699922336, 69.04049146657181], [-24.29041947090846, 69.0428902463008]]}, "properties": {"source": "1697453", "target": "1453504"}}, {"type": "Feature", "geometry": {"type": "LineString", "coordinates": [[-24.303473699922336, 69.04049146657181], [-24.300216511561757, 69.03815914818776]]}, "properties": {"source": "1697453", "target": "16104101"}}, {"type": "Feature", "geometry": {"type": "LineString", "coordinates": [[-24.295904263259303, 69.0383396966813], [-24.29041947090846, 69.0428902463008]]}, "properties": {"source": "1395580", "target": "1453504"}}, {"type": "Feature", "geometry": {"type": "LineString", "coordinates": [[-24.295904263259303, 69.0383396966813], [-24.300216511561757, 69.03815914818776]]}, "properties": {"source": "1395580", "target": "16104101"}}, {"type": "Feature", "geometry": {"type": "LineString", "coordinates": [[-24.295904263259303, 69.0383396966813], [-24.302810490666133, 69.04182439906984]]}, "properties": {"source": "1395580", "target": "155652"}}, {"type": "Feature", "geometry": {"type": "LineString", "coordinates": [[-24.295904263259303, 69.0383396966813], [-24.304370989311195, 69.0415972891918]]}, "properties": {"source": "1395580", "target": "1420087"}}, {"type": "Feature", "geometry": {"type": "LineString", "coordinates": [[-24.295904263259303, 69.0383396966813], [-24.30267778051129, 69.04263948733055]]}, "properties": {"source": "1395580", "target": "1478859"}}, {"type": "Feature", "geometry": {"type": "LineString", "coordinates": [[-24.295904263259303, 69.0383396966813], [-24.299883145828233, 69.04023461920525]]}, "properties": {"source": "1395580", "target": "1616573"}}, {"type": "Feature", "geometry": {"type": "LineString", "coordinates": [[-24.301570618296182, 69.037509174311], [-24.297992767234263, 69.04035580013161]]}, "properties": {"source": "336095", "target": "3345470"}}, {"type": "Feature", "geometry": {"type": "LineString", "coordinates": [[-24.301570618296182, 69.037509174311], [-24.301649271702445, 69.04125997834606]]}, "properties": {"source": "336095", "target": "316835"}}, {"type": "Feature", "geometry": {"type": "LineString", "coordinates": [[-24.300191926761045, 69.0406273499589], [-24.304370989311195, 69.0415972891918]]}, "properties": {"source": "1430609", "target": "1420087"}}, {"type": "Feature", "geometry": {"type": "LineString", "coordinates": [[-24.30066944603263, 69.0395221137633], [-24.29324845483785, 69.03870101980905]]}, "properties": {"source": "1826928", "target": "1359926"}}, {"type": "Feature", "geometry": {"type": "LineString", "coordinates": [[-24.30066944603263, 69.0395221137633], [-24.304866451634837, 69.03965703086848]]}, "properties": {"source": "1826928", "target": "18596537"}}, {"type": "Feature", "geometry": {"type": "LineString", "coordinates": [[-24.29030547214151, 69.0414763937068], [-24.301789717168162, 69.04044403411282]]}, "properties": {"source": "2551686", "target": "18952442"}}, {"type": "Feature", "geometry": {"type": "LineString", "coordinates": [[-24.29030547214151, 69.0414763937068], [-24.288421706730503, 69.04130517527435]]}, "properties": {"source": "2551686", "target": "2009965"}}, {"type": "Feature", "geometry": {"type": "LineString", "coordinates": [[-24.299812535228284, 69.04172427567332], [-24.297992767234263, 69.04035580013161]]}, "properties": {"source": "4151150", "target": "3345470"}}, {"type": "Feature", "geometry": {"type": "LineString", "coordinates": [[-24.299812535228284, 69.04172427567332], [-24.288180232522336, 69.0380441310894]]}, "properties": {"source": "4151150", "target": "1184697"}}, {"type": "Feature", "geometry": {"type": "LineString", "coordinates": [[-24.30170673382358, 69.04211931290604], [-24.294431473939028, 69.04047995575118]]}, "properties": {"source": "50280", "target": "408703"}}, {"type": "Feature", "geometry": {"type": "LineString", "coordinates": [[-24.304467737342918, 69.04119153974378], [-24.288421706730503, 69.04130517527435]]}, "properties": {"source": "1480060", "target": "2009965"}}, {"type": "Feature", "geometry": {"type": "LineString", "coordinates": [[-24.304467737342918, 69.04119153974378], [-24.28979202688072, 69.04038979905806]]}, "properties": {"source": "1480060", "target": "2357345"}}, {"type": "Feature", "geometry": {"type": "LineString", "coordinates": [[-24.304467737342918, 69.04119153974378], [-24.298527388046125, 69.04274557695615]]}, "properties": {"source": "1480060", "target": "1484137"}}, {"type": "Feature", "geometry": {"type": "LineString", "coordinates": [[-24.301920325880047, 69.04011926308002], [-24.295814679593633, 69.04115374405973]]}, "properties": {"source": "13366104", "target": "29548494"}}, {"type": "Feature", "geometry": {"type": "LineString", "coordinates": [[-24.301920325880047, 69.04011926308002], [-24.290881859223504, 69.040731671251]]}, "properties": {"source": "13366104", "target": "10474369"}}, {"type": "Feature", "geometry": {"type": "LineString", "coordinates": [[-24.29030547214151, 69.0414763937068], [-24.2988150681916, 69.0407816132849]]}, "properties": {"source": "2551686", "target": "2315534"}}, {"type": "Feature", "geometry": {"type": "LineString", "coordinates": [[-24.30372915000561, 69.04083556524364], [-24.288421706730503, 69.04130517527435]]}, "properties": {"source": "2016284", "target": "2009965"}}, {"type": "Feature", "geometry": {"type": "LineString", "coordinates": [[-24.294499300639785, 69.04052142435], [-24.301460366889415, 69.04282592866326]]}, "properties": {"source": "29436339", "target": "2970141"}}, {"type": "Feature", "geometry": {"type": "LineString", "coordinates": [[-24.293242006572626, 69.03867077089438], [-24.301789717168162, 69.04044403411282]]}, "properties": {"source": "2035958", "target": "18952442"}}, {"type": "Feature", "geometry": {"type": "LineString", "coordinates": [[-24.293242006572626, 69.03867077089438], [-24.288421706730503, 69.04130517527435]]}, "properties": {"source": "2035958", "target": "2009965"}}, {"type": "Feature", "geometry": {"type": "LineString", "coordinates": [[-24.294695146590556, 69.04147152841696], [-24.296501035204614, 69.03831891853716]]}, "properties": {"source": "372504", "target": "3581958"}}, {"type": "Feature", "geometry": {"type": "LineString", "coordinates": [[-24.294695146590556, 69.04147152841696], [-24.300889970243475, 69.03989561806881]]}, "properties": {"source": "372504", "target": "1494990"}}, {"type": "Feature", "geometry": {"type": "LineString", "coordinates": [[-24.294695146590556, 69.04147152841696], [-24.290406803713864, 69.04212015072957]]}, "properties": {"source": "372504", "target": "3094638"}}, {"type": "Feature", "geometry": {"type": "LineString", "coordinates": [[-24.294695146590556, 69.04147152841696], [-24.30271095294583, 69.0378209371676]]}, "properties": {"source": "372504", "target": "391855"}}, {"type": "Feature", "geometry": {"type": "LineString", "coordinates": [[-24.30280979890125, 69.03860111410194], [-24.301789717168162, 69.04044403411282]]}, "properties": {"source": "12104861", "target": "18952442"}}, {"type": "Feature", "geometry": {"type": "LineString", "coordinates": [[-24.30280979890125, 69.03860111410194], [-24.29720454653571, 69.04111256243024]]}, "properties": {"source": "12104861", "target": "18873146"}}, {"type": "Feature", "geometry": {"type": "LineString", "coordinates": [[-24.295965911211056, 69.03838260487257], [-24.301789717168162, 69.04044403411282]]}, "properties": {"source": "1068888", "target": "18952442"}}, {"type": "Feature", "geometry": {"type": "LineString", "coordinates": [[-24.30267778051129, 69.04263948733055], [-24.304370989311195, 69.0415972891918]]}, "properties": {"source": "1478859", "target": "1420087"}}, {"type": "Feature", "geometry": {"type": "LineString", "coordinates": [[-24.29189410589666, 69.04040212555853], [-24.29745130501371, 69.04192147914176]]}, "properties": {"source": "15332213", "target": "18453473"}}, {"type": "Feature", "geometry": {"type": "LineString", "coordinates": [[-24.30372915000561, 69.04083556524364], [-24.2988150681916, 69.0407816132849]]}, "properties": {"source": "2016284", "target": "2315534"}}, {"type": "Feature", "geometry": {"type": "LineString", "coordinates": [[-24.30280979890125, 69.03860111410194], [-24.2988150681916, 69.0407816132849]]}, "properties": {"source": "12104861", "target": "2315534"}}, {"type": "Feature", "geometry": {"type": "LineString", "coordinates": [[-24.295965911211056, 69.03838260487257], [-24.2988150681916, 69.0407816132849]]}, "properties": {"source": "1068888", "target": "2315534"}}, {"type": "Feature", "geometry": {"type": "LineString", "coordinates": [[-24.301649271702445, 69.04125997834606], [-24.28956453891027, 69.0391441262052]]}, "properties": {"source": "316835", "target": "3305485"}}, {"type": "Feature", "geometry": {"type": "LineString", "coordinates": [[-24.301649271702445, 69.04125997834606], [-24.294431473939028, 69.04047995575118]]}, "properties": {"source": "316835", "target": "408703"}}, {"type": "Feature", "geometry": {"type": "LineString", "coordinates": [[-24.28958869074293, 69.03862788896501], [-24.297992767234263, 69.04035580013161]]}, "properties": {"source": "3025303", "target": "3345470"}}, {"type": "Feature", "geometry": {"type": "LineString", "coordinates": [[-24.28958869074293, 69.03862788896501], [-24.295814679593633, 69.04115374405973]]}, "properties": {"source": "3025303", "target": "29548494"}}, {"type": "Feature", "geometry": {"type": "LineString", "coordinates": [[-24.28958869074293, 69.03862788896501], [-24.298837128836055, 69.03975779827809]]}, "properties": {"source": "3025303", "target": "33198"}}, {"type": "Feature", "geometry": {"type": "LineString", "coordinates": [[-24.28958869074293, 69.03862788896501], [-24.294499300639785, 69.04052142435]]}, "properties": {"source": "3025303", "target": "29436339"}}, {"type": "Feature", "geometry": {"type": "LineString", "coordinates": [[-24.28958869074293, 69.03862788896501], [-24.301460366889415, 69.04282592866326]]}, "properties": {"source": "3025303", "target": "2970141"}}, {"type": "Feature", "geometry": {"type": "LineString", "coordinates": [[-24.28958869074293, 69.03862788896501], [-24.291637934421942, 69.04279207681006]]}, "properties": {"source": "3025303", "target": "292605"}}, {"type": "Feature", "geometry": {"type": "LineString", "coordinates": [[-24.28958869074293, 69.03862788896501], [-24.299812535228284, 69.04172427567332]]}, "properties": {"source": "3025303", "target": "4151150"}}, {"type": "Feature", "geometry": {"type": "LineString", "coordinates": [[-24.28958869074293, 69.03862788896501], [-24.301920325880047, 69.04011926308002]]}, "properties": {"source": "3025303", "target": "13366104"}}, {"type": "Feature", "geometry": {"type": "LineString", "coordinates": [[-24.28958869074293, 69.03862788896501], [-24.290881859223504, 69.040731671251]]}, "properties": {"source": "3025303", "target": "10474369"}}, {"type": "Feature", "geometry": {"type": "LineString", "coordinates": [[-24.28958869074293, 69.03862788896501], [-24.303734295858476, 69.03850890686701]]}, "properties": {"source": "3025303", "target": "30900053"}}, {"type": "Feature", "geometry": {"type": "LineString", "coordinates": [[-24.290538976511073, 69.03734476754983], [-24.29041947090846, 69.0428902463008]]}, "properties": {"source": "13505317", "target": "1453504"}}, {"type": "Feature", "geometry": {"type": "LineString", "coordinates": [[-24.290538976511073, 69.03734476754983], [-24.300216511561757, 69.03815914818776]]}, "properties": {"source": "13505317", "target": "16104101"}}, {"type": "Feature", "geometry": {"type": "LineString", "coordinates": [[-24.290538976511073, 69.03734476754983], [-24.302810490666133, 69.04182439906984]]}, "properties": {"source": "13505317", "target": "155652"}}, {"type": "Feature", "geometry": {"type": "LineString", "coordinates": [[-24.290538976511073, 69.03734476754983], [-24.303473699922336, 69.04049146657181]]}, "properties": {"source": "13505317", "target": "1697453"}}, {"type": "Feature", "geometry": {"type": "LineString", "coordinates": [[-24.29934494349149, 69.03857076023817], [-24.290974270110667, 69.03792895774959]]}, "properties": {"source": "33567186", "target": "451947"}}, {"type": "Feature", "geometry": {"type": "LineString", "coordinates": [[-24.29934494349149, 69.03857076023817], [-24.294431473939028, 69.04047995575118]]}, "properties": {"source": "33567186", "target": "408703"}}, {"type": "Feature", "geometry": {"type": "LineString", "coordinates": [[-24.29934494349149, 69.03857076023817], [-24.297039047713582, 69.04262044784747]]}, "properties": {"source": "33567186", "target": "1230501"}}, {"type": "Feature", "geometry": {"type": "LineString", "coordinates": [[-24.29934494349149, 69.03857076023817], [-24.29798143529348, 69.03736775123241]]}, "properties": {"source": "33567186", "target": "352679"}}, {"type": "Feature", "geometry": {"type": "LineString", "coordinates": [[-24.29934494349149, 69.03857076023817], [-24.301570618296182, 69.037509174311]]}, "properties": {"source": "33567186", "target": "336095"}}, {"type": "Feature", "geometry": {"type": "LineString", "coordinates": [[-24.297992767234263, 69.04035580013161], [-24.294499300639785, 69.04052142435]]}, "properties": {"source": "3345470", "target": "29436339"}}, {"type": "Feature", "geometry": {"type": "LineString", "coordinates": [[-24.297992767234263, 69.04035580013161], [-24.301460366889415, 69.04282592866326]]}, "properties": {"source": "3345470", "target": "2970141"}}, {"type": "Feature", "geometry": {"type": "LineString", "coordinates": [[-24.297992767234263, 69.04035580013161], [-24.294431473939028, 69.04047995575118]]}, "properties": {"source": "3345470", "target": "408703"}}, {"type": "Feature", "geometry": {"type": "LineString", "coordinates": [[-24.2988150681916, 69.0407816132849], [-24.301789717168162, 69.04044403411282]]}, "properties": {"source": "2315534", "target": "18952442"}}, {"type": "Feature", "geometry": {"type": "LineString", "coordinates": [[-24.2988150681916, 69.0407816132849], [-24.288421706730503, 69.04130517527435]]}, "properties": {"source": "2315534", "target": "2009965"}}, {"type": "Feature", "geometry": {"type": "LineString", "coordinates": [[-24.2988150681916, 69.0407816132849], [-24.293242006572626, 69.03867077089438]]}, "properties": {"source": "2315534", "target": "2035958"}}, {"type": "Feature", "geometry": {"type": "LineString", "coordinates": [[-24.288422763980634, 69.03958775658853], [-24.301789717168162, 69.04044403411282]]}, "properties": {"source": "11797323", "target": "18952442"}}, {"type": "Feature", "geometry": {"type": "LineString", "coordinates": [[-24.288422763980634, 69.03958775658853], [-24.29745130501371, 69.04192147914176]]}, "properties": {"source": "11797323", "target": "18453473"}}, {"type": "Feature", "geometry": {"type": "LineString", "coordinates": [[-24.288422763980634, 69.03958775658853], [-24.288421706730503, 69.04130517527435]]}, "properties": {"source": "11797323", "target": "2009965"}}, {"type": "Feature", "geometry": {"type": "LineString", "coordinates": [[-24.288422763980634, 69.03958775658853], [-24.291701826182504, 69.0380273670396]]}, "properties": {"source": "11797323", "target": "29771782"}}, {"type": "Feature", "geometry": {"type": "LineString", "coordinates": [[-24.288422763980634, 69.03958775658853], [-24.2988150681916, 69.0407816132849]]}, "properties": {"source": "11797323", "target": "2315534"}}, {"type": "Feature", "geometry": {"type": "LineString", "coordinates": [[-24.300553052946753, 69.0407916212082], [-24.30372915000561, 69.04083556524364]]}, "properties": {"source": "17559323", "target": "2016284"}}, {"type": "Feature", "geometry": {"type": "LineString", "coordinates": [[-24.300553052946753, 69.0407916212082], [-24.293242006572626, 69.03867077089438]]}, "properties": {"source": "17559323", "target": "2035958"}}, {"type": "Feature", "geometry": {"type": "LineString", "coordinates": [[-24.300553052946753, 69.0407916212082], [-24.30280979890125, 69.03860111410194]]}, "properties": {"source": "17559323", "target": "12104861"}}, {"type": "Feature", "geometry": {"type": "LineString", "coordinates": [[-24.300553052946753, 69.0407916212082], [-24.295965911211056, 69.03838260487257]]}, "properties": {"source": "17559323", "target": "1068888"}}, {"type": "Feature", "geometry": {"type": "LineString", "coordinates": [[-24.300553052946753, 69.0407916212082], [-24.30267778051129, 69.04263948733055]]}, "properties": {"source": "17559323", "target": "1478859"}}, {"type": "Feature", "geometry": {"type": "LineString", "coordinates": [[-24.300553052946753, 69.0407916212082], [-24.290785365607093, 69.03785942099148]]}, "properties": {"source": "17559323", "target": "1120699"}}, {"type": "Feature", "geometry": {"type": "LineString", "coordinates": [[-24.300553052946753, 69.0407916212082], [-24.29196959117928, 69.0412055924294]]}, "properties": {"source": "17559323", "target": "1755380"}}, {"type": "Feature", "geometry": {"type": "LineString", "coordinates": [[-24.300553052946753, 69.0407916212082], [-24.293046762299326, 69.03954254138657]]}, "properties": {"source": "17559323", "target": "1074813"}}, {"type": "Feature", "geometry": {"type": "LineString", "coordinates": [[-24.300553052946753, 69.0407916212082], [-24.297039047713582, 69.04262044784747]]}, "properties": {"source": "17559323", "target": "1230501"}}, {"type": "Feature", "geometry": {"type": "LineString", "coordinates": [[-24.300553052946753, 69.0407916212082], [-24.300191926761045, 69.0406273499589]]}, "properties": {"source": "17559323", "target": "1430609"}}, {"type": "Feature", "geometry": {"type": "LineString", "coordinates": [[-24.301789717168162, 69.04044403411282], [-24.288421706730503, 69.04130517527435]]}, "properties": {"source": "18952442", "target": "2009965"}}, {"type": "Feature", "geometry": {"type": "LineString", "coordinates": [[-24.301789717168162, 69.04044403411282], [-24.297039047713582, 69.04262044784747]]}, "properties": {"source": "18952442", "target": "1230501"}}, {"type": "Feature", "geometry": {"type": "LineString", "coordinates": [[-24.29745130501371, 69.04192147914176], [-24.301789717168162, 69.04044403411282]]}, "properties": {"source": "18453473", "target": "18952442"}}, {"type": "Feature", "geometry": {"type": "LineString", "coordinates": [[-24.29745130501371, 69.04192147914176], [-24.288421706730503, 69.04130517527435]]}, "properties": {"source": "18453473", "target": "2009965"}}, {"type": "Feature", "geometry": {"type": "LineString", "coordinates": [[-24.29745130501371, 69.04192147914176], [-24.29041947090846, 69.0428902463008]]}, "properties": {"source": "18453473", "target": "1453504"}}, {"type": "Feature", "geometry": {"type": "LineString", "coordinates": [[-24.29745130501371, 69.04192147914176], [-24.2988150681916, 69.0407816132849]]}, "properties": {"source": "18453473", "target": "2315534"}}, {"type": "Feature", "geometry": {"type": "LineString", "coordinates": [[-24.29745130501371, 69.04192147914176], [-24.300216511561757, 69.03815914818776]]}, "properties": {"source": "18453473", "target": "16104101"}}, {"type": "Feature", "geometry": {"type": "LineString", "coordinates": [[-24.29745130501371, 69.04192147914176], [-24.293257676644004, 69.03752823130603]]}, "properties": {"source": "18453473", "target": "11998032"}}, {"type": "Feature", "geometry": {"type": "LineString", "coordinates": [[-24.29745130501371, 69.04192147914176], [-24.302810490666133, 69.04182439906984]]}, "properties": {"source": "18453473", "target": "155652"}}, {"type": "Feature", "geometry": {"type": "LineString", "coordinates": [[-24.29745130501371, 69.04192147914176], [-24.30372915000561, 69.04083556524364]]}, "properties": {"source": "18453473", "target": "2016284"}}, {"type": "Feature", "geometry": {"type": "LineString", "coordinates": [[-24.29745130501371, 69.04192147914176], [-24.293242006572626, 69.03867077089438]]}, "properties": {"source": "18453473", "target": "2035958"}}, {"type": "Feature", "geometry": {"type": "LineString", "coordinates": [[-24.29745130501371, 69.04192147914176], [-24.30267778051129, 69.04263948733055]]}, "properties": {"source": "18453473", "target": "1478859"}}, {"type": "Feature", "geometry": {"type": "LineString", "coordinates": [[-24.29745130501371, 69.04192147914176], [-24.29324845483785, 69.03870101980905]]}, "properties": {"source": "18453473", "target": "1359926"}}, {"type": "Feature", "geometry": {"type": "LineString", "coordinates": [[-24.29745130501371, 69.04192147914176], [-24.30073971251784, 69.0393236014138]]}, "properties": {"source": "18453473", "target": "22631573"}}, {"type": "Feature", "geometry": {"type": "LineString", "coordinates": [[-24.29745130501371, 69.04192147914176], [-24.30066944603263, 69.0395221137633]]}, "properties": {"source": "18453473", "target": "1826928"}}, {"type": "Feature", "geometry": {"type": "LineString", "coordinates": [[-24.291701826182504, 69.0380273670396], [-24.288421706730503, 69.04130517527435]]}, "properties": {"source": "29771782", "target": "2009965"}}, {"type": "Feature", "geometry": {"type": "LineString", "coordinates": [[-24.291701826182504, 69.0380273670396], [-24.297992767234263, 69.04035580013161]]}, "properties": {"source": "29771782", "target": "3345470"}}, {"type": "Feature", "geometry": {"type": "LineString", "coordinates": [[-24.291701826182504, 69.0380273670396], [-24.301649271702445, 69.04125997834606]]}, "properties": {"source": "29771782", "target": "316835"}}, {"type": "Feature", "geometry": {"type": "LineString", "coordinates": [[-24.291701826182504, 69.0380273670396], [-24.293257676644004, 69.03752823130603]]}, "properties": {"source": "29771782", "target": "11998032"}}, {"type": "Feature", "geometry": {"type": "LineString", "coordinates": [[-24.291701826182504, 69.0380273670396], [-24.30280979890125, 69.03860111410194]]}, "properties": {"source": "29771782", "target": "12104861"}}, {"type": "Feature", "geometry": {"type": "LineString", "coordinates": [[-24.291701826182504, 69.0380273670396], [-24.295965911211056, 69.03838260487257]]}, "properties": {"source": "29771782", "target": "1068888"}}, {"type": "Feature", "geometry": {"type": "LineString", "coordinates": [[-24.291701826182504, 69.0380273670396], [-24.2988150681916, 69.0407816132849]]}, "properties": {"source": "29771782", "target": "2315534"}}, {"type": "Feature", "geometry": {"type": "LineString", "coordinates": [[-24.30361584466766, 69.03930545206762], [-24.300553052946753, 69.0407916212082]]}, "properties": {"source": "17617120", "target": "17559323"}}, {"type": "Feature", "geometry": {"type": "LineString", "coordinates": [[-24.30361584466766, 69.03930545206762], [-24.301789717168162, 69.04044403411282]]}, "properties": {"source": "17617120", "target": "18952442"}}, {"type": "Feature", "geometry": {"type": "LineString", "coordinates": [[-24.30361584466766, 69.03930545206762], [-24.29745130501371, 69.04192147914176]]}, "properties": {"source": "17617120", "target": "18453473"}}, {"type": "Feature", "geometry": {"type": "LineString", "coordinates": [[-24.30361584466766, 69.03930545206762], [-24.288421706730503, 69.04130517527435]]}, "properties": {"source": "17617120", "target": "2009965"}}, {"type": "Feature", "geometry": {"type": "LineString", "coordinates": [[-24.30361584466766, 69.03930545206762], [-24.288422763980634, 69.03958775658853]]}, "properties": {"source": "17617120", "target": "11797323"}}, {"type": "Feature", "geometry": {"type": "LineString", "coordinates": [[-24.30361584466766, 69.03930545206762], [-24.29041947090846, 69.0428902463008]]}, "properties": {"source": "17617120", "target": "1453504"}}, {"type": "Feature", "geometry": {"type": "LineString", "coordinates": [[-24.30361584466766, 69.03930545206762], [-24.300216511561757, 69.03815914818776]]}, "properties": {"source": "17617120", "target": "16104101"}}, {"type": "Feature", "geometry": {"type": "LineString", "coordinates": [[-24.30361584466766, 69.03930545206762], [-24.293257676644004, 69.03752823130603]]}, "properties": {"source": "17617120", "target": "11998032"}}, {"type": "Feature", "geometry": {"type": "LineString", "coordinates": [[-24.30361584466766, 69.03930545206762], [-24.302810490666133, 69.04182439906984]]}, "properties": {"source": "17617120", "target": "155652"}}, {"type": "Feature", "geometry": {"type": "LineString", "coordinates": [[-24.30361584466766, 69.03930545206762], [-24.303473699922336, 69.04049146657181]]}, "properties": {"source": "17617120", "target": "1697453"}}, {"type": "Feature", "geometry": {"type": "LineString", "coordinates": [[-24.30361584466766, 69.03930545206762], [-24.294155956378688, 69.04277778370479]]}, "properties": {"source": "17617120", "target": "19733468"}}, {"type": "Feature", "geometry": {"type": "LineString", "coordinates": [[-24.30361584466766, 69.03930545206762], [-24.298901567443238, 69.04115459222217]]}, "properties": {"source": "17617120", "target": "10344286"}}, {"type": "Feature", "geometry": {"type": "LineString", "coordinates": [[-24.30361584466766, 69.03930545206762], [-24.30372915000561, 69.04083556524364]]}, "properties": {"source": "17617120", "target": "2016284"}}, {"type": "Feature", "geometry": {"type": "LineString", "coordinates": [[-24.30361584466766, 69.03930545206762], [-24.293242006572626, 69.03867077089438]]}, "properties": {"source": "17617120", "target": "2035958"}}, {"type": "Feature", "geometry": {"type": "LineString", "coordinates": [[-24.30361584466766, 69.03930545206762], [-24.30280979890125, 69.03860111410194]]}, "properties": {"source": "17617120", "target": "12104861"}}, {"type": "Feature", "geometry": {"type": "LineString", "coordinates": [[-24.30361584466766, 69.03930545206762], [-24.295965911211056, 69.03838260487257]]}, "properties": {"source": "17617120", "target": "1068888"}}, {"type": "Feature", "geometry": {"type": "LineString", "coordinates": [[-24.291701826182504, 69.0380273670396], [-24.290785365607093, 69.03785942099148]]}, "properties": {"source": "29771782", "target": "1120699"}}, {"type": "Feature", "geometry": {"type": "LineString", "coordinates": [[-24.291701826182504, 69.0380273670396], [-24.28956453891027, 69.0391441262052]]}, "properties": {"source": "29771782", "target": "3305485"}}, {"type": "Feature", "geometry": {"type": "LineString", "coordinates": [[-24.291701826182504, 69.0380273670396], [-24.297039047713582, 69.04262044784747]]}, "properties": {"source": "29771782", "target": "1230501"}}, {"type": "Feature", "geometry": {"type": "LineString", "coordinates": [[-24.291701826182504, 69.0380273670396], [-24.29030547214151, 69.0414763937068]]}, "properties": {"source": "29771782", "target": "2551686"}}, {"type": "Feature", "geometry": {"type": "LineString", "coordinates": [[-24.29934494349149, 69.03857076023817], [-24.291701826182504, 69.0380273670396]]}, "properties": {"source": "33567186", "target": "29771782"}}, {"type": "Feature", "geometry": {"type": "LineString", "coordinates": [[-24.29934494349149, 69.03857076023817], [-24.297992767234263, 69.04035580013161]]}, "properties": {"source": "33567186", "target": "3345470"}}, {"type": "Feature", "geometry": {"type": "LineString", "coordinates": [[-24.29934494349149, 69.03857076023817], [-24.288422763980634, 69.03958775658853]]}, "properties": {"source": "33567186", "target": "11797323"}}, {"type": "Feature", "geometry": {"type": "LineString", "coordinates": [[-24.29934494349149, 69.03857076023817], [-24.301649271702445, 69.04125997834606]]}, "properties": {"source": "33567186", "target": "316835"}}, {"type": "Feature", "geometry": {"type": "LineString", "coordinates": [[-24.29934494349149, 69.03857076023817], [-24.293257676644004, 69.03752823130603]]}, "properties": {"source": "33567186", "target": "11998032"}}, {"type": "Feature", "geometry": {"type": "LineString", "coordinates": [[-24.29934494349149, 69.03857076023817], [-24.298901567443238, 69.04115459222217]]}, "properties": {"source": "33567186", "target": "10344286"}}, {"type": "Feature", "geometry": {"type": "LineString", "coordinates": [[-24.29934494349149, 69.03857076023817], [-24.30280979890125, 69.03860111410194]]}, "properties": {"source": "33567186", "target": "12104861"}}, {"type": "Feature", "geometry": {"type": "LineString", "coordinates": [[-24.29934494349149, 69.03857076023817], [-24.295965911211056, 69.03838260487257]]}, "properties": {"source": "33567186", "target": "1068888"}}, {"type": "Feature", "geometry": {"type": "LineString", "coordinates": [[-24.29934494349149, 69.03857076023817], [-24.290785365607093, 69.03785942099148]]}, "properties": {"source": "33567186", "target": "1120699"}}, {"type": "Feature", "geometry": {"type": "LineString", "coordinates": [[-24.29934494349149, 69.03857076023817], [-24.291574562971107, 69.03990244309432]]}, "properties": {"source": "33567186", "target": "332806"}}, {"type": "Feature", "geometry": {"type": "LineString", "coordinates": [[-24.29934494349149, 69.03857076023817], [-24.293046762299326, 69.03954254138657]]}, "properties": {"source": "33567186", "target": "1074813"}}, {"type": "Feature", "geometry": {"type": "LineString", "coordinates": [[-24.29934494349149, 69.03857076023817], [-24.28956453891027, 69.0391441262052]]}, "properties": {"source": "33567186", "target": "3305485"}}, {"type": "Feature", "geometry": {"type": "LineString", "coordinates": [[-24.30361584466766, 69.03930545206762], [-24.30267778051129, 69.04263948733055]]}, "properties": {"source": "17617120", "target": "1478859"}}, {"type": "Feature", "geometry": {"type": "LineString", "coordinates": [[-24.30361584466766, 69.03930545206762], [-24.290785365607093, 69.03785942099148]]}, "properties": {"source": "17617120", "target": "1120699"}}, {"type": "Feature", "geometry": {"type": "LineString", "coordinates": [[-24.30361584466766, 69.03930545206762], [-24.29196959117928, 69.0412055924294]]}, "properties": {"source": "17617120", "target": "1755380"}}, {"type": "Feature", "geometry": {"type": "LineString", "coordinates": [[-24.30361584466766, 69.03930545206762], [-24.30073971251784, 69.0393236014138]]}, "properties": {"source": "17617120", "target": "22631573"}}, {"type": "Feature", "geometry": {"type": "LineString", "coordinates": [[-24.30361584466766, 69.03930545206762], [-24.297039047713582, 69.04262044784747]]}, "properties": {"source": "17617120", "target": "1230501"}}, {"type": "Feature", "geometry": {"type": "LineString", "coordinates": [[-24.30361584466766, 69.03930545206762], [-24.300191926761045, 69.0406273499589]]}, "properties": {"source": "17617120", "target": "1430609"}}, {"type": "Feature", "geometry": {"type": "LineString", "coordinates": [[-24.300553052946753, 69.0407916212082], [-24.301789717168162, 69.04044403411282]]}, "properties": {"source": "17559323", "target": "18952442"}}, {"type": "Feature", "geometry": {"type": "LineString", "coordinates": [[-24.300553052946753, 69.0407916212082], [-24.29745130501371, 69.04192147914176]]}, "properties": {"source": "17559323", "target": "18453473"}}, {"type": "Feature", "geometry": {"type": "LineString", "coordinates": [[-24.300553052946753, 69.0407916212082], [-24.288421706730503, 69.04130517527435]]}, "properties": {"source": "17559323", "target": "2009965"}}, {"type": "Feature", "geometry": {"type": "LineString", "coordinates": [[-24.300553052946753, 69.0407916212082], [-24.288422763980634, 69.03958775658853]]}, "properties": {"source": "17559323", "target": "11797323"}}, {"type": "Feature", "geometry": {"type": "LineString", "coordinates": [[-24.300553052946753, 69.0407916212082], [-24.29041947090846, 69.0428902463008]]}, "properties": {"source": "17559323", "target": "1453504"}}, {"type": "Feature", "geometry": {"type": "LineString", "coordinates": [[-24.300553052946753, 69.0407916212082], [-24.300216511561757, 69.03815914818776]]}, "properties": {"source": "17559323", "target": "16104101"}}, {"type": "Feature", "geometry": {"type": "LineString", "coordinates": [[-24.300553052946753, 69.0407916212082], [-24.293257676644004, 69.03752823130603]]}, "properties": {"source": "17559323", "target": "11998032"}}, {"type": "Feature", "geometry": {"type": "LineString", "coordinates": [[-24.300553052946753, 69.0407916212082], [-24.302810490666133, 69.04182439906984]]}, "properties": {"source": "17559323", "target": "155652"}}, {"type": "Feature", "geometry": {"type": "LineString", "coordinates": [[-24.300553052946753, 69.0407916212082], [-24.294155956378688, 69.04277778370479]]}, "properties": {"source": "17559323", "target": "19733468"}}, {"type": "Feature", "geometry": {"type": "LineString", "coordinates": [[-24.300553052946753, 69.0407916212082], [-24.298901567443238, 69.04115459222217]]}, "properties": {"source": "17559323", "target": "10344286"}}, {"type": "Feature", "geometry": {"type": "LineString", "coordinates": [[-24.288422763980634, 69.03958775658853], [-24.301649271702445, 69.04125997834606]]}, "properties": {"source": "11797323", "target": "316835"}}, {"type": "Feature", "geometry": {"type": "LineString", "coordinates": [[-24.288422763980634, 69.03958775658853], [-24.298901567443238, 69.04115459222217]]}, "properties": {"source": "11797323", "target": "10344286"}}, {"type": "Feature", "geometry": {"type": "LineString", "coordinates": [[-24.288422763980634, 69.03958775658853], [-24.295965911211056, 69.03838260487257]]}, "properties": {"source": "11797323", "target": "1068888"}}, {"type": "Feature", "geometry": {"type": "LineString", "coordinates": [[-24.288422763980634, 69.03958775658853], [-24.290785365607093, 69.03785942099148]]}, "properties": {"source": "11797323", "target": "1120699"}}, {"type": "Feature", "geometry": {"type": "LineString", "coordinates": [[-24.288422763980634, 69.03958775658853], [-24.293046762299326, 69.03954254138657]]}, "properties": {"source": "11797323", "target": "1074813"}}, {"type": "Feature", "geometry": {"type": "LineString", "coordinates": [[-24.288422763980634, 69.03958775658853], [-24.30170673382358, 69.04211931290604]]}, "properties": {"source": "11797323", "target": "50280"}}, {"type": "Feature", "geometry": {"type": "LineString", "coordinates": [[-24.29041947090846, 69.0428902463008], [-24.300216511561757, 69.03815914818776]]}, "properties": {"source": "1453504", "target": "16104101"}}, {"type": "Feature", "geometry": {"type": "LineString", "coordinates": [[-24.29041947090846, 69.0428902463008], [-24.304370989311195, 69.0415972891918]]}, "properties": {"source": "1453504", "target": "1420087"}}, {"type": "Feature", "geometry": {"type": "LineString", "coordinates": [[-24.29041947090846, 69.0428902463008], [-24.30267778051129, 69.04263948733055]]}, "properties": {"source": "1453504", "target": "1478859"}}, {"type": "Feature", "geometry": {"type": "LineString", "coordinates": [[-24.29041947090846, 69.0428902463008], [-24.299883145828233, 69.04023461920525]]}, "properties": {"source": "1453504", "target": "1616573"}}, {"type": "Feature", "geometry": {"type": "LineString", "coordinates": [[-24.300216511561757, 69.03815914818776], [-24.301789717168162, 69.04044403411282]]}, "properties": {"source": "16104101", "target": "18952442"}}, {"type": "Feature", "geometry": {"type": "LineString", "coordinates": [[-24.300216511561757, 69.03815914818776], [-24.304370989311195, 69.0415972891918]]}, "properties": {"source": "16104101", "target": "1420087"}}, {"type": "Feature", "geometry": {"type": "LineString", "coordinates": [[-24.300216511561757, 69.03815914818776], [-24.299883145828233, 69.04023461920525]]}, "properties": {"source": "16104101", "target": "1616573"}}, {"type": "Feature", "geometry": {"type": "LineString", "coordinates": [[-24.301649271702445, 69.04125997834606], [-24.297992767234263, 69.04035580013161]]}, "properties": {"source": "316835", "target": "3345470"}}, {"type": "Feature", "geometry": {"type": "LineString", "coordinates": [[-24.301649271702445, 69.04125997834606], [-24.293257676644004, 69.03752823130603]]}, "properties": {"source": "316835", "target": "11998032"}}, {"type": "Feature", "geometry": {"type": "LineString", "coordinates": [[-24.301649271702445, 69.04125997834606], [-24.2988150681916, 69.0407816132849]]}, "properties": {"source": "316835", "target": "2315534"}}, {"type": "Feature", "geometry": {"type": "LineString", "coordinates": [[-24.290538976511073, 69.03734476754983], [-24.295904263259303, 69.0383396966813]]}, "properties": {"source": "13505317", "target": "1395580"}}, {"type": "Feature", "geometry": {"type": "LineString", "coordinates": [[-24.290538976511073, 69.03734476754983], [-24.304370989311195, 69.0415972891918]]}, "properties": {"source": "13505317", "target": "1420087"}}, {"type": "Feature", "geometry": {"type": "LineString", "coordinates": [[-24.290538976511073, 69.03734476754983], [-24.30267778051129, 69.04263948733055]]}, "properties": {"source": "13505317", "target": "1478859"}}, {"type": "Feature", "geometry": {"type": "LineString", "coordinates": [[-24.290538976511073, 69.03734476754983], [-24.299883145828233, 69.04023461920525]]}, "properties": {"source": "13505317", "target": "1616573"}}, {"type": "Feature", "geometry": {"type": "LineString", "coordinates": [[-24.290538976511073, 69.03734476754983], [-24.300398009152218, 69.03942439111825]]}, "properties": {"source": "13505317", "target": "1303501"}}, {"type": "Feature", "geometry": {"type": "LineString", "coordinates": [[-24.290538976511073, 69.03734476754983], [-24.300191926761045, 69.0406273499589]]}, "properties": {"source": "13505317", "target": "1430609"}}, {"type": "Feature", "geometry": {"type": "LineString", "coordinates": [[-24.293257676644004, 69.03752823130603], [-24.301789717168162, 69.04044403411282]]}, "properties": {"source": "11998032", "target": "18952442"}}, {"type": "Feature", "geometry": {"type": "LineString", "coordinates": [[-24.293257676644004, 69.03752823130603], [-24.288421706730503, 69.04130517527435]]}, "properties": {"source": "11998032", "target": "2009965"}}, {"type": "Feature", "geometry": {"type": "LineString", "coordinates": [[-24.293257676644004, 69.03752823130603], [-24.30170673382358, 69.04211931290604]]}, "properties": {"source": "11998032", "target": "50280"}}, {"type": "Feature", "geometry": {"type": "LineString", "coordinates": [[-24.301451181393674, 69.03995033308226], [-24.30361584466766, 69.03930545206762]]}, "properties": {"source": "2143524", "target": "17617120"}}, {"type": "Feature", "geometry": {"type": "LineString", "coordinates": [[-24.301451181393674, 69.03995033308226], [-24.300553052946753, 69.0407916212082]]}, "properties": {"source": "2143524", "target": "17559323"}}, {"type": "Feature", "geometry": {"type": "LineString", "coordinates": [[-24.301451181393674, 69.03995033308226], [-24.301789717168162, 69.04044403411282]]}, "properties": {"source": "2143524", "target": "18952442"}}, {"type": "Feature", "geometry": {"type": "LineString", "coordinates": [[-24.301451181393674, 69.03995033308226], [-24.29745130501371, 69.04192147914176]]}, "properties": {"source": "2143524", "target": "18453473"}}, {"type": "Feature", "geometry": {"type": "LineString", "coordinates": [[-24.301451181393674, 69.03995033308226], [-24.288421706730503, 69.04130517527435]]}, "properties": {"source": "2143524", "target": "2009965"}}, {"type": "Feature", "geometry": {"type": "LineString", "coordinates": [[-24.301451181393674, 69.03995033308226], [-24.291701826182504, 69.0380273670396]]}, "properties": {"source": "2143524", "target": "29771782"}}, {"type": "Feature", "geometry": {"type": "LineString", "coordinates": [[-24.293257676644004, 69.03752823130603], [-24.2988150681916, 69.0407816132849]]}, "properties": {"source": "11998032", "target": "2315534"}}, {"type": "Feature", "geometry": {"type": "LineString", "coordinates": [[-24.301451181393674, 69.03995033308226], [-24.294155956378688, 69.04277778370479]]}, "properties": {"source": "2143524", "target": "19733468"}}, {"type": "Feature", "geometry": {"type": "LineString", "coordinates": [[-24.301451181393674, 69.03995033308226], [-24.293242006572626, 69.03867077089438]]}, "properties": {"source": "2143524", "target": "2035958"}}, {"type": "Feature", "geometry": {"type": "LineString", "coordinates": [[-24.28979202688072, 69.04038979905806], [-24.288421706730503, 69.04130517527435]]}, "properties": {"source": "2357345", "target": "2009965"}}, {"type": "Feature", "geometry": {"type": "LineString", "coordinates": [[-24.28979202688072, 69.04038979905806], [-24.294695146590556, 69.04147152841696]]}, "properties": {"source": "2357345", "target": "372504"}}, {"type": "Feature", "geometry": {"type": "LineString", "coordinates": [[-24.28979202688072, 69.04038979905806], [-24.296501035204614, 69.03831891853716]]}, "properties": {"source": "2357345", "target": "3581958"}}, {"type": "Feature", "geometry": {"type": "LineString", "coordinates": [[-24.28979202688072, 69.04038979905806], [-24.298527388046125, 69.04274557695615]]}, "properties": {"source": "2357345", "target": "1484137"}}, {"type": "Feature", "geometry": {"type": "LineString", "coordinates": [[-24.28979202688072, 69.04038979905806], [-24.300889970243475, 69.03989561806881]]}, "properties": {"source": "2357345", "target": "1494990"}}, {"type": "Feature", "geometry": {"type": "LineString", "coordinates": [[-24.28979202688072, 69.04038979905806], [-24.290406803713864, 69.04212015072957]]}, "properties": {"source": "2357345", "target": "3094638"}}, {"type": "Feature", "geometry": {"type": "LineString", "coordinates": [[-24.28979202688072, 69.04038979905806], [-24.292890540292944, 69.03993786955306]]}, "properties": {"source": "2357345", "target": "28501"}}, {"type": "Feature", "geometry": {"type": "LineString", "coordinates": [[-24.28979202688072, 69.04038979905806], [-24.293978886967295, 69.03728641794413]]}, "properties": {"source": "2357345", "target": "18042224"}}, {"type": "Feature", "geometry": {"type": "LineString", "coordinates": [[-24.295814679593633, 69.04115374405973], [-24.297992767234263, 69.04035580013161]]}, "properties": {"source": "29548494", "target": "3345470"}}, {"type": "Feature", "geometry": {"type": "LineString", "coordinates": [[-24.295814679593633, 69.04115374405973], [-24.294499300639785, 69.04052142435]]}, "properties": {"source": "29548494", "target": "29436339"}}, {"type": "Feature", "geometry": {"type": "LineString", "coordinates": [[-24.295814679593633, 69.04115374405973], [-24.301460366889415, 69.04282592866326]]}, "properties": {"source": "29548494", "target": "2970141"}}, {"type": "Feature", "geometry": {"type": "LineString", "coordinates": [[-24.295814679593633, 69.04115374405973], [-24.290881859223504, 69.040731671251]]}, "properties": {"source": "29548494", "target": "10474369"}}, {"type": "Feature", "geometry": {"type": "LineString", "coordinates": [[-24.295814679593633, 69.04115374405973], [-24.288180232522336, 69.0380441310894]]}, "properties": {"source": "29548494", "target": "1184697"}}, {"type": "Feature", "geometry": {"type": "LineString", "coordinates": [[-24.301451181393674, 69.03995033308226], [-24.2988150681916, 69.0407816132849]]}, "properties": {"source": "2143524", "target": "2315534"}}]}