{"type": "FeatureCollection", "features": [{"type": "Feature", "geometry": {"type": "LineString", "coordinates": [[-7.363611483782961, 69.23162909557348], [-7.3553092285977755, 69.23174323535886]]}, "properties": {"source": "36108190", "target": "35193260"}}, {"type": "Feature", "geometry": {"type": "LineString", "coordinates": [[-7.363611483782961, 69.23162909557348], [-7.354703636971749, 69.23157607636983]]}, "properties": {"source": "36108190", "target": "11301372"}}, {"type": "Feature", "geometry": {"type": "LineString", "coordinates": [[-7.363611483782961, 69.23162909557348], [-7.355865676814574, 69.23132343708403]]}, "properties": {"source": "36108190", "target": "34312063"}}, {"type": "Feature", "geometry": {"type": "LineString", "coordinates": [[-7.363611483782961, 69.23162909557348], [-7.359399226824763, 69.23294605755865]]}, "properties": {"source": "36108190", "target": "34015798"}}, {"type": "Feature", "geometry": {"type": "LineString", "coordinates": [[-7.362043780200452, 69.23032604731827], [-7.362884670713271, 69.22973810996749]]}, "properties": {"source": "32607156", "target": "35695670"}}, {"type": "Feature", "geometry": {"type": "LineString", "coordinates": [[-7.362043780200452, 69.23032604731827], [-7.35590227570691, 69.23134987780563]]}, "properties": {"source": "32607156", "target": "36113908"}}, {"type": "Feature", "geometry": {"type": "LineString", "coordinates": [[-7.362043780200452, 69.23032604731827], [-7.3553092285977755, 69.23174323535886]]}, "properties": {"source": "32607156", "target": "35193260"}}, {"type": "Feature", "geometry": {"type": "LineString", "coordinates": [[-7.355431614236352, 69.23161435240425], [-7.357165583724537, 69.23107381496897]]}, "properties": {"source": "542176", "target": "606541"}}, {"type": "Feature", "geometry": {"type": "LineString", "coordinates": [[-7.355431614236352, 69.23161435240425], [-7.362984859399489, 69.23005488937486]]}, "properties": {"source": "542176", "target": "701564"}}, {"type": "Feature", "geometry": {"type": "LineString", "coordinates": [[-7.360380393803666, 69.23114022882928], [-7.362884670713271, 69.22973810996749]]}, "properties": {"source": "11420022", "target": "35695670"}}, {"type": "Feature", "geometry": {"type": "LineString", "coordinates": [[-7.360380393803666, 69.23114022882928], [-7.359695785973031, 69.22995156333101]]}, "properties": {"source": "11420022", "target": "34058170"}}, {"type": "Feature", "geometry": {"type": "LineString", "coordinates": [[-7.360380393803666, 69.23114022882928], [-7.361772180659614, 69.22983769470713]]}, "properties": {"source": "11420022", "target": "34930253"}}, {"type": "Feature", "geometry": {"type": "LineString", "coordinates": [[-7.362786994935703, 69.23223823457596], [-7.355866136445741, 69.23160906967937]]}, "properties": {"source": "26107388", "target": "27994267"}}, {"type": "Feature", "geometry": {"type": "LineString", "coordinates": [[-7.362786994935703, 69.23223823457596], [-7.360973544416879, 69.23216046096928]]}, "properties": {"source": "26107388", "target": "27861677"}}, {"type": "Feature", "geometry": {"type": "LineString", "coordinates": [[-7.361772180659614, 69.22983769470713], [-7.354703636971749, 69.23157607636983]]}, "properties": {"source": "34930253", "target": "11301372"}}, {"type": "Feature", "geometry": {"type": "LineString", "coordinates": [[-7.361772180659614, 69.22983769470713], [-7.355865676814574, 69.23132343708403]]}, "properties": {"source": "34930253", "target": "34312063"}}, {"type": "Feature", "geometry": {"type": "LineString", "coordinates": [[-7.361772180659614, 69.22983769470713], [-7.359399226824763, 69.23294605755865]]}, "properties": {"source": "34930253", "target": "34015798"}}, {"type": "Feature", "geometry": {"type": "LineString", "coordinates": [[-7.363611483782961, 69.23162909557348], [-7.362884670713271, 69.22973810996749]]}, "properties": {"source": "36108190", "target": "35695670"}}, {"type": "Feature", "geometry": {"type": "LineString", "coordinates": [[-7.363611483782961, 69.23162909557348], [-7.359695785973031, 69.22995156333101]]}, "properties": {"source": "36108190", "target": "34058170"}}, {"type": "Feature", "geometry": {"type": "LineString", "coordinates": [[-7.363611483782961, 69.23162909557348], [-7.361772180659614, 69.22983769470713]]}, "properties": {"source": "36108190", "target": "34930253"}}, {"type": "Feature", "geometry": {"type": "LineString", "coordinates": [[-7.363611483782961, 69.23162909557348], [-7.362043780200452, 69.23032604731827]]}, "properties": {"source": "36108190", "target": "32607156"}}, {"type": "Feature", "geometry": {"type": "LineString", "coordinates": [[-7.363611483782961, 69.23162909557348], [-7.35590227570691, 69.23134987780563]]}, "properties": {"source": "36108190", "target": "36113908"}}, {"type": "Feature", "geometry": {"type": "LineString", "coordinates": [[-7.363611483782961, 69.23162909557348], [-7.361964958581552, 69.23203828594751]]}, "properties": {"source": "36108190", "target": "34201778"}}, {"type": "Feature", "geometry": {"type": "LineString", "coordinates": [[-7.35701129459099, 69.2306210317681], [-7.355866136445741, 69.23160906967937]]}, "properties": {"source": "29975065", "target": "27994267"}}, {"type": "Feature", "geometry": {"type": "LineString", "coordinates": [[-7.35701129459099, 69.2306210317681], [-7.355926540317881, 69.23129495642505]]}, "properties": {"source": "29975065", "target": "27846214"}}, {"type": "Feature", "geometry": {"type": "LineString", "coordinates": [[-7.35701129459099, 69.2306210317681], [-7.354364651258038, 69.23264233843341]]}, "properties": {"source": "29975065", "target": "2884299"}}, {"type": "Feature", "geometry": {"type": "LineString", "coordinates": [[-7.35701129459099, 69.2306210317681], [-7.360380393803666, 69.23114022882928]]}, "properties": {"source": "29975065", "target": "11420022"}}, {"type": "Feature", "geometry": {"type": "LineString", "coordinates": [[-7.35701129459099, 69.2306210317681], [-7.362786994935703, 69.23223823457596]]}, "properties": {"source": "29975065", "target": "26107388"}}, {"type": "Feature", "geometry": {"type": "LineString", "coordinates": [[-7.35701129459099, 69.2306210317681], [-7.357844630343095, 69.23267250206686]]}, "properties": {"source": "29975065", "target": "32607146"}}, {"type": "Feature", "geometry": {"type": "LineString", "coordinates": [[-7.35701129459099, 69.2306210317681], [-7.355444449379803, 69.23220744216198]]}, "properties": {"source": "29975065", "target": "1318080"}}, {"type": "Feature", "geometry": {"type": "LineString", "coordinates": [[-7.35701129459099, 69.2306210317681], [-7.360973544416879, 69.23216046096928]]}, "properties": {"source": "29975065", "target": "27861677"}}, {"type": "Feature", "geometry": {"type": "LineString", "coordinates": [[-7.35701129459099, 69.2306210317681], [-7.354342529484256, 69.22980994904637]]}, "properties": {"source": "29975065", "target": "12280676"}}, {"type": "Feature", "geometry": {"type": "LineString", "coordinates": [[-7.35701129459099, 69.2306210317681], [-7.3617551696893315, 69.23291625527594]]}, "properties": {"source": "29975065", "target": "1274634"}}, {"type": "Feature", "geometry": {"type": "LineString", "coordinates": [[-7.359695785973031, 69.22995156333101], [-7.362884670713271, 69.22973810996749]]}, "properties": {"source": "34058170", "target": "35695670"}}, {"type": "Feature", "geometry": {"type": "LineString", "coordinates": [[-7.359695785973031, 69.22995156333101], [-7.362043780200452, 69.23032604731827]]}, "properties": {"source": "34058170", "target": "32607156"}}, {"type": "Feature", "geometry": {"type": "LineString", "coordinates": [[-7.359695785973031, 69.22995156333101], [-7.35590227570691, 69.23134987780563]]}, "properties": {"source": "34058170", "target": "36113908"}}, {"type": "Feature", "geometry": {"type": "LineString", "coordinates": [[-7.359695785973031, 69.22995156333101], [-7.3553092285977755, 69.23174323535886]]}, "properties": {"source": "34058170", "target": "35193260"}}, {"type": "Feature", "geometry": {"type": "LineString", "coordinates": [[-7.359695785973031, 69.22995156333101], [-7.354703636971749, 69.23157607636983]]}, "properties": {"source": "34058170", "target": "11301372"}}, {"type": "Feature", "geometry": {"type": "LineString", "coordinates": [[-7.359695785973031, 69.22995156333101], [-7.354364651258038, 69.23264233843341]]}, "properties": {"source": "34058170", "target": "2884299"}}, {"type": "Feature", "geometry": {"type": "LineString", "coordinates": [[-7.361964958581552, 69.23203828594751], [-7.354364651258038, 69.23264233843341]]}, "properties": {"source": "34201778", "target": "2884299"}}, {"type": "Feature", "geometry": {"type": "LineString", "coordinates": [[-7.361964958581552, 69.23203828594751], [-7.360358859049853, 69.23161055093661]]}, "properties": {"source": "34201778", "target": "32621177"}}, {"type": "Feature", "geometry": {"type": "LineString", "coordinates": [[-7.3553092285977755, 69.23174323535886], [-7.355865676814574, 69.23132343708403]]}, "properties": {"source": "35193260", "target": "34312063"}}, {"type": "Feature", "geometry": {"type": "LineString", "coordinates": [[-7.364232520471774, 69.23035958212037], [-7.362884670713271, 69.22973810996749]]}, "properties": {"source": "33804456", "target": "35695670"}}, {"type": "Feature", "geometry": {"type": "LineString", "coordinates": [[-7.364232520471774, 69.23035958212037], [-7.359720417898785, 69.23007918842285]]}, "properties": {"source": "33804456", "target": "31935104"}}, {"type": "Feature", "geometry": {"type": "LineString", "coordinates": [[-7.364232520471774, 69.23035958212037], [-7.362110724401077, 69.23115004472092]]}, "properties": {"source": "33804456", "target": "34874228"}}, {"type": "Feature", "geometry": {"type": "LineString", "coordinates": [[-7.364232520471774, 69.23035958212037], [-7.35701129459099, 69.2306210317681]]}, "properties": {"source": "33804456", "target": "29975065"}}, {"type": "Feature", "geometry": {"type": "LineString", "coordinates": [[-7.355926540317881, 69.23129495642505], [-7.362786994935703, 69.23223823457596]]}, "properties": {"source": "27846214", "target": "26107388"}}, {"type": "Feature", "geometry": {"type": "LineString", "coordinates": [[-7.355926540317881, 69.23129495642505], [-7.360973544416879, 69.23216046096928]]}, "properties": {"source": "27846214", "target": "27861677"}}, {"type": "Feature", "geometry": {"type": "LineString", "coordinates": [[-7.354364651258038, 69.23264233843341], [-7.361376884927125, 69.23101740373014]]}, "properties": {"source": "2884299", "target": "872761"}}, {"type": "Feature", "geometry": {"type": "LineString", "coordinates": [[-7.355431614236352, 69.23161435240425], [-7.362884670713271, 69.22973810996749]]}, "properties": {"source": "542176", "target": "35695670"}}, {"type": "Feature", "geometry": {"type": "LineString", "coordinates": [[-7.355431614236352, 69.23161435240425], [-7.362110724401077, 69.23115004472092]]}, "properties": {"source": "542176", "target": "34874228"}}, {"type": "Feature", "geometry": {"type": "LineString", "coordinates": [[-7.355431614236352, 69.23161435240425], [-7.361772180659614, 69.22983769470713]]}, "properties": {"source": "542176", "target": "34930253"}}, {"type": "Feature", "geometry": {"type": "LineString", "coordinates": [[-7.355431614236352, 69.23161435240425], [-7.363611483782961, 69.23162909557348]]}, "properties": {"source": "542176", "target": "36108190"}}, {"type": "Feature", "geometry": {"type": "LineString", "coordinates": [[-7.355431614236352, 69.23161435240425], [-7.35590227570691, 69.23134987780563]]}, "properties": {"source": "542176", "target": "36113908"}}, {"type": "Feature", "geometry": {"type": "LineString", "coordinates": [[-7.355431614236352, 69.23161435240425], [-7.3553092285977755, 69.23174323535886]]}, "properties": {"source": "542176", "target": "35193260"}}, {"type": "Feature", "geometry": {"type": "LineString", "coordinates": [[-7.364001996964731, 69.23282073114004], [-7.3617551696893315, 69.23291625527594]]}, "properties": {"source": "29483770", "target": "1274634"}}, {"type": "Feature", "geometry": {"type": "LineString", "coordinates": [[-7.361772180659614, 69.22983769470713], [-7.362884670713271, 69.22973810996749]]}, "properties": {"source": "34930253", "target": "35695670"}}, {"type": "Feature", "geometry": {"type": "LineString", "coordinates": [[-7.361772180659614, 69.22983769470713], [-7.359695785973031, 69.22995156333101]]}, "properties": {"source": "34930253", "target": "34058170"}}, {"type": "Feature", "geometry": {"type": "LineString", "coordinates": [[-7.361772180659614, 69.22983769470713], [-7.362043780200452, 69.23032604731827]]}, "properties": {"source": "34930253", "target": "32607156"}}, {"type": "Feature", "geometry": {"type": "LineString", "coordinates": [[-7.361772180659614, 69.22983769470713], [-7.35590227570691, 69.23134987780563]]}, "properties": {"source": "34930253", "target": "36113908"}}, {"type": "Feature", "geometry": {"type": "LineString", "coordinates": [[-7.361772180659614, 69.22983769470713], [-7.361964958581552, 69.23203828594751]]}, "properties": {"source": "34930253", "target": "34201778"}}, {"type": "Feature", "geometry": {"type": "LineString", "coordinates": [[-7.361772180659614, 69.22983769470713], [-7.3553092285977755, 69.23174323535886]]}, "properties": {"source": "34930253", "target": "35193260"}}, {"type": "Feature", "geometry": {"type": "LineString", "coordinates": [[-7.362110724401077, 69.23115004472092], [-7.354342529484256, 69.22980994904637]]}, "properties": {"source": "34874228", "target": "12280676"}}, {"type": "Feature", "geometry": {"type": "LineString", "coordinates": [[-7.35701129459099, 69.2306210317681], [-7.362419469717366, 69.23153116864594]]}, "properties": {"source": "29975065", "target": "30771135"}}, {"type": "Feature", "geometry": {"type": "LineString", "coordinates": [[-7.35701129459099, 69.2306210317681], [-7.359695785973031, 69.22995156333101]]}, "properties": {"source": "29975065", "target": "34058170"}}, {"type": "Feature", "geometry": {"type": "LineString", "coordinates": [[-7.35701129459099, 69.2306210317681], [-7.364001996964731, 69.23282073114004]]}, "properties": {"source": "29975065", "target": "29483770"}}, {"type": "Feature", "geometry": {"type": "LineString", "coordinates": [[-7.35701129459099, 69.2306210317681], [-7.361772180659614, 69.22983769470713]]}, "properties": {"source": "29975065", "target": "34930253"}}, {"type": "Feature", "geometry": {"type": "LineString", "coordinates": [[-7.35701129459099, 69.2306210317681], [-7.362043780200452, 69.23032604731827]]}, "properties": {"source": "29975065", "target": "32607156"}}, {"type": "Feature", "geometry": {"type": "LineString", "coordinates": [[-7.35701129459099, 69.2306210317681], [-7.361964958581552, 69.23203828594751]]}, "properties": {"source": "29975065", "target": "34201778"}}, {"type": "Feature", "geometry": {"type": "LineString", "coordinates": [[-7.35701129459099, 69.2306210317681], [-7.3553092285977755, 69.23174323535886]]}, "properties": {"source": "29975065", "target": "35193260"}}, {"type": "Feature", "geometry": {"type": "LineString", "coordinates": [[-7.35701129459099, 69.2306210317681], [-7.354703636971749, 69.23157607636983]]}, "properties": {"source": "29975065", "target": "11301372"}}, {"type": "Feature", "geometry": {"type": "LineString", "coordinates": [[-7.359695785973031, 69.22995156333101], [-7.359399226824763, 69.23294605755865]]}, "properties": {"source": "34058170", "target": "34015798"}}, {"type": "Feature", "geometry": {"type": "LineString", "coordinates": [[-7.359695785973031, 69.22995156333101], [-7.359180756524779, 69.230428789142]]}, "properties": {"source": "34058170", "target": "28667967"}}, {"type": "Feature", "geometry": {"type": "LineString", "coordinates": [[-7.364001996964731, 69.23282073114004], [-7.362419469717366, 69.23153116864594]]}, "properties": {"source": "29483770", "target": "30771135"}}, {"type": "Feature", "geometry": {"type": "LineString", "coordinates": [[-7.364001996964731, 69.23282073114004], [-7.359695785973031, 69.22995156333101]]}, "properties": {"source": "29483770", "target": "34058170"}}, {"type": "Feature", "geometry": {"type": "LineString", "coordinates": [[-7.364001996964731, 69.23282073114004], [-7.362043780200452, 69.23032604731827]]}, "properties": {"source": "29483770", "target": "32607156"}}, {"type": "Feature", "geometry": {"type": "LineString", "coordinates": [[-7.364001996964731, 69.23282073114004], [-7.361964958581552, 69.23203828594751]]}, "properties": {"source": "29483770", "target": "34201778"}}, {"type": "Feature", "geometry": {"type": "LineString", "coordinates": [[-7.364001996964731, 69.23282073114004], [-7.354703636971749, 69.23157607636983]]}, "properties": {"source": "29483770", "target": "11301372"}}, {"type": "Feature", "geometry": {"type": "LineString", "coordinates": [[-7.362043780200452, 69.23032604731827], [-7.355866136445741, 69.23160906967937]]}, "properties": {"source": "32607156", "target": "27994267"}}, {"type": "Feature", "geometry": {"type": "LineString", "coordinates": [[-7.362043780200452, 69.23032604731827], [-7.354364651258038, 69.23264233843341]]}, "properties": {"source": "32607156", "target": "2884299"}}, {"type": "Feature", "geometry": {"type": "LineString", "coordinates": [[-7.35590227570691, 69.23134987780563], [-7.3553092285977755, 69.23174323535886]]}, "properties": {"source": "36113908", "target": "35193260"}}, {"type": "Feature", "geometry": {"type": "LineString", "coordinates": [[-7.35590227570691, 69.23134987780563], [-7.355865676814574, 69.23132343708403]]}, "properties": {"source": "36113908", "target": "34312063"}}, {"type": "Feature", "geometry": {"type": "LineString", "coordinates": [[-7.361964958581552, 69.23203828594751], [-7.362884670713271, 69.22973810996749]]}, "properties": {"source": "34201778", "target": "35695670"}}, {"type": "Feature", "geometry": {"type": "LineString", "coordinates": [[-7.361964958581552, 69.23203828594751], [-7.359695785973031, 69.22995156333101]]}, "properties": {"source": "34201778", "target": "34058170"}}, {"type": "Feature", "geometry": {"type": "LineString", "coordinates": [[-7.361964958581552, 69.23203828594751], [-7.362043780200452, 69.23032604731827]]}, "properties": {"source": "34201778", "target": "32607156"}}, {"type": "Feature", "geometry": {"type": "LineString", "coordinates": [[-7.361964958581552, 69.23203828594751], [-7.35590227570691, 69.23134987780563]]}, "properties": {"source": "34201778", "target": "36113908"}}, {"type": "Feature", "geometry": {"type": "LineString", "coordinates": [[-7.361964958581552, 69.23203828594751], [-7.3553092285977755, 69.23174323535886]]}, "properties": {"source": "34201778", "target": "35193260"}}, {"type": "Feature", "geometry": {"type": "LineString", "coordinates": [[-7.359720417898785, 69.23007918842285], [-7.354342529484256, 69.22980994904637]]}, "properties": {"source": "31935104", "target": "12280676"}}, {"type": "Feature", "geometry": {"type": "LineString", "coordinates": [[-7.359720417898785, 69.23007918842285], [-7.3617551696893315, 69.23291625527594]]}, "properties": {"source": "31935104", "target": "1274634"}}, {"type": "Feature", "geometry": {"type": "LineString", "coordinates": [[-7.359720417898785, 69.23007918842285], [-7.363700473978838, 69.2329938300262]]}, "properties": {"source": "31935104", "target": "10782920"}}, {"type": "Feature", "geometry": {"type": "LineString", "coordinates": [[-7.359720417898785, 69.23007918842285], [-7.354766438535165, 69.23140361880132]]}, "properties": {"source": "31935104", "target": "11559194"}}, {"type": "Feature", "geometry": {"type": "LineString", "coordinates": [[-7.359720417898785, 69.23007918842285], [-7.358065775792653, 69.23270717848456]]}, "properties": {"source": "31935104", "target": "11709520"}}, {"type": "Feature", "geometry": {"type": "LineString", "coordinates": [[-7.362110724401077, 69.23115004472092], [-7.362419469717366, 69.23153116864594]]}, "properties": {"source": "34874228", "target": "30771135"}}, {"type": "Feature", "geometry": {"type": "LineString", "coordinates": [[-7.362110724401077, 69.23115004472092], [-7.362884670713271, 69.22973810996749]]}, "properties": {"source": "34874228", "target": "35695670"}}, {"type": "Feature", "geometry": {"type": "LineString", "coordinates": [[-7.362110724401077, 69.23115004472092], [-7.359720417898785, 69.23007918842285]]}, "properties": {"source": "34874228", "target": "31935104"}}, {"type": "Feature", "geometry": {"type": "LineString", "coordinates": [[-7.362110724401077, 69.23115004472092], [-7.35701129459099, 69.2306210317681]]}, "properties": {"source": "34874228", "target": "29975065"}}, {"type": "Feature", "geometry": {"type": "LineString", "coordinates": [[-7.362110724401077, 69.23115004472092], [-7.359695785973031, 69.22995156333101]]}, "properties": {"source": "34874228", "target": "34058170"}}, {"type": "Feature", "geometry": {"type": "LineString", "coordinates": [[-7.362110724401077, 69.23115004472092], [-7.364001996964731, 69.23282073114004]]}, "properties": {"source": "34874228", "target": "29483770"}}, {"type": "Feature", "geometry": {"type": "LineString", "coordinates": [[-7.362110724401077, 69.23115004472092], [-7.361772180659614, 69.22983769470713]]}, "properties": {"source": "34874228", "target": "34930253"}}, {"type": "Feature", "geometry": {"type": "LineString", "coordinates": [[-7.362110724401077, 69.23115004472092], [-7.363611483782961, 69.23162909557348]]}, "properties": {"source": "34874228", "target": "36108190"}}, {"type": "Feature", "geometry": {"type": "LineString", "coordinates": [[-7.362110724401077, 69.23115004472092], [-7.362043780200452, 69.23032604731827]]}, "properties": {"source": "34874228", "target": "32607156"}}, {"type": "Feature", "geometry": {"type": "LineString", "coordinates": [[-7.362110724401077, 69.23115004472092], [-7.35590227570691, 69.23134987780563]]}, "properties": {"source": "34874228", "target": "36113908"}}, {"type": "Feature", "geometry": {"type": "LineString", "coordinates": [[-7.362110724401077, 69.23115004472092], [-7.361964958581552, 69.23203828594751]]}, "properties": {"source": "34874228", "target": "34201778"}}, {"type": "Feature", "geometry": {"type": "LineString", "coordinates": [[-7.359720417898785, 69.23007918842285], [-7.362884670713271, 69.22973810996749]]}, "properties": {"source": "31935104", "target": "35695670"}}, {"type": "Feature", "geometry": {"type": "LineString", "coordinates": [[-7.359720417898785, 69.23007918842285], [-7.35701129459099, 69.2306210317681]]}, "properties": {"source": "31935104", "target": "29975065"}}, {"type": "Feature", "geometry": {"type": "LineString", "coordinates": [[-7.359720417898785, 69.23007918842285], [-7.359695785973031, 69.22995156333101]]}, "properties": {"source": "31935104", "target": "34058170"}}, {"type": "Feature", "geometry": {"type": "LineString", "coordinates": [[-7.359720417898785, 69.23007918842285], [-7.364001996964731, 69.23282073114004]]}, "properties": {"source": "31935104", "target": "29483770"}}, {"type": "Feature", "geometry": {"type": "LineString", "coordinates": [[-7.359720417898785, 69.23007918842285], [-7.361772180659614, 69.22983769470713]]}, "properties": {"source": "31935104", "target": "34930253"}}, {"type": "Feature", "geometry": {"type": "LineString", "coordinates": [[-7.359720417898785, 69.23007918842285], [-7.363611483782961, 69.23162909557348]]}, "properties": {"source": "31935104", "target": "36108190"}}, {"type": "Feature", "geometry": {"type": "LineString", "coordinates": [[-7.359720417898785, 69.23007918842285], [-7.362043780200452, 69.23032604731827]]}, "properties": {"source": "31935104", "target": "32607156"}}, {"type": "Feature", "geometry": {"type": "LineString", "coordinates": [[-7.364001996964731, 69.23282073114004], [-7.355866136445741, 69.23160906967937]]}, "properties": {"source": "29483770", "target": "27994267"}}, {"type": "Feature", "geometry": {"type": "LineString", "coordinates": [[-7.364001996964731, 69.23282073114004], [-7.355926540317881, 69.23129495642505]]}, "properties": {"source": "29483770", "target": "27846214"}}, {"type": "Feature", "geometry": {"type": "LineString", "coordinates": [[-7.364001996964731, 69.23282073114004], [-7.354364651258038, 69.23264233843341]]}, "properties": {"source": "29483770", "target": "2884299"}}, {"type": "Feature", "geometry": {"type": "LineString", "coordinates": [[-7.364001996964731, 69.23282073114004], [-7.360380393803666, 69.23114022882928]]}, "properties": {"source": "29483770", "target": "11420022"}}, {"type": "Feature", "geometry": {"type": "LineString", "coordinates": [[-7.364001996964731, 69.23282073114004], [-7.362786994935703, 69.23223823457596]]}, "properties": {"source": "29483770", "target": "26107388"}}, {"type": "Feature", "geometry": {"type": "LineString", "coordinates": [[-7.364001996964731, 69.23282073114004], [-7.355865676814574, 69.23132343708403]]}, "properties": {"source": "29483770", "target": "34312063"}}, {"type": "Feature", "geometry": {"type": "LineString", "coordinates": [[-7.364001996964731, 69.23282073114004], [-7.355444449379803, 69.23220744216198]]}, "properties": {"source": "29483770", "target": "1318080"}}, {"type": "Feature", "geometry": {"type": "LineString", "coordinates": [[-7.364001996964731, 69.23282073114004], [-7.360973544416879, 69.23216046096928]]}, "properties": {"source": "29483770", "target": "27861677"}}, {"type": "Feature", "geometry": {"type": "LineString", "coordinates": [[-7.364001996964731, 69.23282073114004], [-7.354342529484256, 69.22980994904637]]}, "properties": {"source": "29483770", "target": "12280676"}}, {"type": "Feature", "geometry": {"type": "LineString", "coordinates": [[-7.363700473978838, 69.2329938300262], [-7.362419469717366, 69.23153116864594]]}, "properties": {"source": "10782920", "target": "30771135"}}, {"type": "Feature", "geometry": {"type": "LineString", "coordinates": [[-7.363700473978838, 69.2329938300262], [-7.362884670713271, 69.22973810996749]]}, "properties": {"source": "10782920", "target": "35695670"}}, {"type": "Feature", "geometry": {"type": "LineString", "coordinates": [[-7.36092892399418, 69.23264288011285], [-7.359695785973031, 69.22995156333101]]}, "properties": {"source": "34489941", "target": "34058170"}}, {"type": "Feature", "geometry": {"type": "LineString", "coordinates": [[-7.36092892399418, 69.23264288011285], [-7.3599354913443165, 69.2322426783793]]}, "properties": {"source": "34489941", "target": "33303985"}}, {"type": "Feature", "geometry": {"type": "LineString", "coordinates": [[-7.36092892399418, 69.23264288011285], [-7.361571274583952, 69.22989013393232]]}, "properties": {"source": "34489941", "target": "6614360"}}, {"type": "Feature", "geometry": {"type": "LineString", "coordinates": [[-7.354766438535165, 69.23140361880132], [-7.362884670713271, 69.22973810996749]]}, "properties": {"source": "11559194", "target": "35695670"}}, {"type": "Feature", "geometry": {"type": "LineString", "coordinates": [[-7.362984859399489, 69.23005488937486], [-7.354364651258038, 69.23264233843341]]}, "properties": {"source": "701564", "target": "2884299"}}, {"type": "Feature", "geometry": {"type": "LineString", "coordinates": [[-7.359720417898785, 69.23007918842285], [-7.35590227570691, 69.23134987780563]]}, "properties": {"source": "31935104", "target": "36113908"}}, {"type": "Feature", "geometry": {"type": "LineString", "coordinates": [[-7.359720417898785, 69.23007918842285], [-7.361964958581552, 69.23203828594751]]}, "properties": {"source": "31935104", "target": "34201778"}}, {"type": "Feature", "geometry": {"type": "LineString", "coordinates": [[-7.359720417898785, 69.23007918842285], [-7.3553092285977755, 69.23174323535886]]}, "properties": {"source": "31935104", "target": "35193260"}}, {"type": "Feature", "geometry": {"type": "LineString", "coordinates": [[-7.359720417898785, 69.23007918842285], [-7.354703636971749, 69.23157607636983]]}, "properties": {"source": "31935104", "target": "11301372"}}, {"type": "Feature", "geometry": {"type": "LineString", "coordinates": [[-7.359720417898785, 69.23007918842285], [-7.355866136445741, 69.23160906967937]]}, "properties": {"source": "31935104", "target": "27994267"}}, {"type": "Feature", "geometry": {"type": "LineString", "coordinates": [[-7.359720417898785, 69.23007918842285], [-7.355926540317881, 69.23129495642505]]}, "properties": {"source": "31935104", "target": "27846214"}}, {"type": "Feature", "geometry": {"type": "LineString", "coordinates": [[-7.359720417898785, 69.23007918842285], [-7.354364651258038, 69.23264233843341]]}, "properties": {"source": "31935104", "target": "2884299"}}, {"type": "Feature", "geometry": {"type": "LineString", "coordinates": [[-7.359720417898785, 69.23007918842285], [-7.360380393803666, 69.23114022882928]]}, "properties": {"source": "31935104", "target": "11420022"}}, {"type": "Feature", "geometry": {"type": "LineString", "coordinates": [[-7.359720417898785, 69.23007918842285], [-7.355444449379803, 69.23220744216198]]}, "properties": {"source": "31935104", "target": "1318080"}}, {"type": "Feature", "geometry": {"type": "LineString", "coordinates": [[-7.362419469717366, 69.23153116864594], [-7.355866136445741, 69.23160906967937]]}, "properties": {"source": "30771135", "target": "27994267"}}, {"type": "Feature", "geometry": {"type": "LineString", "coordinates": [[-7.362419469717366, 69.23153116864594], [-7.355926540317881, 69.23129495642505]]}, "properties": {"source": "30771135", "target": "27846214"}}, {"type": "Feature", "geometry": {"type": "LineString", "coordinates": [[-7.362419469717366, 69.23153116864594], [-7.354364651258038, 69.23264233843341]]}, "properties": {"source": "30771135", "target": "2884299"}}, {"type": "Feature", "geometry": {"type": "LineString", "coordinates": [[-7.362419469717366, 69.23153116864594], [-7.360380393803666, 69.23114022882928]]}, "properties": {"source": "30771135", "target": "11420022"}}, {"type": "Feature", "geometry": {"type": "LineString", "coordinates": [[-7.362419469717366, 69.23153116864594], [-7.362786994935703, 69.23223823457596]]}, "properties": {"source": "30771135", "target": "26107388"}}, {"type": "Feature", "geometry": {"type": "LineString", "coordinates": [[-7.362419469717366, 69.23153116864594], [-7.355444449379803, 69.23220744216198]]}, "properties": {"source": "30771135", "target": "1318080"}}, {"type": "Feature", "geometry": {"type": "LineString", "coordinates": [[-7.362419469717366, 69.23153116864594], [-7.360973544416879, 69.23216046096928]]}, "properties": {"source": "30771135", "target": "27861677"}}, {"type": "Feature", "geometry": {"type": "LineString", "coordinates": [[-7.362419469717366, 69.23153116864594], [-7.354342529484256, 69.22980994904637]]}, "properties": {"source": "30771135", "target": "12280676"}}, {"type": "Feature", "geometry": {"type": "LineString", "coordinates": [[-7.362419469717366, 69.23153116864594], [-7.354766438535165, 69.23140361880132]]}, "properties": {"source": "30771135", "target": "11559194"}}, {"type": "Feature", "geometry": {"type": "LineString", "coordinates": [[-7.362419469717366, 69.23153116864594], [-7.358065775792653, 69.23270717848456]]}, "properties": {"source": "30771135", "target": "11709520"}}, {"type": "Feature", "geometry": {"type": "LineString", "coordinates": [[-7.362884670713271, 69.22973810996749], [-7.35590227570691, 69.23134987780563]]}, "properties": {"source": "35695670", "target": "36113908"}}, {"type": "Feature", "geometry": {"type": "LineString", "coordinates": [[-7.362884670713271, 69.22973810996749], [-7.3553092285977755, 69.23174323535886]]}, "properties": {"source": "35695670", "target": "35193260"}}, {"type": "Feature", "geometry": {"type": "LineString", "coordinates": [[-7.362884670713271, 69.22973810996749], [-7.355865676814574, 69.23132343708403]]}, "properties": {"source": "35695670", "target": "34312063"}}, {"type": "Feature", "geometry": {"type": "LineString", "coordinates": [[-7.362884670713271, 69.22973810996749], [-7.354342529484256, 69.22980994904637]]}, "properties": {"source": "35695670", "target": "12280676"}}, {"type": "Feature", "geometry": {"type": "LineString", "coordinates": [[-7.362884670713271, 69.22973810996749], [-7.358065775792653, 69.23270717848456]]}, "properties": {"source": "35695670", "target": "11709520"}}, {"type": "Feature", "geometry": {"type": "LineString", "coordinates": [[-7.359720417898785, 69.23007918842285], [-7.362419469717366, 69.23153116864594]]}, "properties": {"source": "31935104", "target": "30771135"}}, {"type": "Feature", "geometry": {"type": "LineString", "coordinates": [[-7.364232520471774, 69.23035958212037], [-7.355865676814574, 69.23132343708403]]}, "properties": {"source": "33804456", "target": "34312063"}}, {"type": "Feature", "geometry": {"type": "LineString", "coordinates": [[-7.364232520471774, 69.23035958212037], [-7.359399226824763, 69.23294605755865]]}, "properties": {"source": "33804456", "target": "34015798"}}, {"type": "Feature", "geometry": {"type": "LineString", "coordinates": [[-7.354703636971749, 69.23157607636983], [-7.362884670713271, 69.22973810996749]]}, "properties": {"source": "11301372", "target": "35695670"}}, {"type": "Feature", "geometry": {"type": "LineString", "coordinates": [[-7.354703636971749, 69.23157607636983], [-7.35590227570691, 69.23134987780563]]}, "properties": {"source": "11301372", "target": "36113908"}}, {"type": "Feature", "geometry": {"type": "LineString", "coordinates": [[-7.355866136445741, 69.23160906967937], [-7.360973544416879, 69.23216046096928]]}, "properties": {"source": "27994267", "target": "27861677"}}, {"type": "Feature", "geometry": {"type": "LineString", "coordinates": [[-7.355926540317881, 69.23129495642505], [-7.362043780200452, 69.23032604731827]]}, "properties": {"source": "27846214", "target": "32607156"}}, {"type": "Feature", "geometry": {"type": "LineString", "coordinates": [[-7.355926540317881, 69.23129495642505], [-7.355866136445741, 69.23160906967937]]}, "properties": {"source": "27846214", "target": "27994267"}}, {"type": "Feature", "geometry": {"type": "LineString", "coordinates": [[-7.362786994935703, 69.23223823457596], [-7.356310953494301, 69.23025277121724]]}, "properties": {"source": "26107388", "target": "23172604"}}, {"type": "Feature", "geometry": {"type": "LineString", "coordinates": [[-7.357844630343095, 69.23267250206686], [-7.362884670713271, 69.22973810996749]]}, "properties": {"source": "32607146", "target": "35695670"}}, {"type": "Feature", "geometry": {"type": "LineString", "coordinates": [[-7.357844630343095, 69.23267250206686], [-7.364001996964731, 69.23282073114004]]}, "properties": {"source": "32607146", "target": "29483770"}}, {"type": "Feature", "geometry": {"type": "LineString", "coordinates": [[-7.357844630343095, 69.23267250206686], [-7.362043780200452, 69.23032604731827]]}, "properties": {"source": "32607146", "target": "32607156"}}, {"type": "Feature", "geometry": {"type": "LineString", "coordinates": [[-7.357844630343095, 69.23267250206686], [-7.355866136445741, 69.23160906967937]]}, "properties": {"source": "32607146", "target": "27994267"}}, {"type": "Feature", "geometry": {"type": "LineString", "coordinates": [[-7.357844630343095, 69.23267250206686], [-7.355926540317881, 69.23129495642505]]}, "properties": {"source": "32607146", "target": "27846214"}}, {"type": "Feature", "geometry": {"type": "LineString", "coordinates": [[-7.357844630343095, 69.23267250206686], [-7.356919008945056, 69.2323607962804]]}, "properties": {"source": "32607146", "target": "33195919"}}, {"type": "Feature", "geometry": {"type": "LineString", "coordinates": [[-7.357165583724537, 69.23107381496897], [-7.362884670713271, 69.22973810996749]]}, "properties": {"source": "606541", "target": "35695670"}}, {"type": "Feature", "geometry": {"type": "LineString", "coordinates": [[-7.357165583724537, 69.23107381496897], [-7.361772180659614, 69.22983769470713]]}, "properties": {"source": "606541", "target": "34930253"}}, {"type": "Feature", "geometry": {"type": "LineString", "coordinates": [[-7.357165583724537, 69.23107381496897], [-7.363611483782961, 69.23162909557348]]}, "properties": {"source": "606541", "target": "36108190"}}, {"type": "Feature", "geometry": {"type": "LineString", "coordinates": [[-7.357165583724537, 69.23107381496897], [-7.35590227570691, 69.23134987780563]]}, "properties": {"source": "606541", "target": "36113908"}}, {"type": "Feature", "geometry": {"type": "LineString", "coordinates": [[-7.357165583724537, 69.23107381496897], [-7.3553092285977755, 69.23174323535886]]}, "properties": {"source": "606541", "target": "35193260"}}, {"type": "Feature", "geometry": {"type": "LineString", "coordinates": [[-7.359399226824763, 69.23294605755865], [-7.362884670713271, 69.22973810996749]]}, "properties": {"source": "34015798", "target": "35695670"}}, {"type": "Feature", "geometry": {"type": "LineString", "coordinates": [[-7.359399226824763, 69.23294605755865], [-7.35590227570691, 69.23134987780563]]}, "properties": {"source": "34015798", "target": "36113908"}}, {"type": "Feature", "geometry": {"type": "LineString", "coordinates": [[-7.355444449379803, 69.23220744216198], [-7.362884670713271, 69.22973810996749]]}, "properties": {"source": "1318080", "target": "35695670"}}, {"type": "Feature", "geometry": {"type": "LineString", "coordinates": [[-7.364220273955482, 69.23196171319972], [-7.362884670713271, 69.22973810996749]]}, "properties": {"source": "33878350", "target": "35695670"}}, {"type": "Feature", "geometry": {"type": "LineString", "coordinates": [[-7.364220273955482, 69.23196171319972], [-7.362110724401077, 69.23115004472092]]}, "properties": {"source": "33878350", "target": "34874228"}}, {"type": "Feature", "geometry": {"type": "LineString", "coordinates": [[-7.364220273955482, 69.23196171319972], [-7.359695785973031, 69.22995156333101]]}, "properties": {"source": "33878350", "target": "34058170"}}, {"type": "Feature", "geometry": {"type": "LineString", "coordinates": [[-7.364220273955482, 69.23196171319972], [-7.361772180659614, 69.22983769470713]]}, "properties": {"source": "33878350", "target": "34930253"}}, {"type": "Feature", "geometry": {"type": "LineString", "coordinates": [[-7.364220273955482, 69.23196171319972], [-7.363611483782961, 69.23162909557348]]}, "properties": {"source": "33878350", "target": "36108190"}}, {"type": "Feature", "geometry": {"type": "LineString", "coordinates": [[-7.3617551696893315, 69.23291625527594], [-7.362419469717366, 69.23153116864594]]}, "properties": {"source": "1274634", "target": "30771135"}}, {"type": "Feature", "geometry": {"type": "LineString", "coordinates": [[-7.3617551696893315, 69.23291625527594], [-7.362884670713271, 69.22973810996749]]}, "properties": {"source": "1274634", "target": "35695670"}}, {"type": "Feature", "geometry": {"type": "LineString", "coordinates": [[-7.3599354913443165, 69.2322426783793], [-7.359695785973031, 69.22995156333101]]}, "properties": {"source": "33303985", "target": "34058170"}}, {"type": "Feature", "geometry": {"type": "LineString", "coordinates": [[-7.3599354913443165, 69.2322426783793], [-7.359180756524779, 69.230428789142]]}, "properties": {"source": "33303985", "target": "28667967"}}, {"type": "Feature", "geometry": {"type": "LineString", "coordinates": [[-7.3599354913443165, 69.2322426783793], [-7.361571274583952, 69.22989013393232]]}, "properties": {"source": "33303985", "target": "6614360"}}, {"type": "Feature", "geometry": {"type": "LineString", "coordinates": [[-7.362984859399489, 69.23005488937486], [-7.361376884927125, 69.23101740373014]]}, "properties": {"source": "701564", "target": "872761"}}, {"type": "Feature", "geometry": {"type": "LineString", "coordinates": [[-7.354334024485354, 69.23027576987164], [-7.361964958581552, 69.23203828594751]]}, "properties": {"source": "34679551", "target": "34201778"}}, {"type": "Feature", "geometry": {"type": "LineString", "coordinates": [[-7.354334024485354, 69.23027576987164], [-7.360358859049853, 69.23161055093661]]}, "properties": {"source": "34679551", "target": "32621177"}}, {"type": "Feature", "geometry": {"type": "LineString", "coordinates": [[-7.354782510221213, 69.22984913774252], [-7.3599354913443165, 69.2322426783793]]}, "properties": {"source": "36151100", "target": "33303985"}}, {"type": "Feature", "geometry": {"type": "LineString", "coordinates": [[-7.360436328078691, 69.23041415279246], [-7.35590227570691, 69.23134987780563]]}, "properties": {"source": "27238973", "target": "36113908"}}, {"type": "Feature", "geometry": {"type": "LineString", "coordinates": [[-7.357471574001011, 69.23054815353777], [-7.362786994935703, 69.23223823457596]]}, "properties": {"source": "26025399", "target": "26107388"}}, {"type": "Feature", "geometry": {"type": "LineString", "coordinates": [[-7.356035271879534, 69.23152862684705], [-7.3553092285977755, 69.23174323535886]]}, "properties": {"source": "35905232", "target": "35193260"}}, {"type": "Feature", "geometry": {"type": "LineString", "coordinates": [[-7.364232520471774, 69.23035958212037], [-7.359695785973031, 69.22995156333101]]}, "properties": {"source": "33804456", "target": "34058170"}}, {"type": "Feature", "geometry": {"type": "LineString", "coordinates": [[-7.364232520471774, 69.23035958212037], [-7.364001996964731, 69.23282073114004]]}, "properties": {"source": "33804456", "target": "29483770"}}, {"type": "Feature", "geometry": {"type": "LineString", "coordinates": [[-7.364232520471774, 69.23035958212037], [-7.361772180659614, 69.22983769470713]]}, "properties": {"source": "33804456", "target": "34930253"}}, {"type": "Feature", "geometry": {"type": "LineString", "coordinates": [[-7.364232520471774, 69.23035958212037], [-7.363611483782961, 69.23162909557348]]}, "properties": {"source": "33804456", "target": "36108190"}}, {"type": "Feature", "geometry": {"type": "LineString", "coordinates": [[-7.364232520471774, 69.23035958212037], [-7.362043780200452, 69.23032604731827]]}, "properties": {"source": "33804456", "target": "32607156"}}, {"type": "Feature", "geometry": {"type": "LineString", "coordinates": [[-7.364232520471774, 69.23035958212037], [-7.35590227570691, 69.23134987780563]]}, "properties": {"source": "33804456", "target": "36113908"}}, {"type": "Feature", "geometry": {"type": "LineString", "coordinates": [[-7.364232520471774, 69.23035958212037], [-7.361964958581552, 69.23203828594751]]}, "properties": {"source": "33804456", "target": "34201778"}}, {"type": "Feature", "geometry": {"type": "LineString", "coordinates": [[-7.364232520471774, 69.23035958212037], [-7.3553092285977755, 69.23174323535886]]}, "properties": {"source": "33804456", "target": "35193260"}}, {"type": "Feature", "geometry": {"type": "LineString", "coordinates": [[-7.364232520471774, 69.23035958212037], [-7.355866136445741, 69.23160906967937]]}, "properties": {"source": "33804456", "target": "27994267"}}, {"type": "Feature", "geometry": {"type": "LineString", "coordinates": [[-7.362110724401077, 69.23115004472092], [-7.3553092285977755, 69.23174323535886]]}, "properties": {"source": "34874228", "target": "35193260"}}, {"type": "Feature", "geometry": {"type": "LineString", "coordinates": [[-7.362110724401077, 69.23115004472092], [-7.354703636971749, 69.23157607636983]]}, "properties": {"source": "34874228", "target": "11301372"}}, {"type": "Feature", "geometry": {"type": "LineString", "coordinates": [[-7.362110724401077, 69.23115004472092], [-7.360380393803666, 69.23114022882928]]}, "properties": {"source": "34874228", "target": "11420022"}}, {"type": "Feature", "geometry": {"type": "LineString", "coordinates": [[-7.362110724401077, 69.23115004472092], [-7.355865676814574, 69.23132343708403]]}, "properties": {"source": "34874228", "target": "34312063"}}, {"type": "Feature", "geometry": {"type": "LineString", "coordinates": [[-7.362110724401077, 69.23115004472092], [-7.357165583724537, 69.23107381496897]]}, "properties": {"source": "34874228", "target": "606541"}}, {"type": "Feature", "geometry": {"type": "LineString", "coordinates": [[-7.362110724401077, 69.23115004472092], [-7.359399226824763, 69.23294605755865]]}, "properties": {"source": "34874228", "target": "34015798"}}, {"type": "Feature", "geometry": {"type": "LineString", "coordinates": [[-7.362110724401077, 69.23115004472092], [-7.355444449379803, 69.23220744216198]]}, "properties": {"source": "34874228", "target": "1318080"}}, {"type": "Feature", "geometry": {"type": "LineString", "coordinates": [[-7.362419469717366, 69.23153116864594], [-7.362884670713271, 69.22973810996749]]}, "properties": {"source": "30771135", "target": "35695670"}}, {"type": "Feature", "geometry": {"type": "LineString", "coordinates": [[-7.362419469717366, 69.23153116864594], [-7.359695785973031, 69.22995156333101]]}, "properties": {"source": "30771135", "target": "34058170"}}, {"type": "Feature", "geometry": {"type": "LineString", "coordinates": [[-7.362419469717366, 69.23153116864594], [-7.361772180659614, 69.22983769470713]]}, "properties": {"source": "30771135", "target": "34930253"}}, {"type": "Feature", "geometry": {"type": "LineString", "coordinates": [[-7.362419469717366, 69.23153116864594], [-7.363611483782961, 69.23162909557348]]}, "properties": {"source": "30771135", "target": "36108190"}}, {"type": "Feature", "geometry": {"type": "LineString", "coordinates": [[-7.362419469717366, 69.23153116864594], [-7.362043780200452, 69.23032604731827]]}, "properties": {"source": "30771135", "target": "32607156"}}, {"type": "Feature", "geometry": {"type": "LineString", "coordinates": [[-7.362419469717366, 69.23153116864594], [-7.35590227570691, 69.23134987780563]]}, "properties": {"source": "30771135", "target": "36113908"}}, {"type": "Feature", "geometry": {"type": "LineString", "coordinates": [[-7.362419469717366, 69.23153116864594], [-7.361964958581552, 69.23203828594751]]}, "properties": {"source": "30771135", "target": "34201778"}}, {"type": "Feature", "geometry": {"type": "LineString", "coordinates": [[-7.362419469717366, 69.23153116864594], [-7.3553092285977755, 69.23174323535886]]}, "properties": {"source": "30771135", "target": "35193260"}}, {"type": "Feature", "geometry": {"type": "LineString", "coordinates": [[-7.362419469717366, 69.23153116864594], [-7.354703636971749, 69.23157607636983]]}, "properties": {"source": "30771135", "target": "11301372"}}]}