{"type": "FeatureCollection", "features": [{"type": "Feature", "geometry": {"type": "LineString", "coordinates": [[-167.34350027429417, 69.23255185423659], [-167.33544760364128, 69.23072094704173]]}, "properties": {"source": "2408782", "target": "17335127"}}, {"type": "Feature", "geometry": {"type": "LineString", "coordinates": [[-167.34683277557556, 69.23028932521004], [-167.3355171715706, 69.23372091348489]]}, "properties": {"source": "13516101", "target": "13604621"}}, {"type": "Feature", "geometry": {"type": "LineString", "coordinates": [[-167.33588563415114, 69.22976666425964], [-167.34547634952423, 69.23272600121197]]}, "properties": {"source": "13582364", "target": "13582385"}}, {"type": "Feature", "geometry": {"type": "LineString", "coordinates": [[-167.33588563415114, 69.22976666425964], [-167.34352142520106, 69.23122190489744]]}, "properties": {"source": "13582364", "target": "13479602"}}, {"type": "Feature", "geometry": {"type": "LineString", "coordinates": [[-167.33588563415114, 69.22976666425964], [-167.3385880911862, 69.23384266161483]]}, "properties": {"source": "13582364", "target": "13231952"}}, {"type": "Feature", "geometry": {"type": "LineString", "coordinates": [[-167.34449271322555, 69.23164614652143], [-167.33802473946565, 69.23241711648342]]}, "properties": {"source": "13582373", "target": "13582405"}}, {"type": "Feature", "geometry": {"type": "LineString", "coordinates": [[-167.34449271322555, 69.23164614652143], [-167.3355171715706, 69.23372091348489]]}, "properties": {"source": "13582373", "target": "13604621"}}, {"type": "Feature", "geometry": {"type": "LineString", "coordinates": [[-167.34449271322555, 69.23164614652143], [-167.34547634952423, 69.23272600121197]]}, "properties": {"source": "13582373", "target": "13582385"}}, {"type": "Feature", "geometry": {"type": "LineString", "coordinates": [[-167.34449271322555, 69.23164614652143], [-167.34438954068253, 69.23133873259368]]}, "properties": {"source": "13582373", "target": "13632452"}}, {"type": "Feature", "geometry": {"type": "LineString", "coordinates": [[-167.34449271322555, 69.23164614652143], [-167.33588563415114, 69.22976666425964]]}, "properties": {"source": "13582373", "target": "13582364"}}, {"type": "Feature", "geometry": {"type": "LineString", "coordinates": [[-167.34449271322555, 69.23164614652143], [-167.34015049009676, 69.23287869967325]]}, "properties": {"source": "13582373", "target": "14761087"}}, {"type": "Feature", "geometry": {"type": "LineString", "coordinates": [[-167.34449271322555, 69.23164614652143], [-167.34246116634944, 69.23262739554798]]}, "properties": {"source": "13582373", "target": "15708590"}}, {"type": "Feature", "geometry": {"type": "LineString", "coordinates": [[-167.34449271322555, 69.23164614652143], [-167.34352142520106, 69.23122190489744]]}, "properties": {"source": "13582373", "target": "13479602"}}, {"type": "Feature", "geometry": {"type": "LineString", "coordinates": [[-167.34449271322555, 69.23164614652143], [-167.34163651239854, 69.23382861966837]]}, "properties": {"source": "13582373", "target": "13582354"}}, {"type": "Feature", "geometry": {"type": "LineString", "coordinates": [[-167.34449271322555, 69.23164614652143], [-167.33882583883036, 69.23410277110048]]}, "properties": {"source": "13582373", "target": "13414407"}}, {"type": "Feature", "geometry": {"type": "LineString", "coordinates": [[-167.34449271322555, 69.23164614652143], [-167.34345654623007, 69.2325590320923]]}, "properties": {"source": "13582373", "target": "1356395"}}, {"type": "Feature", "geometry": {"type": "LineString", "coordinates": [[-167.34449271322555, 69.23164614652143], [-167.3404176112076, 69.23345109867645]]}, "properties": {"source": "13582373", "target": "13319288"}}, {"type": "Feature", "geometry": {"type": "LineString", "coordinates": [[-167.34015049009676, 69.23287869967325], [-167.3355171715706, 69.23372091348489]]}, "properties": {"source": "14761087", "target": "13604621"}}, {"type": "Feature", "geometry": {"type": "LineString", "coordinates": [[-167.34309594910843, 69.23316702123523], [-167.33888045938275, 69.23362871340439]]}, "properties": {"source": "6131659", "target": "7664609"}}, {"type": "Feature", "geometry": {"type": "LineString", "coordinates": [[-167.34309594910843, 69.23316702123523], [-167.33905725045605, 69.2297245912396]]}, "properties": {"source": "6131659", "target": "15791557"}}, {"type": "Feature", "geometry": {"type": "LineString", "coordinates": [[-167.34218319873534, 69.23046484447568], [-167.34653582423, 69.23358204048242]]}, "properties": {"source": "2116354", "target": "8437378"}}, {"type": "Feature", "geometry": {"type": "LineString", "coordinates": [[-167.34218319873534, 69.23046484447568], [-167.33802473946565, 69.23241711648342]]}, "properties": {"source": "2116354", "target": "13582405"}}, {"type": "Feature", "geometry": {"type": "LineString", "coordinates": [[-167.34218319873534, 69.23046484447568], [-167.3355171715706, 69.23372091348489]]}, "properties": {"source": "2116354", "target": "13604621"}}, {"type": "Feature", "geometry": {"type": "LineString", "coordinates": [[-167.34218319873534, 69.23046484447568], [-167.34547634952423, 69.23272600121197]]}, "properties": {"source": "2116354", "target": "13582385"}}, {"type": "Feature", "geometry": {"type": "LineString", "coordinates": [[-167.34218319873534, 69.23046484447568], [-167.34438954068253, 69.23133873259368]]}, "properties": {"source": "2116354", "target": "13632452"}}, {"type": "Feature", "geometry": {"type": "LineString", "coordinates": [[-167.34218319873534, 69.23046484447568], [-167.34015049009676, 69.23287869967325]]}, "properties": {"source": "2116354", "target": "14761087"}}, {"type": "Feature", "geometry": {"type": "LineString", "coordinates": [[-167.34218319873534, 69.23046484447568], [-167.34687918889134, 69.2328544359961]]}, "properties": {"source": "2116354", "target": "13612389"}}, {"type": "Feature", "geometry": {"type": "LineString", "coordinates": [[-167.34687918889134, 69.2328544359961], [-167.33802473946565, 69.23241711648342]]}, "properties": {"source": "13612389", "target": "13582405"}}, {"type": "Feature", "geometry": {"type": "LineString", "coordinates": [[-167.34687918889134, 69.2328544359961], [-167.3355171715706, 69.23372091348489]]}, "properties": {"source": "13612389", "target": "13604621"}}, {"type": "Feature", "geometry": {"type": "LineString", "coordinates": [[-167.34687918889134, 69.2328544359961], [-167.34547634952423, 69.23272600121197]]}, "properties": {"source": "13612389", "target": "13582385"}}, {"type": "Feature", "geometry": {"type": "LineString", "coordinates": [[-167.34687918889134, 69.2328544359961], [-167.34438954068253, 69.23133873259368]]}, "properties": {"source": "13612389", "target": "13632452"}}, {"type": "Feature", "geometry": {"type": "LineString", "coordinates": [[-167.34687918889134, 69.2328544359961], [-167.34015049009676, 69.23287869967325]]}, "properties": {"source": "13612389", "target": "14761087"}}, {"type": "Feature", "geometry": {"type": "LineString", "coordinates": [[-167.34687918889134, 69.2328544359961], [-167.3424058984204, 69.23265554118089]]}, "properties": {"source": "13612389", "target": "13601188"}}, {"type": "Feature", "geometry": {"type": "LineString", "coordinates": [[-167.3352446807967, 69.22971781910661], [-167.34102372545482, 69.23364357642069]]}, "properties": {"source": "29437939", "target": "615872"}}, {"type": "Feature", "geometry": {"type": "LineString", "coordinates": [[-167.34218319873534, 69.23046484447568], [-167.3424058984204, 69.23265554118089]]}, "properties": {"source": "2116354", "target": "13601188"}}, {"type": "Feature", "geometry": {"type": "LineString", "coordinates": [[-167.34218319873534, 69.23046484447568], [-167.33888045938275, 69.23362871340439]]}, "properties": {"source": "2116354", "target": "7664609"}}, {"type": "Feature", "geometry": {"type": "LineString", "coordinates": [[-167.34218319873534, 69.23046484447568], [-167.33905725045605, 69.2297245912396]]}, "properties": {"source": "2116354", "target": "15791557"}}, {"type": "Feature", "geometry": {"type": "LineString", "coordinates": [[-167.3402374017086, 69.23055197221109], [-167.33802473946565, 69.23241711648342]]}, "properties": {"source": "13101700", "target": "13582405"}}, {"type": "Feature", "geometry": {"type": "LineString", "coordinates": [[-167.3402374017086, 69.23055197221109], [-167.3355171715706, 69.23372091348489]]}, "properties": {"source": "13101700", "target": "13604621"}}, {"type": "Feature", "geometry": {"type": "LineString", "coordinates": [[-167.3402374017086, 69.23055197221109], [-167.34547634952423, 69.23272600121197]]}, "properties": {"source": "13101700", "target": "13582385"}}, {"type": "Feature", "geometry": {"type": "LineString", "coordinates": [[-167.3402374017086, 69.23055197221109], [-167.34438954068253, 69.23133873259368]]}, "properties": {"source": "13101700", "target": "13632452"}}, {"type": "Feature", "geometry": {"type": "LineString", "coordinates": [[-167.3402374017086, 69.23055197221109], [-167.33588563415114, 69.22976666425964]]}, "properties": {"source": "13101700", "target": "13582364"}}, {"type": "Feature", "geometry": {"type": "LineString", "coordinates": [[-167.3402374017086, 69.23055197221109], [-167.34449271322555, 69.23164614652143]]}, "properties": {"source": "13101700", "target": "13582373"}}, {"type": "Feature", "geometry": {"type": "LineString", "coordinates": [[-167.3402374017086, 69.23055197221109], [-167.34015049009676, 69.23287869967325]]}, "properties": {"source": "13101700", "target": "14761087"}}, {"type": "Feature", "geometry": {"type": "LineString", "coordinates": [[-167.33872519622457, 69.23364861350976], [-167.34653582423, 69.23358204048242]]}, "properties": {"source": "11938261", "target": "8437378"}}, {"type": "Feature", "geometry": {"type": "LineString", "coordinates": [[-167.33872519622457, 69.23364861350976], [-167.34583967792042, 69.22988381881785]]}, "properties": {"source": "11938261", "target": "13597845"}}, {"type": "Feature", "geometry": {"type": "LineString", "coordinates": [[-167.33872519622457, 69.23364861350976], [-167.33802473946565, 69.23241711648342]]}, "properties": {"source": "11938261", "target": "13582405"}}, {"type": "Feature", "geometry": {"type": "LineString", "coordinates": [[-167.33872519622457, 69.23364861350976], [-167.3355171715706, 69.23372091348489]]}, "properties": {"source": "11938261", "target": "13604621"}}, {"type": "Feature", "geometry": {"type": "LineString", "coordinates": [[-167.33872519622457, 69.23364861350976], [-167.34547634952423, 69.23272600121197]]}, "properties": {"source": "11938261", "target": "13582385"}}, {"type": "Feature", "geometry": {"type": "LineString", "coordinates": [[-167.34438954068253, 69.23133873259368], [-167.34352142520106, 69.23122190489744]]}, "properties": {"source": "13632452", "target": "13479602"}}, {"type": "Feature", "geometry": {"type": "LineString", "coordinates": [[-167.34331400953891, 69.23263607010901], [-167.33802473946565, 69.23241711648342]]}, "properties": {"source": "1222861", "target": "13582405"}}, {"type": "Feature", "geometry": {"type": "LineString", "coordinates": [[-167.34331400953891, 69.23263607010901], [-167.3355171715706, 69.23372091348489]]}, "properties": {"source": "1222861", "target": "13604621"}}, {"type": "Feature", "geometry": {"type": "LineString", "coordinates": [[-167.34331400953891, 69.23263607010901], [-167.34547634952423, 69.23272600121197]]}, "properties": {"source": "1222861", "target": "13582385"}}, {"type": "Feature", "geometry": {"type": "LineString", "coordinates": [[-167.34331400953891, 69.23263607010901], [-167.34517930579523, 69.23077993202577]]}, "properties": {"source": "1222861", "target": "13582380"}}, {"type": "Feature", "geometry": {"type": "LineString", "coordinates": [[-167.34331400953891, 69.23263607010901], [-167.34438954068253, 69.23133873259368]]}, "properties": {"source": "1222861", "target": "13632452"}}, {"type": "Feature", "geometry": {"type": "LineString", "coordinates": [[-167.34331400953891, 69.23263607010901], [-167.33588563415114, 69.22976666425964]]}, "properties": {"source": "1222861", "target": "13582364"}}, {"type": "Feature", "geometry": {"type": "LineString", "coordinates": [[-167.34331400953891, 69.23263607010901], [-167.34449271322555, 69.23164614652143]]}, "properties": {"source": "1222861", "target": "13582373"}}, {"type": "Feature", "geometry": {"type": "LineString", "coordinates": [[-167.34331400953891, 69.23263607010901], [-167.3402374017086, 69.23055197221109]]}, "properties": {"source": "1222861", "target": "13101700"}}, {"type": "Feature", "geometry": {"type": "LineString", "coordinates": [[-167.3424058984204, 69.23265554118089], [-167.3355171715706, 69.23372091348489]]}, "properties": {"source": "13601188", "target": "13604621"}}, {"type": "Feature", "geometry": {"type": "LineString", "coordinates": [[-167.3424058984204, 69.23265554118089], [-167.34438954068253, 69.23133873259368]]}, "properties": {"source": "13601188", "target": "13632452"}}, {"type": "Feature", "geometry": {"type": "LineString", "coordinates": [[-167.3424058984204, 69.23265554118089], [-167.34015049009676, 69.23287869967325]]}, "properties": {"source": "13601188", "target": "14761087"}}, {"type": "Feature", "geometry": {"type": "LineString", "coordinates": [[-167.34352142520106, 69.23122190489744], [-167.34547634952423, 69.23272600121197]]}, "properties": {"source": "13479602", "target": "13582385"}}, {"type": "Feature", "geometry": {"type": "LineString", "coordinates": [[-167.34683277557556, 69.23028932521004], [-167.34653582423, 69.23358204048242]]}, "properties": {"source": "13516101", "target": "8437378"}}, {"type": "Feature", "geometry": {"type": "LineString", "coordinates": [[-167.34683277557556, 69.23028932521004], [-167.34583967792042, 69.22988381881785]]}, "properties": {"source": "13516101", "target": "13597845"}}, {"type": "Feature", "geometry": {"type": "LineString", "coordinates": [[-167.34683277557556, 69.23028932521004], [-167.33802473946565, 69.23241711648342]]}, "properties": {"source": "13516101", "target": "13582405"}}, {"type": "Feature", "geometry": {"type": "LineString", "coordinates": [[-167.33872519622457, 69.23364861350976], [-167.34517930579523, 69.23077993202577]]}, "properties": {"source": "11938261", "target": "13582380"}}, {"type": "Feature", "geometry": {"type": "LineString", "coordinates": [[-167.34517930579523, 69.23077993202577], [-167.34687918889134, 69.2328544359961]]}, "properties": {"source": "13582380", "target": "13612389"}}, {"type": "Feature", "geometry": {"type": "LineString", "coordinates": [[-167.34517930579523, 69.23077993202577], [-167.3402374017086, 69.23055197221109]]}, "properties": {"source": "13582380", "target": "13101700"}}, {"type": "Feature", "geometry": {"type": "LineString", "coordinates": [[-167.34517930579523, 69.23077993202577], [-167.34246116634944, 69.23262739554798]]}, "properties": {"source": "13582380", "target": "15708590"}}, {"type": "Feature", "geometry": {"type": "LineString", "coordinates": [[-167.34517930579523, 69.23077993202577], [-167.34352142520106, 69.23122190489744]]}, "properties": {"source": "13582380", "target": "13479602"}}, {"type": "Feature", "geometry": {"type": "LineString", "coordinates": [[-167.34517930579523, 69.23077993202577], [-167.34163651239854, 69.23382861966837]]}, "properties": {"source": "13582380", "target": "13582354"}}, {"type": "Feature", "geometry": {"type": "LineString", "coordinates": [[-167.34517930579523, 69.23077993202577], [-167.33882583883036, 69.23410277110048]]}, "properties": {"source": "13582380", "target": "13414407"}}, {"type": "Feature", "geometry": {"type": "LineString", "coordinates": [[-167.34517930579523, 69.23077993202577], [-167.34345654623007, 69.2325590320923]]}, "properties": {"source": "13582380", "target": "1356395"}}, {"type": "Feature", "geometry": {"type": "LineString", "coordinates": [[-167.34517930579523, 69.23077993202577], [-167.3404176112076, 69.23345109867645]]}, "properties": {"source": "13582380", "target": "13319288"}}, {"type": "Feature", "geometry": {"type": "LineString", "coordinates": [[-167.34517930579523, 69.23077993202577], [-167.33895171878936, 69.23364894880854]]}, "properties": {"source": "13582380", "target": "13489258"}}, {"type": "Feature", "geometry": {"type": "LineString", "coordinates": [[-167.34517930579523, 69.23077993202577], [-167.33584541082726, 69.2339338864505]]}, "properties": {"source": "13582380", "target": "13432904"}}, {"type": "Feature", "geometry": {"type": "LineString", "coordinates": [[-167.34517930579523, 69.23077993202577], [-167.3385880911862, 69.23384266161483]]}, "properties": {"source": "13582380", "target": "13231952"}}, {"type": "Feature", "geometry": {"type": "LineString", "coordinates": [[-167.34438954068253, 69.23133873259368], [-167.3355171715706, 69.23372091348489]]}, "properties": {"source": "13632452", "target": "13604621"}}, {"type": "Feature", "geometry": {"type": "LineString", "coordinates": [[-167.34438954068253, 69.23133873259368], [-167.34547634952423, 69.23272600121197]]}, "properties": {"source": "13632452", "target": "13582385"}}, {"type": "Feature", "geometry": {"type": "LineString", "coordinates": [[-167.34438954068253, 69.23133873259368], [-167.33588563415114, 69.22976666425964]]}, "properties": {"source": "13632452", "target": "13582364"}}, {"type": "Feature", "geometry": {"type": "LineString", "coordinates": [[-167.34438954068253, 69.23133873259368], [-167.33888045938275, 69.23362871340439]]}, "properties": {"source": "13632452", "target": "7664609"}}, {"type": "Feature", "geometry": {"type": "LineString", "coordinates": [[-167.34687918889134, 69.2328544359961], [-167.33888045938275, 69.23362871340439]]}, "properties": {"source": "13612389", "target": "7664609"}}, {"type": "Feature", "geometry": {"type": "LineString", "coordinates": [[-167.34683277557556, 69.23028932521004], [-167.34547634952423, 69.23272600121197]]}, "properties": {"source": "13516101", "target": "13582385"}}, {"type": "Feature", "geometry": {"type": "LineString", "coordinates": [[-167.34683277557556, 69.23028932521004], [-167.34517930579523, 69.23077993202577]]}, "properties": {"source": "13516101", "target": "13582380"}}, {"type": "Feature", "geometry": {"type": "LineString", "coordinates": [[-167.34683277557556, 69.23028932521004], [-167.33588563415114, 69.22976666425964]]}, "properties": {"source": "13516101", "target": "13582364"}}, {"type": "Feature", "geometry": {"type": "LineString", "coordinates": [[-167.34683277557556, 69.23028932521004], [-167.34449271322555, 69.23164614652143]]}, "properties": {"source": "13516101", "target": "13582373"}}, {"type": "Feature", "geometry": {"type": "LineString", "coordinates": [[-167.34683277557556, 69.23028932521004], [-167.34187493296082, 69.23116067436055]]}, "properties": {"source": "13516101", "target": "16566382"}}, {"type": "Feature", "geometry": {"type": "LineString", "coordinates": [[-167.34678348912703, 69.23032932217646], [-167.3480092425978, 69.23377494717985]]}, "properties": {"source": "17404784", "target": "17428536"}}, {"type": "Feature", "geometry": {"type": "LineString", "coordinates": [[-167.34678348912703, 69.23032932217646], [-167.33544760364128, 69.23072094704173]]}, "properties": {"source": "17404784", "target": "17335127"}}, {"type": "Feature", "geometry": {"type": "LineString", "coordinates": [[-167.34678348912703, 69.23032932217646], [-167.3472284156622, 69.23402311372163]]}, "properties": {"source": "17404784", "target": "17706082"}}, {"type": "Feature", "geometry": {"type": "LineString", "coordinates": [[-167.34678348912703, 69.23032932217646], [-167.33870158730113, 69.23035304884803]]}, "properties": {"source": "17404784", "target": "7984760"}}, {"type": "Feature", "geometry": {"type": "LineString", "coordinates": [[-167.3480092425978, 69.23377494717985], [-167.33544760364128, 69.23072094704173]]}, "properties": {"source": "17428536", "target": "17335127"}}, {"type": "Feature", "geometry": {"type": "LineString", "coordinates": [[-167.3480092425978, 69.23377494717985], [-167.3472284156622, 69.23402311372163]]}, "properties": {"source": "17428536", "target": "17706082"}}, {"type": "Feature", "geometry": {"type": "LineString", "coordinates": [[-167.3480092425978, 69.23377494717985], [-167.33870158730113, 69.23035304884803]]}, "properties": {"source": "17428536", "target": "7984760"}}, {"type": "Feature", "geometry": {"type": "LineString", "coordinates": [[-167.34163651239854, 69.23382861966837], [-167.33802473946565, 69.23241711648342]]}, "properties": {"source": "13582354", "target": "13582405"}}, {"type": "Feature", "geometry": {"type": "LineString", "coordinates": [[-167.34678348912703, 69.23032932217646], [-167.34350027429417, 69.23255185423659]]}, "properties": {"source": "17404784", "target": "2408782"}}, {"type": "Feature", "geometry": {"type": "LineString", "coordinates": [[-167.3480092425978, 69.23377494717985], [-167.34350027429417, 69.23255185423659]]}, "properties": {"source": "17428536", "target": "2408782"}}, {"type": "Feature", "geometry": {"type": "LineString", "coordinates": [[-167.33802473946565, 69.23241711648342], [-167.34015049009676, 69.23287869967325]]}, "properties": {"source": "13582405", "target": "14761087"}}, {"type": "Feature", "geometry": {"type": "LineString", "coordinates": [[-167.33802473946565, 69.23241711648342], [-167.33888045938275, 69.23362871340439]]}, "properties": {"source": "13582405", "target": "7664609"}}, {"type": "Feature", "geometry": {"type": "LineString", "coordinates": [[-167.33802473946565, 69.23241711648342], [-167.34352142520106, 69.23122190489744]]}, "properties": {"source": "13582405", "target": "13479602"}}, {"type": "Feature", "geometry": {"type": "LineString", "coordinates": [[-167.33802473946565, 69.23241711648342], [-167.3404176112076, 69.23345109867645]]}, "properties": {"source": "13582405", "target": "13319288"}}, {"type": "Feature", "geometry": {"type": "LineString", "coordinates": [[-167.33802473946565, 69.23241711648342], [-167.3385880911862, 69.23384266161483]]}, "properties": {"source": "13582405", "target": "13231952"}}, {"type": "Feature", "geometry": {"type": "LineString", "coordinates": [[-167.3355171715706, 69.23372091348489], [-167.34547634952423, 69.23272600121197]]}, "properties": {"source": "13604621", "target": "13582385"}}, {"type": "Feature", "geometry": {"type": "LineString", "coordinates": [[-167.3355171715706, 69.23372091348489], [-167.33588563415114, 69.22976666425964]]}, "properties": {"source": "13604621", "target": "13582364"}}, {"type": "Feature", "geometry": {"type": "LineString", "coordinates": [[-167.3355171715706, 69.23372091348489], [-167.34352142520106, 69.23122190489744]]}, "properties": {"source": "13604621", "target": "13479602"}}, {"type": "Feature", "geometry": {"type": "LineString", "coordinates": [[-167.34517930579523, 69.23077993202577], [-167.34653582423, 69.23358204048242]]}, "properties": {"source": "13582380", "target": "8437378"}}, {"type": "Feature", "geometry": {"type": "LineString", "coordinates": [[-167.34517930579523, 69.23077993202577], [-167.33802473946565, 69.23241711648342]]}, "properties": {"source": "13582380", "target": "13582405"}}, {"type": "Feature", "geometry": {"type": "LineString", "coordinates": [[-167.34517930579523, 69.23077993202577], [-167.3355171715706, 69.23372091348489]]}, "properties": {"source": "13582380", "target": "13604621"}}, {"type": "Feature", "geometry": {"type": "LineString", "coordinates": [[-167.34517930579523, 69.23077993202577], [-167.34547634952423, 69.23272600121197]]}, "properties": {"source": "13582380", "target": "13582385"}}, {"type": "Feature", "geometry": {"type": "LineString", "coordinates": [[-167.34517930579523, 69.23077993202577], [-167.34438954068253, 69.23133873259368]]}, "properties": {"source": "13582380", "target": "13632452"}}, {"type": "Feature", "geometry": {"type": "LineString", "coordinates": [[-167.34517930579523, 69.23077993202577], [-167.33588563415114, 69.22976666425964]]}, "properties": {"source": "13582380", "target": "13582364"}}, {"type": "Feature", "geometry": {"type": "LineString", "coordinates": [[-167.34517930579523, 69.23077993202577], [-167.34449271322555, 69.23164614652143]]}, "properties": {"source": "13582380", "target": "13582373"}}, {"type": "Feature", "geometry": {"type": "LineString", "coordinates": [[-167.34517930579523, 69.23077993202577], [-167.34015049009676, 69.23287869967325]]}, "properties": {"source": "13582380", "target": "14761087"}}, {"type": "Feature", "geometry": {"type": "LineString", "coordinates": [[-167.34517930579523, 69.23077993202577], [-167.34309594910843, 69.23316702123523]]}, "properties": {"source": "13582380", "target": "6131659"}}, {"type": "Feature", "geometry": {"type": "LineString", "coordinates": [[-167.34163651239854, 69.23382861966837], [-167.34547634952423, 69.23272600121197]]}, "properties": {"source": "13582354", "target": "13582385"}}, {"type": "Feature", "geometry": {"type": "LineString", "coordinates": [[-167.34163651239854, 69.23382861966837], [-167.34438954068253, 69.23133873259368]]}, "properties": {"source": "13582354", "target": "13632452"}}, {"type": "Feature", "geometry": {"type": "LineString", "coordinates": [[-167.34163651239854, 69.23382861966837], [-167.33588563415114, 69.22976666425964]]}, "properties": {"source": "13582354", "target": "13582364"}}, {"type": "Feature", "geometry": {"type": "LineString", "coordinates": [[-167.33882583883036, 69.23410277110048], [-167.33802473946565, 69.23241711648342]]}, "properties": {"source": "13414407", "target": "13582405"}}, {"type": "Feature", "geometry": {"type": "LineString", "coordinates": [[-167.33882583883036, 69.23410277110048], [-167.34547634952423, 69.23272600121197]]}, "properties": {"source": "13414407", "target": "13582385"}}, {"type": "Feature", "geometry": {"type": "LineString", "coordinates": [[-167.33882583883036, 69.23410277110048], [-167.33588563415114, 69.22976666425964]]}, "properties": {"source": "13414407", "target": "13582364"}}, {"type": "Feature", "geometry": {"type": "LineString", "coordinates": [[-167.33882583883036, 69.23410277110048], [-167.3424058984204, 69.23265554118089]]}, "properties": {"source": "13414407", "target": "13601188"}}, {"type": "Feature", "geometry": {"type": "LineString", "coordinates": [[-167.34345654623007, 69.2325590320923], [-167.33802473946565, 69.23241711648342]]}, "properties": {"source": "1356395", "target": "13582405"}}, {"type": "Feature", "geometry": {"type": "LineString", "coordinates": [[-167.34345654623007, 69.2325590320923], [-167.3355171715706, 69.23372091348489]]}, "properties": {"source": "1356395", "target": "13604621"}}, {"type": "Feature", "geometry": {"type": "LineString", "coordinates": [[-167.34345654623007, 69.2325590320923], [-167.34547634952423, 69.23272600121197]]}, "properties": {"source": "1356395", "target": "13582385"}}, {"type": "Feature", "geometry": {"type": "LineString", "coordinates": [[-167.34345654623007, 69.2325590320923], [-167.34438954068253, 69.23133873259368]]}, "properties": {"source": "1356395", "target": "13632452"}}, {"type": "Feature", "geometry": {"type": "LineString", "coordinates": [[-167.34345654623007, 69.2325590320923], [-167.33588563415114, 69.22976666425964]]}, "properties": {"source": "1356395", "target": "13582364"}}, {"type": "Feature", "geometry": {"type": "LineString", "coordinates": [[-167.3404176112076, 69.23345109867645], [-167.3355171715706, 69.23372091348489]]}, "properties": {"source": "13319288", "target": "13604621"}}, {"type": "Feature", "geometry": {"type": "LineString", "coordinates": [[-167.3404176112076, 69.23345109867645], [-167.34547634952423, 69.23272600121197]]}, "properties": {"source": "13319288", "target": "13582385"}}, {"type": "Feature", "geometry": {"type": "LineString", "coordinates": [[-167.3404176112076, 69.23345109867645], [-167.33588563415114, 69.22976666425964]]}, "properties": {"source": "13319288", "target": "13582364"}}, {"type": "Feature", "geometry": {"type": "LineString", "coordinates": [[-167.34653582423, 69.23358204048242], [-167.34345654623007, 69.2325590320923]]}, "properties": {"source": "8437378", "target": "1356395"}}, {"type": "Feature", "geometry": {"type": "LineString", "coordinates": [[-167.34015049009676, 69.23287869967325], [-167.34547634952423, 69.23272600121197]]}, "properties": {"source": "14761087", "target": "13582385"}}, {"type": "Feature", "geometry": {"type": "LineString", "coordinates": [[-167.34015049009676, 69.23287869967325], [-167.34438954068253, 69.23133873259368]]}, "properties": {"source": "14761087", "target": "13632452"}}, {"type": "Feature", "geometry": {"type": "LineString", "coordinates": [[-167.34015049009676, 69.23287869967325], [-167.33588563415114, 69.22976666425964]]}, "properties": {"source": "14761087", "target": "13582364"}}, {"type": "Feature", "geometry": {"type": "LineString", "coordinates": [[-167.34015049009676, 69.23287869967325], [-167.33888045938275, 69.23362871340439]]}, "properties": {"source": "14761087", "target": "7664609"}}, {"type": "Feature", "geometry": {"type": "LineString", "coordinates": [[-167.34015049009676, 69.23287869967325], [-167.34352142520106, 69.23122190489744]]}, "properties": {"source": "14761087", "target": "13479602"}}, {"type": "Feature", "geometry": {"type": "LineString", "coordinates": [[-167.34309594910843, 69.23316702123523], [-167.34653582423, 69.23358204048242]]}, "properties": {"source": "6131659", "target": "8437378"}}, {"type": "Feature", "geometry": {"type": "LineString", "coordinates": [[-167.34309594910843, 69.23316702123523], [-167.33802473946565, 69.23241711648342]]}, "properties": {"source": "6131659", "target": "13582405"}}, {"type": "Feature", "geometry": {"type": "LineString", "coordinates": [[-167.34309594910843, 69.23316702123523], [-167.3355171715706, 69.23372091348489]]}, "properties": {"source": "6131659", "target": "13604621"}}, {"type": "Feature", "geometry": {"type": "LineString", "coordinates": [[-167.34309594910843, 69.23316702123523], [-167.34547634952423, 69.23272600121197]]}, "properties": {"source": "6131659", "target": "13582385"}}, {"type": "Feature", "geometry": {"type": "LineString", "coordinates": [[-167.34309594910843, 69.23316702123523], [-167.34438954068253, 69.23133873259368]]}, "properties": {"source": "6131659", "target": "13632452"}}, {"type": "Feature", "geometry": {"type": "LineString", "coordinates": [[-167.34309594910843, 69.23316702123523], [-167.33588563415114, 69.22976666425964]]}, "properties": {"source": "6131659", "target": "13582364"}}, {"type": "Feature", "geometry": {"type": "LineString", "coordinates": [[-167.34309594910843, 69.23316702123523], [-167.34449271322555, 69.23164614652143]]}, "properties": {"source": "6131659", "target": "13582373"}}, {"type": "Feature", "geometry": {"type": "LineString", "coordinates": [[-167.34309594910843, 69.23316702123523], [-167.34015049009676, 69.23287869967325]]}, "properties": {"source": "6131659", "target": "14761087"}}, {"type": "Feature", "geometry": {"type": "LineString", "coordinates": [[-167.34309594910843, 69.23316702123523], [-167.34687918889134, 69.2328544359961]]}, "properties": {"source": "6131659", "target": "13612389"}}, {"type": "Feature", "geometry": {"type": "LineString", "coordinates": [[-167.34309594910843, 69.23316702123523], [-167.34218319873534, 69.23046484447568]]}, "properties": {"source": "6131659", "target": "2116354"}}, {"type": "Feature", "geometry": {"type": "LineString", "coordinates": [[-167.34331400953891, 69.23263607010901], [-167.34583967792042, 69.22988381881785]]}, "properties": {"source": "1222861", "target": "13597845"}}, {"type": "Feature", "geometry": {"type": "LineString", "coordinates": [[-167.33872519622457, 69.23364861350976], [-167.34438954068253, 69.23133873259368]]}, "properties": {"source": "11938261", "target": "13632452"}}, {"type": "Feature", "geometry": {"type": "LineString", "coordinates": [[-167.33872519622457, 69.23364861350976], [-167.33588563415114, 69.22976666425964]]}, "properties": {"source": "11938261", "target": "13582364"}}, {"type": "Feature", "geometry": {"type": "LineString", "coordinates": [[-167.33872519622457, 69.23364861350976], [-167.34449271322555, 69.23164614652143]]}, "properties": {"source": "11938261", "target": "13582373"}}, {"type": "Feature", "geometry": {"type": "LineString", "coordinates": [[-167.33872519622457, 69.23364861350976], [-167.33703584036928, 69.23303763155786]]}, "properties": {"source": "11938261", "target": "10316626"}}, {"type": "Feature", "geometry": {"type": "LineString", "coordinates": [[-167.33872519622457, 69.23364861350976], [-167.33609846372417, 69.22988758614414]]}, "properties": {"source": "11938261", "target": "11535216"}}, {"type": "Feature", "geometry": {"type": "LineString", "coordinates": [[-167.33789768496666, 69.23020107227634], [-167.3355171715706, 69.23372091348489]]}, "properties": {"source": "17560319", "target": "13604621"}}, {"type": "Feature", "geometry": {"type": "LineString", "coordinates": [[-167.33789768496666, 69.23020107227634], [-167.34678348912703, 69.23032932217646]]}, "properties": {"source": "17560319", "target": "17404784"}}, {"type": "Feature", "geometry": {"type": "LineString", "coordinates": [[-167.33789768496666, 69.23020107227634], [-167.3480092425978, 69.23377494717985]]}, "properties": {"source": "17560319", "target": "17428536"}}, {"type": "Feature", "geometry": {"type": "LineString", "coordinates": [[-167.33789768496666, 69.23020107227634], [-167.33544760364128, 69.23072094704173]]}, "properties": {"source": "17560319", "target": "17335127"}}, {"type": "Feature", "geometry": {"type": "LineString", "coordinates": [[-167.33789768496666, 69.23020107227634], [-167.34748596189527, 69.23323010730209]]}, "properties": {"source": "17560319", "target": "10587893"}}, {"type": "Feature", "geometry": {"type": "LineString", "coordinates": [[-167.33789768496666, 69.23020107227634], [-167.3472284156622, 69.23402311372163]]}, "properties": {"source": "17560319", "target": "17706082"}}, {"type": "Feature", "geometry": {"type": "LineString", "coordinates": [[-167.33789768496666, 69.23020107227634], [-167.33870158730113, 69.23035304884803]]}, "properties": {"source": "17560319", "target": "7984760"}}, {"type": "Feature", "geometry": {"type": "LineString", "coordinates": [[-167.34246116634944, 69.23262739554798], [-167.33802473946565, 69.23241711648342]]}, "properties": {"source": "15708590", "target": "13582405"}}, {"type": "Feature", "geometry": {"type": "LineString", "coordinates": [[-167.34246116634944, 69.23262739554798], [-167.3355171715706, 69.23372091348489]]}, "properties": {"source": "15708590", "target": "13604621"}}, {"type": "Feature", "geometry": {"type": "LineString", "coordinates": [[-167.33789768496666, 69.23020107227634], [-167.34350027429417, 69.23255185423659]]}, "properties": {"source": "17560319", "target": "2408782"}}, {"type": "Feature", "geometry": {"type": "LineString", "coordinates": [[-167.33588678439364, 69.23123265427839], [-167.33789768496666, 69.23020107227634]]}, "properties": {"source": "2243408", "target": "17560319"}}, {"type": "Feature", "geometry": {"type": "LineString", "coordinates": [[-167.34246116634944, 69.23262739554798], [-167.34438954068253, 69.23133873259368]]}, "properties": {"source": "15708590", "target": "13632452"}}, {"type": "Feature", "geometry": {"type": "LineString", "coordinates": [[-167.34246116634944, 69.23262739554798], [-167.34015049009676, 69.23287869967325]]}, "properties": {"source": "15708590", "target": "14761087"}}, {"type": "Feature", "geometry": {"type": "LineString", "coordinates": [[-167.34246116634944, 69.23262739554798], [-167.34687918889134, 69.2328544359961]]}, "properties": {"source": "15708590", "target": "13612389"}}, {"type": "Feature", "geometry": {"type": "LineString", "coordinates": [[-167.34246116634944, 69.23262739554798], [-167.3424058984204, 69.23265554118089]]}, "properties": {"source": "15708590", "target": "13601188"}}, {"type": "Feature", "geometry": {"type": "LineString", "coordinates": [[-167.33523478762064, 69.23228500913393], [-167.34653582423, 69.23358204048242]]}, "properties": {"source": "13035503", "target": "8437378"}}, {"type": "Feature", "geometry": {"type": "LineString", "coordinates": [[-167.33523478762064, 69.23228500913393], [-167.34583967792042, 69.22988381881785]]}, "properties": {"source": "13035503", "target": "13597845"}}, {"type": "Feature", "geometry": {"type": "LineString", "coordinates": [[-167.33523478762064, 69.23228500913393], [-167.33802473946565, 69.23241711648342]]}, "properties": {"source": "13035503", "target": "13582405"}}, {"type": "Feature", "geometry": {"type": "LineString", "coordinates": [[-167.33523478762064, 69.23228500913393], [-167.3355171715706, 69.23372091348489]]}, "properties": {"source": "13035503", "target": "13604621"}}, {"type": "Feature", "geometry": {"type": "LineString", "coordinates": [[-167.33523478762064, 69.23228500913393], [-167.34547634952423, 69.23272600121197]]}, "properties": {"source": "13035503", "target": "13582385"}}, {"type": "Feature", "geometry": {"type": "LineString", "coordinates": [[-167.33523478762064, 69.23228500913393], [-167.34517930579523, 69.23077993202577]]}, "properties": {"source": "13035503", "target": "13582380"}}, {"type": "Feature", "geometry": {"type": "LineString", "coordinates": [[-167.33523478762064, 69.23228500913393], [-167.34438954068253, 69.23133873259368]]}, "properties": {"source": "13035503", "target": "13632452"}}, {"type": "Feature", "geometry": {"type": "LineString", "coordinates": [[-167.33523478762064, 69.23228500913393], [-167.33588563415114, 69.22976666425964]]}, "properties": {"source": "13035503", "target": "13582364"}}, {"type": "Feature", "geometry": {"type": "LineString", "coordinates": [[-167.33523478762064, 69.23228500913393], [-167.34449271322555, 69.23164614652143]]}, "properties": {"source": "13035503", "target": "13582373"}}, {"type": "Feature", "geometry": {"type": "LineString", "coordinates": [[-167.33523478762064, 69.23228500913393], [-167.3402374017086, 69.23055197221109]]}, "properties": {"source": "13035503", "target": "13101700"}}, {"type": "Feature", "geometry": {"type": "LineString", "coordinates": [[-167.34331400953891, 69.23263607010901], [-167.34653582423, 69.23358204048242]]}, "properties": {"source": "1222861", "target": "8437378"}}, {"type": "Feature", "geometry": {"type": "LineString", "coordinates": [[-167.34309594910843, 69.23316702123523], [-167.3424058984204, 69.23265554118089]]}, "properties": {"source": "6131659", "target": "13601188"}}, {"type": "Feature", "geometry": {"type": "LineString", "coordinates": [[-167.34583967792042, 69.22988381881785], [-167.3402374017086, 69.23055197221109]]}, "properties": {"source": "13597845", "target": "13101700"}}, {"type": "Feature", "geometry": {"type": "LineString", "coordinates": [[-167.34583967792042, 69.22988381881785], [-167.34246116634944, 69.23262739554798]]}, "properties": {"source": "13597845", "target": "15708590"}}, {"type": "Feature", "geometry": {"type": "LineString", "coordinates": [[-167.34583967792042, 69.22988381881785], [-167.33888045938275, 69.23362871340439]]}, "properties": {"source": "13597845", "target": "7664609"}}, {"type": "Feature", "geometry": {"type": "LineString", "coordinates": [[-167.34583967792042, 69.22988381881785], [-167.34352142520106, 69.23122190489744]]}, "properties": {"source": "13597845", "target": "13479602"}}, {"type": "Feature", "geometry": {"type": "LineString", "coordinates": [[-167.34583967792042, 69.22988381881785], [-167.34163651239854, 69.23382861966837]]}, "properties": {"source": "13597845", "target": "13582354"}}, {"type": "Feature", "geometry": {"type": "LineString", "coordinates": [[-167.34583967792042, 69.22988381881785], [-167.33882583883036, 69.23410277110048]]}, "properties": {"source": "13597845", "target": "13414407"}}, {"type": "Feature", "geometry": {"type": "LineString", "coordinates": [[-167.34583967792042, 69.22988381881785], [-167.34345654623007, 69.2325590320923]]}, "properties": {"source": "13597845", "target": "1356395"}}, {"type": "Feature", "geometry": {"type": "LineString", "coordinates": [[-167.34583967792042, 69.22988381881785], [-167.3404176112076, 69.23345109867645]]}, "properties": {"source": "13597845", "target": "13319288"}}, {"type": "Feature", "geometry": {"type": "LineString", "coordinates": [[-167.34583967792042, 69.22988381881785], [-167.33895171878936, 69.23364894880854]]}, "properties": {"source": "13597845", "target": "13489258"}}, {"type": "Feature", "geometry": {"type": "LineString", "coordinates": [[-167.34583967792042, 69.22988381881785], [-167.33584541082726, 69.2339338864505]]}, "properties": {"source": "13597845", "target": "13432904"}}, {"type": "Feature", "geometry": {"type": "LineString", "coordinates": [[-167.34583967792042, 69.22988381881785], [-167.3385880911862, 69.23384266161483]]}, "properties": {"source": "13597845", "target": "13231952"}}, {"type": "Feature", "geometry": {"type": "LineString", "coordinates": [[-167.33802473946565, 69.23241711648342], [-167.3355171715706, 69.23372091348489]]}, "properties": {"source": "13582405", "target": "13604621"}}, {"type": "Feature", "geometry": {"type": "LineString", "coordinates": [[-167.33802473946565, 69.23241711648342], [-167.34547634952423, 69.23272600121197]]}, "properties": {"source": "13582405", "target": "13582385"}}, {"type": "Feature", "geometry": {"type": "LineString", "coordinates": [[-167.33802473946565, 69.23241711648342], [-167.34438954068253, 69.23133873259368]]}, "properties": {"source": "13582405", "target": "13632452"}}, {"type": "Feature", "geometry": {"type": "LineString", "coordinates": [[-167.33802473946565, 69.23241711648342], [-167.33588563415114, 69.22976666425964]]}, "properties": {"source": "13582405", "target": "13582364"}}, {"type": "Feature", "geometry": {"type": "LineString", "coordinates": [[-167.33905725045605, 69.2297245912396], [-167.34438954068253, 69.23133873259368]]}, "properties": {"source": "15791557", "target": "13632452"}}, {"type": "Feature", "geometry": {"type": "LineString", "coordinates": [[-167.34653582423, 69.23358204048242], [-167.3404176112076, 69.23345109867645]]}, "properties": {"source": "8437378", "target": "13319288"}}, {"type": "Feature", "geometry": {"type": "LineString", "coordinates": [[-167.34653582423, 69.23358204048242], [-167.33905725045605, 69.2297245912396]]}, "properties": {"source": "8437378", "target": "15791557"}}, {"type": "Feature", "geometry": {"type": "LineString", "coordinates": [[-167.34653582423, 69.23358204048242], [-167.33584541082726, 69.2339338864505]]}, "properties": {"source": "8437378", "target": "13432904"}}, {"type": "Feature", "geometry": {"type": "LineString", "coordinates": [[-167.34653582423, 69.23358204048242], [-167.3385880911862, 69.23384266161483]]}, "properties": {"source": "8437378", "target": "13231952"}}, {"type": "Feature", "geometry": {"type": "LineString", "coordinates": [[-167.34583967792042, 69.22988381881785], [-167.34653582423, 69.23358204048242]]}, "properties": {"source": "13597845", "target": "8437378"}}, {"type": "Feature", "geometry": {"type": "LineString", "coordinates": [[-167.34583967792042, 69.22988381881785], [-167.33802473946565, 69.23241711648342]]}, "properties": {"source": "13597845", "target": "13582405"}}, {"type": "Feature", "geometry": {"type": "LineString", "coordinates": [[-167.34583967792042, 69.22988381881785], [-167.3355171715706, 69.23372091348489]]}, "properties": {"source": "13597845", "target": "13604621"}}, {"type": "Feature", "geometry": {"type": "LineString", "coordinates": [[-167.34583967792042, 69.22988381881785], [-167.34547634952423, 69.23272600121197]]}, "properties": {"source": "13597845", "target": "13582385"}}, {"type": "Feature", "geometry": {"type": "LineString", "coordinates": [[-167.34583967792042, 69.22988381881785], [-167.34517930579523, 69.23077993202577]]}, "properties": {"source": "13597845", "target": "13582380"}}, {"type": "Feature", "geometry": {"type": "LineString", "coordinates": [[-167.34583967792042, 69.22988381881785], [-167.34438954068253, 69.23133873259368]]}, "properties": {"source": "13597845", "target": "13632452"}}, {"type": "Feature", "geometry": {"type": "LineString", "coordinates": [[-167.34583967792042, 69.22988381881785], [-167.33588563415114, 69.22976666425964]]}, "properties": {"source": "13597845", "target": "13582364"}}, {"type": "Feature", "geometry": {"type": "LineString", "coordinates": [[-167.34583967792042, 69.22988381881785], [-167.34449271322555, 69.23164614652143]]}, "properties": {"source": "13597845", "target": "13582373"}}, {"type": "Feature", "geometry": {"type": "LineString", "coordinates": [[-167.34583967792042, 69.22988381881785], [-167.34015049009676, 69.23287869967325]]}, "properties": {"source": "13597845", "target": "14761087"}}, {"type": "Feature", "geometry": {"type": "LineString", "coordinates": [[-167.34583967792042, 69.22988381881785], [-167.34309594910843, 69.23316702123523]]}, "properties": {"source": "13597845", "target": "6131659"}}, {"type": "Feature", "geometry": {"type": "LineString", "coordinates": [[-167.34583967792042, 69.22988381881785], [-167.34687918889134, 69.2328544359961]]}, "properties": {"source": "13597845", "target": "13612389"}}, {"type": "Feature", "geometry": {"type": "LineString", "coordinates": [[-167.34583967792042, 69.22988381881785], [-167.34218319873534, 69.23046484447568]]}, "properties": {"source": "13597845", "target": "2116354"}}, {"type": "Feature", "geometry": {"type": "LineString", "coordinates": [[-167.34653582423, 69.23358204048242], [-167.33802473946565, 69.23241711648342]]}, "properties": {"source": "8437378", "target": "13582405"}}, {"type": "Feature", "geometry": {"type": "LineString", "coordinates": [[-167.34653582423, 69.23358204048242], [-167.3355171715706, 69.23372091348489]]}, "properties": {"source": "8437378", "target": "13604621"}}, {"type": "Feature", "geometry": {"type": "LineString", "coordinates": [[-167.34653582423, 69.23358204048242], [-167.34547634952423, 69.23272600121197]]}, "properties": {"source": "8437378", "target": "13582385"}}, {"type": "Feature", "geometry": {"type": "LineString", "coordinates": [[-167.34653582423, 69.23358204048242], [-167.34438954068253, 69.23133873259368]]}, "properties": {"source": "8437378", "target": "13632452"}}, {"type": "Feature", "geometry": {"type": "LineString", "coordinates": [[-167.34653582423, 69.23358204048242], [-167.33588563415114, 69.22976666425964]]}, "properties": {"source": "8437378", "target": "13582364"}}, {"type": "Feature", "geometry": {"type": "LineString", "coordinates": [[-167.34653582423, 69.23358204048242], [-167.34449271322555, 69.23164614652143]]}, "properties": {"source": "8437378", "target": "13582373"}}, {"type": "Feature", "geometry": {"type": "LineString", "coordinates": [[-167.34653582423, 69.23358204048242], [-167.34015049009676, 69.23287869967325]]}, "properties": {"source": "8437378", "target": "14761087"}}, {"type": "Feature", "geometry": {"type": "LineString", "coordinates": [[-167.34653582423, 69.23358204048242], [-167.34687918889134, 69.2328544359961]]}, "properties": {"source": "8437378", "target": "13612389"}}, {"type": "Feature", "geometry": {"type": "LineString", "coordinates": [[-167.34653582423, 69.23358204048242], [-167.3402374017086, 69.23055197221109]]}, "properties": {"source": "8437378", "target": "13101700"}}, {"type": "Feature", "geometry": {"type": "LineString", "coordinates": [[-167.34653582423, 69.23358204048242], [-167.34246116634944, 69.23262739554798]]}, "properties": {"source": "8437378", "target": "15708590"}}, {"type": "Feature", "geometry": {"type": "LineString", "coordinates": [[-167.34653582423, 69.23358204048242], [-167.3424058984204, 69.23265554118089]]}, "properties": {"source": "8437378", "target": "13601188"}}, {"type": "Feature", "geometry": {"type": "LineString", "coordinates": [[-167.34653582423, 69.23358204048242], [-167.33888045938275, 69.23362871340439]]}, "properties": {"source": "8437378", "target": "7664609"}}, {"type": "Feature", "geometry": {"type": "LineString", "coordinates": [[-167.34653582423, 69.23358204048242], [-167.34352142520106, 69.23122190489744]]}, "properties": {"source": "8437378", "target": "13479602"}}, {"type": "Feature", "geometry": {"type": "LineString", "coordinates": [[-167.34653582423, 69.23358204048242], [-167.34163651239854, 69.23382861966837]]}, "properties": {"source": "8437378", "target": "13582354"}}, {"type": "Feature", "geometry": {"type": "LineString", "coordinates": [[-167.34653582423, 69.23358204048242], [-167.33882583883036, 69.23410277110048]]}, "properties": {"source": "8437378", "target": "13414407"}}, {"type": "Feature", "geometry": {"type": "LineString", "coordinates": [[-167.33905725045605, 69.2297245912396], [-167.34015049009676, 69.23287869967325]]}, "properties": {"source": "15791557", "target": "14761087"}}, {"type": "Feature", "geometry": {"type": "LineString", "coordinates": [[-167.33905725045605, 69.2297245912396], [-167.33888045938275, 69.23362871340439]]}, "properties": {"source": "15791557", "target": "7664609"}}, {"type": "Feature", "geometry": {"type": "LineString", "coordinates": [[-167.33584541082726, 69.2339338864505], [-167.33802473946565, 69.23241711648342]]}, "properties": {"source": "13432904", "target": "13582405"}}, {"type": "Feature", "geometry": {"type": "LineString", "coordinates": [[-167.33584541082726, 69.2339338864505], [-167.34547634952423, 69.23272600121197]]}, "properties": {"source": "13432904", "target": "13582385"}}, {"type": "Feature", "geometry": {"type": "LineString", "coordinates": [[-167.33584541082726, 69.2339338864505], [-167.33588563415114, 69.22976666425964]]}, "properties": {"source": "13432904", "target": "13582364"}}, {"type": "Feature", "geometry": {"type": "LineString", "coordinates": [[-167.3472284156622, 69.23402311372163], [-167.33544760364128, 69.23072094704173]]}, "properties": {"source": "17706082", "target": "17335127"}}, {"type": "Feature", "geometry": {"type": "LineString", "coordinates": [[-167.3472284156622, 69.23402311372163], [-167.33870158730113, 69.23035304884803]]}, "properties": {"source": "17706082", "target": "7984760"}}, {"type": "Feature", "geometry": {"type": "LineString", "coordinates": [[-167.3385880911862, 69.23384266161483], [-167.34547634952423, 69.23272600121197]]}, "properties": {"source": "13231952", "target": "13582385"}}, {"type": "Feature", "geometry": {"type": "LineString", "coordinates": [[-167.33828673227484, 69.23306908432042], [-167.34653582423, 69.23358204048242]]}, "properties": {"source": "6119363", "target": "8437378"}}, {"type": "Feature", "geometry": {"type": "LineString", "coordinates": [[-167.33828673227484, 69.23306908432042], [-167.34015049009676, 69.23287869967325]]}, "properties": {"source": "6119363", "target": "14761087"}}, {"type": "Feature", "geometry": {"type": "LineString", "coordinates": [[-167.33828673227484, 69.23306908432042], [-167.34309594910843, 69.23316702123523]]}, "properties": {"source": "6119363", "target": "6131659"}}, {"type": "Feature", "geometry": {"type": "LineString", "coordinates": [[-167.33828673227484, 69.23306908432042], [-167.34218319873534, 69.23046484447568]]}, "properties": {"source": "6119363", "target": "2116354"}}, {"type": "Feature", "geometry": {"type": "LineString", "coordinates": [[-167.34611831468942, 69.23219315454787], [-167.34687918889134, 69.2328544359961]]}, "properties": {"source": "1124376", "target": "13612389"}}, {"type": "Feature", "geometry": {"type": "LineString", "coordinates": [[-167.34611831468942, 69.23219315454787], [-167.33987898216083, 69.23127566872378]]}, "properties": {"source": "1124376", "target": "5986765"}}, {"type": "Feature", "geometry": {"type": "LineString", "coordinates": [[-167.34611831468942, 69.23219315454787], [-167.34102372545482, 69.23364357642069]]}, "properties": {"source": "1124376", "target": "615872"}}, {"type": "Feature", "geometry": {"type": "LineString", "coordinates": [[-167.345073457172, 69.23076281591332], [-167.34611831468942, 69.23219315454787]]}, "properties": {"source": "2164217", "target": "1124376"}}, {"type": "Feature", "geometry": {"type": "LineString", "coordinates": [[-167.34246116634944, 69.23262739554798], [-167.34547634952423, 69.23272600121197]]}, "properties": {"source": "15708590", "target": "13582385"}}, {"type": "Feature", "geometry": {"type": "LineString", "coordinates": [[-167.33828673227484, 69.23306908432042], [-167.33888045938275, 69.23362871340439]]}, "properties": {"source": "6119363", "target": "7664609"}}, {"type": "Feature", "geometry": {"type": "LineString", "coordinates": [[-167.3354531849952, 69.23368106555168], [-167.3355171715706, 69.23372091348489]]}, "properties": {"source": "1366082", "target": "13604621"}}, {"type": "Feature", "geometry": {"type": "LineString", "coordinates": [[-167.3354531849952, 69.23368106555168], [-167.33789768496666, 69.23020107227634]]}, "properties": {"source": "1366082", "target": "17560319"}}, {"type": "Feature", "geometry": {"type": "LineString", "coordinates": [[-167.3354531849952, 69.23368106555168], [-167.3480092425978, 69.23377494717985]]}, "properties": {"source": "1366082", "target": "17428536"}}, {"type": "Feature", "geometry": {"type": "LineString", "coordinates": [[-167.3354531849952, 69.23368106555168], [-167.3472284156622, 69.23402311372163]]}, "properties": {"source": "1366082", "target": "17706082"}}, {"type": "Feature", "geometry": {"type": "LineString", "coordinates": [[-167.33870158730113, 69.23035304884803], [-167.33544760364128, 69.23072094704173]]}, "properties": {"source": "7984760", "target": "17335127"}}, {"type": "Feature", "geometry": {"type": "LineString", "coordinates": [[-167.34174042059703, 69.23233029861498], [-167.33789768496666, 69.23020107227634]]}, "properties": {"source": "21825200", "target": "17560319"}}, {"type": "Feature", "geometry": {"type": "LineString", "coordinates": [[-167.34174042059703, 69.23233029861498], [-167.34678348912703, 69.23032932217646]]}, "properties": {"source": "21825200", "target": "17404784"}}, {"type": "Feature", "geometry": {"type": "LineString", "coordinates": [[-167.34174042059703, 69.23233029861498], [-167.33544760364128, 69.23072094704173]]}, "properties": {"source": "21825200", "target": "17335127"}}, {"type": "Feature", "geometry": {"type": "LineString", "coordinates": [[-167.33478587881663, 69.23388672995213], [-167.34653582423, 69.23358204048242]]}, "properties": {"source": "13613329", "target": "8437378"}}, {"type": "Feature", "geometry": {"type": "LineString", "coordinates": [[-167.33478587881663, 69.23388672995213], [-167.34438954068253, 69.23133873259368]]}, "properties": {"source": "13613329", "target": "13632452"}}, {"type": "Feature", "geometry": {"type": "LineString", "coordinates": [[-167.33478587881663, 69.23388672995213], [-167.34015049009676, 69.23287869967325]]}, "properties": {"source": "13613329", "target": "14761087"}}, {"type": "Feature", "geometry": {"type": "LineString", "coordinates": [[-167.33478587881663, 69.23388672995213], [-167.34070336682564, 69.23406785687894]]}, "properties": {"source": "13613329", "target": "7407468"}}, {"type": "Feature", "geometry": {"type": "LineString", "coordinates": [[-167.3352446807967, 69.22971781910661], [-167.33987898216083, 69.23127566872378]]}, "properties": {"source": "29437939", "target": "5986765"}}, {"type": "Feature", "geometry": {"type": "LineString", "coordinates": [[-167.3352446807967, 69.22971781910661], [-167.34611831468942, 69.23219315454787]]}, "properties": {"source": "29437939", "target": "1124376"}}, {"type": "Feature", "geometry": {"type": "LineString", "coordinates": [[-167.34442029642435, 69.23350037772184], [-167.34748596189527, 69.23323010730209]]}, "properties": {"source": "25496662", "target": "10587893"}}, {"type": "Feature", "geometry": {"type": "LineString", "coordinates": [[-167.33588678439364, 69.23123265427839], [-167.34678348912703, 69.23032932217646]]}, "properties": {"source": "2243408", "target": "17404784"}}, {"type": "Feature", "geometry": {"type": "LineString", "coordinates": [[-167.33588678439364, 69.23123265427839], [-167.3480092425978, 69.23377494717985]]}, "properties": {"source": "2243408", "target": "17428536"}}, {"type": "Feature", "geometry": {"type": "LineString", "coordinates": [[-167.33588678439364, 69.23123265427839], [-167.33544760364128, 69.23072094704173]]}, "properties": {"source": "2243408", "target": "17335127"}}, {"type": "Feature", "geometry": {"type": "LineString", "coordinates": [[-167.33588678439364, 69.23123265427839], [-167.34748596189527, 69.23323010730209]]}, "properties": {"source": "2243408", "target": "10587893"}}, {"type": "Feature", "geometry": {"type": "LineString", "coordinates": [[-167.33588678439364, 69.23123265427839], [-167.34174042059703, 69.23233029861498]]}, "properties": {"source": "2243408", "target": "21825200"}}, {"type": "Feature", "geometry": {"type": "LineString", "coordinates": [[-167.34748596189527, 69.23323010730209], [-167.34678348912703, 69.23032932217646]]}, "properties": {"source": "10587893", "target": "17404784"}}, {"type": "Feature", "geometry": {"type": "LineString", "coordinates": [[-167.34748596189527, 69.23323010730209], [-167.3480092425978, 69.23377494717985]]}, "properties": {"source": "10587893", "target": "17428536"}}, {"type": "Feature", "geometry": {"type": "LineString", "coordinates": [[-167.34748596189527, 69.23323010730209], [-167.33544760364128, 69.23072094704173]]}, "properties": {"source": "10587893", "target": "17335127"}}, {"type": "Feature", "geometry": {"type": "LineString", "coordinates": [[-167.33895171878936, 69.23364894880854], [-167.34653582423, 69.23358204048242]]}, "properties": {"source": "13489258", "target": "8437378"}}, {"type": "Feature", "geometry": {"type": "LineString", "coordinates": [[-167.33895171878936, 69.23364894880854], [-167.33802473946565, 69.23241711648342]]}, "properties": {"source": "13489258", "target": "13582405"}}, {"type": "Feature", "geometry": {"type": "LineString", "coordinates": [[-167.33895171878936, 69.23364894880854], [-167.34547634952423, 69.23272600121197]]}, "properties": {"source": "13489258", "target": "13582385"}}, {"type": "Feature", "geometry": {"type": "LineString", "coordinates": [[-167.33895171878936, 69.23364894880854], [-167.33588563415114, 69.22976666425964]]}, "properties": {"source": "13489258", "target": "13582364"}}, {"type": "Feature", "geometry": {"type": "LineString", "coordinates": [[-167.33895171878936, 69.23364894880854], [-167.34449271322555, 69.23164614652143]]}, "properties": {"source": "13489258", "target": "13582373"}}, {"type": "Feature", "geometry": {"type": "LineString", "coordinates": [[-167.33588678439364, 69.23123265427839], [-167.34350027429417, 69.23255185423659]]}, "properties": {"source": "2243408", "target": "2408782"}}, {"type": "Feature", "geometry": {"type": "LineString", "coordinates": [[-167.34748596189527, 69.23323010730209], [-167.34350027429417, 69.23255185423659]]}, "properties": {"source": "10587893", "target": "2408782"}}, {"type": "Feature", "geometry": {"type": "LineString", "coordinates": [[-167.34163651239854, 69.23382861966837], [-167.3355171715706, 69.23372091348489]]}, "properties": {"source": "13582354", "target": "13604621"}}, {"type": "Feature", "geometry": {"type": "LineString", "coordinates": [[-167.34412365953108, 69.23117473143424], [-167.34687918889134, 69.2328544359961]]}, "properties": {"source": "1330449", "target": "13612389"}}, {"type": "Feature", "geometry": {"type": "LineString", "coordinates": [[-167.34412365953108, 69.23117473143424], [-167.33487016216995, 69.23006262999317]]}, "properties": {"source": "1330449", "target": "14930046"}}, {"type": "Feature", "geometry": {"type": "LineString", "coordinates": [[-167.33487016216995, 69.23006262999317], [-167.33860998536528, 69.23364233295413]]}, "properties": {"source": "14930046", "target": "15701870"}}, {"type": "Feature", "geometry": {"type": "LineString", "coordinates": [[-167.33487016216995, 69.23006262999317], [-167.33815517311834, 69.23377033004246]]}, "properties": {"source": "14930046", "target": "15721642"}}, {"type": "Feature", "geometry": {"type": "LineString", "coordinates": [[-167.33987898216083, 69.23127566872378], [-167.34102372545482, 69.23364357642069]]}, "properties": {"source": "5986765", "target": "615872"}}, {"type": "Feature", "geometry": {"type": "LineString", "coordinates": [[-167.34590299953638, 69.23105239759454], [-167.3424058984204, 69.23265554118089]]}, "properties": {"source": "13276290", "target": "13601188"}}, {"type": "Feature", "geometry": {"type": "LineString", "coordinates": [[-167.34590299953638, 69.23105239759454], [-167.33882583883036, 69.23410277110048]]}, "properties": {"source": "13276290", "target": "13414407"}}, {"type": "Feature", "geometry": {"type": "LineString", "coordinates": [[-167.3367064476347, 69.23215123366316], [-167.3355171715706, 69.23372091348489]]}, "properties": {"source": "22728561", "target": "13604621"}}, {"type": "Feature", "geometry": {"type": "LineString", "coordinates": [[-167.3367064476347, 69.23215123366316], [-167.3354531849952, 69.23368106555168]]}, "properties": {"source": "22728561", "target": "1366082"}}, {"type": "Feature", "geometry": {"type": "LineString", "coordinates": [[-167.34187493296082, 69.23116067436055], [-167.33863732083165, 69.23105835408361]]}, "properties": {"source": "16566382", "target": "1813964"}}, {"type": "Feature", "geometry": {"type": "LineString", "coordinates": [[-167.33703584036928, 69.23303763155786], [-167.33609846372417, 69.22988758614414]]}, "properties": {"source": "10316626", "target": "11535216"}}, {"type": "Feature", "geometry": {"type": "LineString", "coordinates": [[-167.33860998536528, 69.23364233295413], [-167.34031738197052, 69.23169487860753]]}, "properties": {"source": "15701870", "target": "16131059"}}, {"type": "Feature", "geometry": {"type": "LineString", "coordinates": [[-167.34606796391625, 69.23174453065423], [-167.33905725045605, 69.2297245912396]]}, "properties": {"source": "17230315", "target": "15791557"}}, {"type": "Feature", "geometry": {"type": "LineString", "coordinates": [[-167.3352446807967, 69.22971781910661], [-167.345073457172, 69.23076281591332]]}, "properties": {"source": "29437939", "target": "2164217"}}, {"type": "Feature", "geometry": {"type": "LineString", "coordinates": [[-167.34412365953108, 69.23117473143424], [-167.34611831468942, 69.23219315454787]]}, "properties": {"source": "1330449", "target": "1124376"}}]}