{"type": "FeatureCollection", "features": [{"type": "Feature", "geometry": {"type": "LineString", "coordinates": [[-126.68905611706799, 68.22394244348126], [-126.67163564699341, 68.22953728182043]]}, "properties": {"source": "1936069", "target": "1896415"}}, {"type": "Feature", "geometry": {"type": "LineString", "coordinates": [[-126.67101949925814, 68.22986533299192], [-126.67104886969796, 68.22879178422971]]}, "properties": {"source": "782213", "target": "1149497"}}, {"type": "Feature", "geometry": {"type": "LineString", "coordinates": [[-126.67101949925814, 68.22986533299192], [-126.67163564699341, 68.22953728182043]]}, "properties": {"source": "782213", "target": "1896415"}}, {"type": "Feature", "geometry": {"type": "LineString", "coordinates": [[-126.67101949925814, 68.22986533299192], [-126.68110499824466, 68.22571084944329]]}, "properties": {"source": "782213", "target": "8752876"}}, {"type": "Feature", "geometry": {"type": "LineString", "coordinates": [[-126.67332113150954, 68.22603231040571], [-126.66687549228135, 68.23124266911594]]}, "properties": {"source": "15896611", "target": "1412868"}}, {"type": "Feature", "geometry": {"type": "LineString", "coordinates": [[-126.6718859317348, 68.22386432740942], [-126.6719119249841, 68.22956277240652]]}, "properties": {"source": "32988", "target": "2461465"}}, {"type": "Feature", "geometry": {"type": "LineString", "coordinates": [[-126.6718859317348, 68.22386432740942], [-126.6953017266377, 68.22512332235337]]}, "properties": {"source": "32988", "target": "6053402"}}, {"type": "Feature", "geometry": {"type": "LineString", "coordinates": [[-126.6718859317348, 68.22386432740942], [-126.68364643119885, 68.22663737476654]]}, "properties": {"source": "32988", "target": "24585278"}}, {"type": "Feature", "geometry": {"type": "LineString", "coordinates": [[-126.6718859317348, 68.22386432740942], [-126.67279664408662, 68.22444078348704]]}, "properties": {"source": "32988", "target": "360745"}}, {"type": "Feature", "geometry": {"type": "LineString", "coordinates": [[-126.69023149723836, 68.22405909870392], [-126.67477398137973, 68.22250178125128]]}, "properties": {"source": "685387", "target": "821497"}}, {"type": "Feature", "geometry": {"type": "LineString", "coordinates": [[-126.69023149723836, 68.22405909870392], [-126.66807307187466, 68.22523082058262]]}, "properties": {"source": "685387", "target": "7443610"}}, {"type": "Feature", "geometry": {"type": "LineString", "coordinates": [[-126.69023149723836, 68.22405909870392], [-126.68489781718911, 68.22330988079682]]}, "properties": {"source": "685387", "target": "7101259"}}, {"type": "Feature", "geometry": {"type": "LineString", "coordinates": [[-126.6721949403101, 68.22779437975967], [-126.67685058269346, 68.22232096998007]]}, "properties": {"source": "1255304", "target": "1262526"}}, {"type": "Feature", "geometry": {"type": "LineString", "coordinates": [[-126.67356079173356, 68.22309953555728], [-126.66728602284775, 68.23025104614823]]}, "properties": {"source": "1089685", "target": "402594"}}, {"type": "Feature", "geometry": {"type": "LineString", "coordinates": [[-126.67356079173356, 68.22309953555728], [-126.66880972694511, 68.22577850862223]]}, "properties": {"source": "1089685", "target": "455501"}}, {"type": "Feature", "geometry": {"type": "LineString", "coordinates": [[-126.67356079173356, 68.22309953555728], [-126.68560878802988, 68.2275363144386]]}, "properties": {"source": "1089685", "target": "7710571"}}, {"type": "Feature", "geometry": {"type": "LineString", "coordinates": [[-126.69376658026971, 68.22651394537397], [-126.6721949403101, 68.22779437975967]]}, "properties": {"source": "3324369", "target": "1255304"}}, {"type": "Feature", "geometry": {"type": "LineString", "coordinates": [[-126.69376658026971, 68.22651394537397], [-126.67685058269346, 68.22232096998007]]}, "properties": {"source": "3324369", "target": "1262526"}}, {"type": "Feature", "geometry": {"type": "LineString", "coordinates": [[-126.69376658026971, 68.22651394537397], [-126.68211660318684, 68.22675236306821]]}, "properties": {"source": "3324369", "target": "232883"}}, {"type": "Feature", "geometry": {"type": "LineString", "coordinates": [[-126.67879540970281, 68.23015754434303], [-126.69687514335371, 68.22717627597186]]}, "properties": {"source": "6434209", "target": "860652"}}, {"type": "Feature", "geometry": {"type": "LineString", "coordinates": [[-126.67879540970281, 68.23015754434303], [-126.69559260578245, 68.22376627020375]]}, "properties": {"source": "6434209", "target": "6537388"}}, {"type": "Feature", "geometry": {"type": "LineString", "coordinates": [[-126.67879540970281, 68.23015754434303], [-126.67301117055041, 68.2316396516685]]}, "properties": {"source": "6434209", "target": "9011727"}}, {"type": "Feature", "geometry": {"type": "LineString", "coordinates": [[-126.67879540970281, 68.23015754434303], [-126.6730960894912, 68.22741576761669]]}, "properties": {"source": "6434209", "target": "188272"}}, {"type": "Feature", "geometry": {"type": "LineString", "coordinates": [[-126.67879540970281, 68.23015754434303], [-126.67127813734986, 68.22669844258095]]}, "properties": {"source": "6434209", "target": "2003961"}}, {"type": "Feature", "geometry": {"type": "LineString", "coordinates": [[-126.67879540970281, 68.23015754434303], [-126.68047944955109, 68.2249500673901]]}, "properties": {"source": "6434209", "target": "188278"}}, {"type": "Feature", "geometry": {"type": "LineString", "coordinates": [[-126.68498808709346, 68.23161485041715], [-126.68970848160589, 68.22609216455527]]}, "properties": {"source": "993076", "target": "992707"}}, {"type": "Feature", "geometry": {"type": "LineString", "coordinates": [[-126.68498808709346, 68.23161485041715], [-126.66971500277856, 68.22932286098771]]}, "properties": {"source": "993076", "target": "852388"}}, {"type": "Feature", "geometry": {"type": "LineString", "coordinates": [[-126.66816036548542, 68.22690556240093], [-126.68766003436019, 68.23151257940805]]}, "properties": {"source": "821491", "target": "75292"}}, {"type": "Feature", "geometry": {"type": "LineString", "coordinates": [[-126.69270240802618, 68.22433310094942], [-126.67081716837494, 68.2290733730486]]}, "properties": {"source": "905958", "target": "8835952"}}, {"type": "Feature", "geometry": {"type": "LineString", "coordinates": [[-126.69270240802618, 68.22433310094942], [-126.68563852544635, 68.22458190165611]]}, "properties": {"source": "905958", "target": "924653"}}, {"type": "Feature", "geometry": {"type": "LineString", "coordinates": [[-126.67506600173674, 68.22948668657506], [-126.67355814397303, 68.22614666717419]]}, "properties": {"source": "1605657", "target": "13206975"}}, {"type": "Feature", "geometry": {"type": "LineString", "coordinates": [[-126.67879540970281, 68.23015754434303], [-126.6717981569353, 68.22638544948924]]}, "properties": {"source": "6434209", "target": "609623"}}, {"type": "Feature", "geometry": {"type": "LineString", "coordinates": [[-126.66985220027453, 68.22646968105391], [-126.66687549228135, 68.23124266911594]]}, "properties": {"source": "20317494", "target": "1412868"}}, {"type": "Feature", "geometry": {"type": "LineString", "coordinates": [[-126.68364643119885, 68.22663737476654], [-126.6719119249841, 68.22956277240652]]}, "properties": {"source": "24585278", "target": "2461465"}}, {"type": "Feature", "geometry": {"type": "LineString", "coordinates": [[-126.68364643119885, 68.22663737476654], [-126.67279664408662, 68.22444078348704]]}, "properties": {"source": "24585278", "target": "360745"}}, {"type": "Feature", "geometry": {"type": "LineString", "coordinates": [[-126.67696720485583, 68.22299059897239], [-126.67806849254745, 68.23044566862401]]}, "properties": {"source": "107794", "target": "703461"}}, {"type": "Feature", "geometry": {"type": "LineString", "coordinates": [[-126.67843616923469, 68.22229316182282], [-126.67081716837494, 68.2290733730486]]}, "properties": {"source": "852358", "target": "8835952"}}, {"type": "Feature", "geometry": {"type": "LineString", "coordinates": [[-126.67843616923469, 68.22229316182282], [-126.6737662828446, 68.22828048386626]]}, "properties": {"source": "852358", "target": "903839"}}, {"type": "Feature", "geometry": {"type": "LineString", "coordinates": [[-126.67843616923469, 68.22229316182282], [-126.67869294582249, 68.22299459140322]]}, "properties": {"source": "852358", "target": "759366"}}, {"type": "Feature", "geometry": {"type": "LineString", "coordinates": [[-126.66816036548542, 68.22690556240093], [-126.67477398137973, 68.22250178125128]]}, "properties": {"source": "821491", "target": "821497"}}, {"type": "Feature", "geometry": {"type": "LineString", "coordinates": [[-126.66816036548542, 68.22690556240093], [-126.69215281328002, 68.22599916097522]]}, "properties": {"source": "821491", "target": "821481"}}, {"type": "Feature", "geometry": {"type": "LineString", "coordinates": [[-126.66816036548542, 68.22690556240093], [-126.69195916638031, 68.22466728143533]]}, "properties": {"source": "821491", "target": "7890493"}}, {"type": "Feature", "geometry": {"type": "LineString", "coordinates": [[-126.67974673291897, 68.224424994066], [-126.6867945400156, 68.23226760050767]]}, "properties": {"source": "811474", "target": "967019"}}, {"type": "Feature", "geometry": {"type": "LineString", "coordinates": [[-126.67974673291897, 68.224424994066], [-126.6889615123273, 68.22433650224431]]}, "properties": {"source": "811474", "target": "838290"}}, {"type": "Feature", "geometry": {"type": "LineString", "coordinates": [[-126.67656835583767, 68.22462109784948], [-126.67081716837494, 68.2290733730486]]}, "properties": {"source": "1109482", "target": "8835952"}}, {"type": "Feature", "geometry": {"type": "LineString", "coordinates": [[-126.67656835583767, 68.22462109784948], [-126.68563852544635, 68.22458190165611]]}, "properties": {"source": "1109482", "target": "924653"}}, {"type": "Feature", "geometry": {"type": "LineString", "coordinates": [[-126.66985220027453, 68.22646968105391], [-126.67332113150954, 68.22603231040571]]}, "properties": {"source": "20317494", "target": "15896611"}}, {"type": "Feature", "geometry": {"type": "LineString", "coordinates": [[-126.6781581099192, 68.2252963295928], [-126.6717981569353, 68.22638544948924]]}, "properties": {"source": "1567020", "target": "609623"}}, {"type": "Feature", "geometry": {"type": "LineString", "coordinates": [[-126.67355814397303, 68.22614666717419], [-126.68560878802988, 68.2275363144386]]}, "properties": {"source": "13206975", "target": "7710571"}}, {"type": "Feature", "geometry": {"type": "LineString", "coordinates": [[-126.68970848160589, 68.22609216455527], [-126.67457030959477, 68.22594392304083]]}, "properties": {"source": "992707", "target": "992485"}}, {"type": "Feature", "geometry": {"type": "LineString", "coordinates": [[-126.68970848160589, 68.22609216455527], [-126.68771031393756, 68.22871283887864]]}, "properties": {"source": "992707", "target": "993155"}}, {"type": "Feature", "geometry": {"type": "LineString", "coordinates": [[-126.68970848160589, 68.22609216455527], [-126.67075514637702, 68.22797710878811]]}, "properties": {"source": "992707", "target": "98654"}}, {"type": "Feature", "geometry": {"type": "LineString", "coordinates": [[-126.68970848160589, 68.22609216455527], [-126.67647471123745, 68.22434592010265]]}, "properties": {"source": "992707", "target": "992518"}}, {"type": "Feature", "geometry": {"type": "LineString", "coordinates": [[-126.68970848160589, 68.22609216455527], [-126.69079702347625, 68.22550666682531]]}, "properties": {"source": "992707", "target": "1227611"}}, {"type": "Feature", "geometry": {"type": "LineString", "coordinates": [[-126.691511887637, 68.22482193269394], [-126.67081716837494, 68.2290733730486]]}, "properties": {"source": "1019672", "target": "8835952"}}, {"type": "Feature", "geometry": {"type": "LineString", "coordinates": [[-126.691511887637, 68.22482193269394], [-126.6737662828446, 68.22828048386626]]}, "properties": {"source": "1019672", "target": "903839"}}, {"type": "Feature", "geometry": {"type": "LineString", "coordinates": [[-126.691511887637, 68.22482193269394], [-126.67656835583767, 68.22462109784948]]}, "properties": {"source": "1019672", "target": "1109482"}}, {"type": "Feature", "geometry": {"type": "LineString", "coordinates": [[-126.691511887637, 68.22482193269394], [-126.66858208603327, 68.22998368741142]]}, "properties": {"source": "1019672", "target": "1069206"}}, {"type": "Feature", "geometry": {"type": "LineString", "coordinates": [[-126.691511887637, 68.22482193269394], [-126.69512024002773, 68.2311980202245]]}, "properties": {"source": "1019672", "target": "1087650"}}, {"type": "Feature", "geometry": {"type": "LineString", "coordinates": [[-126.693302475602, 68.22594185453278], [-126.67733281938209, 68.22680977269147]]}, "properties": {"source": "375052", "target": "1069207"}}, {"type": "Feature", "geometry": {"type": "LineString", "coordinates": [[-126.693302475602, 68.22594185453278], [-126.68665261955931, 68.22572515772646]]}, "properties": {"source": "375052", "target": "1019663"}}, {"type": "Feature", "geometry": {"type": "LineString", "coordinates": [[-126.693302475602, 68.22594185453278], [-126.67656679777951, 68.22855523511782]]}, "properties": {"source": "375052", "target": "1078415"}}, {"type": "Feature", "geometry": {"type": "LineString", "coordinates": [[-126.693302475602, 68.22594185453278], [-126.69331427440011, 68.22675054890479]]}, "properties": {"source": "375052", "target": "1239824"}}, {"type": "Feature", "geometry": {"type": "LineString", "coordinates": [[-126.68970848160589, 68.22609216455527], [-126.69609246098811, 68.23017384877517]]}, "properties": {"source": "992707", "target": "8541541"}}, {"type": "Feature", "geometry": {"type": "LineString", "coordinates": [[-126.67656835583767, 68.22462109784948], [-126.69512024002773, 68.2311980202245]]}, "properties": {"source": "1109482", "target": "1087650"}}, {"type": "Feature", "geometry": {"type": "LineString", "coordinates": [[-126.6949378528624, 68.22285735542977], [-126.6719119249841, 68.22956277240652]]}, "properties": {"source": "1785106", "target": "2461465"}}, {"type": "Feature", "geometry": {"type": "LineString", "coordinates": [[-126.6949378528624, 68.22285735542977], [-126.692339980735, 68.22833371120129]]}, "properties": {"source": "1785106", "target": "1858960"}}, {"type": "Feature", "geometry": {"type": "LineString", "coordinates": [[-126.6949378528624, 68.22285735542977], [-126.67477108559683, 68.2226985903491]]}, "properties": {"source": "1785106", "target": "1036820"}}, {"type": "Feature", "geometry": {"type": "LineString", "coordinates": [[-126.6949378528624, 68.22285735542977], [-126.68747858104608, 68.23233785778675]]}, "properties": {"source": "1785106", "target": "1031853"}}, {"type": "Feature", "geometry": {"type": "LineString", "coordinates": [[-126.6949378528624, 68.22285735542977], [-126.6721949403101, 68.22779437975967]]}, "properties": {"source": "1785106", "target": "1255304"}}, {"type": "Feature", "geometry": {"type": "LineString", "coordinates": [[-126.6949378528624, 68.22285735542977], [-126.67685058269346, 68.22232096998007]]}, "properties": {"source": "1785106", "target": "1262526"}}, {"type": "Feature", "geometry": {"type": "LineString", "coordinates": [[-126.6949378528624, 68.22285735542977], [-126.68218939826028, 68.22849688108948]]}, "properties": {"source": "1785106", "target": "1695270"}}, {"type": "Feature", "geometry": {"type": "LineString", "coordinates": [[-126.6949378528624, 68.22285735542977], [-126.68914445811592, 68.22899815190408]]}, "properties": {"source": "1785106", "target": "1401341"}}, {"type": "Feature", "geometry": {"type": "LineString", "coordinates": [[-126.6949378528624, 68.22285735542977], [-126.66963284102488, 68.22837531354028]]}, "properties": {"source": "1785106", "target": "1680726"}}, {"type": "Feature", "geometry": {"type": "LineString", "coordinates": [[-126.6949378528624, 68.22285735542977], [-126.6791416727279, 68.23102816379927]]}, "properties": {"source": "1785106", "target": "148662"}}, {"type": "Feature", "geometry": {"type": "LineString", "coordinates": [[-126.69202130996888, 68.23023852634142], [-126.68847985715686, 68.22533622065973]]}, "properties": {"source": "1161286", "target": "807299"}}, {"type": "Feature", "geometry": {"type": "LineString", "coordinates": [[-126.6730960894912, 68.22741576761669], [-126.67127813734986, 68.22669844258095]]}, "properties": {"source": "188272", "target": "2003961"}}, {"type": "Feature", "geometry": {"type": "LineString", "coordinates": [[-126.6730960894912, 68.22741576761669], [-126.6781581099192, 68.2252963295928]]}, "properties": {"source": "188272", "target": "1567020"}}, {"type": "Feature", "geometry": {"type": "LineString", "coordinates": [[-126.6730960894912, 68.22741576761669], [-126.66677962732211, 68.22564491604899]]}, "properties": {"source": "188272", "target": "251539"}}, {"type": "Feature", "geometry": {"type": "LineString", "coordinates": [[-126.66978434076552, 68.22580850444638], [-126.67081716837494, 68.2290733730486]]}, "properties": {"source": "759422", "target": "8835952"}}, {"type": "Feature", "geometry": {"type": "LineString", "coordinates": [[-126.6825462148937, 68.23170775691221], [-126.692339980735, 68.22833371120129]]}, "properties": {"source": "23389805", "target": "1858960"}}, {"type": "Feature", "geometry": {"type": "LineString", "coordinates": [[-126.6825462148937, 68.23170775691221], [-126.68436206228921, 68.22449776468542]]}, "properties": {"source": "23389805", "target": "20219804"}}, {"type": "Feature", "geometry": {"type": "LineString", "coordinates": [[-126.6825462148937, 68.23170775691221], [-126.68754738992419, 68.22470906476804]]}, "properties": {"source": "23389805", "target": "25185304"}}, {"type": "Feature", "geometry": {"type": "LineString", "coordinates": [[-126.6825462148937, 68.23170775691221], [-126.66960746185569, 68.22567126356557]]}, "properties": {"source": "23389805", "target": "132307"}}, {"type": "Feature", "geometry": {"type": "LineString", "coordinates": [[-126.66963284102488, 68.22837531354028], [-126.6719119249841, 68.22956277240652]]}, "properties": {"source": "1680726", "target": "2461465"}}, {"type": "Feature", "geometry": {"type": "LineString", "coordinates": [[-126.66963284102488, 68.22837531354028], [-126.68914445811592, 68.22899815190408]]}, "properties": {"source": "1680726", "target": "1401341"}}, {"type": "Feature", "geometry": {"type": "LineString", "coordinates": [[-126.69215281328002, 68.22599916097522], [-126.67477398137973, 68.22250178125128]]}, "properties": {"source": "821481", "target": "821497"}}, {"type": "Feature", "geometry": {"type": "LineString", "coordinates": [[-126.69215281328002, 68.22599916097522], [-126.68766003436019, 68.23151257940805]]}, "properties": {"source": "821481", "target": "75292"}}, {"type": "Feature", "geometry": {"type": "LineString", "coordinates": [[-126.68180075903467, 68.23098809109644], [-126.67081716837494, 68.2290733730486]]}, "properties": {"source": "763223", "target": "8835952"}}, {"type": "Feature", "geometry": {"type": "LineString", "coordinates": [[-126.68180075903467, 68.23098809109644], [-126.6737662828446, 68.22828048386626]]}, "properties": {"source": "763223", "target": "903839"}}, {"type": "Feature", "geometry": {"type": "LineString", "coordinates": [[-126.69331427440011, 68.22675054890479], [-126.67081716837494, 68.2290733730486]]}, "properties": {"source": "1239824", "target": "8835952"}}, {"type": "Feature", "geometry": {"type": "LineString", "coordinates": [[-126.67163564699341, 68.22953728182043], [-126.67104886969796, 68.22879178422971]]}, "properties": {"source": "1896415", "target": "1149497"}}, {"type": "Feature", "geometry": {"type": "LineString", "coordinates": [[-126.68211660318684, 68.22675236306821], [-126.692339980735, 68.22833371120129]]}, "properties": {"source": "232883", "target": "1858960"}}, {"type": "Feature", "geometry": {"type": "LineString", "coordinates": [[-126.68211660318684, 68.22675236306821], [-126.6949378528624, 68.22285735542977]]}, "properties": {"source": "232883", "target": "1785106"}}, {"type": "Feature", "geometry": {"type": "LineString", "coordinates": [[-126.69622096865291, 68.22307586914951], [-126.67081716837494, 68.2290733730486]]}, "properties": {"source": "905816", "target": "8835952"}}, {"type": "Feature", "geometry": {"type": "LineString", "coordinates": [[-126.69622096865291, 68.22307586914951], [-126.6737662828446, 68.22828048386626]]}, "properties": {"source": "905816", "target": "903839"}}, {"type": "Feature", "geometry": {"type": "LineString", "coordinates": [[-126.6791416727279, 68.23102816379927], [-126.68914445811592, 68.22899815190408]]}, "properties": {"source": "148662", "target": "1401341"}}, {"type": "Feature", "geometry": {"type": "LineString", "coordinates": [[-126.68308481432791, 68.22961993239772], [-126.69544840444254, 68.22357605510797]]}, "properties": {"source": "8609838", "target": "7593520"}}, {"type": "Feature", "geometry": {"type": "LineString", "coordinates": [[-126.67869294582249, 68.22299459140322], [-126.67081716837494, 68.2290733730486]]}, "properties": {"source": "759366", "target": "8835952"}}, {"type": "Feature", "geometry": {"type": "LineString", "coordinates": [[-126.66960746185569, 68.22567126356557], [-126.68754738992419, 68.22470906476804]]}, "properties": {"source": "132307", "target": "25185304"}}, {"type": "Feature", "geometry": {"type": "LineString", "coordinates": [[-126.67435600995941, 68.2296967735659], [-126.6867945400156, 68.23226760050767]]}, "properties": {"source": "764272", "target": "967019"}}, {"type": "Feature", "geometry": {"type": "LineString", "coordinates": [[-126.67435600995941, 68.2296967735659], [-126.68685508186158, 68.22697849445831]]}, "properties": {"source": "764272", "target": "7899"}}, {"type": "Feature", "geometry": {"type": "LineString", "coordinates": [[-126.6790762416522, 68.23031169875844], [-126.6719119249841, 68.22956277240652]]}, "properties": {"source": "199434", "target": "2461465"}}, {"type": "Feature", "geometry": {"type": "LineString", "coordinates": [[-126.6735451082059, 68.2238473517574], [-126.67506600173674, 68.22948668657506]]}, "properties": {"source": "15736514", "target": "1605657"}}, {"type": "Feature", "geometry": {"type": "LineString", "coordinates": [[-126.6790380608955, 68.22659732621955], [-126.68788269363112, 68.22867484069096]]}, "properties": {"source": "6773203", "target": "6177724"}}, {"type": "Feature", "geometry": {"type": "LineString", "coordinates": [[-126.6790380608955, 68.22659732621955], [-126.66736928506381, 68.2306403611295]]}, "properties": {"source": "6773203", "target": "8396378"}}, {"type": "Feature", "geometry": {"type": "LineString", "coordinates": [[-126.68074315818816, 68.23187594514098], [-126.66736928506381, 68.2306403611295]]}, "properties": {"source": "7570226", "target": "8396378"}}, {"type": "Feature", "geometry": {"type": "LineString", "coordinates": [[-126.68074315818816, 68.23187594514098], [-126.66977763445307, 68.2316078364239]]}, "properties": {"source": "7570226", "target": "3335352"}}, {"type": "Feature", "geometry": {"type": "LineString", "coordinates": [[-126.68498808709346, 68.23161485041715], [-126.67457030959477, 68.22594392304083]]}, "properties": {"source": "993076", "target": "992485"}}, {"type": "Feature", "geometry": {"type": "LineString", "coordinates": [[-126.68498808709346, 68.23161485041715], [-126.68771031393756, 68.22871283887864]]}, "properties": {"source": "993076", "target": "993155"}}, {"type": "Feature", "geometry": {"type": "LineString", "coordinates": [[-126.68498808709346, 68.23161485041715], [-126.67075514637702, 68.22797710878811]]}, "properties": {"source": "993076", "target": "98654"}}, {"type": "Feature", "geometry": {"type": "LineString", "coordinates": [[-126.68498808709346, 68.23161485041715], [-126.67062656137139, 68.23107860516666]]}, "properties": {"source": "993076", "target": "847824"}}, {"type": "Feature", "geometry": {"type": "LineString", "coordinates": [[-126.6719119249841, 68.22956277240652], [-126.68747858104608, 68.23233785778675]]}, "properties": {"source": "2461465", "target": "1031853"}}, {"type": "Feature", "geometry": {"type": "LineString", "coordinates": [[-126.6719119249841, 68.22956277240652], [-126.67685058269346, 68.22232096998007]]}, "properties": {"source": "2461465", "target": "1262526"}}, {"type": "Feature", "geometry": {"type": "LineString", "coordinates": [[-126.6719119249841, 68.22956277240652], [-126.67033352625111, 68.22379821687494]]}, "properties": {"source": "2461465", "target": "1134777"}}, {"type": "Feature", "geometry": {"type": "LineString", "coordinates": [[-126.6719119249841, 68.22956277240652], [-126.67279664408662, 68.22444078348704]]}, "properties": {"source": "2461465", "target": "360745"}}, {"type": "Feature", "geometry": {"type": "LineString", "coordinates": [[-126.67368922355064, 68.23183050687169], [-126.67081716837494, 68.2290733730486]]}, "properties": {"source": "1209009", "target": "8835952"}}, {"type": "Feature", "geometry": {"type": "LineString", "coordinates": [[-126.67368922355064, 68.23183050687169], [-126.6737662828446, 68.22828048386626]]}, "properties": {"source": "1209009", "target": "903839"}}, {"type": "Feature", "geometry": {"type": "LineString", "coordinates": [[-126.67368922355064, 68.23183050687169], [-126.67656835583767, 68.22462109784948]]}, "properties": {"source": "1209009", "target": "1109482"}}, {"type": "Feature", "geometry": {"type": "LineString", "coordinates": [[-126.67368922355064, 68.23183050687169], [-126.68563852544635, 68.22458190165611]]}, "properties": {"source": "1209009", "target": "924653"}}, {"type": "Feature", "geometry": {"type": "LineString", "coordinates": [[-126.67368922355064, 68.23183050687169], [-126.66858208603327, 68.22998368741142]]}, "properties": {"source": "1209009", "target": "1069206"}}, {"type": "Feature", "geometry": {"type": "LineString", "coordinates": [[-126.67368922355064, 68.23183050687169], [-126.69512024002773, 68.2311980202245]]}, "properties": {"source": "1209009", "target": "1087650"}}, {"type": "Feature", "geometry": {"type": "LineString", "coordinates": [[-126.67368922355064, 68.23183050687169], [-126.67656679777951, 68.22855523511782]]}, "properties": {"source": "1209009", "target": "1078415"}}, {"type": "Feature", "geometry": {"type": "LineString", "coordinates": [[-126.68718960894375, 68.22701176817043], [-126.6737662828446, 68.22828048386626]]}, "properties": {"source": "1216318", "target": "903839"}}, {"type": "Feature", "geometry": {"type": "LineString", "coordinates": [[-126.68718960894375, 68.22701176817043], [-126.67656835583767, 68.22462109784948]]}, "properties": {"source": "1216318", "target": "1109482"}}, {"type": "Feature", "geometry": {"type": "LineString", "coordinates": [[-126.68718960894375, 68.22701176817043], [-126.69559260578245, 68.22376627020375]]}, "properties": {"source": "1216318", "target": "6537388"}}, {"type": "Feature", "geometry": {"type": "LineString", "coordinates": [[-126.67368922355064, 68.23183050687169], [-126.691511887637, 68.22482193269394]]}, "properties": {"source": "1209009", "target": "1019672"}}, {"type": "Feature", "geometry": {"type": "LineString", "coordinates": [[-126.68718960894375, 68.22701176817043], [-126.6717981569353, 68.22638544948924]]}, "properties": {"source": "1216318", "target": "609623"}}, {"type": "Feature", "geometry": {"type": "LineString", "coordinates": [[-126.68198081343253, 68.22726407561728], [-126.67356079173356, 68.22309953555728]]}, "properties": {"source": "17836678", "target": "1089685"}}, {"type": "Feature", "geometry": {"type": "LineString", "coordinates": [[-126.68198081343253, 68.22726407561728], [-126.67506600173674, 68.22948668657506]]}, "properties": {"source": "17836678", "target": "1605657"}}, {"type": "Feature", "geometry": {"type": "LineString", "coordinates": [[-126.68198081343253, 68.22726407561728], [-126.6735451082059, 68.2238473517574]]}, "properties": {"source": "17836678", "target": "15736514"}}, {"type": "Feature", "geometry": {"type": "LineString", "coordinates": [[-126.66873448804813, 68.22851025440252], [-126.69687514335371, 68.22717627597186]]}, "properties": {"source": "10474659", "target": "860652"}}, {"type": "Feature", "geometry": {"type": "LineString", "coordinates": [[-126.66873448804813, 68.22851025440252], [-126.69559260578245, 68.22376627020375]]}, "properties": {"source": "10474659", "target": "6537388"}}, {"type": "Feature", "geometry": {"type": "LineString", "coordinates": [[-126.66873448804813, 68.22851025440252], [-126.67301117055041, 68.2316396516685]]}, "properties": {"source": "10474659", "target": "9011727"}}, {"type": "Feature", "geometry": {"type": "LineString", "coordinates": [[-126.66873448804813, 68.22851025440252], [-126.6730960894912, 68.22741576761669]]}, "properties": {"source": "10474659", "target": "188272"}}, {"type": "Feature", "geometry": {"type": "LineString", "coordinates": [[-126.66873448804813, 68.22851025440252], [-126.68687287167434, 68.22502989247232]]}, "properties": {"source": "10474659", "target": "13178066"}}, {"type": "Feature", "geometry": {"type": "LineString", "coordinates": [[-126.67062656137139, 68.23107860516666], [-126.68970848160589, 68.22609216455527]]}, "properties": {"source": "847824", "target": "992707"}}, {"type": "Feature", "geometry": {"type": "LineString", "coordinates": [[-126.67062656137139, 68.23107860516666], [-126.66971500277856, 68.22932286098771]]}, "properties": {"source": "847824", "target": "852388"}}, {"type": "Feature", "geometry": {"type": "LineString", "coordinates": [[-126.67062656137139, 68.23107860516666], [-126.67457030959477, 68.22594392304083]]}, "properties": {"source": "847824", "target": "992485"}}, {"type": "Feature", "geometry": {"type": "LineString", "coordinates": [[-126.67477398137973, 68.22250178125128], [-126.66807307187466, 68.22523082058262]]}, "properties": {"source": "821497", "target": "7443610"}}, {"type": "Feature", "geometry": {"type": "LineString", "coordinates": [[-126.67477398137973, 68.22250178125128], [-126.68489781718911, 68.22330988079682]]}, "properties": {"source": "821497", "target": "7101259"}}, {"type": "Feature", "geometry": {"type": "LineString", "coordinates": [[-126.68747858104608, 68.23233785778675], [-126.67477108559683, 68.2226985903491]]}, "properties": {"source": "1031853", "target": "1036820"}}, {"type": "Feature", "geometry": {"type": "LineString", "coordinates": [[-126.66878169105962, 68.22424938908532], [-126.67081716837494, 68.2290733730486]]}, "properties": {"source": "1064153", "target": "8835952"}}, {"type": "Feature", "geometry": {"type": "LineString", "coordinates": [[-126.66873448804813, 68.22851025440252], [-126.6717981569353, 68.22638544948924]]}, "properties": {"source": "10474659", "target": "609623"}}, {"type": "Feature", "geometry": {"type": "LineString", "coordinates": [[-126.66878169105962, 68.22424938908532], [-126.67368922355064, 68.23183050687169]]}, "properties": {"source": "1064153", "target": "1209009"}}, {"type": "Feature", "geometry": {"type": "LineString", "coordinates": [[-126.66878169105962, 68.22424938908532], [-126.67420318222628, 68.2238960874082]]}, "properties": {"source": "1064153", "target": "1138399"}}, {"type": "Feature", "geometry": {"type": "LineString", "coordinates": [[-126.66878169105962, 68.22424938908532], [-126.6737662828446, 68.22828048386626]]}, "properties": {"source": "1064153", "target": "903839"}}, {"type": "Feature", "geometry": {"type": "LineString", "coordinates": [[-126.66878169105962, 68.22424938908532], [-126.67656835583767, 68.22462109784948]]}, "properties": {"source": "1064153", "target": "1109482"}}, {"type": "Feature", "geometry": {"type": "LineString", "coordinates": [[-126.66878169105962, 68.22424938908532], [-126.693302475602, 68.22594185453278]]}, "properties": {"source": "1064153", "target": "375052"}}, {"type": "Feature", "geometry": {"type": "LineString", "coordinates": [[-126.66878169105962, 68.22424938908532], [-126.66858208603327, 68.22998368741142]]}, "properties": {"source": "1064153", "target": "1069206"}}, {"type": "Feature", "geometry": {"type": "LineString", "coordinates": [[-126.66878169105962, 68.22424938908532], [-126.69512024002773, 68.2311980202245]]}, "properties": {"source": "1064153", "target": "1087650"}}, {"type": "Feature", "geometry": {"type": "LineString", "coordinates": [[-126.6730960894912, 68.22741576761669], [-126.69687514335371, 68.22717627597186]]}, "properties": {"source": "188272", "target": "860652"}}, {"type": "Feature", "geometry": {"type": "LineString", "coordinates": [[-126.6730960894912, 68.22741576761669], [-126.69559260578245, 68.22376627020375]]}, "properties": {"source": "188272", "target": "6537388"}}, {"type": "Feature", "geometry": {"type": "LineString", "coordinates": [[-126.6730960894912, 68.22741576761669], [-126.67301117055041, 68.2316396516685]]}, "properties": {"source": "188272", "target": "9011727"}}, {"type": "Feature", "geometry": {"type": "LineString", "coordinates": [[-126.692339980735, 68.22833371120129], [-126.68898159276159, 68.22914326143882]]}, "properties": {"source": "1858960", "target": "2206352"}}, {"type": "Feature", "geometry": {"type": "LineString", "coordinates": [[-126.6737662828446, 68.22828048386626], [-126.67081716837494, 68.2290733730486]]}, "properties": {"source": "903839", "target": "8835952"}}, {"type": "Feature", "geometry": {"type": "LineString", "coordinates": [[-126.6737662828446, 68.22828048386626], [-126.67656835583767, 68.22462109784948]]}, "properties": {"source": "903839", "target": "1109482"}}, {"type": "Feature", "geometry": {"type": "LineString", "coordinates": [[-126.6737662828446, 68.22828048386626], [-126.68563852544635, 68.22458190165611]]}, "properties": {"source": "903839", "target": "924653"}}, {"type": "Feature", "geometry": {"type": "LineString", "coordinates": [[-126.66878169105962, 68.22424938908532], [-126.691511887637, 68.22482193269394]]}, "properties": {"source": "1064153", "target": "1019672"}}, {"type": "Feature", "geometry": {"type": "LineString", "coordinates": [[-126.6730960894912, 68.22741576761669], [-126.6717981569353, 68.22638544948924]]}, "properties": {"source": "188272", "target": "609623"}}, {"type": "Feature", "geometry": {"type": "LineString", "coordinates": [[-126.67332456398316, 68.22696856130486], [-126.69336492086204, 68.22515430388862]]}, "properties": {"source": "1751230", "target": "1575136"}}, {"type": "Feature", "geometry": {"type": "LineString", "coordinates": [[-126.67959848855992, 68.22270504299954], [-126.66687549228135, 68.23124266911594]]}, "properties": {"source": "1530675", "target": "1412868"}}, {"type": "Feature", "geometry": {"type": "LineString", "coordinates": [[-126.67959848855992, 68.22270504299954], [-126.68991342467518, 68.22601129922208]]}, "properties": {"source": "1530675", "target": "1820772"}}, {"type": "Feature", "geometry": {"type": "LineString", "coordinates": [[-126.67959848855992, 68.22270504299954], [-126.69320964831648, 68.23148814570303]]}, "properties": {"source": "1530675", "target": "224320"}}, {"type": "Feature", "geometry": {"type": "LineString", "coordinates": [[-126.68991342467518, 68.22601129922208], [-126.66687549228135, 68.23124266911594]]}, "properties": {"source": "1820772", "target": "1412868"}}, {"type": "Feature", "geometry": {"type": "LineString", "coordinates": [[-126.68991342467518, 68.22601129922208], [-126.69320964831648, 68.23148814570303]]}, "properties": {"source": "1820772", "target": "224320"}}, {"type": "Feature", "geometry": {"type": "LineString", "coordinates": [[-126.69336492086204, 68.22515430388862], [-126.66755632913758, 68.22874536567099]]}, "properties": {"source": "1575136", "target": "1807823"}}, {"type": "Feature", "geometry": {"type": "LineString", "coordinates": [[-126.69336492086204, 68.22515430388862], [-126.67839398798263, 68.22378719703673]]}, "properties": {"source": "1575136", "target": "1576454"}}, {"type": "Feature", "geometry": {"type": "LineString", "coordinates": [[-126.66862273029226, 68.22574097937462], [-126.68301204618507, 68.22413632037302]]}, "properties": {"source": "52325", "target": "5547571"}}, {"type": "Feature", "geometry": {"type": "LineString", "coordinates": [[-126.66862273029226, 68.22574097937462], [-126.66728602284775, 68.23025104614823]]}, "properties": {"source": "52325", "target": "402594"}}, {"type": "Feature", "geometry": {"type": "LineString", "coordinates": [[-126.69195916638031, 68.22466728143533], [-126.67477398137973, 68.22250178125128]]}, "properties": {"source": "7890493", "target": "821497"}}, {"type": "Feature", "geometry": {"type": "LineString", "coordinates": [[-126.69195916638031, 68.22466728143533], [-126.69215281328002, 68.22599916097522]]}, "properties": {"source": "7890493", "target": "821481"}}, {"type": "Feature", "geometry": {"type": "LineString", "coordinates": [[-126.68665261955931, 68.22572515772646], [-126.69512024002773, 68.2311980202245]]}, "properties": {"source": "1019663", "target": "1087650"}}, {"type": "Feature", "geometry": {"type": "LineString", "coordinates": [[-126.68301204618507, 68.22413632037302], [-126.67356079173356, 68.22309953555728]]}, "properties": {"source": "5547571", "target": "1089685"}}, {"type": "Feature", "geometry": {"type": "LineString", "coordinates": [[-126.68301204618507, 68.22413632037302], [-126.66728602284775, 68.23025104614823]]}, "properties": {"source": "5547571", "target": "402594"}}, {"type": "Feature", "geometry": {"type": "LineString", "coordinates": [[-126.68665261955931, 68.22572515772646], [-126.691511887637, 68.22482193269394]]}, "properties": {"source": "1019663", "target": "1019672"}}, {"type": "Feature", "geometry": {"type": "LineString", "coordinates": [[-126.68301204618507, 68.22413632037302], [-126.66880972694511, 68.22577850862223]]}, "properties": {"source": "5547571", "target": "455501"}}, {"type": "Feature", "geometry": {"type": "LineString", "coordinates": [[-126.68047944955109, 68.2249500673901], [-126.67127813734986, 68.22669844258095]]}, "properties": {"source": "188278", "target": "2003961"}}, {"type": "Feature", "geometry": {"type": "LineString", "coordinates": [[-126.68047944955109, 68.2249500673901], [-126.66677962732211, 68.22564491604899]]}, "properties": {"source": "188278", "target": "251539"}}, {"type": "Feature", "geometry": {"type": "LineString", "coordinates": [[-126.66728602284775, 68.23025104614823], [-126.66880972694511, 68.22577850862223]]}, "properties": {"source": "402594", "target": "455501"}}, {"type": "Feature", "geometry": {"type": "LineString", "coordinates": [[-126.6953017266377, 68.22512332235337], [-126.67033352625111, 68.22379821687494]]}, "properties": {"source": "6053402", "target": "1134777"}}, {"type": "Feature", "geometry": {"type": "LineString", "coordinates": [[-126.6953017266377, 68.22512332235337], [-126.67279664408662, 68.22444078348704]]}, "properties": {"source": "6053402", "target": "360745"}}, {"type": "Feature", "geometry": {"type": "LineString", "coordinates": [[-126.6953017266377, 68.22512332235337], [-126.69544840444254, 68.22357605510797]]}, "properties": {"source": "6053402", "target": "7593520"}}, {"type": "Feature", "geometry": {"type": "LineString", "coordinates": [[-126.6953017266377, 68.22512332235337], [-126.67394822347201, 68.23003438059877]]}, "properties": {"source": "6053402", "target": "762033"}}, {"type": "Feature", "geometry": {"type": "LineString", "coordinates": [[-126.6953017266377, 68.22512332235337], [-126.68308481432791, 68.22961993239772]]}, "properties": {"source": "6053402", "target": "8609838"}}, {"type": "Feature", "geometry": {"type": "LineString", "coordinates": [[-126.67656679777951, 68.22855523511782], [-126.67081716837494, 68.2290733730486]]}, "properties": {"source": "1078415", "target": "8835952"}}, {"type": "Feature", "geometry": {"type": "LineString", "coordinates": [[-126.67656679777951, 68.22855523511782], [-126.67656835583767, 68.22462109784948]]}, "properties": {"source": "1078415", "target": "1109482"}}, {"type": "Feature", "geometry": {"type": "LineString", "coordinates": [[-126.69376658026971, 68.22651394537397], [-126.6719119249841, 68.22956277240652]]}, "properties": {"source": "3324369", "target": "2461465"}}, {"type": "Feature", "geometry": {"type": "LineString", "coordinates": [[-126.69376658026971, 68.22651394537397], [-126.69202130996888, 68.23023852634142]]}, "properties": {"source": "3324369", "target": "1161286"}}, {"type": "Feature", "geometry": {"type": "LineString", "coordinates": [[-126.69376658026971, 68.22651394537397], [-126.67477108559683, 68.2226985903491]]}, "properties": {"source": "3324369", "target": "1036820"}}, {"type": "Feature", "geometry": {"type": "LineString", "coordinates": [[-126.69376658026971, 68.22651394537397], [-126.68747858104608, 68.23233785778675]]}, "properties": {"source": "3324369", "target": "1031853"}}, {"type": "Feature", "geometry": {"type": "LineString", "coordinates": [[-126.68047944955109, 68.2249500673901], [-126.6717981569353, 68.22638544948924]]}, "properties": {"source": "188278", "target": "609623"}}, {"type": "Feature", "geometry": {"type": "LineString", "coordinates": [[-126.68847985715686, 68.22533622065973], [-126.67477398137973, 68.22250178125128]]}, "properties": {"source": "807299", "target": "821497"}}, {"type": "Feature", "geometry": {"type": "LineString", "coordinates": [[-126.68847985715686, 68.22533622065973], [-126.68747858104608, 68.23233785778675]]}, "properties": {"source": "807299", "target": "1031853"}}, {"type": "Feature", "geometry": {"type": "LineString", "coordinates": [[-126.68847985715686, 68.22533622065973], [-126.66971500277856, 68.22932286098771]]}, "properties": {"source": "807299", "target": "852388"}}, {"type": "Feature", "geometry": {"type": "LineString", "coordinates": [[-126.68847985715686, 68.22533622065973], [-126.67457030959477, 68.22594392304083]]}, "properties": {"source": "807299", "target": "992485"}}, {"type": "Feature", "geometry": {"type": "LineString", "coordinates": [[-126.68847985715686, 68.22533622065973], [-126.6721949403101, 68.22779437975967]]}, "properties": {"source": "807299", "target": "1255304"}}, {"type": "Feature", "geometry": {"type": "LineString", "coordinates": [[-126.68847985715686, 68.22533622065973], [-126.67973781263943, 68.227529047373]]}, "properties": {"source": "807299", "target": "845697"}}, {"type": "Feature", "geometry": {"type": "LineString", "coordinates": [[-126.68847985715686, 68.22533622065973], [-126.68771031393756, 68.22871283887864]]}, "properties": {"source": "807299", "target": "993155"}}, {"type": "Feature", "geometry": {"type": "LineString", "coordinates": [[-126.68847985715686, 68.22533622065973], [-126.68581053189351, 68.22322848374176]]}, "properties": {"source": "807299", "target": "961398"}}, {"type": "Feature", "geometry": {"type": "LineString", "coordinates": [[-126.68847985715686, 68.22533622065973], [-126.67685058269346, 68.22232096998007]]}, "properties": {"source": "807299", "target": "1262526"}}, {"type": "Feature", "geometry": {"type": "LineString", "coordinates": [[-126.68847985715686, 68.22533622065973], [-126.66807307187466, 68.22523082058262]]}, "properties": {"source": "807299", "target": "7443610"}}, {"type": "Feature", "geometry": {"type": "LineString", "coordinates": [[-126.68847985715686, 68.22533622065973], [-126.68489781718911, 68.22330988079682]]}, "properties": {"source": "807299", "target": "7101259"}}, {"type": "Feature", "geometry": {"type": "LineString", "coordinates": [[-126.68847985715686, 68.22533622065973], [-126.69023149723836, 68.22405909870392]]}, "properties": {"source": "807299", "target": "685387"}}, {"type": "Feature", "geometry": {"type": "LineString", "coordinates": [[-126.66971500277856, 68.22932286098771], [-126.68970848160589, 68.22609216455527]]}, "properties": {"source": "852388", "target": "992707"}}, {"type": "Feature", "geometry": {"type": "LineString", "coordinates": [[-126.66971500277856, 68.22932286098771], [-126.67457030959477, 68.22594392304083]]}, "properties": {"source": "852388", "target": "992485"}}, {"type": "Feature", "geometry": {"type": "LineString", "coordinates": [[-126.66971500277856, 68.22932286098771], [-126.68771031393756, 68.22871283887864]]}, "properties": {"source": "852388", "target": "993155"}}, {"type": "Feature", "geometry": {"type": "LineString", "coordinates": [[-126.66971500277856, 68.22932286098771], [-126.67075514637702, 68.22797710878811]]}, "properties": {"source": "852388", "target": "98654"}}, {"type": "Feature", "geometry": {"type": "LineString", "coordinates": [[-126.66971500277856, 68.22932286098771], [-126.67647471123745, 68.22434592010265]]}, "properties": {"source": "852388", "target": "992518"}}, {"type": "Feature", "geometry": {"type": "LineString", "coordinates": [[-126.66971500277856, 68.22932286098771], [-126.67696720485583, 68.22299059897239]]}, "properties": {"source": "852388", "target": "107794"}}, {"type": "Feature", "geometry": {"type": "LineString", "coordinates": [[-126.67457030959477, 68.22594392304083], [-126.68771031393756, 68.22871283887864]]}, "properties": {"source": "992485", "target": "993155"}}, {"type": "Feature", "geometry": {"type": "LineString", "coordinates": [[-126.67457030959477, 68.22594392304083], [-126.67075514637702, 68.22797710878811]]}, "properties": {"source": "992485", "target": "98654"}}, {"type": "Feature", "geometry": {"type": "LineString", "coordinates": [[-126.67457030959477, 68.22594392304083], [-126.67647471123745, 68.22434592010265]]}, "properties": {"source": "992485", "target": "992518"}}, {"type": "Feature", "geometry": {"type": "LineString", "coordinates": [[-126.67457030959477, 68.22594392304083], [-126.67696720485583, 68.22299059897239]]}, "properties": {"source": "992485", "target": "107794"}}, {"type": "Feature", "geometry": {"type": "LineString", "coordinates": [[-126.66858208603327, 68.22998368741142], [-126.67081716837494, 68.2290733730486]]}, "properties": {"source": "1069206", "target": "8835952"}}, {"type": "Feature", "geometry": {"type": "LineString", "coordinates": [[-126.66858208603327, 68.22998368741142], [-126.67104886969796, 68.22879178422971]]}, "properties": {"source": "1069206", "target": "1149497"}}, {"type": "Feature", "geometry": {"type": "LineString", "coordinates": [[-126.67355814397303, 68.22614666717419], [-126.67356079173356, 68.22309953555728]]}, "properties": {"source": "13206975", "target": "1089685"}}, {"type": "Feature", "geometry": {"type": "LineString", "coordinates": [[-126.67355814397303, 68.22614666717419], [-126.68301204618507, 68.22413632037302]]}, "properties": {"source": "13206975", "target": "5547571"}}, {"type": "Feature", "geometry": {"type": "LineString", "coordinates": [[-126.67355814397303, 68.22614666717419], [-126.66728602284775, 68.23025104614823]]}, "properties": {"source": "13206975", "target": "402594"}}, {"type": "Feature", "geometry": {"type": "LineString", "coordinates": [[-126.67355814397303, 68.22614666717419], [-126.66880972694511, 68.22577850862223]]}, "properties": {"source": "13206975", "target": "455501"}}, {"type": "Feature", "geometry": {"type": "LineString", "coordinates": [[-126.69687514335371, 68.22717627597186], [-126.67101949925814, 68.22986533299192]]}, "properties": {"source": "860652", "target": "782213"}}, {"type": "Feature", "geometry": {"type": "LineString", "coordinates": [[-126.69687514335371, 68.22717627597186], [-126.67104886969796, 68.22879178422971]]}, "properties": {"source": "860652", "target": "1149497"}}, {"type": "Feature", "geometry": {"type": "LineString", "coordinates": [[-126.69687514335371, 68.22717627597186], [-126.6781581099192, 68.2252963295928]]}, "properties": {"source": "860652", "target": "1567020"}}, {"type": "Feature", "geometry": {"type": "LineString", "coordinates": [[-126.69687514335371, 68.22717627597186], [-126.68687287167434, 68.22502989247232]]}, "properties": {"source": "860652", "target": "13178066"}}, {"type": "Feature", "geometry": {"type": "LineString", "coordinates": [[-126.69687514335371, 68.22717627597186], [-126.67163564699341, 68.22953728182043]]}, "properties": {"source": "860652", "target": "1896415"}}, {"type": "Feature", "geometry": {"type": "LineString", "coordinates": [[-126.692339980735, 68.22833371120129], [-126.6719119249841, 68.22956277240652]]}, "properties": {"source": "1858960", "target": "2461465"}}, {"type": "Feature", "geometry": {"type": "LineString", "coordinates": [[-126.692339980735, 68.22833371120129], [-126.67477108559683, 68.2226985903491]]}, "properties": {"source": "1858960", "target": "1036820"}}, {"type": "Feature", "geometry": {"type": "LineString", "coordinates": [[-126.692339980735, 68.22833371120129], [-126.68747858104608, 68.23233785778675]]}, "properties": {"source": "1858960", "target": "1031853"}}, {"type": "Feature", "geometry": {"type": "LineString", "coordinates": [[-126.692339980735, 68.22833371120129], [-126.67685058269346, 68.22232096998007]]}, "properties": {"source": "1858960", "target": "1262526"}}, {"type": "Feature", "geometry": {"type": "LineString", "coordinates": [[-126.692339980735, 68.22833371120129], [-126.68914445811592, 68.22899815190408]]}, "properties": {"source": "1858960", "target": "1401341"}}, {"type": "Feature", "geometry": {"type": "LineString", "coordinates": [[-126.692339980735, 68.22833371120129], [-126.68436206228921, 68.22449776468542]]}, "properties": {"source": "1858960", "target": "20219804"}}, {"type": "Feature", "geometry": {"type": "LineString", "coordinates": [[-126.692339980735, 68.22833371120129], [-126.68754738992419, 68.22470906476804]]}, "properties": {"source": "1858960", "target": "25185304"}}, {"type": "Feature", "geometry": {"type": "LineString", "coordinates": [[-126.68436206228921, 68.22449776468542], [-126.68754738992419, 68.22470906476804]]}, "properties": {"source": "20219804", "target": "25185304"}}, {"type": "Feature", "geometry": {"type": "LineString", "coordinates": [[-126.68436206228921, 68.22449776468542], [-126.66960746185569, 68.22567126356557]]}, "properties": {"source": "20219804", "target": "132307"}}, {"type": "Feature", "geometry": {"type": "LineString", "coordinates": [[-126.67332456398316, 68.22696856130486], [-126.66755632913758, 68.22874536567099]]}, "properties": {"source": "1751230", "target": "1807823"}}, {"type": "Feature", "geometry": {"type": "LineString", "coordinates": [[-126.67332456398316, 68.22696856130486], [-126.67839398798263, 68.22378719703673]]}, "properties": {"source": "1751230", "target": "1576454"}}, {"type": "Feature", "geometry": {"type": "LineString", "coordinates": [[-126.66978434076552, 68.22580850444638], [-126.6737662828446, 68.22828048386626]]}, "properties": {"source": "759422", "target": "903839"}}, {"type": "Feature", "geometry": {"type": "LineString", "coordinates": [[-126.66978434076552, 68.22580850444638], [-126.68563852544635, 68.22458190165611]]}, "properties": {"source": "759422", "target": "924653"}}, {"type": "Feature", "geometry": {"type": "LineString", "coordinates": [[-126.66978434076552, 68.22580850444638], [-126.6667545116615, 68.22731166891734]]}, "properties": {"source": "759422", "target": "883394"}}, {"type": "Feature", "geometry": {"type": "LineString", "coordinates": [[-126.66978434076552, 68.22580850444638], [-126.69622096865291, 68.22307586914951]]}, "properties": {"source": "759422", "target": "905816"}}, {"type": "Feature", "geometry": {"type": "LineString", "coordinates": [[-126.66978434076552, 68.22580850444638], [-126.67588176056498, 68.23064971876252]]}, "properties": {"source": "759422", "target": "881142"}}, {"type": "Feature", "geometry": {"type": "LineString", "coordinates": [[-126.66978434076552, 68.22580850444638], [-126.67843616923469, 68.22229316182282]]}, "properties": {"source": "759422", "target": "852358"}}, {"type": "Feature", "geometry": {"type": "LineString", "coordinates": [[-126.66978434076552, 68.22580850444638], [-126.69270240802618, 68.22433310094942]]}, "properties": {"source": "759422", "target": "905958"}}, {"type": "Feature", "geometry": {"type": "LineString", "coordinates": [[-126.66978434076552, 68.22580850444638], [-126.68180075903467, 68.23098809109644]]}, "properties": {"source": "759422", "target": "763223"}}, {"type": "Feature", "geometry": {"type": "LineString", "coordinates": [[-126.68718960894375, 68.22701176817043], [-126.67081716837494, 68.2290733730486]]}, "properties": {"source": "1216318", "target": "8835952"}}, {"type": "Feature", "geometry": {"type": "LineString", "coordinates": [[-126.68718960894375, 68.22701176817043], [-126.67368922355064, 68.23183050687169]]}, "properties": {"source": "1216318", "target": "1209009"}}, {"type": "Feature", "geometry": {"type": "LineString", "coordinates": [[-126.68718960894375, 68.22701176817043], [-126.67420318222628, 68.2238960874082]]}, "properties": {"source": "1216318", "target": "1138399"}}, {"type": "Feature", "geometry": {"type": "LineString", "coordinates": [[-126.68718960894375, 68.22701176817043], [-126.69687514335371, 68.22717627597186]]}, "properties": {"source": "1216318", "target": "860652"}}, {"type": "Feature", "geometry": {"type": "LineString", "coordinates": [[-126.67081716837494, 68.2290733730486], [-126.68563852544635, 68.22458190165611]]}, "properties": {"source": "8835952", "target": "924653"}}, {"type": "Feature", "geometry": {"type": "LineString", "coordinates": [[-126.67081716837494, 68.2290733730486], [-126.69512024002773, 68.2311980202245]]}, "properties": {"source": "8835952", "target": "1087650"}}, {"type": "Feature", "geometry": {"type": "LineString", "coordinates": [[-126.68847985715686, 68.22533622065973], [-126.67477108559683, 68.2226985903491]]}, "properties": {"source": "807299", "target": "1036820"}}, {"type": "Feature", "geometry": {"type": "LineString", "coordinates": [[-126.68847985715686, 68.22533622065973], [-126.68970848160589, 68.22609216455527]]}, "properties": {"source": "807299", "target": "992707"}}, {"type": "Feature", "geometry": {"type": "LineString", "coordinates": [[-126.68498808709346, 68.23161485041715], [-126.67647471123745, 68.22434592010265]]}, "properties": {"source": "993076", "target": "992518"}}, {"type": "Feature", "geometry": {"type": "LineString", "coordinates": [[-126.68171913637883, 68.2240806733644], [-126.6719119249841, 68.22956277240652]]}, "properties": {"source": "11386104", "target": "2461465"}}, {"type": "Feature", "geometry": {"type": "LineString", "coordinates": [[-126.68171913637883, 68.2240806733644], [-126.6715506147601, 68.22395172537259]]}, "properties": {"source": "11386104", "target": "1672222"}}, {"type": "Feature", "geometry": {"type": "LineString", "coordinates": [[-126.68171913637883, 68.2240806733644], [-126.6953017266377, 68.22512332235337]]}, "properties": {"source": "11386104", "target": "6053402"}}, {"type": "Feature", "geometry": {"type": "LineString", "coordinates": [[-126.68171913637883, 68.2240806733644], [-126.68569692093132, 68.22669931201796]]}, "properties": {"source": "11386104", "target": "176976"}}, {"type": "Feature", "geometry": {"type": "LineString", "coordinates": [[-126.68171913637883, 68.2240806733644], [-126.68232088235308, 68.22382831344513]]}, "properties": {"source": "11386104", "target": "25810496"}}, {"type": "Feature", "geometry": {"type": "LineString", "coordinates": [[-126.68171913637883, 68.2240806733644], [-126.69544840444254, 68.22357605510797]]}, "properties": {"source": "11386104", "target": "7593520"}}, {"type": "Feature", "geometry": {"type": "LineString", "coordinates": [[-126.68665261955931, 68.22572515772646], [-126.67081716837494, 68.2290733730486]]}, "properties": {"source": "1019663", "target": "8835952"}}, {"type": "Feature", "geometry": {"type": "LineString", "coordinates": [[-126.68665261955931, 68.22572515772646], [-126.67368922355064, 68.23183050687169]]}, "properties": {"source": "1019663", "target": "1209009"}}, {"type": "Feature", "geometry": {"type": "LineString", "coordinates": [[-126.68665261955931, 68.22572515772646], [-126.67420318222628, 68.2238960874082]]}, "properties": {"source": "1019663", "target": "1138399"}}, {"type": "Feature", "geometry": {"type": "LineString", "coordinates": [[-126.68665261955931, 68.22572515772646], [-126.67656835583767, 68.22462109784948]]}, "properties": {"source": "1019663", "target": "1109482"}}, {"type": "Feature", "geometry": {"type": "LineString", "coordinates": [[-126.67075514637702, 68.22797710878811], [-126.67647471123745, 68.22434592010265]]}, "properties": {"source": "98654", "target": "992518"}}, {"type": "Feature", "geometry": {"type": "LineString", "coordinates": [[-126.66807307187466, 68.22523082058262], [-126.68489781718911, 68.22330988079682]]}, "properties": {"source": "7443610", "target": "7101259"}}, {"type": "Feature", "geometry": {"type": "LineString", "coordinates": [[-126.68198081343253, 68.22726407561728], [-126.69202130996888, 68.23023852634142]]}, "properties": {"source": "17836678", "target": "1161286"}}, {"type": "Feature", "geometry": {"type": "LineString", "coordinates": [[-126.68198081343253, 68.22726407561728], [-126.67355814397303, 68.22614666717419]]}, "properties": {"source": "17836678", "target": "13206975"}}, {"type": "Feature", "geometry": {"type": "LineString", "coordinates": [[-126.68171913637883, 68.2240806733644], [-126.67332113150954, 68.22603231040571]]}, "properties": {"source": "11386104", "target": "15896611"}}, {"type": "Feature", "geometry": {"type": "LineString", "coordinates": [[-126.68982888629279, 68.23086651949674], [-126.68211660318684, 68.22675236306821]]}, "properties": {"source": "2255335", "target": "232883"}}, {"type": "Feature", "geometry": {"type": "LineString", "coordinates": [[-126.68982888629279, 68.23086651949674], [-126.68218939826028, 68.22849688108948]]}, "properties": {"source": "2255335", "target": "1695270"}}, {"type": "Feature", "geometry": {"type": "LineString", "coordinates": [[-126.68982888629279, 68.23086651949674], [-126.66963284102488, 68.22837531354028]]}, "properties": {"source": "2255335", "target": "1680726"}}, {"type": "Feature", "geometry": {"type": "LineString", "coordinates": [[-126.68982888629279, 68.23086651949674], [-126.6790762416522, 68.23031169875844]]}, "properties": {"source": "2255335", "target": "199434"}}, {"type": "Feature", "geometry": {"type": "LineString", "coordinates": [[-126.68982888629279, 68.23086651949674], [-126.68346492381482, 68.2291492818957]]}, "properties": {"source": "2255335", "target": "208264"}}, {"type": "Feature", "geometry": {"type": "LineString", "coordinates": [[-126.67301117055041, 68.2316396516685], [-126.69687514335371, 68.22717627597186]]}, "properties": {"source": "9011727", "target": "860652"}}, {"type": "Feature", "geometry": {"type": "LineString", "coordinates": [[-126.67301117055041, 68.2316396516685], [-126.69559260578245, 68.22376627020375]]}, "properties": {"source": "9011727", "target": "6537388"}}, {"type": "Feature", "geometry": {"type": "LineString", "coordinates": [[-126.67301117055041, 68.2316396516685], [-126.67127813734986, 68.22669844258095]]}, "properties": {"source": "9011727", "target": "2003961"}}, {"type": "Feature", "geometry": {"type": "LineString", "coordinates": [[-126.67301117055041, 68.2316396516685], [-126.68047944955109, 68.2249500673901]]}, "properties": {"source": "9011727", "target": "188278"}}, {"type": "Feature", "geometry": {"type": "LineString", "coordinates": [[-126.67301117055041, 68.2316396516685], [-126.6781581099192, 68.2252963295928]]}, "properties": {"source": "9011727", "target": "1567020"}}, {"type": "Feature", "geometry": {"type": "LineString", "coordinates": [[-126.67301117055041, 68.2316396516685], [-126.68687287167434, 68.22502989247232]]}, "properties": {"source": "9011727", "target": "13178066"}}, {"type": "Feature", "geometry": {"type": "LineString", "coordinates": [[-126.6667545116615, 68.22731166891734], [-126.67081716837494, 68.2290733730486]]}, "properties": {"source": "883394", "target": "8835952"}}, {"type": "Feature", "geometry": {"type": "LineString", "coordinates": [[-126.6667545116615, 68.22731166891734], [-126.67368922355064, 68.23183050687169]]}, "properties": {"source": "883394", "target": "1209009"}}, {"type": "Feature", "geometry": {"type": "LineString", "coordinates": [[-126.6667545116615, 68.22731166891734], [-126.6737662828446, 68.22828048386626]]}, "properties": {"source": "883394", "target": "903839"}}, {"type": "Feature", "geometry": {"type": "LineString", "coordinates": [[-126.6667545116615, 68.22731166891734], [-126.68563852544635, 68.22458190165611]]}, "properties": {"source": "883394", "target": "924653"}}, {"type": "Feature", "geometry": {"type": "LineString", "coordinates": [[-126.67301117055041, 68.2316396516685], [-126.6717981569353, 68.22638544948924]]}, "properties": {"source": "9011727", "target": "609623"}}, {"type": "Feature", "geometry": {"type": "LineString", "coordinates": [[-126.69559260578245, 68.22376627020375], [-126.67127813734986, 68.22669844258095]]}, "properties": {"source": "6537388", "target": "2003961"}}, {"type": "Feature", "geometry": {"type": "LineString", "coordinates": [[-126.69559260578245, 68.22376627020375], [-126.68047944955109, 68.2249500673901]]}, "properties": {"source": "6537388", "target": "188278"}}, {"type": "Feature", "geometry": {"type": "LineString", "coordinates": [[-126.69559260578245, 68.22376627020375], [-126.6781581099192, 68.2252963295928]]}, "properties": {"source": "6537388", "target": "1567020"}}, {"type": "Feature", "geometry": {"type": "LineString", "coordinates": [[-126.69559260578245, 68.22376627020375], [-126.68687287167434, 68.22502989247232]]}, "properties": {"source": "6537388", "target": "13178066"}}, {"type": "Feature", "geometry": {"type": "LineString", "coordinates": [[-126.6715506147601, 68.22395172537259], [-126.66858208603327, 68.22998368741142]]}, "properties": {"source": "1672222", "target": "1069206"}}, {"type": "Feature", "geometry": {"type": "LineString", "coordinates": [[-126.6715506147601, 68.22395172537259], [-126.66687549228135, 68.23124266911594]]}, "properties": {"source": "1672222", "target": "1412868"}}, {"type": "Feature", "geometry": {"type": "LineString", "coordinates": [[-126.6715506147601, 68.22395172537259], [-126.67101949925814, 68.22986533299192]]}, "properties": {"source": "1672222", "target": "782213"}}, {"type": "Feature", "geometry": {"type": "LineString", "coordinates": [[-126.6715506147601, 68.22395172537259], [-126.67104886969796, 68.22879178422971]]}, "properties": {"source": "1672222", "target": "1149497"}}, {"type": "Feature", "geometry": {"type": "LineString", "coordinates": [[-126.6717981569353, 68.22638544948924], [-126.68687287167434, 68.22502989247232]]}, "properties": {"source": "609623", "target": "13178066"}}, {"type": "Feature", "geometry": {"type": "LineString", "coordinates": [[-126.68982888629279, 68.23086651949674], [-126.6719119249841, 68.22956277240652]]}, "properties": {"source": "2255335", "target": "2461465"}}, {"type": "Feature", "geometry": {"type": "LineString", "coordinates": [[-126.68905611706799, 68.22394244348126], [-126.6715506147601, 68.22395172537259]]}, "properties": {"source": "1936069", "target": "1672222"}}, {"type": "Feature", "geometry": {"type": "LineString", "coordinates": [[-126.68905611706799, 68.22394244348126], [-126.66858208603327, 68.22998368741142]]}, "properties": {"source": "1936069", "target": "1069206"}}, {"type": "Feature", "geometry": {"type": "LineString", "coordinates": [[-126.68905611706799, 68.22394244348126], [-126.67101949925814, 68.22986533299192]]}, "properties": {"source": "1936069", "target": "782213"}}, {"type": "Feature", "geometry": {"type": "LineString", "coordinates": [[-126.68905611706799, 68.22394244348126], [-126.67104886969796, 68.22879178422971]]}, "properties": {"source": "1936069", "target": "1149497"}}, {"type": "Feature", "geometry": {"type": "LineString", "coordinates": [[-126.69559260578245, 68.22376627020375], [-126.6717981569353, 68.22638544948924]]}, "properties": {"source": "6537388", "target": "609623"}}, {"type": "Feature", "geometry": {"type": "LineString", "coordinates": [[-126.6715506147601, 68.22395172537259], [-126.67332113150954, 68.22603231040571]]}, "properties": {"source": "1672222", "target": "15896611"}}, {"type": "Feature", "geometry": {"type": "LineString", "coordinates": [[-126.69622096865291, 68.22307586914951], [-126.68563852544635, 68.22458190165611]]}, "properties": {"source": "905816", "target": "924653"}}, {"type": "Feature", "geometry": {"type": "LineString", "coordinates": [[-126.69622096865291, 68.22307586914951], [-126.69270240802618, 68.22433310094942]]}, "properties": {"source": "905816", "target": "905958"}}, {"type": "Feature", "geometry": {"type": "LineString", "coordinates": [[-126.67588176056498, 68.23064971876252], [-126.67081716837494, 68.2290733730486]]}, "properties": {"source": "881142", "target": "8835952"}}, {"type": "Feature", "geometry": {"type": "LineString", "coordinates": [[-126.67588176056498, 68.23064971876252], [-126.6737662828446, 68.22828048386626]]}, "properties": {"source": "881142", "target": "903839"}}, {"type": "Feature", "geometry": {"type": "LineString", "coordinates": [[-126.67588176056498, 68.23064971876252], [-126.68563852544635, 68.22458190165611]]}, "properties": {"source": "881142", "target": "924653"}}, {"type": "Feature", "geometry": {"type": "LineString", "coordinates": [[-126.68461650618353, 68.22325879431438], [-126.6715506147601, 68.22395172537259]]}, "properties": {"source": "1916555", "target": "1672222"}}, {"type": "Feature", "geometry": {"type": "LineString", "coordinates": [[-126.68461650618353, 68.22325879431438], [-126.66687549228135, 68.23124266911594]]}, "properties": {"source": "1916555", "target": "1412868"}}, {"type": "Feature", "geometry": {"type": "LineString", "coordinates": [[-126.68461650618353, 68.22325879431438], [-126.66985220027453, 68.22646968105391]]}, "properties": {"source": "1916555", "target": "20317494"}}, {"type": "Feature", "geometry": {"type": "LineString", "coordinates": [[-126.68788269363112, 68.22867484069096], [-126.67696720485583, 68.22299059897239]]}, "properties": {"source": "6177724", "target": "107794"}}, {"type": "Feature", "geometry": {"type": "LineString", "coordinates": [[-126.68788269363112, 68.22867484069096], [-126.67806849254745, 68.23044566862401]]}, "properties": {"source": "6177724", "target": "703461"}}, {"type": "Feature", "geometry": {"type": "LineString", "coordinates": [[-126.68788269363112, 68.22867484069096], [-126.66736928506381, 68.2306403611295]]}, "properties": {"source": "6177724", "target": "8396378"}}, {"type": "Feature", "geometry": {"type": "LineString", "coordinates": [[-126.68766003436019, 68.23151257940805], [-126.67477398137973, 68.22250178125128]]}, "properties": {"source": "75292", "target": "821497"}}, {"type": "Feature", "geometry": {"type": "LineString", "coordinates": [[-126.67394822347201, 68.23003438059877], [-126.69544840444254, 68.22357605510797]]}, "properties": {"source": "762033", "target": "7593520"}}, {"type": "Feature", "geometry": {"type": "LineString", "coordinates": [[-126.67394822347201, 68.23003438059877], [-126.68308481432791, 68.22961993239772]]}, "properties": {"source": "762033", "target": "8609838"}}, {"type": "Feature", "geometry": {"type": "LineString", "coordinates": [[-126.6791416727279, 68.23102816379927], [-126.692339980735, 68.22833371120129]]}, "properties": {"source": "148662", "target": "1858960"}}, {"type": "Feature", "geometry": {"type": "LineString", "coordinates": [[-126.68461650618353, 68.22325879431438], [-126.67332113150954, 68.22603231040571]]}, "properties": {"source": "1916555", "target": "15896611"}}, {"type": "Feature", "geometry": {"type": "LineString", "coordinates": [[-126.67973781263943, 68.227529047373], [-126.67477398137973, 68.22250178125128]]}, "properties": {"source": "845697", "target": "821497"}}, {"type": "Feature", "geometry": {"type": "LineString", "coordinates": [[-126.67973781263943, 68.227529047373], [-126.68581053189351, 68.22322848374176]]}, "properties": {"source": "845697", "target": "961398"}}, {"type": "Feature", "geometry": {"type": "LineString", "coordinates": [[-126.67973781263943, 68.227529047373], [-126.66807307187466, 68.22523082058262]]}, "properties": {"source": "845697", "target": "7443610"}}, {"type": "Feature", "geometry": {"type": "LineString", "coordinates": [[-126.67973781263943, 68.227529047373], [-126.68489781718911, 68.22330988079682]]}, "properties": {"source": "845697", "target": "7101259"}}, {"type": "Feature", "geometry": {"type": "LineString", "coordinates": [[-126.67127813734986, 68.22669844258095], [-126.66677962732211, 68.22564491604899]]}, "properties": {"source": "2003961", "target": "251539"}}, {"type": "Feature", "geometry": {"type": "LineString", "coordinates": [[-126.68771031393756, 68.22871283887864], [-126.67075514637702, 68.22797710878811]]}, "properties": {"source": "993155", "target": "98654"}}, {"type": "Feature", "geometry": {"type": "LineString", "coordinates": [[-126.68771031393756, 68.22871283887864], [-126.67647471123745, 68.22434592010265]]}, "properties": {"source": "993155", "target": "992518"}}, {"type": "Feature", "geometry": {"type": "LineString", "coordinates": [[-126.68581053189351, 68.22322848374176], [-126.67477108559683, 68.2226985903491]]}, "properties": {"source": "961398", "target": "1036820"}}, {"type": "Feature", "geometry": {"type": "LineString", "coordinates": [[-126.68581053189351, 68.22322848374176], [-126.68747858104608, 68.23233785778675]]}, "properties": {"source": "961398", "target": "1031853"}}, {"type": "Feature", "geometry": {"type": "LineString", "coordinates": [[-126.68581053189351, 68.22322848374176], [-126.67685058269346, 68.22232096998007]]}, "properties": {"source": "961398", "target": "1262526"}}, {"type": "Feature", "geometry": {"type": "LineString", "coordinates": [[-126.68218939826028, 68.22849688108948], [-126.6719119249841, 68.22956277240652]]}, "properties": {"source": "1695270", "target": "2461465"}}, {"type": "Feature", "geometry": {"type": "LineString", "coordinates": [[-126.68218939826028, 68.22849688108948], [-126.692339980735, 68.22833371120129]]}, "properties": {"source": "1695270", "target": "1858960"}}, {"type": "Feature", "geometry": {"type": "LineString", "coordinates": [[-126.68218939826028, 68.22849688108948], [-126.68914445811592, 68.22899815190408]]}, "properties": {"source": "1695270", "target": "1401341"}}, {"type": "Feature", "geometry": {"type": "LineString", "coordinates": [[-126.66985220027453, 68.22646968105391], [-126.6715506147601, 68.22395172537259]]}, "properties": {"source": "20317494", "target": "1672222"}}, {"type": "Feature", "geometry": {"type": "LineString", "coordinates": [[-126.67973781263943, 68.227529047373], [-126.69023149723836, 68.22405909870392]]}, "properties": {"source": "845697", "target": "685387"}}, {"type": "Feature", "geometry": {"type": "LineString", "coordinates": [[-126.67127813734986, 68.22669844258095], [-126.6717981569353, 68.22638544948924]]}, "properties": {"source": "2003961", "target": "609623"}}, {"type": "Feature", "geometry": {"type": "LineString", "coordinates": [[-126.67974673291897, 68.224424994066], [-126.68847985715686, 68.22533622065973]]}, "properties": {"source": "811474", "target": "807299"}}, {"type": "Feature", "geometry": {"type": "LineString", "coordinates": [[-126.67974673291897, 68.224424994066], [-126.67477108559683, 68.2226985903491]]}, "properties": {"source": "811474", "target": "1036820"}}, {"type": "Feature", "geometry": {"type": "LineString", "coordinates": [[-126.67974673291897, 68.224424994066], [-126.67477398137973, 68.22250178125128]]}, "properties": {"source": "811474", "target": "821497"}}, {"type": "Feature", "geometry": {"type": "LineString", "coordinates": [[-126.67974673291897, 68.224424994066], [-126.68747858104608, 68.23233785778675]]}, "properties": {"source": "811474", "target": "1031853"}}, {"type": "Feature", "geometry": {"type": "LineString", "coordinates": [[-126.67974673291897, 68.224424994066], [-126.6721949403101, 68.22779437975967]]}, "properties": {"source": "811474", "target": "1255304"}}, {"type": "Feature", "geometry": {"type": "LineString", "coordinates": [[-126.67974673291897, 68.224424994066], [-126.67973781263943, 68.227529047373]]}, "properties": {"source": "811474", "target": "845697"}}, {"type": "Feature", "geometry": {"type": "LineString", "coordinates": [[-126.67974673291897, 68.224424994066], [-126.68581053189351, 68.22322848374176]]}, "properties": {"source": "811474", "target": "961398"}}, {"type": "Feature", "geometry": {"type": "LineString", "coordinates": [[-126.67974673291897, 68.224424994066], [-126.67685058269346, 68.22232096998007]]}, "properties": {"source": "811474", "target": "1262526"}}, {"type": "Feature", "geometry": {"type": "LineString", "coordinates": [[-126.67974673291897, 68.224424994066], [-126.66807307187466, 68.22523082058262]]}, "properties": {"source": "811474", "target": "7443610"}}, {"type": "Feature", "geometry": {"type": "LineString", "coordinates": [[-126.67974673291897, 68.224424994066], [-126.68489781718911, 68.22330988079682]]}, "properties": {"source": "811474", "target": "7101259"}}, {"type": "Feature", "geometry": {"type": "LineString", "coordinates": [[-126.67974673291897, 68.224424994066], [-126.67026046554702, 68.22310772283706]]}, "properties": {"source": "811474", "target": "945508"}}, {"type": "Feature", "geometry": {"type": "LineString", "coordinates": [[-126.68847985715686, 68.22533622065973], [-126.68788269363112, 68.22867484069096]]}, "properties": {"source": "807299", "target": "6177724"}}, {"type": "Feature", "geometry": {"type": "LineString", "coordinates": [[-126.68847985715686, 68.22533622065973], [-126.67696720485583, 68.22299059897239]]}, "properties": {"source": "807299", "target": "107794"}}, {"type": "Feature", "geometry": {"type": "LineString", "coordinates": [[-126.68847985715686, 68.22533622065973], [-126.67806849254745, 68.23044566862401]]}, "properties": {"source": "807299", "target": "703461"}}, {"type": "Feature", "geometry": {"type": "LineString", "coordinates": [[-126.6719119249841, 68.22956277240652], [-126.67477108559683, 68.2226985903491]]}, "properties": {"source": "2461465", "target": "1036820"}}, {"type": "Feature", "geometry": {"type": "LineString", "coordinates": [[-126.67974673291897, 68.224424994066], [-126.69023149723836, 68.22405909870392]]}, "properties": {"source": "811474", "target": "685387"}}, {"type": "Feature", "geometry": {"type": "LineString", "coordinates": [[-126.6667545116615, 68.22731166891734], [-126.67588176056498, 68.23064971876252]]}, "properties": {"source": "883394", "target": "881142"}}, {"type": "Feature", "geometry": {"type": "LineString", "coordinates": [[-126.6667545116615, 68.22731166891734], [-126.68180075903467, 68.23098809109644]]}, "properties": {"source": "883394", "target": "763223"}}, {"type": "Feature", "geometry": {"type": "LineString", "coordinates": [[-126.6667545116615, 68.22731166891734], [-126.67869294582249, 68.22299459140322]]}, "properties": {"source": "883394", "target": "759366"}}, {"type": "Feature", "geometry": {"type": "LineString", "coordinates": [[-126.67733281938209, 68.22680977269147], [-126.67081716837494, 68.2290733730486]]}, "properties": {"source": "1069207", "target": "8835952"}}, {"type": "Feature", "geometry": {"type": "LineString", "coordinates": [[-126.67733281938209, 68.22680977269147], [-126.67368922355064, 68.23183050687169]]}, "properties": {"source": "1069207", "target": "1209009"}}, {"type": "Feature", "geometry": {"type": "LineString", "coordinates": [[-126.67733281938209, 68.22680977269147], [-126.6737662828446, 68.22828048386626]]}, "properties": {"source": "1069207", "target": "903839"}}, {"type": "Feature", "geometry": {"type": "LineString", "coordinates": [[-126.67733281938209, 68.22680977269147], [-126.67656835583767, 68.22462109784948]]}, "properties": {"source": "1069207", "target": "1109482"}}, {"type": "Feature", "geometry": {"type": "LineString", "coordinates": [[-126.67733281938209, 68.22680977269147], [-126.69512024002773, 68.2311980202245]]}, "properties": {"source": "1069207", "target": "1087650"}}, {"type": "Feature", "geometry": {"type": "LineString", "coordinates": [[-126.67733281938209, 68.22680977269147], [-126.67656679777951, 68.22855523511782]]}, "properties": {"source": "1069207", "target": "1078415"}}, {"type": "Feature", "geometry": {"type": "LineString", "coordinates": [[-126.6721949403101, 68.22779437975967], [-126.6719119249841, 68.22956277240652]]}, "properties": {"source": "1255304", "target": "2461465"}}, {"type": "Feature", "geometry": {"type": "LineString", "coordinates": [[-126.6721949403101, 68.22779437975967], [-126.692339980735, 68.22833371120129]]}, "properties": {"source": "1255304", "target": "1858960"}}, {"type": "Feature", "geometry": {"type": "LineString", "coordinates": [[-126.6721949403101, 68.22779437975967], [-126.68581053189351, 68.22322848374176]]}, "properties": {"source": "1255304", "target": "961398"}}, {"type": "Feature", "geometry": {"type": "LineString", "coordinates": [[-126.69202130996888, 68.23023852634142], [-126.6719119249841, 68.22956277240652]]}, "properties": {"source": "1161286", "target": "2461465"}}, {"type": "Feature", "geometry": {"type": "LineString", "coordinates": [[-126.69202130996888, 68.23023852634142], [-126.6949378528624, 68.22285735542977]]}, "properties": {"source": "1161286", "target": "1785106"}}, {"type": "Feature", "geometry": {"type": "LineString", "coordinates": [[-126.69202130996888, 68.23023852634142], [-126.67477108559683, 68.2226985903491]]}, "properties": {"source": "1161286", "target": "1036820"}}, {"type": "Feature", "geometry": {"type": "LineString", "coordinates": [[-126.69202130996888, 68.23023852634142], [-126.67355814397303, 68.22614666717419]]}, "properties": {"source": "1161286", "target": "13206975"}}, {"type": "Feature", "geometry": {"type": "LineString", "coordinates": [[-126.69202130996888, 68.23023852634142], [-126.68747858104608, 68.23233785778675]]}, "properties": {"source": "1161286", "target": "1031853"}}, {"type": "Feature", "geometry": {"type": "LineString", "coordinates": [[-126.69202130996888, 68.23023852634142], [-126.67356079173356, 68.22309953555728]]}, "properties": {"source": "1161286", "target": "1089685"}}, {"type": "Feature", "geometry": {"type": "LineString", "coordinates": [[-126.69202130996888, 68.23023852634142], [-126.68301204618507, 68.22413632037302]]}, "properties": {"source": "1161286", "target": "5547571"}}, {"type": "Feature", "geometry": {"type": "LineString", "coordinates": [[-126.69202130996888, 68.23023852634142], [-126.66728602284775, 68.23025104614823]]}, "properties": {"source": "1161286", "target": "402594"}}, {"type": "Feature", "geometry": {"type": "LineString", "coordinates": [[-126.69202130996888, 68.23023852634142], [-126.68560878802988, 68.2275363144386]]}, "properties": {"source": "1161286", "target": "7710571"}}, {"type": "Feature", "geometry": {"type": "LineString", "coordinates": [[-126.693302475602, 68.22594185453278], [-126.67368922355064, 68.23183050687169]]}, "properties": {"source": "375052", "target": "1209009"}}, {"type": "Feature", "geometry": {"type": "LineString", "coordinates": [[-126.693302475602, 68.22594185453278], [-126.67420318222628, 68.2238960874082]]}, "properties": {"source": "375052", "target": "1138399"}}, {"type": "Feature", "geometry": {"type": "LineString", "coordinates": [[-126.693302475602, 68.22594185453278], [-126.67656835583767, 68.22462109784948]]}, "properties": {"source": "375052", "target": "1109482"}}, {"type": "Feature", "geometry": {"type": "LineString", "coordinates": [[-126.693302475602, 68.22594185453278], [-126.68718960894375, 68.22701176817043]]}, "properties": {"source": "375052", "target": "1216318"}}, {"type": "Feature", "geometry": {"type": "LineString", "coordinates": [[-126.693302475602, 68.22594185453278], [-126.66858208603327, 68.22998368741142]]}, "properties": {"source": "375052", "target": "1069206"}}, {"type": "Feature", "geometry": {"type": "LineString", "coordinates": [[-126.693302475602, 68.22594185453278], [-126.69512024002773, 68.2311980202245]]}, "properties": {"source": "375052", "target": "1087650"}}, {"type": "Feature", "geometry": {"type": "LineString", "coordinates": [[-126.67368922355064, 68.23183050687169], [-126.67839398798263, 68.22378719703673]]}, "properties": {"source": "1209009", "target": "1576454"}}, {"type": "Feature", "geometry": {"type": "LineString", "coordinates": [[-126.67368922355064, 68.23183050687169], [-126.69331427440011, 68.22675054890479]]}, "properties": {"source": "1209009", "target": "1239824"}}, {"type": "Feature", "geometry": {"type": "LineString", "coordinates": [[-126.67420318222628, 68.2238960874082], [-126.67081716837494, 68.2290733730486]]}, "properties": {"source": "1138399", "target": "8835952"}}, {"type": "Feature", "geometry": {"type": "LineString", "coordinates": [[-126.67420318222628, 68.2238960874082], [-126.67368922355064, 68.23183050687169]]}, "properties": {"source": "1138399", "target": "1209009"}}, {"type": "Feature", "geometry": {"type": "LineString", "coordinates": [[-126.693302475602, 68.22594185453278], [-126.691511887637, 68.22482193269394]]}, "properties": {"source": "375052", "target": "1019672"}}, {"type": "Feature", "geometry": {"type": "LineString", "coordinates": [[-126.67033352625111, 68.22379821687494], [-126.69544840444254, 68.22357605510797]]}, "properties": {"source": "1134777", "target": "7593520"}}, {"type": "Feature", "geometry": {"type": "LineString", "coordinates": [[-126.67342898623544, 68.22774477306652], [-126.67355814397303, 68.22614666717419]]}, "properties": {"source": "156041", "target": "13206975"}}, {"type": "Feature", "geometry": {"type": "LineString", "coordinates": [[-126.67342898623544, 68.22774477306652], [-126.67356079173356, 68.22309953555728]]}, "properties": {"source": "156041", "target": "1089685"}}, {"type": "Feature", "geometry": {"type": "LineString", "coordinates": [[-126.67342898623544, 68.22774477306652], [-126.68198081343253, 68.22726407561728]]}, "properties": {"source": "156041", "target": "17836678"}}, {"type": "Feature", "geometry": {"type": "LineString", "coordinates": [[-126.67342898623544, 68.22774477306652], [-126.67506600173674, 68.22948668657506]]}, "properties": {"source": "156041", "target": "1605657"}}, {"type": "Feature", "geometry": {"type": "LineString", "coordinates": [[-126.67342898623544, 68.22774477306652], [-126.69323649125576, 68.22667673844583]]}, "properties": {"source": "156041", "target": "21525626"}}, {"type": "Feature", "geometry": {"type": "LineString", "coordinates": [[-126.67026046554702, 68.22310772283706], [-126.68847985715686, 68.22533622065973]]}, "properties": {"source": "945508", "target": "807299"}}, {"type": "Feature", "geometry": {"type": "LineString", "coordinates": [[-126.67026046554702, 68.22310772283706], [-126.67973781263943, 68.227529047373]]}, "properties": {"source": "945508", "target": "845697"}}, {"type": "Feature", "geometry": {"type": "LineString", "coordinates": [[-126.67026046554702, 68.22310772283706], [-126.68581053189351, 68.22322848374176]]}, "properties": {"source": "945508", "target": "961398"}}, {"type": "Feature", "geometry": {"type": "LineString", "coordinates": [[-126.67026046554702, 68.22310772283706], [-126.66807307187466, 68.22523082058262]]}, "properties": {"source": "945508", "target": "7443610"}}, {"type": "Feature", "geometry": {"type": "LineString", "coordinates": [[-126.66760954952106, 68.228576952607], [-126.67355814397303, 68.22614666717419]]}, "properties": {"source": "55", "target": "13206975"}}, {"type": "Feature", "geometry": {"type": "LineString", "coordinates": [[-126.66760954952106, 68.228576952607], [-126.68301204618507, 68.22413632037302]]}, "properties": {"source": "55", "target": "5547571"}}, {"type": "Feature", "geometry": {"type": "LineString", "coordinates": [[-126.66760954952106, 68.228576952607], [-126.66728602284775, 68.23025104614823]]}, "properties": {"source": "55", "target": "402594"}}, {"type": "Feature", "geometry": {"type": "LineString", "coordinates": [[-126.66760954952106, 68.228576952607], [-126.66880972694511, 68.22577850862223]]}, "properties": {"source": "55", "target": "455501"}}, {"type": "Feature", "geometry": {"type": "LineString", "coordinates": [[-126.66760954952106, 68.228576952607], [-126.66862273029226, 68.22574097937462]]}, "properties": {"source": "55", "target": "52325"}}, {"type": "Feature", "geometry": {"type": "LineString", "coordinates": [[-126.68211660318684, 68.22675236306821], [-126.6719119249841, 68.22956277240652]]}, "properties": {"source": "232883", "target": "2461465"}}, {"type": "Feature", "geometry": {"type": "LineString", "coordinates": [[-126.67062656137139, 68.23107860516666], [-126.68771031393756, 68.22871283887864]]}, "properties": {"source": "847824", "target": "993155"}}, {"type": "Feature", "geometry": {"type": "LineString", "coordinates": [[-126.67062656137139, 68.23107860516666], [-126.67075514637702, 68.22797710878811]]}, "properties": {"source": "847824", "target": "98654"}}, {"type": "Feature", "geometry": {"type": "LineString", "coordinates": [[-126.68569692093132, 68.22669931201796], [-126.6715506147601, 68.22395172537259]]}, "properties": {"source": "176976", "target": "1672222"}}, {"type": "Feature", "geometry": {"type": "LineString", "coordinates": [[-126.68569692093132, 68.22669931201796], [-126.66687549228135, 68.23124266911594]]}, "properties": {"source": "176976", "target": "1412868"}}, {"type": "Feature", "geometry": {"type": "LineString", "coordinates": [[-126.68569692093132, 68.22669931201796], [-126.68461650618353, 68.22325879431438]]}, "properties": {"source": "176976", "target": "1916555"}}, {"type": "Feature", "geometry": {"type": "LineString", "coordinates": [[-126.68569692093132, 68.22669931201796], [-126.66985220027453, 68.22646968105391]]}, "properties": {"source": "176976", "target": "20317494"}}, {"type": "Feature", "geometry": {"type": "LineString", "coordinates": [[-126.66755632913758, 68.22874536567099], [-126.67368922355064, 68.23183050687169]]}, "properties": {"source": "1807823", "target": "1209009"}}, {"type": "Feature", "geometry": {"type": "LineString", "coordinates": [[-126.66755632913758, 68.22874536567099], [-126.67420318222628, 68.2238960874082]]}, "properties": {"source": "1807823", "target": "1138399"}}, {"type": "Feature", "geometry": {"type": "LineString", "coordinates": [[-126.66755632913758, 68.22874536567099], [-126.67656835583767, 68.22462109784948]]}, "properties": {"source": "1807823", "target": "1109482"}}, {"type": "Feature", "geometry": {"type": "LineString", "coordinates": [[-126.66755632913758, 68.22874536567099], [-126.67839398798263, 68.22378719703673]]}, "properties": {"source": "1807823", "target": "1576454"}}, {"type": "Feature", "geometry": {"type": "LineString", "coordinates": [[-126.68232088235308, 68.22382831344513], [-126.6719119249841, 68.22956277240652]]}, "properties": {"source": "25810496", "target": "2461465"}}, {"type": "Feature", "geometry": {"type": "LineString", "coordinates": [[-126.68232088235308, 68.22382831344513], [-126.67033352625111, 68.22379821687494]]}, "properties": {"source": "25810496", "target": "1134777"}}, {"type": "Feature", "geometry": {"type": "LineString", "coordinates": [[-126.68232088235308, 68.22382831344513], [-126.68364643119885, 68.22663737476654]]}, "properties": {"source": "25810496", "target": "24585278"}}, {"type": "Feature", "geometry": {"type": "LineString", "coordinates": [[-126.68232088235308, 68.22382831344513], [-126.67279664408662, 68.22444078348704]]}, "properties": {"source": "25810496", "target": "360745"}}, {"type": "Feature", "geometry": {"type": "LineString", "coordinates": [[-126.68569692093132, 68.22669931201796], [-126.67332113150954, 68.22603231040571]]}, "properties": {"source": "176976", "target": "15896611"}}, {"type": "Feature", "geometry": {"type": "LineString", "coordinates": [[-126.68232088235308, 68.22382831344513], [-126.6718859317348, 68.22386432740942]]}, "properties": {"source": "25810496", "target": "32988"}}, {"type": "Feature", "geometry": {"type": "LineString", "coordinates": [[-126.67420318222628, 68.2238960874082], [-126.6737662828446, 68.22828048386626]]}, "properties": {"source": "1138399", "target": "903839"}}, {"type": "Feature", "geometry": {"type": "LineString", "coordinates": [[-126.67420318222628, 68.2238960874082], [-126.67656835583767, 68.22462109784948]]}, "properties": {"source": "1138399", "target": "1109482"}}, {"type": "Feature", "geometry": {"type": "LineString", "coordinates": [[-126.67420318222628, 68.2238960874082], [-126.68563852544635, 68.22458190165611]]}, "properties": {"source": "1138399", "target": "924653"}}, {"type": "Feature", "geometry": {"type": "LineString", "coordinates": [[-126.67420318222628, 68.2238960874082], [-126.66858208603327, 68.22998368741142]]}, "properties": {"source": "1138399", "target": "1069206"}}, {"type": "Feature", "geometry": {"type": "LineString", "coordinates": [[-126.67420318222628, 68.2238960874082], [-126.69512024002773, 68.2311980202245]]}, "properties": {"source": "1138399", "target": "1087650"}}, {"type": "Feature", "geometry": {"type": "LineString", "coordinates": [[-126.67420318222628, 68.2238960874082], [-126.67733281938209, 68.22680977269147]]}, "properties": {"source": "1138399", "target": "1069207"}}, {"type": "Feature", "geometry": {"type": "LineString", "coordinates": [[-126.67420318222628, 68.2238960874082], [-126.67656679777951, 68.22855523511782]]}, "properties": {"source": "1138399", "target": "1078415"}}, {"type": "Feature", "geometry": {"type": "LineString", "coordinates": [[-126.67420318222628, 68.2238960874082], [-126.67839398798263, 68.22378719703673]]}, "properties": {"source": "1138399", "target": "1576454"}}, {"type": "Feature", "geometry": {"type": "LineString", "coordinates": [[-126.67420318222628, 68.2238960874082], [-126.69331427440011, 68.22675054890479]]}, "properties": {"source": "1138399", "target": "1239824"}}, {"type": "Feature", "geometry": {"type": "LineString", "coordinates": [[-126.69687514335371, 68.22717627597186], [-126.69559260578245, 68.22376627020375]]}, "properties": {"source": "860652", "target": "6537388"}}, {"type": "Feature", "geometry": {"type": "LineString", "coordinates": [[-126.69687514335371, 68.22717627597186], [-126.6715506147601, 68.22395172537259]]}, "properties": {"source": "860652", "target": "1672222"}}, {"type": "Feature", "geometry": {"type": "LineString", "coordinates": [[-126.69687514335371, 68.22717627597186], [-126.67127813734986, 68.22669844258095]]}, "properties": {"source": "860652", "target": "2003961"}}, {"type": "Feature", "geometry": {"type": "LineString", "coordinates": [[-126.69687514335371, 68.22717627597186], [-126.68047944955109, 68.2249500673901]]}, "properties": {"source": "860652", "target": "188278"}}, {"type": "Feature", "geometry": {"type": "LineString", "coordinates": [[-126.69687514335371, 68.22717627597186], [-126.68905611706799, 68.22394244348126]]}, "properties": {"source": "860652", "target": "1936069"}}, {"type": "Feature", "geometry": {"type": "LineString", "coordinates": [[-126.67420318222628, 68.2238960874082], [-126.691511887637, 68.22482193269394]]}, "properties": {"source": "1138399", "target": "1019672"}}, {"type": "Feature", "geometry": {"type": "LineString", "coordinates": [[-126.69687514335371, 68.22717627597186], [-126.6717981569353, 68.22638544948924]]}, "properties": {"source": "860652", "target": "609623"}}, {"type": "Feature", "geometry": {"type": "LineString", "coordinates": [[-126.68685508186158, 68.22697849445831], [-126.6867945400156, 68.23226760050767]]}, "properties": {"source": "7899", "target": "967019"}}, {"type": "Feature", "geometry": {"type": "LineString", "coordinates": [[-126.6889615123273, 68.22433650224431], [-126.6867945400156, 68.23226760050767]]}, "properties": {"source": "838290", "target": "967019"}}, {"type": "Feature", "geometry": {"type": "LineString", "coordinates": [[-126.6674914318967, 68.22979213902869], [-126.6719119249841, 68.22956277240652]]}, "properties": {"source": "1629810", "target": "2461465"}}, {"type": "Feature", "geometry": {"type": "LineString", "coordinates": [[-126.6674914318967, 68.22979213902869], [-126.68364643119885, 68.22663737476654]]}, "properties": {"source": "1629810", "target": "24585278"}}, {"type": "Feature", "geometry": {"type": "LineString", "coordinates": [[-126.6867516345093, 68.22742616954585], [-126.67477108559683, 68.2226985903491]]}, "properties": {"source": "2334031", "target": "1036820"}}, {"type": "Feature", "geometry": {"type": "LineString", "coordinates": [[-126.6699271560004, 68.22568957630327], [-126.68560878802988, 68.2275363144386]]}, "properties": {"source": "92454", "target": "7710571"}}, {"type": "Feature", "geometry": {"type": "LineString", "coordinates": [[-126.68996148425867, 68.22733218576676], [-126.67033352625111, 68.22379821687494]]}, "properties": {"source": "19664739", "target": "1134777"}}, {"type": "Feature", "geometry": {"type": "LineString", "coordinates": [[-126.69047928049241, 68.23163356816016], [-126.67033352625111, 68.22379821687494]]}, "properties": {"source": "8350753", "target": "1134777"}}, {"type": "Feature", "geometry": {"type": "LineString", "coordinates": [[-126.674097690237, 68.22761931859372], [-126.68898159276159, 68.22914326143882]]}, "properties": {"source": "2650732", "target": "2206352"}}, {"type": "Feature", "geometry": {"type": "LineString", "coordinates": [[-126.69142090779451, 68.2269048304986], [-126.67656679777951, 68.22855523511782]]}, "properties": {"source": "663377", "target": "1078415"}}, {"type": "Feature", "geometry": {"type": "LineString", "coordinates": [[-126.67943102229573, 68.22337122550073], [-126.67843616923469, 68.22229316182282]]}, "properties": {"source": "11743140", "target": "852358"}}, {"type": "Feature", "geometry": {"type": "LineString", "coordinates": [[-126.68982888629279, 68.23086651949674], [-126.692339980735, 68.22833371120129]]}, "properties": {"source": "2255335", "target": "1858960"}}, {"type": "Feature", "geometry": {"type": "LineString", "coordinates": [[-126.68982888629279, 68.23086651949674], [-126.6949378528624, 68.22285735542977]]}, "properties": {"source": "2255335", "target": "1785106"}}, {"type": "Feature", "geometry": {"type": "LineString", "coordinates": [[-126.68982888629279, 68.23086651949674], [-126.67477108559683, 68.2226985903491]]}, "properties": {"source": "2255335", "target": "1036820"}}, {"type": "Feature", "geometry": {"type": "LineString", "coordinates": [[-126.68982888629279, 68.23086651949674], [-126.68747858104608, 68.23233785778675]]}, "properties": {"source": "2255335", "target": "1031853"}}, {"type": "Feature", "geometry": {"type": "LineString", "coordinates": [[-126.68945729354793, 68.22420867885455], [-126.6718859317348, 68.22386432740942]]}, "properties": {"source": "399998", "target": "32988"}}]}