{"type": "FeatureCollection", "features": [{"type": "Feature", "geometry": {"type": "LineString", "coordinates": [[176.40255810921133, 68.22962852759139], [176.4152271669426, 68.2254232005572]]}, "properties": {"source": "11753214", "target": "30269689"}}, {"type": "Feature", "geometry": {"type": "LineString", "coordinates": [[176.40255810921133, 68.22962852759139], [176.40234710265423, 68.22745329116083]]}, "properties": {"source": "11753214", "target": "30896645"}}, {"type": "Feature", "geometry": {"type": "LineString", "coordinates": [[176.40255810921133, 68.22962852759139], [176.4083635365431, 68.2242804753117]]}, "properties": {"source": "11753214", "target": "4906052"}}, {"type": "Feature", "geometry": {"type": "LineString", "coordinates": [[176.40255810921133, 68.22962852759139], [176.41536253320203, 68.22818649844933]]}, "properties": {"source": "11753214", "target": "890964"}}, {"type": "Feature", "geometry": {"type": "LineString", "coordinates": [[176.4050292769221, 68.22684216590378], [176.40546116150983, 68.22613812315925]]}, "properties": {"source": "25955276", "target": "23346756"}}, {"type": "Feature", "geometry": {"type": "LineString", "coordinates": [[176.4050292769221, 68.22684216590378], [176.40906207204046, 68.22993139225633]]}, "properties": {"source": "25955276", "target": "23469473"}}, {"type": "Feature", "geometry": {"type": "LineString", "coordinates": [[176.4050292769221, 68.22684216590378], [176.4085098691902, 68.22849068511263]]}, "properties": {"source": "25955276", "target": "23346552"}}, {"type": "Feature", "geometry": {"type": "LineString", "coordinates": [[176.4050292769221, 68.22684216590378], [176.41440815237297, 68.22687862342971]]}, "properties": {"source": "25955276", "target": "26210503"}}, {"type": "Feature", "geometry": {"type": "LineString", "coordinates": [[176.4050292769221, 68.22684216590378], [176.41777413182712, 68.2228155013855]]}, "properties": {"source": "25955276", "target": "25746659"}}, {"type": "Feature", "geometry": {"type": "LineString", "coordinates": [[176.41013489475256, 68.23024899503932], [176.39445900867048, 68.22631599481733]]}, "properties": {"source": "12799895", "target": "14999429"}}, {"type": "Feature", "geometry": {"type": "LineString", "coordinates": [[176.41961203713203, 68.22410080928037], [176.4067345509357, 68.2283618556701]]}, "properties": {"source": "18469836", "target": "18963548"}}, {"type": "Feature", "geometry": {"type": "LineString", "coordinates": [[176.40085950256838, 68.22444452110392], [176.41660484861603, 68.22226568637728]]}, "properties": {"source": "10549661", "target": "19907923"}}, {"type": "Feature", "geometry": {"type": "LineString", "coordinates": [[176.40085950256838, 68.22444452110392], [176.4001957567604, 68.22648607731213]]}, "properties": {"source": "10549661", "target": "18294547"}}, {"type": "Feature", "geometry": {"type": "LineString", "coordinates": [[176.41948226004456, 68.22352133180613], [176.40546116150983, 68.22613812315925]]}, "properties": {"source": "21090165", "target": "23346756"}}, {"type": "Feature", "geometry": {"type": "LineString", "coordinates": [[176.4066137512529, 68.2263234409146], [176.39993790018855, 68.2254867514551]]}, "properties": {"source": "6899855", "target": "975486"}}, {"type": "Feature", "geometry": {"type": "LineString", "coordinates": [[176.40494481963617, 68.22750376742889], [176.41777413182712, 68.2228155013855]]}, "properties": {"source": "28962933", "target": "25746659"}}, {"type": "Feature", "geometry": {"type": "LineString", "coordinates": [[176.41662631940892, 68.22428111318436], [176.4196258940421, 68.22525489012568]]}, "properties": {"source": "471038", "target": "26346230"}}, {"type": "Feature", "geometry": {"type": "LineString", "coordinates": [[176.41712907817947, 68.2234865265703], [176.4132626514342, 68.22601784520555]]}, "properties": {"source": "7962227", "target": "863912"}}, {"type": "Feature", "geometry": {"type": "LineString", "coordinates": [[176.41712907817947, 68.2234865265703], [176.4082944794302, 68.22561634751636]]}, "properties": {"source": "7962227", "target": "6536566"}}, {"type": "Feature", "geometry": {"type": "LineString", "coordinates": [[176.41712907817947, 68.2234865265703], [176.41298777834282, 68.22229834295163]]}, "properties": {"source": "7962227", "target": "6867302"}}, {"type": "Feature", "geometry": {"type": "LineString", "coordinates": [[176.40625701452404, 68.22452457870747], [176.3991482062769, 68.22670111282457]]}, "properties": {"source": "25179402", "target": "2558821"}}, {"type": "Feature", "geometry": {"type": "LineString", "coordinates": [[176.40625701452404, 68.22452457870747], [176.40366177681352, 68.22372508501309]]}, "properties": {"source": "25179402", "target": "19854493"}}, {"type": "Feature", "geometry": {"type": "LineString", "coordinates": [[176.40625701452404, 68.22452457870747], [176.40085950256838, 68.22444452110392]]}, "properties": {"source": "25179402", "target": "10549661"}}, {"type": "Feature", "geometry": {"type": "LineString", "coordinates": [[176.40625701452404, 68.22452457870747], [176.4001957567604, 68.22648607731213]]}, "properties": {"source": "25179402", "target": "18294547"}}, {"type": "Feature", "geometry": {"type": "LineString", "coordinates": [[176.40234710265423, 68.22745329116083], [176.4152271669426, 68.2254232005572]]}, "properties": {"source": "30896645", "target": "30269689"}}, {"type": "Feature", "geometry": {"type": "LineString", "coordinates": [[176.40234710265423, 68.22745329116083], [176.4109282221308, 68.22920642644502]]}, "properties": {"source": "30896645", "target": "31299624"}}, {"type": "Feature", "geometry": {"type": "LineString", "coordinates": [[176.39572114899613, 68.22794945838282], [176.396898055284, 68.22241299835534]]}, "properties": {"source": "18359935", "target": "27481359"}}, {"type": "Feature", "geometry": {"type": "LineString", "coordinates": [[176.39572114899613, 68.22794945838282], [176.408705391284, 68.22812673017776]]}, "properties": {"source": "18359935", "target": "21074189"}}, {"type": "Feature", "geometry": {"type": "LineString", "coordinates": [[176.417572666796, 68.22478014007262], [176.4152271669426, 68.2254232005572]]}, "properties": {"source": "13027959", "target": "30269689"}}, {"type": "Feature", "geometry": {"type": "LineString", "coordinates": [[176.417572666796, 68.22478014007262], [176.4132626514342, 68.22601784520555]]}, "properties": {"source": "13027959", "target": "863912"}}, {"type": "Feature", "geometry": {"type": "LineString", "coordinates": [[176.41324302354684, 68.22434979188841], [176.4109282221308, 68.22920642644502]]}, "properties": {"source": "345300", "target": "31299624"}}, {"type": "Feature", "geometry": {"type": "LineString", "coordinates": [[176.41324302354684, 68.22434979188841], [176.408705391284, 68.22812673017776]]}, "properties": {"source": "345300", "target": "21074189"}}, {"type": "Feature", "geometry": {"type": "LineString", "coordinates": [[176.41660484861603, 68.22226568637728], [176.4001957567604, 68.22648607731213]]}, "properties": {"source": "19907923", "target": "18294547"}}, {"type": "Feature", "geometry": {"type": "LineString", "coordinates": [[176.41013489475256, 68.23024899503932], [176.40295538594808, 68.230190022828]]}, "properties": {"source": "12799895", "target": "23665434"}}, {"type": "Feature", "geometry": {"type": "LineString", "coordinates": [[176.41013489475256, 68.23024899503932], [176.39768543708806, 68.23016531515637]]}, "properties": {"source": "12799895", "target": "23848256"}}, {"type": "Feature", "geometry": {"type": "LineString", "coordinates": [[176.41013489475256, 68.23024899503932], [176.39940177362524, 68.22654197825483]]}, "properties": {"source": "12799895", "target": "13432284"}}, {"type": "Feature", "geometry": {"type": "LineString", "coordinates": [[176.3951331088507, 68.22525618797249], [176.40964561209057, 68.22632270946085]]}, "properties": {"source": "18482655", "target": "17568329"}}, {"type": "Feature", "geometry": {"type": "LineString", "coordinates": [[176.40302054192773, 68.2311765667308], [176.4152271669426, 68.2254232005572]]}, "properties": {"source": "12917989", "target": "30269689"}}, {"type": "Feature", "geometry": {"type": "LineString", "coordinates": [[176.40302054192773, 68.2311765667308], [176.40234710265423, 68.22745329116083]]}, "properties": {"source": "12917989", "target": "30896645"}}, {"type": "Feature", "geometry": {"type": "LineString", "coordinates": [[176.40302054192773, 68.2311765667308], [176.4083635365431, 68.2242804753117]]}, "properties": {"source": "12917989", "target": "4906052"}}, {"type": "Feature", "geometry": {"type": "LineString", "coordinates": [[176.40302054192773, 68.2311765667308], [176.4132626514342, 68.22601784520555]]}, "properties": {"source": "12917989", "target": "863912"}}, {"type": "Feature", "geometry": {"type": "LineString", "coordinates": [[176.40302054192773, 68.2311765667308], [176.41536253320203, 68.22818649844933]]}, "properties": {"source": "12917989", "target": "890964"}}, {"type": "Feature", "geometry": {"type": "LineString", "coordinates": [[176.39420201975378, 68.22963441088135], [176.41223391799048, 68.22563193509205]]}, "properties": {"source": "7646561", "target": "10421789"}}, {"type": "Feature", "geometry": {"type": "LineString", "coordinates": [[176.41242999664536, 68.22401450777949], [176.4109282221308, 68.22920642644502]]}, "properties": {"source": "4573370", "target": "31299624"}}, {"type": "Feature", "geometry": {"type": "LineString", "coordinates": [[176.41242999664536, 68.22401450777949], [176.4112219276273, 68.23073031198314]]}, "properties": {"source": "4573370", "target": "4673456"}}, {"type": "Feature", "geometry": {"type": "LineString", "coordinates": [[176.41242999664536, 68.22401450777949], [176.41391337888962, 68.22353747384795]]}, "properties": {"source": "4573370", "target": "313165"}}, {"type": "Feature", "geometry": {"type": "LineString", "coordinates": [[176.4082944794302, 68.22561634751636], [176.4112219276273, 68.23073031198314]]}, "properties": {"source": "6536566", "target": "4673456"}}, {"type": "Feature", "geometry": {"type": "LineString", "coordinates": [[176.4082944794302, 68.22561634751636], [176.41298777834282, 68.22229834295163]]}, "properties": {"source": "6536566", "target": "6867302"}}, {"type": "Feature", "geometry": {"type": "LineString", "coordinates": [[176.4082944794302, 68.22561634751636], [176.40725734289998, 68.22298416136286]]}, "properties": {"source": "6536566", "target": "6866651"}}, {"type": "Feature", "geometry": {"type": "LineString", "coordinates": [[176.4112219276273, 68.23073031198314], [176.41391337888962, 68.22353747384795]]}, "properties": {"source": "4673456", "target": "313165"}}, {"type": "Feature", "geometry": {"type": "LineString", "coordinates": [[176.4196258940421, 68.22525489012568], [176.41569822203422, 68.22511761116743]]}, "properties": {"source": "26346230", "target": "259659"}}, {"type": "Feature", "geometry": {"type": "LineString", "coordinates": [[176.41298777834282, 68.22229834295163], [176.40725734289998, 68.22298416136286]]}, "properties": {"source": "6867302", "target": "6866651"}}, {"type": "Feature", "geometry": {"type": "LineString", "coordinates": [[176.4000667336996, 68.22252757983222], [176.41660484861603, 68.22226568637728]]}, "properties": {"source": "17162001", "target": "19907923"}}, {"type": "Feature", "geometry": {"type": "LineString", "coordinates": [[176.4000667336996, 68.22252757983222], [176.40366177681352, 68.22372508501309]]}, "properties": {"source": "17162001", "target": "19854493"}}, {"type": "Feature", "geometry": {"type": "LineString", "coordinates": [[176.4000667336996, 68.22252757983222], [176.4001957567604, 68.22648607731213]]}, "properties": {"source": "17162001", "target": "18294547"}}, {"type": "Feature", "geometry": {"type": "LineString", "coordinates": [[176.4000667336996, 68.22252757983222], [176.41690022466594, 68.22334819293232]]}, "properties": {"source": "17162001", "target": "1702011"}}, {"type": "Feature", "geometry": {"type": "LineString", "coordinates": [[176.40527486424804, 68.23113436713899], [176.41125404987093, 68.228771024098]]}, "properties": {"source": "25482835", "target": "3310715"}}, {"type": "Feature", "geometry": {"type": "LineString", "coordinates": [[176.39572114899613, 68.22794945838282], [176.4109282221308, 68.22920642644502]]}, "properties": {"source": "18359935", "target": "31299624"}}, {"type": "Feature", "geometry": {"type": "LineString", "coordinates": [[176.41977119576796, 68.2249420958849], [176.3991482062769, 68.22670111282457]]}, "properties": {"source": "2965386", "target": "2558821"}}, {"type": "Feature", "geometry": {"type": "LineString", "coordinates": [[176.41977119576796, 68.2249420958849], [176.40664885441134, 68.22798805929236]]}, "properties": {"source": "2965386", "target": "529380"}}, {"type": "Feature", "geometry": {"type": "LineString", "coordinates": [[176.408836333095, 68.22898150274625], [176.40546116150983, 68.22613812315925]]}, "properties": {"source": "23349369", "target": "23346756"}}, {"type": "Feature", "geometry": {"type": "LineString", "coordinates": [[176.408836333095, 68.22898150274625], [176.40906207204046, 68.22993139225633]]}, "properties": {"source": "23349369", "target": "23469473"}}, {"type": "Feature", "geometry": {"type": "LineString", "coordinates": [[176.408836333095, 68.22898150274625], [176.4085098691902, 68.22849068511263]]}, "properties": {"source": "23349369", "target": "23346552"}}, {"type": "Feature", "geometry": {"type": "LineString", "coordinates": [[176.408836333095, 68.22898150274625], [176.4120492016295, 68.23049218448503]]}, "properties": {"source": "23349369", "target": "18630558"}}, {"type": "Feature", "geometry": {"type": "LineString", "coordinates": [[176.408836333095, 68.22898150274625], [176.41440815237297, 68.22687862342971]]}, "properties": {"source": "23349369", "target": "26210503"}}, {"type": "Feature", "geometry": {"type": "LineString", "coordinates": [[176.408836333095, 68.22898150274625], [176.39914787394866, 68.22773201837023]]}, "properties": {"source": "23349369", "target": "20613646"}}, {"type": "Feature", "geometry": {"type": "LineString", "coordinates": [[176.408836333095, 68.22898150274625], [176.41777413182712, 68.2228155013855]]}, "properties": {"source": "23349369", "target": "25746659"}}, {"type": "Feature", "geometry": {"type": "LineString", "coordinates": [[176.408836333095, 68.22898150274625], [176.39743374090858, 68.22840957744327]]}, "properties": {"source": "23349369", "target": "11535246"}}, {"type": "Feature", "geometry": {"type": "LineString", "coordinates": [[176.42099873421074, 68.22753269002521], [176.40302054192773, 68.2311765667308]]}, "properties": {"source": "25507761", "target": "12917989"}}, {"type": "Feature", "geometry": {"type": "LineString", "coordinates": [[176.42099873421074, 68.22753269002521], [176.40255810921133, 68.22962852759139]]}, "properties": {"source": "25507761", "target": "11753214"}}, {"type": "Feature", "geometry": {"type": "LineString", "coordinates": [[176.42099873421074, 68.22753269002521], [176.417572666796, 68.22478014007262]]}, "properties": {"source": "25507761", "target": "13027959"}}, {"type": "Feature", "geometry": {"type": "LineString", "coordinates": [[176.42099873421074, 68.22753269002521], [176.41391337888962, 68.22353747384795]]}, "properties": {"source": "25507761", "target": "313165"}}, {"type": "Feature", "geometry": {"type": "LineString", "coordinates": [[176.4085566905568, 68.23056256227625], [176.4152271669426, 68.2254232005572]]}, "properties": {"source": "1071920", "target": "30269689"}}, {"type": "Feature", "geometry": {"type": "LineString", "coordinates": [[176.4085566905568, 68.23056256227625], [176.4120492016295, 68.23049218448503]]}, "properties": {"source": "1071920", "target": "18630558"}}, {"type": "Feature", "geometry": {"type": "LineString", "coordinates": [[176.408836333095, 68.22898150274625], [176.4112078708298, 68.2267652100146]]}, "properties": {"source": "23349369", "target": "20434867"}}, {"type": "Feature", "geometry": {"type": "LineString", "coordinates": [[176.40906207204046, 68.22993139225633], [176.40546116150983, 68.22613812315925]]}, "properties": {"source": "23469473", "target": "23346756"}}, {"type": "Feature", "geometry": {"type": "LineString", "coordinates": [[176.40906207204046, 68.22993139225633], [176.41440815237297, 68.22687862342971]]}, "properties": {"source": "23469473", "target": "26210503"}}, {"type": "Feature", "geometry": {"type": "LineString", "coordinates": [[176.40906207204046, 68.22993139225633], [176.41777413182712, 68.2228155013855]]}, "properties": {"source": "23469473", "target": "25746659"}}, {"type": "Feature", "geometry": {"type": "LineString", "coordinates": [[176.40906207204046, 68.22993139225633], [176.39743374090858, 68.22840957744327]]}, "properties": {"source": "23469473", "target": "11535246"}}, {"type": "Feature", "geometry": {"type": "LineString", "coordinates": [[176.40906207204046, 68.22993139225633], [176.42089063730725, 68.22402185932725]]}, "properties": {"source": "23469473", "target": "20613483"}}, {"type": "Feature", "geometry": {"type": "LineString", "coordinates": [[176.40906207204046, 68.22993139225633], [176.41503033817276, 68.22987872870317]]}, "properties": {"source": "23469473", "target": "23164943"}}, {"type": "Feature", "geometry": {"type": "LineString", "coordinates": [[176.40906207204046, 68.22993139225633], [176.41995633698752, 68.23025932497902]]}, "properties": {"source": "23469473", "target": "11701177"}}, {"type": "Feature", "geometry": {"type": "LineString", "coordinates": [[176.40906207204046, 68.22993139225633], [176.41948226004456, 68.22352133180613]]}, "properties": {"source": "23469473", "target": "21090165"}}, {"type": "Feature", "geometry": {"type": "LineString", "coordinates": [[176.4085098691902, 68.22849068511263], [176.40546116150983, 68.22613812315925]]}, "properties": {"source": "23346552", "target": "23346756"}}, {"type": "Feature", "geometry": {"type": "LineString", "coordinates": [[176.41977119576796, 68.2249420958849], [176.4085566905568, 68.23056256227625]]}, "properties": {"source": "2965386", "target": "1071920"}}, {"type": "Feature", "geometry": {"type": "LineString", "coordinates": [[176.41977119576796, 68.2249420958849], [176.42051902143805, 68.22364241037928]]}, "properties": {"source": "2965386", "target": "4329549"}}, {"type": "Feature", "geometry": {"type": "LineString", "coordinates": [[176.41977119576796, 68.2249420958849], [176.41223391799048, 68.22563193509205]]}, "properties": {"source": "2965386", "target": "10421789"}}, {"type": "Feature", "geometry": {"type": "LineString", "coordinates": [[176.41977119576796, 68.2249420958849], [176.41125404987093, 68.228771024098]]}, "properties": {"source": "2965386", "target": "3310715"}}, {"type": "Feature", "geometry": {"type": "LineString", "coordinates": [[176.41977119576796, 68.2249420958849], [176.40527486424804, 68.23113436713899]]}, "properties": {"source": "2965386", "target": "25482835"}}, {"type": "Feature", "geometry": {"type": "LineString", "coordinates": [[176.41977119576796, 68.2249420958849], [176.4115467410639, 68.22626368262246]]}, "properties": {"source": "2965386", "target": "13414640"}}, {"type": "Feature", "geometry": {"type": "LineString", "coordinates": [[176.40546116150983, 68.22613812315925], [176.41777413182712, 68.2228155013855]]}, "properties": {"source": "23346756", "target": "25746659"}}, {"type": "Feature", "geometry": {"type": "LineString", "coordinates": [[176.40546116150983, 68.22613812315925], [176.39743374090858, 68.22840957744327]]}, "properties": {"source": "23346756", "target": "11535246"}}, {"type": "Feature", "geometry": {"type": "LineString", "coordinates": [[176.40546116150983, 68.22613812315925], [176.41995633698752, 68.23025932497902]]}, "properties": {"source": "23346756", "target": "11701177"}}, {"type": "Feature", "geometry": {"type": "LineString", "coordinates": [[176.41977119576796, 68.2249420958849], [176.4152271669426, 68.2254232005572]]}, "properties": {"source": "2965386", "target": "30269689"}}, {"type": "Feature", "geometry": {"type": "LineString", "coordinates": [[176.41977119576796, 68.2249420958849], [176.4045021827534, 68.23007845881173]]}, "properties": {"source": "2965386", "target": "28101515"}}, {"type": "Feature", "geometry": {"type": "LineString", "coordinates": [[176.41977119576796, 68.2249420958849], [176.40476800483782, 68.23057041336205]]}, "properties": {"source": "2965386", "target": "25639778"}}, {"type": "Feature", "geometry": {"type": "LineString", "coordinates": [[176.41977119576796, 68.2249420958849], [176.39737695001634, 68.22701751229513]]}, "properties": {"source": "2965386", "target": "12605063"}}, {"type": "Feature", "geometry": {"type": "LineString", "coordinates": [[176.41977119576796, 68.2249420958849], [176.40478115386247, 68.22756420683893]]}, "properties": {"source": "2965386", "target": "18872132"}}, {"type": "Feature", "geometry": {"type": "LineString", "coordinates": [[176.41977119576796, 68.2249420958849], [176.40625701452404, 68.22452457870747]]}, "properties": {"source": "2965386", "target": "25179402"}}, {"type": "Feature", "geometry": {"type": "LineString", "coordinates": [[176.41977119576796, 68.2249420958849], [176.40053884196044, 68.23068104924113]]}, "properties": {"source": "2965386", "target": "1162928"}}, {"type": "Feature", "geometry": {"type": "LineString", "coordinates": [[176.4083635365431, 68.2242804753117], [176.417572666796, 68.22478014007262]]}, "properties": {"source": "4906052", "target": "13027959"}}, {"type": "Feature", "geometry": {"type": "LineString", "coordinates": [[176.4083635365431, 68.2242804753117], [176.41739754706703, 68.23041918734728]]}, "properties": {"source": "4906052", "target": "4673702"}}, {"type": "Feature", "geometry": {"type": "LineString", "coordinates": [[176.42051902143805, 68.22364241037928], [176.39737695001634, 68.22701751229513]]}, "properties": {"source": "4329549", "target": "12605063"}}, {"type": "Feature", "geometry": {"type": "LineString", "coordinates": [[176.42051902143805, 68.22364241037928], [176.41223391799048, 68.22563193509205]]}, "properties": {"source": "4329549", "target": "10421789"}}, {"type": "Feature", "geometry": {"type": "LineString", "coordinates": [[176.41223391799048, 68.22563193509205], [176.4120492016295, 68.23049218448503]]}, "properties": {"source": "10421789", "target": "18630558"}}, {"type": "Feature", "geometry": {"type": "LineString", "coordinates": [[176.41223391799048, 68.22563193509205], [176.39737695001634, 68.22701751229513]]}, "properties": {"source": "10421789", "target": "12605063"}}, {"type": "Feature", "geometry": {"type": "LineString", "coordinates": [[176.41196712262467, 68.23001524107099], [176.4152271669426, 68.2254232005572]]}, "properties": {"source": "29806617", "target": "30269689"}}, {"type": "Feature", "geometry": {"type": "LineString", "coordinates": [[176.41196712262467, 68.23001524107099], [176.4109282221308, 68.22920642644502]]}, "properties": {"source": "29806617", "target": "31299624"}}, {"type": "Feature", "geometry": {"type": "LineString", "coordinates": [[176.41196712262467, 68.23001524107099], [176.40234710265423, 68.22745329116083]]}, "properties": {"source": "29806617", "target": "30896645"}}, {"type": "Feature", "geometry": {"type": "LineString", "coordinates": [[176.41196712262467, 68.23001524107099], [176.396898055284, 68.22241299835534]]}, "properties": {"source": "29806617", "target": "27481359"}}, {"type": "Feature", "geometry": {"type": "LineString", "coordinates": [[176.41196712262467, 68.23001524107099], [176.408705391284, 68.22812673017776]]}, "properties": {"source": "29806617", "target": "21074189"}}, {"type": "Feature", "geometry": {"type": "LineString", "coordinates": [[176.41196712262467, 68.23001524107099], [176.41691729517572, 68.22471622197708]]}, "properties": {"source": "29806617", "target": "29231261"}}, {"type": "Feature", "geometry": {"type": "LineString", "coordinates": [[176.41196712262467, 68.23001524107099], [176.39572114899613, 68.22794945838282]]}, "properties": {"source": "29806617", "target": "18359935"}}, {"type": "Feature", "geometry": {"type": "LineString", "coordinates": [[176.41196712262467, 68.23001524107099], [176.41324302354684, 68.22434979188841]]}, "properties": {"source": "29806617", "target": "345300"}}, {"type": "Feature", "geometry": {"type": "LineString", "coordinates": [[176.396898055284, 68.22241299835534], [176.4109282221308, 68.22920642644502]]}, "properties": {"source": "27481359", "target": "31299624"}}, {"type": "Feature", "geometry": {"type": "LineString", "coordinates": [[176.396898055284, 68.22241299835534], [176.408705391284, 68.22812673017776]]}, "properties": {"source": "27481359", "target": "21074189"}}, {"type": "Feature", "geometry": {"type": "LineString", "coordinates": [[176.40476800483782, 68.23057041336205], [176.40053884196044, 68.23068104924113]]}, "properties": {"source": "25639778", "target": "1162928"}}, {"type": "Feature", "geometry": {"type": "LineString", "coordinates": [[176.40476800483782, 68.23057041336205], [176.4085566905568, 68.23056256227625]]}, "properties": {"source": "25639778", "target": "1071920"}}, {"type": "Feature", "geometry": {"type": "LineString", "coordinates": [[176.40476800483782, 68.23057041336205], [176.42051902143805, 68.22364241037928]]}, "properties": {"source": "25639778", "target": "4329549"}}, {"type": "Feature", "geometry": {"type": "LineString", "coordinates": [[176.40476800483782, 68.23057041336205], [176.41223391799048, 68.22563193509205]]}, "properties": {"source": "25639778", "target": "10421789"}}, {"type": "Feature", "geometry": {"type": "LineString", "coordinates": [[176.40476800483782, 68.23057041336205], [176.40664885441134, 68.22798805929236]]}, "properties": {"source": "25639778", "target": "529380"}}, {"type": "Feature", "geometry": {"type": "LineString", "coordinates": [[176.40476800483782, 68.23057041336205], [176.41813962053385, 68.22839293793197]]}, "properties": {"source": "25639778", "target": "2546300"}}, {"type": "Feature", "geometry": {"type": "LineString", "coordinates": [[176.3967196787405, 68.22777006892537], [176.4038028207388, 68.22388439991855]]}, "properties": {"source": "893887", "target": "976348"}}, {"type": "Feature", "geometry": {"type": "LineString", "coordinates": [[176.3978963697678, 68.2228287609795], [176.41169301696323, 68.22437448055618]]}, "properties": {"source": "22253785", "target": "25490394"}}, {"type": "Feature", "geometry": {"type": "LineString", "coordinates": [[176.3978963697678, 68.2228287609795], [176.40126591216375, 68.22954215189694]]}, "properties": {"source": "22253785", "target": "24720378"}}, {"type": "Feature", "geometry": {"type": "LineString", "coordinates": [[176.41536236651763, 68.22242396112185], [176.4066137512529, 68.2263234409146]]}, "properties": {"source": "6392169", "target": "6899855"}}, {"type": "Feature", "geometry": {"type": "LineString", "coordinates": [[176.41536236651763, 68.22242396112185], [176.39993790018855, 68.2254867514551]]}, "properties": {"source": "6392169", "target": "975486"}}, {"type": "Feature", "geometry": {"type": "LineString", "coordinates": [[176.41997619114505, 68.2307101194946], [176.41660484861603, 68.22226568637728]]}, "properties": {"source": "9814660", "target": "19907923"}}, {"type": "Feature", "geometry": {"type": "LineString", "coordinates": [[176.41997619114505, 68.2307101194946], [176.40371949263937, 68.22774875560029]]}, "properties": {"source": "9814660", "target": "2240520"}}, {"type": "Feature", "geometry": {"type": "LineString", "coordinates": [[176.39660296847148, 68.23021116724738], [176.4181102364576, 68.22541104697424]]}, "properties": {"source": "7200122", "target": "8133304"}}, {"type": "Feature", "geometry": {"type": "LineString", "coordinates": [[176.39660296847148, 68.23021116724738], [176.41715496001154, 68.22868632667178]]}, "properties": {"source": "7200122", "target": "7911319"}}, {"type": "Feature", "geometry": {"type": "LineString", "coordinates": [[176.41715496001154, 68.22868632667178], [176.4181102364576, 68.22541104697424]]}, "properties": {"source": "7911319", "target": "8133304"}}, {"type": "Feature", "geometry": {"type": "LineString", "coordinates": [[176.41995633698752, 68.23025932497902], [176.4120492016295, 68.23049218448503]]}, "properties": {"source": "11701177", "target": "18630558"}}, {"type": "Feature", "geometry": {"type": "LineString", "coordinates": [[176.41995633698752, 68.23025932497902], [176.39743374090858, 68.22840957744327]]}, "properties": {"source": "11701177", "target": "11535246"}}, {"type": "Feature", "geometry": {"type": "LineString", "coordinates": [[176.41169301696323, 68.22437448055618], [176.4162473192954, 68.22768813010299]]}, "properties": {"source": "25490394", "target": "18480201"}}, {"type": "Feature", "geometry": {"type": "LineString", "coordinates": [[176.41169301696323, 68.22437448055618], [176.42103135313488, 68.22314927902156]]}, "properties": {"source": "25490394", "target": "28448243"}}, {"type": "Feature", "geometry": {"type": "LineString", "coordinates": [[176.41063634459857, 68.22853321297825], [176.4045021827534, 68.23007845881173]]}, "properties": {"source": "27882857", "target": "28101515"}}, {"type": "Feature", "geometry": {"type": "LineString", "coordinates": [[176.41063634459857, 68.22853321297825], [176.40570359620887, 68.23133740240431]]}, "properties": {"source": "27882857", "target": "28113615"}}, {"type": "Feature", "geometry": {"type": "LineString", "coordinates": [[176.40478115386247, 68.22756420683893], [176.40053884196044, 68.23068104924113]]}, "properties": {"source": "18872132", "target": "1162928"}}, {"type": "Feature", "geometry": {"type": "LineString", "coordinates": [[176.40478115386247, 68.22756420683893], [176.4085566905568, 68.23056256227625]]}, "properties": {"source": "18872132", "target": "1071920"}}, {"type": "Feature", "geometry": {"type": "LineString", "coordinates": [[176.40478115386247, 68.22756420683893], [176.41223391799048, 68.22563193509205]]}, "properties": {"source": "18872132", "target": "10421789"}}, {"type": "Feature", "geometry": {"type": "LineString", "coordinates": [[176.40478115386247, 68.22756420683893], [176.41961203713203, 68.22410080928037]]}, "properties": {"source": "18872132", "target": "18469836"}}, {"type": "Feature", "geometry": {"type": "LineString", "coordinates": [[176.40478115386247, 68.22756420683893], [176.4077661001732, 68.22595071385527]]}, "properties": {"source": "18872132", "target": "18128599"}}, {"type": "Feature", "geometry": {"type": "LineString", "coordinates": [[176.40478115386247, 68.22756420683893], [176.39511326735453, 68.22423977003322]]}, "properties": {"source": "18872132", "target": "18660057"}}, {"type": "Feature", "geometry": {"type": "LineString", "coordinates": [[176.40625701452404, 68.22452457870747], [176.41125404987093, 68.228771024098]]}, "properties": {"source": "25179402", "target": "3310715"}}, {"type": "Feature", "geometry": {"type": "LineString", "coordinates": [[176.40625701452404, 68.22452457870747], [176.3951331088507, 68.22525618797249]]}, "properties": {"source": "25179402", "target": "18482655"}}, {"type": "Feature", "geometry": {"type": "LineString", "coordinates": [[176.40625701452404, 68.22452457870747], [176.4000667336996, 68.22252757983222]]}, "properties": {"source": "25179402", "target": "17162001"}}, {"type": "Feature", "geometry": {"type": "LineString", "coordinates": [[176.40625701452404, 68.22452457870747], [176.40527486424804, 68.23113436713899]]}, "properties": {"source": "25179402", "target": "25482835"}}, {"type": "Feature", "geometry": {"type": "LineString", "coordinates": [[176.39586068176237, 68.22700936676273], [176.39737695001634, 68.22701751229513]]}, "properties": {"source": "13177856", "target": "12605063"}}, {"type": "Feature", "geometry": {"type": "LineString", "coordinates": [[176.39586068176237, 68.22700936676273], [176.4199605309849, 68.22843579415644]]}, "properties": {"source": "13177856", "target": "15831748"}}, {"type": "Feature", "geometry": {"type": "LineString", "coordinates": [[176.41288648347972, 68.23086677623252], [176.396898055284, 68.22241299835534]]}, "properties": {"source": "18902387", "target": "27481359"}}, {"type": "Feature", "geometry": {"type": "LineString", "coordinates": [[176.41288648347972, 68.23086677623252], [176.408705391284, 68.22812673017776]]}, "properties": {"source": "18902387", "target": "21074189"}}, {"type": "Feature", "geometry": {"type": "LineString", "coordinates": [[176.39520667532645, 68.22895573933602], [176.41764390630186, 68.22968880879719]]}, "properties": {"source": "13547155", "target": "16159245"}}, {"type": "Feature", "geometry": {"type": "LineString", "coordinates": [[176.3967196787405, 68.22777006892537], [176.4132626514342, 68.22601784520555]]}, "properties": {"source": "893887", "target": "863912"}}, {"type": "Feature", "geometry": {"type": "LineString", "coordinates": [[176.41434733545486, 68.23123876325812], [176.4109282221308, 68.22920642644502]]}, "properties": {"source": "31354930", "target": "31299624"}}, {"type": "Feature", "geometry": {"type": "LineString", "coordinates": [[176.41434733545486, 68.23123876325812], [176.396898055284, 68.22241299835534]]}, "properties": {"source": "31354930", "target": "27481359"}}, {"type": "Feature", "geometry": {"type": "LineString", "coordinates": [[176.41434733545486, 68.23123876325812], [176.408705391284, 68.22812673017776]]}, "properties": {"source": "31354930", "target": "21074189"}}, {"type": "Feature", "geometry": {"type": "LineString", "coordinates": [[176.41434733545486, 68.23123876325812], [176.41691729517572, 68.22471622197708]]}, "properties": {"source": "31354930", "target": "29231261"}}, {"type": "Feature", "geometry": {"type": "LineString", "coordinates": [[176.41434733545486, 68.23123876325812], [176.39572114899613, 68.22794945838282]]}, "properties": {"source": "31354930", "target": "18359935"}}, {"type": "Feature", "geometry": {"type": "LineString", "coordinates": [[176.41434733545486, 68.23123876325812], [176.41324302354684, 68.22434979188841]]}, "properties": {"source": "31354930", "target": "345300"}}, {"type": "Feature", "geometry": {"type": "LineString", "coordinates": [[176.3951331088507, 68.22525618797249], [176.4000667336996, 68.22252757983222]]}, "properties": {"source": "18482655", "target": "17162001"}}, {"type": "Feature", "geometry": {"type": "LineString", "coordinates": [[176.3951331088507, 68.22525618797249], [176.41660484861603, 68.22226568637728]]}, "properties": {"source": "18482655", "target": "19907923"}}, {"type": "Feature", "geometry": {"type": "LineString", "coordinates": [[176.3951331088507, 68.22525618797249], [176.40366177681352, 68.22372508501309]]}, "properties": {"source": "18482655", "target": "19854493"}}, {"type": "Feature", "geometry": {"type": "LineString", "coordinates": [[176.4045021827534, 68.23007845881173], [176.41347548429218, 68.22606218727108]]}, "properties": {"source": "28101515", "target": "26114548"}}, {"type": "Feature", "geometry": {"type": "LineString", "coordinates": [[176.4045021827534, 68.23007845881173], [176.41662631940892, 68.22428111318436]]}, "properties": {"source": "28101515", "target": "471038"}}, {"type": "Feature", "geometry": {"type": "LineString", "coordinates": [[176.4045021827534, 68.23007845881173], [176.41569822203422, 68.22511761116743]]}, "properties": {"source": "28101515", "target": "259659"}}, {"type": "Feature", "geometry": {"type": "LineString", "coordinates": [[176.4045021827534, 68.23007845881173], [176.4093588162948, 68.22897008133262]]}, "properties": {"source": "28101515", "target": "17707670"}}, {"type": "Feature", "geometry": {"type": "LineString", "coordinates": [[176.4045021827534, 68.23007845881173], [176.4137907991065, 68.2231143397754]]}, "properties": {"source": "28101515", "target": "16291794"}}, {"type": "Feature", "geometry": {"type": "LineString", "coordinates": [[176.40546116150983, 68.22613812315925], [176.4120492016295, 68.23049218448503]]}, "properties": {"source": "23346756", "target": "18630558"}}, {"type": "Feature", "geometry": {"type": "LineString", "coordinates": [[176.3951331088507, 68.22525618797249], [176.41155673166367, 68.22634015317468]]}, "properties": {"source": "18482655", "target": "18073246"}}, {"type": "Feature", "geometry": {"type": "LineString", "coordinates": [[176.40476800483782, 68.23057041336205], [176.40797302514733, 68.22385480571612]]}, "properties": {"source": "25639778", "target": "25947505"}}, {"type": "Feature", "geometry": {"type": "LineString", "coordinates": [[176.40974890326095, 68.22679303822773], [176.40546116150983, 68.22613812315925]]}, "properties": {"source": "25489458", "target": "23346756"}}, {"type": "Feature", "geometry": {"type": "LineString", "coordinates": [[176.40974890326095, 68.22679303822773], [176.408836333095, 68.22898150274625]]}, "properties": {"source": "25489458", "target": "23349369"}}, {"type": "Feature", "geometry": {"type": "LineString", "coordinates": [[176.40974890326095, 68.22679303822773], [176.40906207204046, 68.22993139225633]]}, "properties": {"source": "25489458", "target": "23469473"}}, {"type": "Feature", "geometry": {"type": "LineString", "coordinates": [[176.40974890326095, 68.22679303822773], [176.4085098691902, 68.22849068511263]]}, "properties": {"source": "25489458", "target": "23346552"}}, {"type": "Feature", "geometry": {"type": "LineString", "coordinates": [[176.40974890326095, 68.22679303822773], [176.41440815237297, 68.22687862342971]]}, "properties": {"source": "25489458", "target": "26210503"}}, {"type": "Feature", "geometry": {"type": "LineString", "coordinates": [[176.40974890326095, 68.22679303822773], [176.41777413182712, 68.2228155013855]]}, "properties": {"source": "25489458", "target": "25746659"}}, {"type": "Feature", "geometry": {"type": "LineString", "coordinates": [[176.40974890326095, 68.22679303822773], [176.41848422192072, 68.22683984869306]]}, "properties": {"source": "25489458", "target": "24717409"}}, {"type": "Feature", "geometry": {"type": "LineString", "coordinates": [[176.40974890326095, 68.22679303822773], [176.40358168503138, 68.22811774614433]]}, "properties": {"source": "25489458", "target": "27876481"}}, {"type": "Feature", "geometry": {"type": "LineString", "coordinates": [[176.408836333095, 68.22898150274625], [176.3976685585415, 68.23063120452346]]}, "properties": {"source": "23349369", "target": "13509676"}}, {"type": "Feature", "geometry": {"type": "LineString", "coordinates": [[176.408836333095, 68.22898150274625], [176.42089063730725, 68.22402185932725]]}, "properties": {"source": "23349369", "target": "20613483"}}, {"type": "Feature", "geometry": {"type": "LineString", "coordinates": [[176.408836333095, 68.22898150274625], [176.41503033817276, 68.22987872870317]]}, "properties": {"source": "23349369", "target": "23164943"}}, {"type": "Feature", "geometry": {"type": "LineString", "coordinates": [[176.408836333095, 68.22898150274625], [176.41995633698752, 68.23025932497902]]}, "properties": {"source": "23349369", "target": "11701177"}}, {"type": "Feature", "geometry": {"type": "LineString", "coordinates": [[176.408836333095, 68.22898150274625], [176.40262665656314, 68.22928024644423]]}, "properties": {"source": "23349369", "target": "1943812"}}, {"type": "Feature", "geometry": {"type": "LineString", "coordinates": [[176.408836333095, 68.22898150274625], [176.41948226004456, 68.22352133180613]]}, "properties": {"source": "23349369", "target": "21090165"}}, {"type": "Feature", "geometry": {"type": "LineString", "coordinates": [[176.40974890326095, 68.22679303822773], [176.4050292769221, 68.22684216590378]]}, "properties": {"source": "25489458", "target": "25955276"}}, {"type": "Feature", "geometry": {"type": "LineString", "coordinates": [[176.41063634459857, 68.22853321297825], [176.4196258940421, 68.22525489012568]]}, "properties": {"source": "27882857", "target": "26346230"}}, {"type": "Feature", "geometry": {"type": "LineString", "coordinates": [[176.41063634459857, 68.22853321297825], [176.41347548429218, 68.22606218727108]]}, "properties": {"source": "27882857", "target": "26114548"}}, {"type": "Feature", "geometry": {"type": "LineString", "coordinates": [[176.41937217993024, 68.22684435448446], [176.4112219276273, 68.23073031198314]]}, "properties": {"source": "4673668", "target": "4673456"}}, {"type": "Feature", "geometry": {"type": "LineString", "coordinates": [[176.41937217993024, 68.22684435448446], [176.41739754706703, 68.23041918734728]]}, "properties": {"source": "4673668", "target": "4673702"}}, {"type": "Feature", "geometry": {"type": "LineString", "coordinates": [[176.41937217993024, 68.22684435448446], [176.40725734289998, 68.22298416136286]]}, "properties": {"source": "4673668", "target": "6866651"}}, {"type": "Feature", "geometry": {"type": "LineString", "coordinates": [[176.41937217993024, 68.22684435448446], [176.3966422867141, 68.2275090008142]]}, "properties": {"source": "4673668", "target": "5646276"}}, {"type": "Feature", "geometry": {"type": "LineString", "coordinates": [[176.41347548429218, 68.22606218727108], [176.40570359620887, 68.23133740240431]]}, "properties": {"source": "26114548", "target": "28113615"}}, {"type": "Feature", "geometry": {"type": "LineString", "coordinates": [[176.41347548429218, 68.22606218727108], [176.4196258940421, 68.22525489012568]]}, "properties": {"source": "26114548", "target": "26346230"}}, {"type": "Feature", "geometry": {"type": "LineString", "coordinates": [[176.40262665656314, 68.22928024644423], [176.40546116150983, 68.22613812315925]]}, "properties": {"source": "1943812", "target": "23346756"}}, {"type": "Feature", "geometry": {"type": "LineString", "coordinates": [[176.41503033817276, 68.22987872870317], [176.40546116150983, 68.22613812315925]]}, "properties": {"source": "23164943", "target": "23346756"}}, {"type": "Feature", "geometry": {"type": "LineString", "coordinates": [[176.40262665656314, 68.22928024644423], [176.40906207204046, 68.22993139225633]]}, "properties": {"source": "1943812", "target": "23469473"}}, {"type": "Feature", "geometry": {"type": "LineString", "coordinates": [[176.42009118048878, 68.22770635135007], [176.4109282221308, 68.22920642644502]]}, "properties": {"source": "983284", "target": "31299624"}}, {"type": "Feature", "geometry": {"type": "LineString", "coordinates": [[176.42009118048878, 68.22770635135007], [176.396898055284, 68.22241299835534]]}, "properties": {"source": "983284", "target": "27481359"}}, {"type": "Feature", "geometry": {"type": "LineString", "coordinates": [[176.42009118048878, 68.22770635135007], [176.408705391284, 68.22812673017776]]}, "properties": {"source": "983284", "target": "21074189"}}, {"type": "Feature", "geometry": {"type": "LineString", "coordinates": [[176.41961203713203, 68.22410080928037], [176.4077661001732, 68.22595071385527]]}, "properties": {"source": "18469836", "target": "18128599"}}, {"type": "Feature", "geometry": {"type": "LineString", "coordinates": [[176.41961203713203, 68.22410080928037], [176.39511326735453, 68.22423977003322]]}, "properties": {"source": "18469836", "target": "18660057"}}, {"type": "Feature", "geometry": {"type": "LineString", "coordinates": [[176.41691729517572, 68.22471622197708], [176.39572114899613, 68.22794945838282]]}, "properties": {"source": "29231261", "target": "18359935"}}, {"type": "Feature", "geometry": {"type": "LineString", "coordinates": [[176.41691729517572, 68.22471622197708], [176.41324302354684, 68.22434979188841]]}, "properties": {"source": "29231261", "target": "345300"}}, {"type": "Feature", "geometry": {"type": "LineString", "coordinates": [[176.41691729517572, 68.22471622197708], [176.42009118048878, 68.22770635135007]]}, "properties": {"source": "29231261", "target": "983284"}}, {"type": "Feature", "geometry": {"type": "LineString", "coordinates": [[176.41536253320203, 68.22818649844933], [176.4132626514342, 68.22601784520555]]}, "properties": {"source": "890964", "target": "863912"}}, {"type": "Feature", "geometry": {"type": "LineString", "coordinates": [[176.41536253320203, 68.22818649844933], [176.41298777834282, 68.22229834295163]]}, "properties": {"source": "890964", "target": "6867302"}}, {"type": "Feature", "geometry": {"type": "LineString", "coordinates": [[176.41536253320203, 68.22818649844933], [176.41774514135727, 68.223917342193]]}, "properties": {"source": "890964", "target": "1234705"}}, {"type": "Feature", "geometry": {"type": "LineString", "coordinates": [[176.41536253320203, 68.22818649844933], [176.417572666796, 68.22478014007262]]}, "properties": {"source": "890964", "target": "13027959"}}, {"type": "Feature", "geometry": {"type": "LineString", "coordinates": [[176.41536253320203, 68.22818649844933], [176.41712907817947, 68.2234865265703]]}, "properties": {"source": "890964", "target": "7962227"}}, {"type": "Feature", "geometry": {"type": "LineString", "coordinates": [[176.40744415955749, 68.22774319561472], [176.40570359620887, 68.23133740240431]]}, "properties": {"source": "33012948", "target": "28113615"}}, {"type": "Feature", "geometry": {"type": "LineString", "coordinates": [[176.40744415955749, 68.22774319561472], [176.4196258940421, 68.22525489012568]]}, "properties": {"source": "33012948", "target": "26346230"}}, {"type": "Feature", "geometry": {"type": "LineString", "coordinates": [[176.40744415955749, 68.22774319561472], [176.4162473192954, 68.22768813010299]]}, "properties": {"source": "33012948", "target": "18480201"}}, {"type": "Feature", "geometry": {"type": "LineString", "coordinates": [[176.40744415955749, 68.22774319561472], [176.4181102364576, 68.22541104697424]]}, "properties": {"source": "33012948", "target": "8133304"}}, {"type": "Feature", "geometry": {"type": "LineString", "coordinates": [[176.40744415955749, 68.22774319561472], [176.41662631940892, 68.22428111318436]]}, "properties": {"source": "33012948", "target": "471038"}}, {"type": "Feature", "geometry": {"type": "LineString", "coordinates": [[176.40744415955749, 68.22774319561472], [176.41569822203422, 68.22511761116743]]}, "properties": {"source": "33012948", "target": "259659"}}, {"type": "Feature", "geometry": {"type": "LineString", "coordinates": [[176.40744415955749, 68.22774319561472], [176.41957641490222, 68.22568763572374]]}, "properties": {"source": "33012948", "target": "2770897"}}, {"type": "Feature", "geometry": {"type": "LineString", "coordinates": [[176.39420201975378, 68.22963441088135], [176.39737695001634, 68.22701751229513]]}, "properties": {"source": "7646561", "target": "12605063"}}, {"type": "Feature", "geometry": {"type": "LineString", "coordinates": [[176.40234710265423, 68.22745329116083], [176.41242999664536, 68.22401450777949]]}, "properties": {"source": "30896645", "target": "4573370"}}, {"type": "Feature", "geometry": {"type": "LineString", "coordinates": [[176.40234710265423, 68.22745329116083], [176.41774514135727, 68.223917342193]]}, "properties": {"source": "30896645", "target": "1234705"}}, {"type": "Feature", "geometry": {"type": "LineString", "coordinates": [[176.40234710265423, 68.22745329116083], [176.417572666796, 68.22478014007262]]}, "properties": {"source": "30896645", "target": "13027959"}}, {"type": "Feature", "geometry": {"type": "LineString", "coordinates": [[176.40234710265423, 68.22745329116083], [176.41391337888962, 68.22353747384795]]}, "properties": {"source": "30896645", "target": "313165"}}, {"type": "Feature", "geometry": {"type": "LineString", "coordinates": [[176.40053884196044, 68.23068104924113], [176.4152271669426, 68.2254232005572]]}, "properties": {"source": "1162928", "target": "30269689"}}, {"type": "Feature", "geometry": {"type": "LineString", "coordinates": [[176.40053884196044, 68.23068104924113], [176.4120492016295, 68.23049218448503]]}, "properties": {"source": "1162928", "target": "18630558"}}, {"type": "Feature", "geometry": {"type": "LineString", "coordinates": [[176.40053884196044, 68.23068104924113], [176.39737695001634, 68.22701751229513]]}, "properties": {"source": "1162928", "target": "12605063"}}, {"type": "Feature", "geometry": {"type": "LineString", "coordinates": [[176.40053884196044, 68.23068104924113], [176.42051902143805, 68.22364241037928]]}, "properties": {"source": "1162928", "target": "4329549"}}, {"type": "Feature", "geometry": {"type": "LineString", "coordinates": [[176.40053884196044, 68.23068104924113], [176.41223391799048, 68.22563193509205]]}, "properties": {"source": "1162928", "target": "10421789"}}, {"type": "Feature", "geometry": {"type": "LineString", "coordinates": [[176.40053884196044, 68.23068104924113], [176.39420201975378, 68.22963441088135]]}, "properties": {"source": "1162928", "target": "7646561"}}, {"type": "Feature", "geometry": {"type": "LineString", "coordinates": [[176.41890158116712, 68.2248452732631], [176.4045021827534, 68.23007845881173]]}, "properties": {"source": "121873", "target": "28101515"}}, {"type": "Feature", "geometry": {"type": "LineString", "coordinates": [[176.41890158116712, 68.2248452732631], [176.41977119576796, 68.2249420958849]]}, "properties": {"source": "121873", "target": "2965386"}}, {"type": "Feature", "geometry": {"type": "LineString", "coordinates": [[176.41890158116712, 68.2248452732631], [176.40625701452404, 68.22452457870747]]}, "properties": {"source": "121873", "target": "25179402"}}, {"type": "Feature", "geometry": {"type": "LineString", "coordinates": [[176.41890158116712, 68.2248452732631], [176.41125404987093, 68.228771024098]]}, "properties": {"source": "121873", "target": "3310715"}}, {"type": "Feature", "geometry": {"type": "LineString", "coordinates": [[176.41890158116712, 68.2248452732631], [176.40527486424804, 68.23113436713899]]}, "properties": {"source": "121873", "target": "25482835"}}, {"type": "Feature", "geometry": {"type": "LineString", "coordinates": [[176.41890158116712, 68.2248452732631], [176.40755059013208, 68.23097001217968]]}, "properties": {"source": "121873", "target": "893970"}}, {"type": "Feature", "geometry": {"type": "LineString", "coordinates": [[176.4085566905568, 68.23056256227625], [176.39737695001634, 68.22701751229513]]}, "properties": {"source": "1071920", "target": "12605063"}}, {"type": "Feature", "geometry": {"type": "LineString", "coordinates": [[176.4085566905568, 68.23056256227625], [176.40053884196044, 68.23068104924113]]}, "properties": {"source": "1071920", "target": "1162928"}}, {"type": "Feature", "geometry": {"type": "LineString", "coordinates": [[176.4085566905568, 68.23056256227625], [176.42051902143805, 68.22364241037928]]}, "properties": {"source": "1071920", "target": "4329549"}}, {"type": "Feature", "geometry": {"type": "LineString", "coordinates": [[176.4085566905568, 68.23056256227625], [176.41223391799048, 68.22563193509205]]}, "properties": {"source": "1071920", "target": "10421789"}}, {"type": "Feature", "geometry": {"type": "LineString", "coordinates": [[176.4085566905568, 68.23056256227625], [176.39420201975378, 68.22963441088135]]}, "properties": {"source": "1071920", "target": "7646561"}}, {"type": "Feature", "geometry": {"type": "LineString", "coordinates": [[176.3964030737692, 68.22841080175331], [176.4152271669426, 68.2254232005572]]}, "properties": {"source": "1188737", "target": "30269689"}}, {"type": "Feature", "geometry": {"type": "LineString", "coordinates": [[176.3964030737692, 68.22841080175331], [176.40234710265423, 68.22745329116083]]}, "properties": {"source": "1188737", "target": "30896645"}}, {"type": "Feature", "geometry": {"type": "LineString", "coordinates": [[176.3964030737692, 68.22841080175331], [176.4083635365431, 68.2242804753117]]}, "properties": {"source": "1188737", "target": "4906052"}}, {"type": "Feature", "geometry": {"type": "LineString", "coordinates": [[176.3964030737692, 68.22841080175331], [176.4132626514342, 68.22601784520555]]}, "properties": {"source": "1188737", "target": "863912"}}, {"type": "Feature", "geometry": {"type": "LineString", "coordinates": [[176.3964030737692, 68.22841080175331], [176.41536253320203, 68.22818649844933]]}, "properties": {"source": "1188737", "target": "890964"}}, {"type": "Feature", "geometry": {"type": "LineString", "coordinates": [[176.396898055284, 68.22241299835534], [176.41324302354684, 68.22434979188841]]}, "properties": {"source": "27481359", "target": "345300"}}, {"type": "Feature", "geometry": {"type": "LineString", "coordinates": [[176.4132626514342, 68.22601784520555], [176.41298777834282, 68.22229834295163]]}, "properties": {"source": "863912", "target": "6867302"}}, {"type": "Feature", "geometry": {"type": "LineString", "coordinates": [[176.4132626514342, 68.22601784520555], [176.41774514135727, 68.223917342193]]}, "properties": {"source": "863912", "target": "1234705"}}, {"type": "Feature", "geometry": {"type": "LineString", "coordinates": [[176.41691729517572, 68.22471622197708], [176.4109282221308, 68.22920642644502]]}, "properties": {"source": "29231261", "target": "31299624"}}, {"type": "Feature", "geometry": {"type": "LineString", "coordinates": [[176.41691729517572, 68.22471622197708], [176.396898055284, 68.22241299835534]]}, "properties": {"source": "29231261", "target": "27481359"}}, {"type": "Feature", "geometry": {"type": "LineString", "coordinates": [[176.41691729517572, 68.22471622197708], [176.408705391284, 68.22812673017776]]}, "properties": {"source": "29231261", "target": "21074189"}}, {"type": "Feature", "geometry": {"type": "LineString", "coordinates": [[176.40664885441134, 68.22798805929236], [176.4152271669426, 68.2254232005572]]}, "properties": {"source": "529380", "target": "30269689"}}, {"type": "Feature", "geometry": {"type": "LineString", "coordinates": [[176.40664885441134, 68.22798805929236], [176.42051902143805, 68.22364241037928]]}, "properties": {"source": "529380", "target": "4329549"}}, {"type": "Feature", "geometry": {"type": "LineString", "coordinates": [[176.40664885441134, 68.22798805929236], [176.39420201975378, 68.22963441088135]]}, "properties": {"source": "529380", "target": "7646561"}}, {"type": "Feature", "geometry": {"type": "LineString", "coordinates": [[176.3976685585415, 68.23063120452346], [176.40546116150983, 68.22613812315925]]}, "properties": {"source": "13509676", "target": "23346756"}}, {"type": "Feature", "geometry": {"type": "LineString", "coordinates": [[176.3976685585415, 68.23063120452346], [176.40906207204046, 68.22993139225633]]}, "properties": {"source": "13509676", "target": "23469473"}}, {"type": "Feature", "geometry": {"type": "LineString", "coordinates": [[176.3976685585415, 68.23063120452346], [176.4120492016295, 68.23049218448503]]}, "properties": {"source": "13509676", "target": "18630558"}}, {"type": "Feature", "geometry": {"type": "LineString", "coordinates": [[176.3976685585415, 68.23063120452346], [176.41440815237297, 68.22687862342971]]}, "properties": {"source": "13509676", "target": "26210503"}}, {"type": "Feature", "geometry": {"type": "LineString", "coordinates": [[176.40366177681352, 68.22372508501309], [176.41660484861603, 68.22226568637728]]}, "properties": {"source": "19854493", "target": "19907923"}}, {"type": "Feature", "geometry": {"type": "LineString", "coordinates": [[176.40366177681352, 68.22372508501309], [176.40085950256838, 68.22444452110392]]}, "properties": {"source": "19854493", "target": "10549661"}}, {"type": "Feature", "geometry": {"type": "LineString", "coordinates": [[176.42089063730725, 68.22402185932725], [176.40546116150983, 68.22613812315925]]}, "properties": {"source": "20613483", "target": "23346756"}}, {"type": "Feature", "geometry": {"type": "LineString", "coordinates": [[176.3964030737692, 68.22841080175331], [176.40255810921133, 68.22962852759139]]}, "properties": {"source": "1188737", "target": "11753214"}}, {"type": "Feature", "geometry": {"type": "LineString", "coordinates": [[176.3964030737692, 68.22841080175331], [176.4066137512529, 68.2263234409146]]}, "properties": {"source": "1188737", "target": "6899855"}}, {"type": "Feature", "geometry": {"type": "LineString", "coordinates": [[176.3964030737692, 68.22841080175331], [176.39993790018855, 68.2254867514551]]}, "properties": {"source": "1188737", "target": "975486"}}, {"type": "Feature", "geometry": {"type": "LineString", "coordinates": [[176.39914787394866, 68.22773201837023], [176.40546116150983, 68.22613812315925]]}, "properties": {"source": "20613646", "target": "23346756"}}, {"type": "Feature", "geometry": {"type": "LineString", "coordinates": [[176.39914787394866, 68.22773201837023], [176.40906207204046, 68.22993139225633]]}, "properties": {"source": "20613646", "target": "23469473"}}, {"type": "Feature", "geometry": {"type": "LineString", "coordinates": [[176.39914787394866, 68.22773201837023], [176.4085098691902, 68.22849068511263]]}, "properties": {"source": "20613646", "target": "23346552"}}, {"type": "Feature", "geometry": {"type": "LineString", "coordinates": [[176.3966422867141, 68.2275090008142], [176.4112219276273, 68.23073031198314]]}, "properties": {"source": "5646276", "target": "4673456"}}, {"type": "Feature", "geometry": {"type": "LineString", "coordinates": [[176.3966422867141, 68.2275090008142], [176.41739754706703, 68.23041918734728]]}, "properties": {"source": "5646276", "target": "4673702"}}, {"type": "Feature", "geometry": {"type": "LineString", "coordinates": [[176.41155673166367, 68.22634015317468], [176.40964561209057, 68.22632270946085]]}, "properties": {"source": "18073246", "target": "17568329"}}, {"type": "Feature", "geometry": {"type": "LineString", "coordinates": [[176.41155673166367, 68.22634015317468], [176.4094167999271, 68.22688051381286]]}, "properties": {"source": "18073246", "target": "20763816"}}, {"type": "Feature", "geometry": {"type": "LineString", "coordinates": [[176.39445900867048, 68.22631599481733], [176.39940177362524, 68.22654197825483]]}, "properties": {"source": "14999429", "target": "13432284"}}, {"type": "Feature", "geometry": {"type": "LineString", "coordinates": [[176.40126591216375, 68.22954215189694], [176.41169301696323, 68.22437448055618]]}, "properties": {"source": "24720378", "target": "25490394"}}, {"type": "Feature", "geometry": {"type": "LineString", "coordinates": [[176.40126591216375, 68.22954215189694], [176.42103135313488, 68.22314927902156]]}, "properties": {"source": "24720378", "target": "28448243"}}, {"type": "Feature", "geometry": {"type": "LineString", "coordinates": [[176.40295538594808, 68.230190022828], [176.39768543708806, 68.23016531515637]]}, "properties": {"source": "23665434", "target": "23848256"}}, {"type": "Feature", "geometry": {"type": "LineString", "coordinates": [[176.39511326735453, 68.22423977003322], [176.4077661001732, 68.22595071385527]]}, "properties": {"source": "18660057", "target": "18128599"}}, {"type": "Feature", "geometry": {"type": "LineString", "coordinates": [[176.40797302514733, 68.22385480571612], [176.41813962053385, 68.22839293793197]]}, "properties": {"source": "25947505", "target": "2546300"}}, {"type": "Feature", "geometry": {"type": "LineString", "coordinates": [[176.40358168503138, 68.22811774614433], [176.41440815237297, 68.22687862342971]]}, "properties": {"source": "27876481", "target": "26210503"}}, {"type": "Feature", "geometry": {"type": "LineString", "coordinates": [[176.40358168503138, 68.22811774614433], [176.41777413182712, 68.2228155013855]]}, "properties": {"source": "27876481", "target": "25746659"}}, {"type": "Feature", "geometry": {"type": "LineString", "coordinates": [[176.40358168503138, 68.22811774614433], [176.40494481963617, 68.22750376742889]]}, "properties": {"source": "27876481", "target": "28962933"}}, {"type": "Feature", "geometry": {"type": "LineString", "coordinates": [[176.40358168503138, 68.22811774614433], [176.41900850980727, 68.22378847190473]]}, "properties": {"source": "27876481", "target": "28603452"}}, {"type": "Feature", "geometry": {"type": "LineString", "coordinates": [[176.3991482062769, 68.22670111282457], [176.41125404987093, 68.228771024098]]}, "properties": {"source": "2558821", "target": "3310715"}}, {"type": "Feature", "geometry": {"type": "LineString", "coordinates": [[176.3991482062769, 68.22670111282457], [176.40527486424804, 68.23113436713899]]}, "properties": {"source": "2558821", "target": "25482835"}}, {"type": "Feature", "geometry": {"type": "LineString", "coordinates": [[176.4085098691902, 68.22849068511263], [176.40262665656314, 68.22928024644423]]}, "properties": {"source": "23346552", "target": "1943812"}}, {"type": "Feature", "geometry": {"type": "LineString", "coordinates": [[176.4085098691902, 68.22849068511263], [176.41948226004456, 68.22352133180613]]}, "properties": {"source": "23346552", "target": "21090165"}}, {"type": "Feature", "geometry": {"type": "LineString", "coordinates": [[176.4109282221308, 68.22920642644502], [176.408705391284, 68.22812673017776]]}, "properties": {"source": "31299624", "target": "21074189"}}, {"type": "Feature", "geometry": {"type": "LineString", "coordinates": [[176.4109282221308, 68.22920642644502], [176.41774514135727, 68.223917342193]]}, "properties": {"source": "31299624", "target": "1234705"}}, {"type": "Feature", "geometry": {"type": "LineString", "coordinates": [[176.4109282221308, 68.22920642644502], [176.41391337888962, 68.22353747384795]]}, "properties": {"source": "31299624", "target": "313165"}}, {"type": "Feature", "geometry": {"type": "LineString", "coordinates": [[176.4120492016295, 68.23049218448503], [176.39737695001634, 68.22701751229513]]}, "properties": {"source": "18630558", "target": "12605063"}}, {"type": "Feature", "geometry": {"type": "LineString", "coordinates": [[176.4120492016295, 68.23049218448503], [176.39743374090858, 68.22840957744327]]}, "properties": {"source": "18630558", "target": "11535246"}}, {"type": "Feature", "geometry": {"type": "LineString", "coordinates": [[176.40476800483782, 68.23057041336205], [176.4152271669426, 68.2254232005572]]}, "properties": {"source": "25639778", "target": "30269689"}}, {"type": "Feature", "geometry": {"type": "LineString", "coordinates": [[176.40476800483782, 68.23057041336205], [176.4120492016295, 68.23049218448503]]}, "properties": {"source": "25639778", "target": "18630558"}}, {"type": "Feature", "geometry": {"type": "LineString", "coordinates": [[176.40476800483782, 68.23057041336205], [176.39737695001634, 68.22701751229513]]}, "properties": {"source": "25639778", "target": "12605063"}}, {"type": "Feature", "geometry": {"type": "LineString", "coordinates": [[176.40974890326095, 68.22679303822773], [176.41503033817276, 68.22987872870317]]}, "properties": {"source": "25489458", "target": "23164943"}}, {"type": "Feature", "geometry": {"type": "LineString", "coordinates": [[176.40974890326095, 68.22679303822773], [176.40494481963617, 68.22750376742889]]}, "properties": {"source": "25489458", "target": "28962933"}}, {"type": "Feature", "geometry": {"type": "LineString", "coordinates": [[176.40478115386247, 68.22756420683893], [176.4152271669426, 68.2254232005572]]}, "properties": {"source": "18872132", "target": "30269689"}}, {"type": "Feature", "geometry": {"type": "LineString", "coordinates": [[176.40478115386247, 68.22756420683893], [176.4120492016295, 68.23049218448503]]}, "properties": {"source": "18872132", "target": "18630558"}}, {"type": "Feature", "geometry": {"type": "LineString", "coordinates": [[176.40478115386247, 68.22756420683893], [176.40476800483782, 68.23057041336205]]}, "properties": {"source": "18872132", "target": "25639778"}}, {"type": "Feature", "geometry": {"type": "LineString", "coordinates": [[176.40478115386247, 68.22756420683893], [176.39737695001634, 68.22701751229513]]}, "properties": {"source": "18872132", "target": "12605063"}}, {"type": "Feature", "geometry": {"type": "LineString", "coordinates": [[176.4135893702683, 68.2312983322322], [176.42051902143805, 68.22364241037928]]}, "properties": {"source": "6852063", "target": "4329549"}}, {"type": "Feature", "geometry": {"type": "LineString", "coordinates": [[176.4135893702683, 68.2312983322322], [176.39420201975378, 68.22963441088135]]}, "properties": {"source": "6852063", "target": "7646561"}}, {"type": "Feature", "geometry": {"type": "LineString", "coordinates": [[176.4038028207388, 68.22388439991855], [176.4132626514342, 68.22601784520555]]}, "properties": {"source": "976348", "target": "863912"}}, {"type": "Feature", "geometry": {"type": "LineString", "coordinates": [[176.4093588162948, 68.22897008133262], [176.40570359620887, 68.23133740240431]]}, "properties": {"source": "17707670", "target": "28113615"}}, {"type": "Feature", "geometry": {"type": "LineString", "coordinates": [[176.41415939783207, 68.22263041449142], [176.41169301696323, 68.22437448055618]]}, "properties": {"source": "15812222", "target": "25490394"}}, {"type": "Feature", "geometry": {"type": "LineString", "coordinates": [[176.41415939783207, 68.22263041449142], [176.4162473192954, 68.22768813010299]]}, "properties": {"source": "15812222", "target": "18480201"}}, {"type": "Feature", "geometry": {"type": "LineString", "coordinates": [[176.4067345509357, 68.2283618556701], [176.4077661001732, 68.22595071385527]]}, "properties": {"source": "18963548", "target": "18128599"}}, {"type": "Feature", "geometry": {"type": "LineString", "coordinates": [[176.4199605309849, 68.22843579415644], [176.39737695001634, 68.22701751229513]]}, "properties": {"source": "15831748", "target": "12605063"}}, {"type": "Feature", "geometry": {"type": "LineString", "coordinates": [[176.4191311702138, 68.22909781949127], [176.41125404987093, 68.228771024098]]}, "properties": {"source": "7361693", "target": "3310715"}}, {"type": "Feature", "geometry": {"type": "LineString", "coordinates": [[176.40935715085965, 68.2264087950717], [176.41813962053385, 68.22839293793197]]}, "properties": {"source": "2848089", "target": "2546300"}}, {"type": "Feature", "geometry": {"type": "LineString", "coordinates": [[176.4152271669426, 68.2254232005572], [176.4109282221308, 68.22920642644502]]}, "properties": {"source": "30269689", "target": "31299624"}}, {"type": "Feature", "geometry": {"type": "LineString", "coordinates": [[176.4152271669426, 68.2254232005572], [176.39737695001634, 68.22701751229513]]}, "properties": {"source": "30269689", "target": "12605063"}}, {"type": "Feature", "geometry": {"type": "LineString", "coordinates": [[176.4152271669426, 68.2254232005572], [176.42051902143805, 68.22364241037928]]}, "properties": {"source": "30269689", "target": "4329549"}}, {"type": "Feature", "geometry": {"type": "LineString", "coordinates": [[176.4152271669426, 68.2254232005572], [176.41223391799048, 68.22563193509205]]}, "properties": {"source": "30269689", "target": "10421789"}}, {"type": "Feature", "geometry": {"type": "LineString", "coordinates": [[176.4152271669426, 68.2254232005572], [176.41242999664536, 68.22401450777949]]}, "properties": {"source": "30269689", "target": "4573370"}}, {"type": "Feature", "geometry": {"type": "LineString", "coordinates": [[176.4152271669426, 68.2254232005572], [176.41774514135727, 68.223917342193]]}, "properties": {"source": "30269689", "target": "1234705"}}, {"type": "Feature", "geometry": {"type": "LineString", "coordinates": [[176.39778662597172, 68.22619291074287], [176.39520667532645, 68.22895573933602]]}, "properties": {"source": "15802690", "target": "13547155"}}, {"type": "Feature", "geometry": {"type": "LineString", "coordinates": [[176.39778662597172, 68.22619291074287], [176.41764390630186, 68.22968880879719]]}, "properties": {"source": "15802690", "target": "16159245"}}, {"type": "Feature", "geometry": {"type": "LineString", "coordinates": [[176.41848422192072, 68.22683984869306], [176.40546116150983, 68.22613812315925]]}, "properties": {"source": "24717409", "target": "23346756"}}, {"type": "Feature", "geometry": {"type": "LineString", "coordinates": [[176.41848422192072, 68.22683984869306], [176.40906207204046, 68.22993139225633]]}, "properties": {"source": "24717409", "target": "23469473"}}, {"type": "Feature", "geometry": {"type": "LineString", "coordinates": [[176.41848422192072, 68.22683984869306], [176.4085098691902, 68.22849068511263]]}, "properties": {"source": "24717409", "target": "23346552"}}, {"type": "Feature", "geometry": {"type": "LineString", "coordinates": [[176.41848422192072, 68.22683984869306], [176.39914787394866, 68.22773201837023]]}, "properties": {"source": "24717409", "target": "20613646"}}, {"type": "Feature", "geometry": {"type": "LineString", "coordinates": [[176.4115467410639, 68.22626368262246], [176.4152271669426, 68.2254232005572]]}, "properties": {"source": "13414640", "target": "30269689"}}, {"type": "Feature", "geometry": {"type": "LineString", "coordinates": [[176.4115467410639, 68.22626368262246], [176.40053884196044, 68.23068104924113]]}, "properties": {"source": "13414640", "target": "1162928"}}, {"type": "Feature", "geometry": {"type": "LineString", "coordinates": [[176.4115467410639, 68.22626368262246], [176.42051902143805, 68.22364241037928]]}, "properties": {"source": "13414640", "target": "4329549"}}, {"type": "Feature", "geometry": {"type": "LineString", "coordinates": [[176.4115467410639, 68.22626368262246], [176.39420201975378, 68.22963441088135]]}, "properties": {"source": "13414640", "target": "7646561"}}, {"type": "Feature", "geometry": {"type": "LineString", "coordinates": [[176.39893436170343, 68.22391624303145], [176.4066137512529, 68.2263234409146]]}, "properties": {"source": "1245036", "target": "6899855"}}, {"type": "Feature", "geometry": {"type": "LineString", "coordinates": [[176.39893436170343, 68.22391624303145], [176.39993790018855, 68.2254867514551]]}, "properties": {"source": "1245036", "target": "975486"}}, {"type": "Feature", "geometry": {"type": "LineString", "coordinates": [[176.40247417999808, 68.2308120823742], [176.4082944794302, 68.22561634751636]]}, "properties": {"source": "6866592", "target": "6536566"}}, {"type": "Feature", "geometry": {"type": "LineString", "coordinates": [[176.40247417999808, 68.2308120823742], [176.41298777834282, 68.22229834295163]]}, "properties": {"source": "6866592", "target": "6867302"}}, {"type": "Feature", "geometry": {"type": "LineString", "coordinates": [[176.40247417999808, 68.2308120823742], [176.40725734289998, 68.22298416136286]]}, "properties": {"source": "6866592", "target": "6866651"}}, {"type": "Feature", "geometry": {"type": "LineString", "coordinates": [[176.39893436170343, 68.22391624303145], [176.3964030737692, 68.22841080175331]]}, "properties": {"source": "1245036", "target": "1188737"}}, {"type": "Feature", "geometry": {"type": "LineString", "coordinates": [[176.40570359620887, 68.23133740240431], [176.4196258940421, 68.22525489012568]]}, "properties": {"source": "28113615", "target": "26346230"}}, {"type": "Feature", "geometry": {"type": "LineString", "coordinates": [[176.40570359620887, 68.23133740240431], [176.4162473192954, 68.22768813010299]]}, "properties": {"source": "28113615", "target": "18480201"}}, {"type": "Feature", "geometry": {"type": "LineString", "coordinates": [[176.40570359620887, 68.23133740240431], [176.4181102364576, 68.22541104697424]]}, "properties": {"source": "28113615", "target": "8133304"}}, {"type": "Feature", "geometry": {"type": "LineString", "coordinates": [[176.40570359620887, 68.23133740240431], [176.41662631940892, 68.22428111318436]]}, "properties": {"source": "28113615", "target": "471038"}}, {"type": "Feature", "geometry": {"type": "LineString", "coordinates": [[176.40570359620887, 68.23133740240431], [176.41569822203422, 68.22511761116743]]}, "properties": {"source": "28113615", "target": "259659"}}, {"type": "Feature", "geometry": {"type": "LineString", "coordinates": [[176.40570359620887, 68.23133740240431], [176.4137907991065, 68.2231143397754]]}, "properties": {"source": "28113615", "target": "16291794"}}, {"type": "Feature", "geometry": {"type": "LineString", "coordinates": [[176.41440815237297, 68.22687862342971], [176.40546116150983, 68.22613812315925]]}, "properties": {"source": "26210503", "target": "23346756"}}, {"type": "Feature", "geometry": {"type": "LineString", "coordinates": [[176.41440815237297, 68.22687862342971], [176.41777413182712, 68.2228155013855]]}, "properties": {"source": "26210503", "target": "25746659"}}, {"type": "Feature", "geometry": {"type": "LineString", "coordinates": [[176.41440815237297, 68.22687862342971], [176.39743374090858, 68.22840957744327]]}, "properties": {"source": "26210503", "target": "11535246"}}, {"type": "Feature", "geometry": {"type": "LineString", "coordinates": [[176.41440815237297, 68.22687862342971], [176.40494481963617, 68.22750376742889]]}, "properties": {"source": "26210503", "target": "28962933"}}, {"type": "Feature", "geometry": {"type": "LineString", "coordinates": [[176.42099873421074, 68.22753269002521], [176.4152271669426, 68.2254232005572]]}, "properties": {"source": "25507761", "target": "30269689"}}, {"type": "Feature", "geometry": {"type": "LineString", "coordinates": [[176.42099873421074, 68.22753269002521], [176.4109282221308, 68.22920642644502]]}, "properties": {"source": "25507761", "target": "31299624"}}, {"type": "Feature", "geometry": {"type": "LineString", "coordinates": [[176.42099873421074, 68.22753269002521], [176.40234710265423, 68.22745329116083]]}, "properties": {"source": "25507761", "target": "30896645"}}, {"type": "Feature", "geometry": {"type": "LineString", "coordinates": [[176.42099873421074, 68.22753269002521], [176.41196712262467, 68.23001524107099]]}, "properties": {"source": "25507761", "target": "29806617"}}, {"type": "Feature", "geometry": {"type": "LineString", "coordinates": [[176.42099873421074, 68.22753269002521], [176.41774514135727, 68.223917342193]]}, "properties": {"source": "25507761", "target": "1234705"}}, {"type": "Feature", "geometry": {"type": "LineString", "coordinates": [[176.42099873421074, 68.22753269002521], [176.3964030737692, 68.22841080175331]]}, "properties": {"source": "25507761", "target": "1188737"}}, {"type": "Feature", "geometry": {"type": "LineString", "coordinates": [[176.4152271669426, 68.2254232005572], [176.41391337888962, 68.22353747384795]]}, "properties": {"source": "30269689", "target": "313165"}}, {"type": "Feature", "geometry": {"type": "LineString", "coordinates": [[176.4045021827534, 68.23007845881173], [176.40625701452404, 68.22452457870747]]}, "properties": {"source": "28101515", "target": "25179402"}}, {"type": "Feature", "geometry": {"type": "LineString", "coordinates": [[176.4045021827534, 68.23007845881173], [176.40570359620887, 68.23133740240431]]}, "properties": {"source": "28101515", "target": "28113615"}}, {"type": "Feature", "geometry": {"type": "LineString", "coordinates": [[176.4045021827534, 68.23007845881173], [176.40744415955749, 68.22774319561472]]}, "properties": {"source": "28101515", "target": "33012948"}}, {"type": "Feature", "geometry": {"type": "LineString", "coordinates": [[176.4045021827534, 68.23007845881173], [176.4196258940421, 68.22525489012568]]}, "properties": {"source": "28101515", "target": "26346230"}}, {"type": "Feature", "geometry": {"type": "LineString", "coordinates": [[176.4045021827534, 68.23007845881173], [176.41125404987093, 68.228771024098]]}, "properties": {"source": "28101515", "target": "3310715"}}, {"type": "Feature", "geometry": {"type": "LineString", "coordinates": [[176.4045021827534, 68.23007845881173], [176.40527486424804, 68.23113436713899]]}, "properties": {"source": "28101515", "target": "25482835"}}, {"type": "Feature", "geometry": {"type": "LineString", "coordinates": [[176.4045021827534, 68.23007845881173], [176.3991482062769, 68.22670111282457]]}, "properties": {"source": "28101515", "target": "2558821"}}, {"type": "Feature", "geometry": {"type": "LineString", "coordinates": [[176.4045021827534, 68.23007845881173], [176.4162473192954, 68.22768813010299]]}, "properties": {"source": "28101515", "target": "18480201"}}, {"type": "Feature", "geometry": {"type": "LineString", "coordinates": [[176.4045021827534, 68.23007845881173], [176.4181102364576, 68.22541104697424]]}, "properties": {"source": "28101515", "target": "8133304"}}, {"type": "Feature", "geometry": {"type": "LineString", "coordinates": [[176.41739754706703, 68.23041918734728], [176.41242999664536, 68.22401450777949]]}, "properties": {"source": "4673702", "target": "4573370"}}, {"type": "Feature", "geometry": {"type": "LineString", "coordinates": [[176.41739754706703, 68.23041918734728], [176.4082944794302, 68.22561634751636]]}, "properties": {"source": "4673702", "target": "6536566"}}, {"type": "Feature", "geometry": {"type": "LineString", "coordinates": [[176.41739754706703, 68.23041918734728], [176.4112219276273, 68.23073031198314]]}, "properties": {"source": "4673702", "target": "4673456"}}, {"type": "Feature", "geometry": {"type": "LineString", "coordinates": [[176.39778662597172, 68.22619291074287], [176.39445900867048, 68.22631599481733]]}, "properties": {"source": "15802690", "target": "14999429"}}, {"type": "Feature", "geometry": {"type": "LineString", "coordinates": [[176.39778662597172, 68.22619291074287], [176.39940177362524, 68.22654197825483]]}, "properties": {"source": "15802690", "target": "13432284"}}, {"type": "Feature", "geometry": {"type": "LineString", "coordinates": [[176.39778662597172, 68.22619291074287], [176.41013489475256, 68.23024899503932]]}, "properties": {"source": "15802690", "target": "12799895"}}, {"type": "Feature", "geometry": {"type": "LineString", "coordinates": [[176.39914787394866, 68.22773201837023], [176.4120492016295, 68.23049218448503]]}, "properties": {"source": "20613646", "target": "18630558"}}, {"type": "Feature", "geometry": {"type": "LineString", "coordinates": [[176.39914787394866, 68.22773201837023], [176.42089063730725, 68.22402185932725]]}, "properties": {"source": "20613646", "target": "20613483"}}, {"type": "Feature", "geometry": {"type": "LineString", "coordinates": [[176.39914787394866, 68.22773201837023], [176.40295538594808, 68.230190022828]]}, "properties": {"source": "20613646", "target": "23665434"}}, {"type": "Feature", "geometry": {"type": "LineString", "coordinates": [[176.39914787394866, 68.22773201837023], [176.39768543708806, 68.23016531515637]]}, "properties": {"source": "20613646", "target": "23848256"}}, {"type": "Feature", "geometry": {"type": "LineString", "coordinates": [[176.4083635365431, 68.2242804753117], [176.41242999664536, 68.22401450777949]]}, "properties": {"source": "4906052", "target": "4573370"}}, {"type": "Feature", "geometry": {"type": "LineString", "coordinates": [[176.4083635365431, 68.2242804753117], [176.4082944794302, 68.22561634751636]]}, "properties": {"source": "4906052", "target": "6536566"}}, {"type": "Feature", "geometry": {"type": "LineString", "coordinates": [[176.4083635365431, 68.2242804753117], [176.4112219276273, 68.23073031198314]]}, "properties": {"source": "4906052", "target": "4673456"}}, {"type": "Feature", "geometry": {"type": "LineString", "coordinates": [[176.4083635365431, 68.2242804753117], [176.41298777834282, 68.22229834295163]]}, "properties": {"source": "4906052", "target": "6867302"}}, {"type": "Feature", "geometry": {"type": "LineString", "coordinates": [[176.4083635365431, 68.2242804753117], [176.41774514135727, 68.223917342193]]}, "properties": {"source": "4906052", "target": "1234705"}}, {"type": "Feature", "geometry": {"type": "LineString", "coordinates": [[176.4085098691902, 68.22849068511263], [176.40906207204046, 68.22993139225633]]}, "properties": {"source": "23346552", "target": "23469473"}}, {"type": "Feature", "geometry": {"type": "LineString", "coordinates": [[176.4085098691902, 68.22849068511263], [176.4120492016295, 68.23049218448503]]}, "properties": {"source": "23346552", "target": "18630558"}}, {"type": "Feature", "geometry": {"type": "LineString", "coordinates": [[176.4085098691902, 68.22849068511263], [176.41440815237297, 68.22687862342971]]}, "properties": {"source": "23346552", "target": "26210503"}}, {"type": "Feature", "geometry": {"type": "LineString", "coordinates": [[176.4085098691902, 68.22849068511263], [176.41777413182712, 68.2228155013855]]}, "properties": {"source": "23346552", "target": "25746659"}}, {"type": "Feature", "geometry": {"type": "LineString", "coordinates": [[176.4085098691902, 68.22849068511263], [176.42089063730725, 68.22402185932725]]}, "properties": {"source": "23346552", "target": "20613483"}}, {"type": "Feature", "geometry": {"type": "LineString", "coordinates": [[176.4085098691902, 68.22849068511263], [176.41503033817276, 68.22987872870317]]}, "properties": {"source": "23346552", "target": "23164943"}}, {"type": "Feature", "geometry": {"type": "LineString", "coordinates": [[176.39914787394866, 68.22773201837023], [176.41013489475256, 68.23024899503932]]}, "properties": {"source": "20613646", "target": "12799895"}}]}