{"type": "FeatureCollection", "features": [{"type": "Feature", "geometry": {"type": "LineString", "coordinates": [[160.7268667424858, 68.52985252980397], [160.7229762147175, 68.53572882680925]]}, "properties": {"source": "4505830", "target": "323547"}}, {"type": "Feature", "geometry": {"type": "LineString", "coordinates": [[160.7268667424858, 68.52985252980397], [160.7157282184835, 68.53513505471753]]}, "properties": {"source": "4505830", "target": "295474"}}, {"type": "Feature", "geometry": {"type": "LineString", "coordinates": [[160.7268667424858, 68.52985252980397], [160.72188314433134, 68.53176516971416]]}, "properties": {"source": "4505830", "target": "316904"}}, {"type": "Feature", "geometry": {"type": "LineString", "coordinates": [[160.7268667424858, 68.52985252980397], [160.71312303660534, 68.53463878286885]]}, "properties": {"source": "4505830", "target": "1173609"}}, {"type": "Feature", "geometry": {"type": "LineString", "coordinates": [[160.71649941457065, 68.53589263837245], [160.72388767476355, 68.53005501382651]]}, "properties": {"source": "3393174", "target": "398103"}}, {"type": "Feature", "geometry": {"type": "LineString", "coordinates": [[160.71649941457065, 68.53589263837245], [160.7123226147878, 68.53253125830852]]}, "properties": {"source": "3393174", "target": "4784691"}}, {"type": "Feature", "geometry": {"type": "LineString", "coordinates": [[160.71649941457065, 68.53589263837245], [160.72356617192662, 68.52982423620102]]}, "properties": {"source": "3393174", "target": "521824"}}, {"type": "Feature", "geometry": {"type": "LineString", "coordinates": [[160.70790660150698, 68.53442347669804], [160.7123226147878, 68.53253125830852]]}, "properties": {"source": "1864398", "target": "4784691"}}, {"type": "Feature", "geometry": {"type": "LineString", "coordinates": [[160.70790660150698, 68.53442347669804], [160.72710523617945, 68.52896639275764]]}, "properties": {"source": "1864398", "target": "955274"}}, {"type": "Feature", "geometry": {"type": "LineString", "coordinates": [[160.70790660150698, 68.53442347669804], [160.72391471658545, 68.5298880908617]]}, "properties": {"source": "1864398", "target": "197680"}}, {"type": "Feature", "geometry": {"type": "LineString", "coordinates": [[160.71985895185935, 68.53506244879333], [160.71993401549508, 68.53343076396825]]}, "properties": {"source": "2850547", "target": "3318439"}}, {"type": "Feature", "geometry": {"type": "LineString", "coordinates": [[160.71985895185935, 68.53506244879333], [160.7174652300377, 68.52845085832084]]}, "properties": {"source": "2850547", "target": "334560"}}, {"type": "Feature", "geometry": {"type": "LineString", "coordinates": [[160.71985895185935, 68.53506244879333], [160.71211474264572, 68.52939451981663]]}, "properties": {"source": "2850547", "target": "304863"}}, {"type": "Feature", "geometry": {"type": "LineString", "coordinates": [[160.70530703693117, 68.53174629342897], [160.71993401549508, 68.53343076396825]]}, "properties": {"source": "1031623", "target": "3318439"}}, {"type": "Feature", "geometry": {"type": "LineString", "coordinates": [[160.72356617192662, 68.52982423620102], [160.7123226147878, 68.53253125830852]]}, "properties": {"source": "521824", "target": "4784691"}}, {"type": "Feature", "geometry": {"type": "LineString", "coordinates": [[160.72356617192662, 68.52982423620102], [160.72710523617945, 68.52896639275764]]}, "properties": {"source": "521824", "target": "955274"}}, {"type": "Feature", "geometry": {"type": "LineString", "coordinates": [[160.71649941457065, 68.53589263837245], [160.72710523617945, 68.52896639275764]]}, "properties": {"source": "3393174", "target": "955274"}}, {"type": "Feature", "geometry": {"type": "LineString", "coordinates": [[160.71649941457065, 68.53589263837245], [160.72391471658545, 68.5298880908617]]}, "properties": {"source": "3393174", "target": "197680"}}, {"type": "Feature", "geometry": {"type": "LineString", "coordinates": [[160.71649941457065, 68.53589263837245], [160.71373773616853, 68.53444218014096]]}, "properties": {"source": "3393174", "target": "1308139"}}, {"type": "Feature", "geometry": {"type": "LineString", "coordinates": [[160.71649941457065, 68.53589263837245], [160.71112828533143, 68.53553826684094]]}, "properties": {"source": "3393174", "target": "9280354"}}, {"type": "Feature", "geometry": {"type": "LineString", "coordinates": [[160.71649941457065, 68.53589263837245], [160.70656797506683, 68.52909738811113]]}, "properties": {"source": "3393174", "target": "197686"}}, {"type": "Feature", "geometry": {"type": "LineString", "coordinates": [[160.71649941457065, 68.53589263837245], [160.70790660150698, 68.53442347669804]]}, "properties": {"source": "3393174", "target": "1864398"}}, {"type": "Feature", "geometry": {"type": "LineString", "coordinates": [[160.71649941457065, 68.53589263837245], [160.71134534216947, 68.53357740106333]]}, "properties": {"source": "3393174", "target": "9763619"}}, {"type": "Feature", "geometry": {"type": "LineString", "coordinates": [[160.7162909146241, 68.53296913094533], [160.7081904929306, 68.52880667379148]]}, "properties": {"source": "2265940", "target": "25856414"}}, {"type": "Feature", "geometry": {"type": "LineString", "coordinates": [[160.7162909146241, 68.53296913094533], [160.71898723589368, 68.53470653918404]]}, "properties": {"source": "2265940", "target": "197389"}}, {"type": "Feature", "geometry": {"type": "LineString", "coordinates": [[160.7162909146241, 68.53296913094533], [160.70817932840816, 68.52952096093472]]}, "properties": {"source": "2265940", "target": "1073577"}}, {"type": "Feature", "geometry": {"type": "LineString", "coordinates": [[160.7162909146241, 68.53296913094533], [160.72814343338837, 68.5339868932349]]}, "properties": {"source": "2265940", "target": "1050142"}}, {"type": "Feature", "geometry": {"type": "LineString", "coordinates": [[160.7162909146241, 68.53296913094533], [160.72033068845803, 68.52910440490913]]}, "properties": {"source": "2265940", "target": "2154494"}}, {"type": "Feature", "geometry": {"type": "LineString", "coordinates": [[160.7162909146241, 68.53296913094533], [160.715073163049, 68.5307955277544]]}, "properties": {"source": "2265940", "target": "12687322"}}, {"type": "Feature", "geometry": {"type": "LineString", "coordinates": [[160.7162909146241, 68.53296913094533], [160.70633827712174, 68.53407959547084]]}, "properties": {"source": "2265940", "target": "27276348"}}, {"type": "Feature", "geometry": {"type": "LineString", "coordinates": [[160.71898723589368, 68.53470653918404], [160.70817932840816, 68.52952096093472]]}, "properties": {"source": "197389", "target": "1073577"}}, {"type": "Feature", "geometry": {"type": "LineString", "coordinates": [[160.71898723589368, 68.53470653918404], [160.72814343338837, 68.5339868932349]]}, "properties": {"source": "197389", "target": "1050142"}}, {"type": "Feature", "geometry": {"type": "LineString", "coordinates": [[160.71090712290737, 68.53094006084419], [160.7081904929306, 68.52880667379148]]}, "properties": {"source": "292872", "target": "25856414"}}, {"type": "Feature", "geometry": {"type": "LineString", "coordinates": [[160.71090712290737, 68.53094006084419], [160.7088660043491, 68.52893612320639]]}, "properties": {"source": "292872", "target": "35651229"}}, {"type": "Feature", "geometry": {"type": "LineString", "coordinates": [[160.71090712290737, 68.53094006084419], [160.71373450611532, 68.53536758736121]]}, "properties": {"source": "292872", "target": "285289"}}, {"type": "Feature", "geometry": {"type": "LineString", "coordinates": [[160.71090712290737, 68.53094006084419], [160.7103303584281, 68.52903787392412]]}, "properties": {"source": "292872", "target": "3270925"}}, {"type": "Feature", "geometry": {"type": "LineString", "coordinates": [[160.71090712290737, 68.53094006084419], [160.70633827712174, 68.53407959547084]]}, "properties": {"source": "292872", "target": "27276348"}}, {"type": "Feature", "geometry": {"type": "LineString", "coordinates": [[160.71090712290737, 68.53094006084419], [160.71686569855842, 68.5322420482751]]}, "properties": {"source": "292872", "target": "32588129"}}, {"type": "Feature", "geometry": {"type": "LineString", "coordinates": [[160.71090712290737, 68.53094006084419], [160.70914423269966, 68.52876269335306]]}, "properties": {"source": "292872", "target": "30185"}}, {"type": "Feature", "geometry": {"type": "LineString", "coordinates": [[160.71070874491818, 68.53466825096737], [160.71993401549508, 68.53343076396825]]}, "properties": {"source": "1368539", "target": "3318439"}}, {"type": "Feature", "geometry": {"type": "LineString", "coordinates": [[160.71070874491818, 68.53466825096737], [160.7250740880499, 68.53051882337971]]}, "properties": {"source": "1368539", "target": "13230780"}}, {"type": "Feature", "geometry": {"type": "LineString", "coordinates": [[160.71070874491818, 68.53466825096737], [160.71194252880025, 68.53152223285326]]}, "properties": {"source": "1368539", "target": "855695"}}, {"type": "Feature", "geometry": {"type": "LineString", "coordinates": [[160.71070874491818, 68.53466825096737], [160.71811106830114, 68.53042151428926]]}, "properties": {"source": "1368539", "target": "642083"}}, {"type": "Feature", "geometry": {"type": "LineString", "coordinates": [[160.71070874491818, 68.53466825096737], [160.71773729778698, 68.53273646776114]]}, "properties": {"source": "1368539", "target": "1243562"}}, {"type": "Feature", "geometry": {"type": "LineString", "coordinates": [[160.71070874491818, 68.53466825096737], [160.70705048585893, 68.53085748974806]]}, "properties": {"source": "1368539", "target": "419478"}}, {"type": "Feature", "geometry": {"type": "LineString", "coordinates": [[160.71226095354803, 68.53389473143986], [160.7123226147878, 68.53253125830852]]}, "properties": {"source": "34274961", "target": "4784691"}}, {"type": "Feature", "geometry": {"type": "LineString", "coordinates": [[160.7202558280464, 68.52843873172452], [160.7116981866169, 68.5282337359088]]}, "properties": {"source": "1420475", "target": "1270390"}}, {"type": "Feature", "geometry": {"type": "LineString", "coordinates": [[160.7202558280464, 68.52843873172452], [160.71312303660534, 68.53463878286885]]}, "properties": {"source": "1420475", "target": "1173609"}}, {"type": "Feature", "geometry": {"type": "LineString", "coordinates": [[160.7202558280464, 68.52843873172452], [160.70686140003284, 68.53204741572807]]}, "properties": {"source": "1420475", "target": "1659914"}}, {"type": "Feature", "geometry": {"type": "LineString", "coordinates": [[160.71323508947165, 68.53061951896612], [160.7123226147878, 68.53253125830852]]}, "properties": {"source": "1157091", "target": "4784691"}}, {"type": "Feature", "geometry": {"type": "LineString", "coordinates": [[160.71323508947165, 68.53061951896612], [160.72356617192662, 68.52982423620102]]}, "properties": {"source": "1157091", "target": "521824"}}, {"type": "Feature", "geometry": {"type": "LineString", "coordinates": [[160.71323508947165, 68.53061951896612], [160.72710523617945, 68.52896639275764]]}, "properties": {"source": "1157091", "target": "955274"}}, {"type": "Feature", "geometry": {"type": "LineString", "coordinates": [[160.71323508947165, 68.53061951896612], [160.72391471658545, 68.5298880908617]]}, "properties": {"source": "1157091", "target": "197680"}}, {"type": "Feature", "geometry": {"type": "LineString", "coordinates": [[160.71323508947165, 68.53061951896612], [160.71373773616853, 68.53444218014096]]}, "properties": {"source": "1157091", "target": "1308139"}}, {"type": "Feature", "geometry": {"type": "LineString", "coordinates": [[160.72854099487841, 68.5283198266701], [160.7123226147878, 68.53253125830852]]}, "properties": {"source": "25785317", "target": "4784691"}}, {"type": "Feature", "geometry": {"type": "LineString", "coordinates": [[160.7081904929306, 68.52880667379148], [160.70633827712174, 68.53407959547084]]}, "properties": {"source": "25856414", "target": "27276348"}}, {"type": "Feature", "geometry": {"type": "LineString", "coordinates": [[160.7081904929306, 68.52880667379148], [160.7159984934375, 68.52880489540996]]}, "properties": {"source": "25856414", "target": "23848458"}}, {"type": "Feature", "geometry": {"type": "LineString", "coordinates": [[160.7081904929306, 68.52880667379148], [160.7133751945031, 68.5297417435811]]}, "properties": {"source": "25856414", "target": "23847983"}}, {"type": "Feature", "geometry": {"type": "LineString", "coordinates": [[160.7081904929306, 68.52880667379148], [160.70865496962574, 68.53363830793845]]}, "properties": {"source": "25856414", "target": "29262278"}}, {"type": "Feature", "geometry": {"type": "LineString", "coordinates": [[160.72167111814275, 68.52985786694589], [160.72815256834508, 68.53420564019575]]}, "properties": {"source": "6457545", "target": "731141"}}, {"type": "Feature", "geometry": {"type": "LineString", "coordinates": [[160.72167111814275, 68.52985786694589], [160.72172687238583, 68.529420838336]]}, "properties": {"source": "6457545", "target": "1033863"}}, {"type": "Feature", "geometry": {"type": "LineString", "coordinates": [[160.72167111814275, 68.52985786694589], [160.70519814937302, 68.52899892742275]]}, "properties": {"source": "6457545", "target": "1042558"}}, {"type": "Feature", "geometry": {"type": "LineString", "coordinates": [[160.72167111814275, 68.52985786694589], [160.7236148201264, 68.53096921680225]]}, "properties": {"source": "6457545", "target": "138917"}}, {"type": "Feature", "geometry": {"type": "LineString", "coordinates": [[160.72167111814275, 68.52985786694589], [160.70525798823866, 68.53200695587583]]}, "properties": {"source": "6457545", "target": "58475"}}, {"type": "Feature", "geometry": {"type": "LineString", "coordinates": [[160.72167111814275, 68.52985786694589], [160.7160761254829, 68.53414471941582]]}, "properties": {"source": "6457545", "target": "811340"}}, {"type": "Feature", "geometry": {"type": "LineString", "coordinates": [[160.72167111814275, 68.52985786694589], [160.71070599894898, 68.52920956477055]]}, "properties": {"source": "6457545", "target": "692843"}}, {"type": "Feature", "geometry": {"type": "LineString", "coordinates": [[160.7088660043491, 68.52893612320639], [160.7103303584281, 68.52903787392412]]}, "properties": {"source": "35651229", "target": "3270925"}}, {"type": "Feature", "geometry": {"type": "LineString", "coordinates": [[160.7088660043491, 68.52893612320639], [160.7149494373233, 68.53043836236711]]}, "properties": {"source": "35651229", "target": "3842803"}}, {"type": "Feature", "geometry": {"type": "LineString", "coordinates": [[160.7088660043491, 68.52893612320639], [160.70817932840816, 68.52952096093472]]}, "properties": {"source": "35651229", "target": "1073577"}}, {"type": "Feature", "geometry": {"type": "LineString", "coordinates": [[160.7088660043491, 68.52893612320639], [160.72814343338837, 68.5339868932349]]}, "properties": {"source": "35651229", "target": "1050142"}}, {"type": "Feature", "geometry": {"type": "LineString", "coordinates": [[160.72167111814275, 68.52985786694589], [160.7268667424858, 68.52985252980397]]}, "properties": {"source": "6457545", "target": "4505830"}}, {"type": "Feature", "geometry": {"type": "LineString", "coordinates": [[160.7160761254829, 68.53414471941582], [160.72815256834508, 68.53420564019575]]}, "properties": {"source": "811340", "target": "731141"}}, {"type": "Feature", "geometry": {"type": "LineString", "coordinates": [[160.7160761254829, 68.53414471941582], [160.7090013636514, 68.53057430184586]]}, "properties": {"source": "811340", "target": "836582"}}, {"type": "Feature", "geometry": {"type": "LineString", "coordinates": [[160.7168932101975, 68.53573989078279], [160.7123226147878, 68.53253125830852]]}, "properties": {"source": "509216", "target": "4784691"}}, {"type": "Feature", "geometry": {"type": "LineString", "coordinates": [[160.71070599894898, 68.52920956477055], [160.72815256834508, 68.53420564019575]]}, "properties": {"source": "692843", "target": "731141"}}, {"type": "Feature", "geometry": {"type": "LineString", "coordinates": [[160.72619389915377, 68.53181498921006], [160.72753635307134, 68.529778113622]]}, "properties": {"source": "1051315", "target": "214779"}}, {"type": "Feature", "geometry": {"type": "LineString", "coordinates": [[160.71516340527018, 68.52859293585769], [160.71898723589368, 68.53470653918404]]}, "properties": {"source": "19831", "target": "197389"}}, {"type": "Feature", "geometry": {"type": "LineString", "coordinates": [[160.7232154972329, 68.53545006833565], [160.7149494373233, 68.53043836236711]]}, "properties": {"source": "4466386", "target": "3842803"}}, {"type": "Feature", "geometry": {"type": "LineString", "coordinates": [[160.70723626295108, 68.533967169643], [160.7123226147878, 68.53253125830852]]}, "properties": {"source": "20821287", "target": "4784691"}}, {"type": "Feature", "geometry": {"type": "LineString", "coordinates": [[160.70723626295108, 68.533967169643], [160.72710523617945, 68.52896639275764]]}, "properties": {"source": "20821287", "target": "955274"}}, {"type": "Feature", "geometry": {"type": "LineString", "coordinates": [[160.72033068845803, 68.52910440490913], [160.71652481040127, 68.5296298862153]]}, "properties": {"source": "2154494", "target": "2297624"}}, {"type": "Feature", "geometry": {"type": "LineString", "coordinates": [[160.72033068845803, 68.52910440490913], [160.71898723589368, 68.53470653918404]]}, "properties": {"source": "2154494", "target": "197389"}}, {"type": "Feature", "geometry": {"type": "LineString", "coordinates": [[160.72033068845803, 68.52910440490913], [160.7133751945031, 68.5297417435811]]}, "properties": {"source": "2154494", "target": "23847983"}}, {"type": "Feature", "geometry": {"type": "LineString", "coordinates": [[160.7218930760115, 68.53327254007323], [160.72167111814275, 68.52985786694589]]}, "properties": {"source": "793313", "target": "6457545"}}, {"type": "Feature", "geometry": {"type": "LineString", "coordinates": [[160.7218930760115, 68.53327254007323], [160.72815256834508, 68.53420564019575]]}, "properties": {"source": "793313", "target": "731141"}}, {"type": "Feature", "geometry": {"type": "LineString", "coordinates": [[160.7218930760115, 68.53327254007323], [160.7147076716451, 68.5302866849378]]}, "properties": {"source": "793313", "target": "667288"}}, {"type": "Feature", "geometry": {"type": "LineString", "coordinates": [[160.72033068845803, 68.52910440490913], [160.71157103276784, 68.53207897862464]]}, "properties": {"source": "2154494", "target": "17315711"}}, {"type": "Feature", "geometry": {"type": "LineString", "coordinates": [[160.7133545717258, 68.53047832867986], [160.714283980623, 68.53115758383893]]}, "properties": {"source": "42449", "target": "525425"}}, {"type": "Feature", "geometry": {"type": "LineString", "coordinates": [[160.71893701802105, 68.52933576600572], [160.72495574563192, 68.53556568320707]]}, "properties": {"source": "16439969", "target": "198822"}}, {"type": "Feature", "geometry": {"type": "LineString", "coordinates": [[160.71618901003603, 68.53340269288816], [160.7123226147878, 68.53253125830852]]}, "properties": {"source": "32789920", "target": "4784691"}}, {"type": "Feature", "geometry": {"type": "LineString", "coordinates": [[160.71618901003603, 68.53340269288816], [160.72591091191413, 68.53146041029447]]}, "properties": {"source": "32789920", "target": "6929479"}}, {"type": "Feature", "geometry": {"type": "LineString", "coordinates": [[160.71566125207931, 68.53008008989349], [160.71500809881553, 68.53381409913024]]}, "properties": {"source": "266232", "target": "486388"}}, {"type": "Feature", "geometry": {"type": "LineString", "coordinates": [[160.72591091191413, 68.53146041029447], [160.7123226147878, 68.53253125830852]]}, "properties": {"source": "6929479", "target": "4784691"}}, {"type": "Feature", "geometry": {"type": "LineString", "coordinates": [[160.72423169611204, 68.52927971176226], [160.7174652300377, 68.52845085832084]]}, "properties": {"source": "3750283", "target": "334560"}}, {"type": "Feature", "geometry": {"type": "LineString", "coordinates": [[160.72423169611204, 68.52927971176226], [160.71211474264572, 68.52939451981663]]}, "properties": {"source": "3750283", "target": "304863"}}, {"type": "Feature", "geometry": {"type": "LineString", "coordinates": [[160.72423169611204, 68.52927971176226], [160.7229762147175, 68.53572882680925]]}, "properties": {"source": "3750283", "target": "323547"}}, {"type": "Feature", "geometry": {"type": "LineString", "coordinates": [[160.72423169611204, 68.52927971176226], [160.7157282184835, 68.53513505471753]]}, "properties": {"source": "3750283", "target": "295474"}}, {"type": "Feature", "geometry": {"type": "LineString", "coordinates": [[160.71211474264572, 68.52939451981663], [160.71993401549508, 68.53343076396825]]}, "properties": {"source": "304863", "target": "3318439"}}, {"type": "Feature", "geometry": {"type": "LineString", "coordinates": [[160.71211474264572, 68.52939451981663], [160.7174652300377, 68.52845085832084]]}, "properties": {"source": "304863", "target": "334560"}}, {"type": "Feature", "geometry": {"type": "LineString", "coordinates": [[160.71211474264572, 68.52939451981663], [160.7157282184835, 68.53513505471753]]}, "properties": {"source": "304863", "target": "295474"}}, {"type": "Feature", "geometry": {"type": "LineString", "coordinates": [[160.71211474264572, 68.52939451981663], [160.72188314433134, 68.53176516971416]]}, "properties": {"source": "304863", "target": "316904"}}, {"type": "Feature", "geometry": {"type": "LineString", "coordinates": [[160.714283980623, 68.53115758383893], [160.71985895185935, 68.53506244879333]]}, "properties": {"source": "525425", "target": "2850547"}}, {"type": "Feature", "geometry": {"type": "LineString", "coordinates": [[160.72423169611204, 68.52927971176226], [160.71985895185935, 68.53506244879333]]}, "properties": {"source": "3750283", "target": "2850547"}}, {"type": "Feature", "geometry": {"type": "LineString", "coordinates": [[160.7218930760115, 68.53327254007323], [160.7229762147175, 68.53572882680925]]}, "properties": {"source": "793313", "target": "323547"}}, {"type": "Feature", "geometry": {"type": "LineString", "coordinates": [[160.7218930760115, 68.53327254007323], [160.7090013636514, 68.53057430184586]]}, "properties": {"source": "793313", "target": "836582"}}, {"type": "Feature", "geometry": {"type": "LineString", "coordinates": [[160.7218930760115, 68.53327254007323], [160.7160761254829, 68.53414471941582]]}, "properties": {"source": "793313", "target": "811340"}}, {"type": "Feature", "geometry": {"type": "LineString", "coordinates": [[160.7218930760115, 68.53327254007323], [160.71070599894898, 68.52920956477055]]}, "properties": {"source": "793313", "target": "692843"}}, {"type": "Feature", "geometry": {"type": "LineString", "coordinates": [[160.715073163049, 68.5307955277544], [160.70470514949147, 68.53099128437407]]}, "properties": {"source": "12687322", "target": "20001193"}}, {"type": "Feature", "geometry": {"type": "LineString", "coordinates": [[160.715073163049, 68.5307955277544], [160.71652481040127, 68.5296298862153]]}, "properties": {"source": "12687322", "target": "2297624"}}, {"type": "Feature", "geometry": {"type": "LineString", "coordinates": [[160.715073163049, 68.5307955277544], [160.7081904929306, 68.52880667379148]]}, "properties": {"source": "12687322", "target": "25856414"}}, {"type": "Feature", "geometry": {"type": "LineString", "coordinates": [[160.7229762147175, 68.53572882680925], [160.7174652300377, 68.52845085832084]]}, "properties": {"source": "323547", "target": "334560"}}, {"type": "Feature", "geometry": {"type": "LineString", "coordinates": [[160.7229762147175, 68.53572882680925], [160.71211474264572, 68.52939451981663]]}, "properties": {"source": "323547", "target": "304863"}}, {"type": "Feature", "geometry": {"type": "LineString", "coordinates": [[160.71459173784012, 68.5351949637458], [160.7123226147878, 68.53253125830852]]}, "properties": {"source": "150361", "target": "4784691"}}, {"type": "Feature", "geometry": {"type": "LineString", "coordinates": [[160.71183758051592, 68.53601087344438], [160.71993401549508, 68.53343076396825]]}, "properties": {"source": "263839", "target": "3318439"}}, {"type": "Feature", "geometry": {"type": "LineString", "coordinates": [[160.71183758051592, 68.53601087344438], [160.71371956855336, 68.53419842112046]]}, "properties": {"source": "263839", "target": "19263675"}}, {"type": "Feature", "geometry": {"type": "LineString", "coordinates": [[160.71183758051592, 68.53601087344438], [160.7174652300377, 68.52845085832084]]}, "properties": {"source": "263839", "target": "334560"}}, {"type": "Feature", "geometry": {"type": "LineString", "coordinates": [[160.71183758051592, 68.53601087344438], [160.72423169611204, 68.52927971176226]]}, "properties": {"source": "263839", "target": "3750283"}}, {"type": "Feature", "geometry": {"type": "LineString", "coordinates": [[160.71183758051592, 68.53601087344438], [160.715849927254, 68.53606549797303]]}, "properties": {"source": "263839", "target": "2058155"}}, {"type": "Feature", "geometry": {"type": "LineString", "coordinates": [[160.71183758051592, 68.53601087344438], [160.71985895185935, 68.53506244879333]]}, "properties": {"source": "263839", "target": "2850547"}}, {"type": "Feature", "geometry": {"type": "LineString", "coordinates": [[160.70699985060998, 68.53440879441953], [160.72167111814275, 68.52985786694589]]}, "properties": {"source": "4557827", "target": "6457545"}}, {"type": "Feature", "geometry": {"type": "LineString", "coordinates": [[160.70699985060998, 68.53440879441953], [160.72423169611204, 68.52927971176226]]}, "properties": {"source": "4557827", "target": "3750283"}}, {"type": "Feature", "geometry": {"type": "LineString", "coordinates": [[160.70699985060998, 68.53440879441953], [160.71211474264572, 68.52939451981663]]}, "properties": {"source": "4557827", "target": "304863"}}, {"type": "Feature", "geometry": {"type": "LineString", "coordinates": [[160.70699985060998, 68.53440879441953], [160.72172687238583, 68.529420838336]]}, "properties": {"source": "4557827", "target": "1033863"}}, {"type": "Feature", "geometry": {"type": "LineString", "coordinates": [[160.70699985060998, 68.53440879441953], [160.70519814937302, 68.52899892742275]]}, "properties": {"source": "4557827", "target": "1042558"}}, {"type": "Feature", "geometry": {"type": "LineString", "coordinates": [[160.70699985060998, 68.53440879441953], [160.7236148201264, 68.53096921680225]]}, "properties": {"source": "4557827", "target": "138917"}}, {"type": "Feature", "geometry": {"type": "LineString", "coordinates": [[160.70699985060998, 68.53440879441953], [160.7229762147175, 68.53572882680925]]}, "properties": {"source": "4557827", "target": "323547"}}, {"type": "Feature", "geometry": {"type": "LineString", "coordinates": [[160.72388767476355, 68.53005501382651], [160.71459173784012, 68.5351949637458]]}, "properties": {"source": "398103", "target": "150361"}}, {"type": "Feature", "geometry": {"type": "LineString", "coordinates": [[160.72388767476355, 68.53005501382651], [160.71913286468862, 68.53310454537805]]}, "properties": {"source": "398103", "target": "22535453"}}, {"type": "Feature", "geometry": {"type": "LineString", "coordinates": [[160.72388767476355, 68.53005501382651], [160.70552912864815, 68.52860373675821]]}, "properties": {"source": "398103", "target": "4531319"}}, {"type": "Feature", "geometry": {"type": "LineString", "coordinates": [[160.72388767476355, 68.53005501382651], [160.72619389915377, 68.53181498921006]]}, "properties": {"source": "398103", "target": "1051315"}}, {"type": "Feature", "geometry": {"type": "LineString", "coordinates": [[160.72388767476355, 68.53005501382651], [160.72753635307134, 68.529778113622]]}, "properties": {"source": "398103", "target": "214779"}}, {"type": "Feature", "geometry": {"type": "LineString", "coordinates": [[160.7268667424858, 68.52985252980397], [160.71993401549508, 68.53343076396825]]}, "properties": {"source": "4505830", "target": "3318439"}}, {"type": "Feature", "geometry": {"type": "LineString", "coordinates": [[160.7268667424858, 68.52985252980397], [160.71211474264572, 68.52939451981663]]}, "properties": {"source": "4505830", "target": "304863"}}, {"type": "Feature", "geometry": {"type": "LineString", "coordinates": [[160.7268667424858, 68.52985252980397], [160.70519814937302, 68.52899892742275]]}, "properties": {"source": "4505830", "target": "1042558"}}, {"type": "Feature", "geometry": {"type": "LineString", "coordinates": [[160.72388767476355, 68.53005501382651], [160.71226095354803, 68.53389473143986]]}, "properties": {"source": "398103", "target": "34274961"}}, {"type": "Feature", "geometry": {"type": "LineString", "coordinates": [[160.7088660043491, 68.52893612320639], [160.715073163049, 68.5307955277544]]}, "properties": {"source": "35651229", "target": "12687322"}}, {"type": "Feature", "geometry": {"type": "LineString", "coordinates": [[160.7088660043491, 68.52893612320639], [160.7262615152908, 68.53369049427687]]}, "properties": {"source": "35651229", "target": "1206378"}}, {"type": "Feature", "geometry": {"type": "LineString", "coordinates": [[160.7088660043491, 68.52893612320639], [160.71162362046198, 68.52920179521473]]}, "properties": {"source": "35651229", "target": "1102487"}}, {"type": "Feature", "geometry": {"type": "LineString", "coordinates": [[160.7088660043491, 68.52893612320639], [160.7061045059845, 68.5316893046705]]}, "properties": {"source": "35651229", "target": "101272"}}, {"type": "Feature", "geometry": {"type": "LineString", "coordinates": [[160.7088660043491, 68.52893612320639], [160.7072552665984, 68.53317758880078]]}, "properties": {"source": "35651229", "target": "11055667"}}, {"type": "Feature", "geometry": {"type": "LineString", "coordinates": [[160.7088660043491, 68.52893612320639], [160.71337608293038, 68.530375199204]]}, "properties": {"source": "35651229", "target": "372009"}}, {"type": "Feature", "geometry": {"type": "LineString", "coordinates": [[160.7088660043491, 68.52893612320639], [160.7232154972329, 68.53545006833565]]}, "properties": {"source": "35651229", "target": "4466386"}}, {"type": "Feature", "geometry": {"type": "LineString", "coordinates": [[160.72356617192662, 68.52982423620102], [160.72391471658545, 68.5298880908617]]}, "properties": {"source": "521824", "target": "197680"}}, {"type": "Feature", "geometry": {"type": "LineString", "coordinates": [[160.72356617192662, 68.52982423620102], [160.71373773616853, 68.53444218014096]]}, "properties": {"source": "521824", "target": "1308139"}}, {"type": "Feature", "geometry": {"type": "LineString", "coordinates": [[160.72356617192662, 68.52982423620102], [160.70790660150698, 68.53442347669804]]}, "properties": {"source": "521824", "target": "1864398"}}, {"type": "Feature", "geometry": {"type": "LineString", "coordinates": [[160.72356617192662, 68.52982423620102], [160.70723626295108, 68.533967169643]]}, "properties": {"source": "521824", "target": "20821287"}}, {"type": "Feature", "geometry": {"type": "LineString", "coordinates": [[160.72356617192662, 68.52982423620102], [160.71459173784012, 68.5351949637458]]}, "properties": {"source": "521824", "target": "150361"}}, {"type": "Feature", "geometry": {"type": "LineString", "coordinates": [[160.72356617192662, 68.52982423620102], [160.71913286468862, 68.53310454537805]]}, "properties": {"source": "521824", "target": "22535453"}}, {"type": "Feature", "geometry": {"type": "LineString", "coordinates": [[160.72356617192662, 68.52982423620102], [160.7168932101975, 68.53573989078279]]}, "properties": {"source": "521824", "target": "509216"}}, {"type": "Feature", "geometry": {"type": "LineString", "coordinates": [[160.7162909146241, 68.53296913094533], [160.70470514949147, 68.53099128437407]]}, "properties": {"source": "2265940", "target": "20001193"}}, {"type": "Feature", "geometry": {"type": "LineString", "coordinates": [[160.7162909146241, 68.53296913094533], [160.71652481040127, 68.5296298862153]]}, "properties": {"source": "2265940", "target": "2297624"}}, {"type": "Feature", "geometry": {"type": "LineString", "coordinates": [[160.71649941457065, 68.53589263837245], [160.71323508947165, 68.53061951896612]]}, "properties": {"source": "3393174", "target": "1157091"}}, {"type": "Feature", "geometry": {"type": "LineString", "coordinates": [[160.71649941457065, 68.53589263837245], [160.72854099487841, 68.5283198266701]]}, "properties": {"source": "3393174", "target": "25785317"}}, {"type": "Feature", "geometry": {"type": "LineString", "coordinates": [[160.71649941457065, 68.53589263837245], [160.70723626295108, 68.533967169643]]}, "properties": {"source": "3393174", "target": "20821287"}}, {"type": "Feature", "geometry": {"type": "LineString", "coordinates": [[160.71649941457065, 68.53589263837245], [160.71459173784012, 68.5351949637458]]}, "properties": {"source": "3393174", "target": "150361"}}, {"type": "Feature", "geometry": {"type": "LineString", "coordinates": [[160.71649941457065, 68.53589263837245], [160.71913286468862, 68.53310454537805]]}, "properties": {"source": "3393174", "target": "22535453"}}, {"type": "Feature", "geometry": {"type": "LineString", "coordinates": [[160.71649941457065, 68.53589263837245], [160.7168932101975, 68.53573989078279]]}, "properties": {"source": "3393174", "target": "509216"}}, {"type": "Feature", "geometry": {"type": "LineString", "coordinates": [[160.70699985060998, 68.53440879441953], [160.7157282184835, 68.53513505471753]]}, "properties": {"source": "4557827", "target": "295474"}}, {"type": "Feature", "geometry": {"type": "LineString", "coordinates": [[160.70699985060998, 68.53440879441953], [160.72188314433134, 68.53176516971416]]}, "properties": {"source": "4557827", "target": "316904"}}, {"type": "Feature", "geometry": {"type": "LineString", "coordinates": [[160.70699985060998, 68.53440879441953], [160.70525798823866, 68.53200695587583]]}, "properties": {"source": "4557827", "target": "58475"}}, {"type": "Feature", "geometry": {"type": "LineString", "coordinates": [[160.70470514949147, 68.53099128437407], [160.71652481040127, 68.5296298862153]]}, "properties": {"source": "20001193", "target": "2297624"}}, {"type": "Feature", "geometry": {"type": "LineString", "coordinates": [[160.70470514949147, 68.53099128437407], [160.71898723589368, 68.53470653918404]]}, "properties": {"source": "20001193", "target": "197389"}}, {"type": "Feature", "geometry": {"type": "LineString", "coordinates": [[160.70470514949147, 68.53099128437407], [160.70817932840816, 68.52952096093472]]}, "properties": {"source": "20001193", "target": "1073577"}}, {"type": "Feature", "geometry": {"type": "LineString", "coordinates": [[160.70470514949147, 68.53099128437407], [160.72814343338837, 68.5339868932349]]}, "properties": {"source": "20001193", "target": "1050142"}}, {"type": "Feature", "geometry": {"type": "LineString", "coordinates": [[160.70470514949147, 68.53099128437407], [160.72033068845803, 68.52910440490913]]}, "properties": {"source": "20001193", "target": "2154494"}}, {"type": "Feature", "geometry": {"type": "LineString", "coordinates": [[160.70470514949147, 68.53099128437407], [160.7061045059845, 68.5316893046705]]}, "properties": {"source": "20001193", "target": "101272"}}, {"type": "Feature", "geometry": {"type": "LineString", "coordinates": [[160.71649941457065, 68.53589263837245], [160.71226095354803, 68.53389473143986]]}, "properties": {"source": "3393174", "target": "34274961"}}, {"type": "Feature", "geometry": {"type": "LineString", "coordinates": [[160.712928251267, 68.53385717876898], [160.71652481040127, 68.5296298862153]]}, "properties": {"source": "2103825", "target": "2297624"}}, {"type": "Feature", "geometry": {"type": "LineString", "coordinates": [[160.712928251267, 68.53385717876898], [160.71898723589368, 68.53470653918404]]}, "properties": {"source": "2103825", "target": "197389"}}, {"type": "Feature", "geometry": {"type": "LineString", "coordinates": [[160.7072552665984, 68.53317758880078], [160.70470514949147, 68.53099128437407]]}, "properties": {"source": "11055667", "target": "20001193"}}, {"type": "Feature", "geometry": {"type": "LineString", "coordinates": [[160.7072552665984, 68.53317758880078], [160.7149494373233, 68.53043836236711]]}, "properties": {"source": "11055667", "target": "3842803"}}, {"type": "Feature", "geometry": {"type": "LineString", "coordinates": [[160.7072552665984, 68.53317758880078], [160.71675268169002, 68.53390516386577]]}, "properties": {"source": "11055667", "target": "4907301"}}, {"type": "Feature", "geometry": {"type": "LineString", "coordinates": [[160.71210809292887, 68.52910202983529], [160.71500809881553, 68.53381409913024]]}, "properties": {"source": "612990", "target": "486388"}}, {"type": "Feature", "geometry": {"type": "LineString", "coordinates": [[160.71210809292887, 68.52910202983529], [160.71115524321556, 68.52837785153591]]}, "properties": {"source": "612990", "target": "2974421"}}, {"type": "Feature", "geometry": {"type": "LineString", "coordinates": [[160.70656797506683, 68.52909738811113], [160.72356617192662, 68.52982423620102]]}, "properties": {"source": "197686", "target": "521824"}}, {"type": "Feature", "geometry": {"type": "LineString", "coordinates": [[160.70656797506683, 68.52909738811113], [160.72710523617945, 68.52896639275764]]}, "properties": {"source": "197686", "target": "955274"}}, {"type": "Feature", "geometry": {"type": "LineString", "coordinates": [[160.70656797506683, 68.52909738811113], [160.72391471658545, 68.5298880908617]]}, "properties": {"source": "197686", "target": "197680"}}, {"type": "Feature", "geometry": {"type": "LineString", "coordinates": [[160.70656797506683, 68.52909738811113], [160.70790660150698, 68.53442347669804]]}, "properties": {"source": "197686", "target": "1864398"}}, {"type": "Feature", "geometry": {"type": "LineString", "coordinates": [[160.70656797506683, 68.52909738811113], [160.71134534216947, 68.53357740106333]]}, "properties": {"source": "197686", "target": "9763619"}}, {"type": "Feature", "geometry": {"type": "LineString", "coordinates": [[160.70656797506683, 68.52909738811113], [160.71323508947165, 68.53061951896612]]}, "properties": {"source": "197686", "target": "1157091"}}, {"type": "Feature", "geometry": {"type": "LineString", "coordinates": [[160.70656797506683, 68.52909738811113], [160.72854099487841, 68.5283198266701]]}, "properties": {"source": "197686", "target": "25785317"}}, {"type": "Feature", "geometry": {"type": "LineString", "coordinates": [[160.70656797506683, 68.52909738811113], [160.70723626295108, 68.533967169643]]}, "properties": {"source": "197686", "target": "20821287"}}, {"type": "Feature", "geometry": {"type": "LineString", "coordinates": [[160.7103303584281, 68.52903787392412], [160.71373450611532, 68.53536758736121]]}, "properties": {"source": "3270925", "target": "285289"}}, {"type": "Feature", "geometry": {"type": "LineString", "coordinates": [[160.70470514949147, 68.53099128437407], [160.7133751945031, 68.5297417435811]]}, "properties": {"source": "20001193", "target": "23847983"}}, {"type": "Feature", "geometry": {"type": "LineString", "coordinates": [[160.70470514949147, 68.53099128437407], [160.71516340527018, 68.52859293585769]]}, "properties": {"source": "20001193", "target": "19831"}}, {"type": "Feature", "geometry": {"type": "LineString", "coordinates": [[160.71652481040127, 68.5296298862153], [160.71898723589368, 68.53470653918404]]}, "properties": {"source": "2297624", "target": "197389"}}, {"type": "Feature", "geometry": {"type": "LineString", "coordinates": [[160.71652481040127, 68.5296298862153], [160.70817932840816, 68.52952096093472]]}, "properties": {"source": "2297624", "target": "1073577"}}, {"type": "Feature", "geometry": {"type": "LineString", "coordinates": [[160.71652481040127, 68.5296298862153], [160.72814343338837, 68.5339868932349]]}, "properties": {"source": "2297624", "target": "1050142"}}, {"type": "Feature", "geometry": {"type": "LineString", "coordinates": [[160.71652481040127, 68.5296298862153], [160.70633827712174, 68.53407959547084]]}, "properties": {"source": "2297624", "target": "27276348"}}, {"type": "Feature", "geometry": {"type": "LineString", "coordinates": [[160.7162909146241, 68.53296913094533], [160.7262615152908, 68.53369049427687]]}, "properties": {"source": "2265940", "target": "1206378"}}, {"type": "Feature", "geometry": {"type": "LineString", "coordinates": [[160.7162909146241, 68.53296913094533], [160.71162362046198, 68.52920179521473]]}, "properties": {"source": "2265940", "target": "1102487"}}, {"type": "Feature", "geometry": {"type": "LineString", "coordinates": [[160.7162909146241, 68.53296913094533], [160.7061045059845, 68.5316893046705]]}, "properties": {"source": "2265940", "target": "101272"}}, {"type": "Feature", "geometry": {"type": "LineString", "coordinates": [[160.7162909146241, 68.53296913094533], [160.712928251267, 68.53385717876898]]}, "properties": {"source": "2265940", "target": "2103825"}}, {"type": "Feature", "geometry": {"type": "LineString", "coordinates": [[160.7162909146241, 68.53296913094533], [160.71516340527018, 68.52859293585769]]}, "properties": {"source": "2265940", "target": "19831"}}, {"type": "Feature", "geometry": {"type": "LineString", "coordinates": [[160.7162909146241, 68.53296913094533], [160.71893701802105, 68.52933576600572]]}, "properties": {"source": "2265940", "target": "16439969"}}, {"type": "Feature", "geometry": {"type": "LineString", "coordinates": [[160.7162909146241, 68.53296913094533], [160.72495574563192, 68.53556568320707]]}, "properties": {"source": "2265940", "target": "198822"}}, {"type": "Feature", "geometry": {"type": "LineString", "coordinates": [[160.70699985060998, 68.53440879441953], [160.71993401549508, 68.53343076396825]]}, "properties": {"source": "4557827", "target": "3318439"}}, {"type": "Feature", "geometry": {"type": "LineString", "coordinates": [[160.70470514949147, 68.53099128437407], [160.71157103276784, 68.53207897862464]]}, "properties": {"source": "20001193", "target": "17315711"}}, {"type": "Feature", "geometry": {"type": "LineString", "coordinates": [[160.70699985060998, 68.53440879441953], [160.7268667424858, 68.52985252980397]]}, "properties": {"source": "4557827", "target": "4505830"}}, {"type": "Feature", "geometry": {"type": "LineString", "coordinates": [[160.71134534216947, 68.53357740106333], [160.72710523617945, 68.52896639275764]]}, "properties": {"source": "9763619", "target": "955274"}}, {"type": "Feature", "geometry": {"type": "LineString", "coordinates": [[160.71134534216947, 68.53357740106333], [160.72391471658545, 68.5298880908617]]}, "properties": {"source": "9763619", "target": "197680"}}, {"type": "Feature", "geometry": {"type": "LineString", "coordinates": [[160.71134534216947, 68.53357740106333], [160.70790660150698, 68.53442347669804]]}, "properties": {"source": "9763619", "target": "1864398"}}, {"type": "Feature", "geometry": {"type": "LineString", "coordinates": [[160.72172687238583, 68.529420838336], [160.71993401549508, 68.53343076396825]]}, "properties": {"source": "1033863", "target": "3318439"}}, {"type": "Feature", "geometry": {"type": "LineString", "coordinates": [[160.72172687238583, 68.529420838336], [160.71373773616853, 68.53444218014096]]}, "properties": {"source": "1033863", "target": "1308139"}}, {"type": "Feature", "geometry": {"type": "LineString", "coordinates": [[160.72172687238583, 68.529420838336], [160.7174652300377, 68.52845085832084]]}, "properties": {"source": "1033863", "target": "334560"}}, {"type": "Feature", "geometry": {"type": "LineString", "coordinates": [[160.7149494373233, 68.53043836236711], [160.72814343338837, 68.5339868932349]]}, "properties": {"source": "3842803", "target": "1050142"}}, {"type": "Feature", "geometry": {"type": "LineString", "coordinates": [[160.7149494373233, 68.53043836236711], [160.7061045059845, 68.5316893046705]]}, "properties": {"source": "3842803", "target": "101272"}}, {"type": "Feature", "geometry": {"type": "LineString", "coordinates": [[160.7149494373233, 68.53043836236711], [160.71337608293038, 68.530375199204]]}, "properties": {"source": "3842803", "target": "372009"}}, {"type": "Feature", "geometry": {"type": "LineString", "coordinates": [[160.7149494373233, 68.53043836236711], [160.72160494725318, 68.53097599962618]]}, "properties": {"source": "3842803", "target": "371179"}}, {"type": "Feature", "geometry": {"type": "LineString", "coordinates": [[160.71371956855336, 68.53419842112046], [160.71373773616853, 68.53444218014096]]}, "properties": {"source": "19263675", "target": "1308139"}}, {"type": "Feature", "geometry": {"type": "LineString", "coordinates": [[160.71371956855336, 68.53419842112046], [160.72172687238583, 68.529420838336]]}, "properties": {"source": "19263675", "target": "1033863"}}, {"type": "Feature", "geometry": {"type": "LineString", "coordinates": [[160.71371956855336, 68.53419842112046], [160.70519814937302, 68.52899892742275]]}, "properties": {"source": "19263675", "target": "1042558"}}, {"type": "Feature", "geometry": {"type": "LineString", "coordinates": [[160.71371956855336, 68.53419842112046], [160.7236148201264, 68.53096921680225]]}, "properties": {"source": "19263675", "target": "138917"}}, {"type": "Feature", "geometry": {"type": "LineString", "coordinates": [[160.71371956855336, 68.53419842112046], [160.71312303660534, 68.53463878286885]]}, "properties": {"source": "19263675", "target": "1173609"}}, {"type": "Feature", "geometry": {"type": "LineString", "coordinates": [[160.72172687238583, 68.529420838336], [160.7268667424858, 68.52985252980397]]}, "properties": {"source": "1033863", "target": "4505830"}}, {"type": "Feature", "geometry": {"type": "LineString", "coordinates": [[160.7147076716451, 68.5302866849378], [160.72815256834508, 68.53420564019575]]}, "properties": {"source": "667288", "target": "731141"}}, {"type": "Feature", "geometry": {"type": "LineString", "coordinates": [[160.7147076716451, 68.5302866849378], [160.7090013636514, 68.53057430184586]]}, "properties": {"source": "667288", "target": "836582"}}, {"type": "Feature", "geometry": {"type": "LineString", "coordinates": [[160.7147076716451, 68.5302866849378], [160.71070599894898, 68.52920956477055]]}, "properties": {"source": "667288", "target": "692843"}}, {"type": "Feature", "geometry": {"type": "LineString", "coordinates": [[160.71115524321556, 68.52837785153591], [160.71500809881553, 68.53381409913024]]}, "properties": {"source": "2974421", "target": "486388"}}, {"type": "Feature", "geometry": {"type": "LineString", "coordinates": [[160.71115524321556, 68.52837785153591], [160.71512655293702, 68.53136016546406]]}, "properties": {"source": "2974421", "target": "12617062"}}, {"type": "Feature", "geometry": {"type": "LineString", "coordinates": [[160.71115524321556, 68.52837785153591], [160.71566125207931, 68.53008008989349]]}, "properties": {"source": "2974421", "target": "266232"}}, {"type": "Feature", "geometry": {"type": "LineString", "coordinates": [[160.7229762147175, 68.53572882680925], [160.71993401549508, 68.53343076396825]]}, "properties": {"source": "323547", "target": "3318439"}}, {"type": "Feature", "geometry": {"type": "LineString", "coordinates": [[160.7088660043491, 68.52893612320639], [160.72160494725318, 68.53097599962618]]}, "properties": {"source": "35651229", "target": "371179"}}, {"type": "Feature", "geometry": {"type": "LineString", "coordinates": [[160.71373450611532, 68.53536758736121], [160.71652481040127, 68.5296298862153]]}, "properties": {"source": "285289", "target": "2297624"}}, {"type": "Feature", "geometry": {"type": "LineString", "coordinates": [[160.71373450611532, 68.53536758736121], [160.7081904929306, 68.52880667379148]]}, "properties": {"source": "285289", "target": "25856414"}}, {"type": "Feature", "geometry": {"type": "LineString", "coordinates": [[160.71373450611532, 68.53536758736121], [160.70817932840816, 68.52952096093472]]}, "properties": {"source": "285289", "target": "1073577"}}, {"type": "Feature", "geometry": {"type": "LineString", "coordinates": [[160.71373450611532, 68.53536758736121], [160.70633827712174, 68.53407959547084]]}, "properties": {"source": "285289", "target": "27276348"}}, {"type": "Feature", "geometry": {"type": "LineString", "coordinates": [[160.71373450611532, 68.53536758736121], [160.7159984934375, 68.52880489540996]]}, "properties": {"source": "285289", "target": "23848458"}}, {"type": "Feature", "geometry": {"type": "LineString", "coordinates": [[160.71373450611532, 68.53536758736121], [160.7133751945031, 68.5297417435811]]}, "properties": {"source": "285289", "target": "23847983"}}, {"type": "Feature", "geometry": {"type": "LineString", "coordinates": [[160.71373450611532, 68.53536758736121], [160.71686569855842, 68.5322420482751]]}, "properties": {"source": "285289", "target": "32588129"}}, {"type": "Feature", "geometry": {"type": "LineString", "coordinates": [[160.71373450611532, 68.53536758736121], [160.70552912864815, 68.52860373675821]]}, "properties": {"source": "285289", "target": "4531319"}}, {"type": "Feature", "geometry": {"type": "LineString", "coordinates": [[160.72388767476355, 68.53005501382651], [160.71373773616853, 68.53444218014096]]}, "properties": {"source": "398103", "target": "1308139"}}, {"type": "Feature", "geometry": {"type": "LineString", "coordinates": [[160.72388767476355, 68.53005501382651], [160.70656797506683, 68.52909738811113]]}, "properties": {"source": "398103", "target": "197686"}}, {"type": "Feature", "geometry": {"type": "LineString", "coordinates": [[160.72388767476355, 68.53005501382651], [160.70790660150698, 68.53442347669804]]}, "properties": {"source": "398103", "target": "1864398"}}, {"type": "Feature", "geometry": {"type": "LineString", "coordinates": [[160.72388767476355, 68.53005501382651], [160.71134534216947, 68.53357740106333]]}, "properties": {"source": "398103", "target": "9763619"}}, {"type": "Feature", "geometry": {"type": "LineString", "coordinates": [[160.72388767476355, 68.53005501382651], [160.71323508947165, 68.53061951896612]]}, "properties": {"source": "398103", "target": "1157091"}}, {"type": "Feature", "geometry": {"type": "LineString", "coordinates": [[160.72388767476355, 68.53005501382651], [160.72854099487841, 68.5283198266701]]}, "properties": {"source": "398103", "target": "25785317"}}, {"type": "Feature", "geometry": {"type": "LineString", "coordinates": [[160.72388767476355, 68.53005501382651], [160.70723626295108, 68.533967169643]]}, "properties": {"source": "398103", "target": "20821287"}}, {"type": "Feature", "geometry": {"type": "LineString", "coordinates": [[160.7159984934375, 68.52880489540996], [160.72033068845803, 68.52910440490913]]}, "properties": {"source": "23848458", "target": "2154494"}}, {"type": "Feature", "geometry": {"type": "LineString", "coordinates": [[160.7090013636514, 68.53057430184586], [160.72815256834508, 68.53420564019575]]}, "properties": {"source": "836582", "target": "731141"}}, {"type": "Feature", "geometry": {"type": "LineString", "coordinates": [[160.70705048585893, 68.53085748974806], [160.71993401549508, 68.53343076396825]]}, "properties": {"source": "419478", "target": "3318439"}}, {"type": "Feature", "geometry": {"type": "LineString", "coordinates": [[160.70705048585893, 68.53085748974806], [160.71811106830114, 68.53042151428926]]}, "properties": {"source": "419478", "target": "642083"}}, {"type": "Feature", "geometry": {"type": "LineString", "coordinates": [[160.72188314433134, 68.53176516971416], [160.71993401549508, 68.53343076396825]]}, "properties": {"source": "316904", "target": "3318439"}}, {"type": "Feature", "geometry": {"type": "LineString", "coordinates": [[160.71088914288885, 68.52904219277431], [160.7103303584281, 68.52903787392412]]}, "properties": {"source": "21032982", "target": "3270925"}}, {"type": "Feature", "geometry": {"type": "LineString", "coordinates": [[160.71088914288885, 68.52904219277431], [160.71500809881553, 68.53381409913024]]}, "properties": {"source": "21032982", "target": "486388"}}, {"type": "Feature", "geometry": {"type": "LineString", "coordinates": [[160.71088914288885, 68.52904219277431], [160.71115524321556, 68.52837785153591]]}, "properties": {"source": "21032982", "target": "2974421"}}, {"type": "Feature", "geometry": {"type": "LineString", "coordinates": [[160.712928251267, 68.53385717876898], [160.70470514949147, 68.53099128437407]]}, "properties": {"source": "2103825", "target": "20001193"}}, {"type": "Feature", "geometry": {"type": "LineString", "coordinates": [[160.71373450611532, 68.53536758736121], [160.72619389915377, 68.53181498921006]]}, "properties": {"source": "285289", "target": "1051315"}}, {"type": "Feature", "geometry": {"type": "LineString", "coordinates": [[160.71373450611532, 68.53536758736121], [160.72753635307134, 68.529778113622]]}, "properties": {"source": "285289", "target": "214779"}}, {"type": "Feature", "geometry": {"type": "LineString", "coordinates": [[160.72391471658545, 68.5298880908617], [160.7123226147878, 68.53253125830852]]}, "properties": {"source": "197680", "target": "4784691"}}, {"type": "Feature", "geometry": {"type": "LineString", "coordinates": [[160.72391471658545, 68.5298880908617], [160.72710523617945, 68.52896639275764]]}, "properties": {"source": "197680", "target": "955274"}}, {"type": "Feature", "geometry": {"type": "LineString", "coordinates": [[160.72391471658545, 68.5298880908617], [160.70723626295108, 68.533967169643]]}, "properties": {"source": "197680", "target": "20821287"}}, {"type": "Feature", "geometry": {"type": "LineString", "coordinates": [[160.72391471658545, 68.5298880908617], [160.71459173784012, 68.5351949637458]]}, "properties": {"source": "197680", "target": "150361"}}, {"type": "Feature", "geometry": {"type": "LineString", "coordinates": [[160.71373773616853, 68.53444218014096], [160.71993401549508, 68.53343076396825]]}, "properties": {"source": "1308139", "target": "3318439"}}, {"type": "Feature", "geometry": {"type": "LineString", "coordinates": [[160.71652481040127, 68.5296298862153], [160.7061045059845, 68.5316893046705]]}, "properties": {"source": "2297624", "target": "101272"}}, {"type": "Feature", "geometry": {"type": "LineString", "coordinates": [[160.71652481040127, 68.5296298862153], [160.7133751945031, 68.5297417435811]]}, "properties": {"source": "2297624", "target": "23847983"}}, {"type": "Feature", "geometry": {"type": "LineString", "coordinates": [[160.72710523617945, 68.52896639275764], [160.7123226147878, 68.53253125830852]]}, "properties": {"source": "955274", "target": "4784691"}}, {"type": "Feature", "geometry": {"type": "LineString", "coordinates": [[160.72710523617945, 68.52896639275764], [160.71459173784012, 68.5351949637458]]}, "properties": {"source": "955274", "target": "150361"}}, {"type": "Feature", "geometry": {"type": "LineString", "coordinates": [[160.72710523617945, 68.52896639275764], [160.7168932101975, 68.53573989078279]]}, "properties": {"source": "955274", "target": "509216"}}, {"type": "Feature", "geometry": {"type": "LineString", "coordinates": [[160.7081904929306, 68.52880667379148], [160.71652481040127, 68.5296298862153]]}, "properties": {"source": "25856414", "target": "2297624"}}, {"type": "Feature", "geometry": {"type": "LineString", "coordinates": [[160.7081904929306, 68.52880667379148], [160.70817932840816, 68.52952096093472]]}, "properties": {"source": "25856414", "target": "1073577"}}, {"type": "Feature", "geometry": {"type": "LineString", "coordinates": [[160.7081904929306, 68.52880667379148], [160.72814343338837, 68.5339868932349]]}, "properties": {"source": "25856414", "target": "1050142"}}, {"type": "Feature", "geometry": {"type": "LineString", "coordinates": [[160.7081904929306, 68.52880667379148], [160.72033068845803, 68.52910440490913]]}, "properties": {"source": "25856414", "target": "2154494"}}, {"type": "Feature", "geometry": {"type": "LineString", "coordinates": [[160.71112828533143, 68.53553826684094], [160.70656797506683, 68.52909738811113]]}, "properties": {"source": "9280354", "target": "197686"}}, {"type": "Feature", "geometry": {"type": "LineString", "coordinates": [[160.71112828533143, 68.53553826684094], [160.70790660150698, 68.53442347669804]]}, "properties": {"source": "9280354", "target": "1864398"}}, {"type": "Feature", "geometry": {"type": "LineString", "coordinates": [[160.71112828533143, 68.53553826684094], [160.71134534216947, 68.53357740106333]]}, "properties": {"source": "9280354", "target": "9763619"}}, {"type": "Feature", "geometry": {"type": "LineString", "coordinates": [[160.71112828533143, 68.53553826684094], [160.70723626295108, 68.533967169643]]}, "properties": {"source": "9280354", "target": "20821287"}}, {"type": "Feature", "geometry": {"type": "LineString", "coordinates": [[160.71112828533143, 68.53553826684094], [160.71913286468862, 68.53310454537805]]}, "properties": {"source": "9280354", "target": "22535453"}}, {"type": "Feature", "geometry": {"type": "LineString", "coordinates": [[160.70656797506683, 68.52909738811113], [160.7123226147878, 68.53253125830852]]}, "properties": {"source": "197686", "target": "4784691"}}, {"type": "Feature", "geometry": {"type": "LineString", "coordinates": [[160.71406204697342, 68.53451409950881], [160.71115524321556, 68.52837785153591]]}, "properties": {"source": "349906", "target": "2974421"}}, {"type": "Feature", "geometry": {"type": "LineString", "coordinates": [[160.71406204697342, 68.53451409950881], [160.71088914288885, 68.52904219277431]]}, "properties": {"source": "349906", "target": "21032982"}}, {"type": "Feature", "geometry": {"type": "LineString", "coordinates": [[160.71406204697342, 68.53451409950881], [160.71210809292887, 68.52910202983529]]}, "properties": {"source": "349906", "target": "612990"}}, {"type": "Feature", "geometry": {"type": "LineString", "coordinates": [[160.71162362046198, 68.52920179521473], [160.70470514949147, 68.53099128437407]]}, "properties": {"source": "1102487", "target": "20001193"}}, {"type": "Feature", "geometry": {"type": "LineString", "coordinates": [[160.71162362046198, 68.52920179521473], [160.71652481040127, 68.5296298862153]]}, "properties": {"source": "1102487", "target": "2297624"}}, {"type": "Feature", "geometry": {"type": "LineString", "coordinates": [[160.71162362046198, 68.52920179521473], [160.7149494373233, 68.53043836236711]]}, "properties": {"source": "1102487", "target": "3842803"}}, {"type": "Feature", "geometry": {"type": "LineString", "coordinates": [[160.71310355427926, 68.52912047820209], [160.72167111814275, 68.52985786694589]]}, "properties": {"source": "74618", "target": "6457545"}}, {"type": "Feature", "geometry": {"type": "LineString", "coordinates": [[160.71310355427926, 68.52912047820209], [160.72815256834508, 68.53420564019575]]}, "properties": {"source": "74618", "target": "731141"}}, {"type": "Feature", "geometry": {"type": "LineString", "coordinates": [[160.71310355427926, 68.52912047820209], [160.7147076716451, 68.5302866849378]]}, "properties": {"source": "74618", "target": "667288"}}, {"type": "Feature", "geometry": {"type": "LineString", "coordinates": [[160.71112828533143, 68.53553826684094], [160.71226095354803, 68.53389473143986]]}, "properties": {"source": "9280354", "target": "34274961"}}, {"type": "Feature", "geometry": {"type": "LineString", "coordinates": [[160.71090712290737, 68.53094006084419], [160.70865496962574, 68.53363830793845]]}, "properties": {"source": "292872", "target": "29262278"}}, {"type": "Feature", "geometry": {"type": "LineString", "coordinates": [[160.7202558280464, 68.52843873172452], [160.71371956855336, 68.53419842112046]]}, "properties": {"source": "1420475", "target": "19263675"}}, {"type": "Feature", "geometry": {"type": "LineString", "coordinates": [[160.7202558280464, 68.52843873172452], [160.70530703693117, 68.53174629342897]]}, "properties": {"source": "1420475", "target": "1031623"}}, {"type": "Feature", "geometry": {"type": "LineString", "coordinates": [[160.7202558280464, 68.52843873172452], [160.72172687238583, 68.529420838336]]}, "properties": {"source": "1420475", "target": "1033863"}}, {"type": "Feature", "geometry": {"type": "LineString", "coordinates": [[160.7202558280464, 68.52843873172452], [160.70519814937302, 68.52899892742275]]}, "properties": {"source": "1420475", "target": "1042558"}}, {"type": "Feature", "geometry": {"type": "LineString", "coordinates": [[160.7202558280464, 68.52843873172452], [160.7236148201264, 68.53096921680225]]}, "properties": {"source": "1420475", "target": "138917"}}, {"type": "Feature", "geometry": {"type": "LineString", "coordinates": [[160.72172687238583, 68.529420838336], [160.72815256834508, 68.53420564019575]]}, "properties": {"source": "1033863", "target": "731141"}}, {"type": "Feature", "geometry": {"type": "LineString", "coordinates": [[160.70530703693117, 68.53174629342897], [160.70699985060998, 68.53440879441953]]}, "properties": {"source": "1031623", "target": "4557827"}}, {"type": "Feature", "geometry": {"type": "LineString", "coordinates": [[160.70530703693117, 68.53174629342897], [160.72167111814275, 68.52985786694589]]}, "properties": {"source": "1031623", "target": "6457545"}}, {"type": "Feature", "geometry": {"type": "LineString", "coordinates": [[160.70530703693117, 68.53174629342897], [160.71373773616853, 68.53444218014096]]}, "properties": {"source": "1031623", "target": "1308139"}}, {"type": "Feature", "geometry": {"type": "LineString", "coordinates": [[160.70530703693117, 68.53174629342897], [160.71371956855336, 68.53419842112046]]}, "properties": {"source": "1031623", "target": "19263675"}}, {"type": "Feature", "geometry": {"type": "LineString", "coordinates": [[160.70530703693117, 68.53174629342897], [160.7174652300377, 68.52845085832084]]}, "properties": {"source": "1031623", "target": "334560"}}, {"type": "Feature", "geometry": {"type": "LineString", "coordinates": [[160.70530703693117, 68.53174629342897], [160.72815256834508, 68.53420564019575]]}, "properties": {"source": "1031623", "target": "731141"}}, {"type": "Feature", "geometry": {"type": "LineString", "coordinates": [[160.71134534216947, 68.53357740106333], [160.7123226147878, 68.53253125830852]]}, "properties": {"source": "9763619", "target": "4784691"}}, {"type": "Feature", "geometry": {"type": "LineString", "coordinates": [[160.71134534216947, 68.53357740106333], [160.72356617192662, 68.52982423620102]]}, "properties": {"source": "9763619", "target": "521824"}}, {"type": "Feature", "geometry": {"type": "LineString", "coordinates": [[160.70530703693117, 68.53174629342897], [160.7268667424858, 68.52985252980397]]}, "properties": {"source": "1031623", "target": "4505830"}}, {"type": "Feature", "geometry": {"type": "LineString", "coordinates": [[160.7174652300377, 68.52845085832084], [160.71993401549508, 68.53343076396825]]}, "properties": {"source": "334560", "target": "3318439"}}, {"type": "Feature", "geometry": {"type": "LineString", "coordinates": [[160.7174652300377, 68.52845085832084], [160.70519814937302, 68.52899892742275]]}, "properties": {"source": "334560", "target": "1042558"}}, {"type": "Feature", "geometry": {"type": "LineString", "coordinates": [[160.7174652300377, 68.52845085832084], [160.7157282184835, 68.53513505471753]]}, "properties": {"source": "334560", "target": "295474"}}, {"type": "Feature", "geometry": {"type": "LineString", "coordinates": [[160.7174652300377, 68.52845085832084], [160.72188314433134, 68.53176516971416]]}, "properties": {"source": "334560", "target": "316904"}}, {"type": "Feature", "geometry": {"type": "LineString", "coordinates": [[160.72815256834508, 68.53420564019575], [160.70519814937302, 68.52899892742275]]}, "properties": {"source": "731141", "target": "1042558"}}, {"type": "Feature", "geometry": {"type": "LineString", "coordinates": [[160.72423169611204, 68.52927971176226], [160.71993401549508, 68.53343076396825]]}, "properties": {"source": "3750283", "target": "3318439"}}, {"type": "Feature", "geometry": {"type": "LineString", "coordinates": [[160.70979539828897, 68.53377731974402], [160.70817932840816, 68.52952096093472]]}, "properties": {"source": "13138023", "target": "1073577"}}, {"type": "Feature", "geometry": {"type": "LineString", "coordinates": [[160.70979539828897, 68.53377731974402], [160.72814343338837, 68.5339868932349]]}, "properties": {"source": "13138023", "target": "1050142"}}, {"type": "Feature", "geometry": {"type": "LineString", "coordinates": [[160.70525798823866, 68.53200695587583], [160.72815256834508, 68.53420564019575]]}, "properties": {"source": "58475", "target": "731141"}}, {"type": "Feature", "geometry": {"type": "LineString", "coordinates": [[160.71686569855842, 68.5322420482751], [160.70633827712174, 68.53407959547084]]}, "properties": {"source": "32588129", "target": "27276348"}}, {"type": "Feature", "geometry": {"type": "LineString", "coordinates": [[160.71157103276784, 68.53207897862464], [160.71898723589368, 68.53470653918404]]}, "properties": {"source": "17315711", "target": "197389"}}, {"type": "Feature", "geometry": {"type": "LineString", "coordinates": [[160.70552912864815, 68.52860373675821], [160.72619389915377, 68.53181498921006]]}, "properties": {"source": "4531319", "target": "1051315"}}, {"type": "Feature", "geometry": {"type": "LineString", "coordinates": [[160.70552912864815, 68.52860373675821], [160.72753635307134, 68.529778113622]]}, "properties": {"source": "4531319", "target": "214779"}}, {"type": "Feature", "geometry": {"type": "LineString", "coordinates": [[160.72423169611204, 68.52927971176226], [160.7268667424858, 68.52985252980397]]}, "properties": {"source": "3750283", "target": "4505830"}}, {"type": "Feature", "geometry": {"type": "LineString", "coordinates": [[160.70979539828897, 68.53377731974402], [160.71157103276784, 68.53207897862464]]}, "properties": {"source": "13138023", "target": "17315711"}}, {"type": "Feature", "geometry": {"type": "LineString", "coordinates": [[160.70525798823866, 68.53200695587583], [160.7268667424858, 68.52985252980397]]}, "properties": {"source": "58475", "target": "4505830"}}, {"type": "Feature", "geometry": {"type": "LineString", "coordinates": [[160.71406204697342, 68.53451409950881], [160.7103303584281, 68.52903787392412]]}, "properties": {"source": "349906", "target": "3270925"}}, {"type": "Feature", "geometry": {"type": "LineString", "coordinates": [[160.71406204697342, 68.53451409950881], [160.71500809881553, 68.53381409913024]]}, "properties": {"source": "349906", "target": "486388"}}, {"type": "Feature", "geometry": {"type": "LineString", "coordinates": [[160.72495704166522, 68.53385206226213], [160.70699985060998, 68.53440879441953]]}, "properties": {"source": "439861", "target": "4557827"}}, {"type": "Feature", "geometry": {"type": "LineString", "coordinates": [[160.72495704166522, 68.53385206226213], [160.72423169611204, 68.52927971176226]]}, "properties": {"source": "439861", "target": "3750283"}}, {"type": "Feature", "geometry": {"type": "LineString", "coordinates": [[160.72495704166522, 68.53385206226213], [160.71211474264572, 68.52939451981663]]}, "properties": {"source": "439861", "target": "304863"}}, {"type": "Feature", "geometry": {"type": "LineString", "coordinates": [[160.72495704166522, 68.53385206226213], [160.7263379948687, 68.52965231808733]]}, "properties": {"source": "439861", "target": "33616"}}, {"type": "Feature", "geometry": {"type": "LineString", "coordinates": [[160.7116981866169, 68.5282337359088], [160.71993401549508, 68.53343076396825]]}, "properties": {"source": "1270390", "target": "3318439"}}, {"type": "Feature", "geometry": {"type": "LineString", "coordinates": [[160.7116981866169, 68.5282337359088], [160.72167111814275, 68.52985786694589]]}, "properties": {"source": "1270390", "target": "6457545"}}, {"type": "Feature", "geometry": {"type": "LineString", "coordinates": [[160.7116981866169, 68.5282337359088], [160.71373773616853, 68.53444218014096]]}, "properties": {"source": "1270390", "target": "1308139"}}, {"type": "Feature", "geometry": {"type": "LineString", "coordinates": [[160.7116981866169, 68.5282337359088], [160.71371956855336, 68.53419842112046]]}, "properties": {"source": "1270390", "target": "19263675"}}, {"type": "Feature", "geometry": {"type": "LineString", "coordinates": [[160.7262615152908, 68.53369049427687], [160.70470514949147, 68.53099128437407]]}, "properties": {"source": "1206378", "target": "20001193"}}, {"type": "Feature", "geometry": {"type": "LineString", "coordinates": [[160.7262615152908, 68.53369049427687], [160.71652481040127, 68.5296298862153]]}, "properties": {"source": "1206378", "target": "2297624"}}, {"type": "Feature", "geometry": {"type": "LineString", "coordinates": [[160.7262615152908, 68.53369049427687], [160.7081904929306, 68.52880667379148]]}, "properties": {"source": "1206378", "target": "25856414"}}, {"type": "Feature", "geometry": {"type": "LineString", "coordinates": [[160.7262615152908, 68.53369049427687], [160.7149494373233, 68.53043836236711]]}, "properties": {"source": "1206378", "target": "3842803"}}, {"type": "Feature", "geometry": {"type": "LineString", "coordinates": [[160.72495704166522, 68.53385206226213], [160.7268667424858, 68.52985252980397]]}, "properties": {"source": "439861", "target": "4505830"}}, {"type": "Feature", "geometry": {"type": "LineString", "coordinates": [[160.7116981866169, 68.5282337359088], [160.7268667424858, 68.52985252980397]]}, "properties": {"source": "1270390", "target": "4505830"}}, {"type": "Feature", "geometry": {"type": "LineString", "coordinates": [[160.7094311499522, 68.53068914068598], [160.71310355427926, 68.52912047820209]]}, "properties": {"source": "464255", "target": "74618"}}, {"type": "Feature", "geometry": {"type": "LineString", "coordinates": [[160.72192013512392, 68.53599339980076], [160.71500809881553, 68.53381409913024]]}, "properties": {"source": "6506080", "target": "486388"}}, {"type": "Feature", "geometry": {"type": "LineString", "coordinates": [[160.7175581879768, 68.53605803090471], [160.71337608293038, 68.530375199204]]}, "properties": {"source": "4492968", "target": "372009"}}, {"type": "Feature", "geometry": {"type": "LineString", "coordinates": [[160.72225328050757, 68.53217631729842], [160.72814343338837, 68.5339868932349]]}, "properties": {"source": "548316", "target": "1050142"}}, {"type": "Feature", "geometry": {"type": "LineString", "coordinates": [[160.71094706756026, 68.5309212291964], [160.71459173784012, 68.5351949637458]]}, "properties": {"source": "5077795", "target": "150361"}}, {"type": "Feature", "geometry": {"type": "LineString", "coordinates": [[160.7278460600864, 68.53213745438816], [160.71512655293702, 68.53136016546406]]}, "properties": {"source": "23224075", "target": "12617062"}}, {"type": "Feature", "geometry": {"type": "LineString", "coordinates": [[160.713252627656, 68.52818682454406], [160.71516340527018, 68.52859293585769]]}, "properties": {"source": "10369875", "target": "19831"}}, {"type": "Feature", "geometry": {"type": "LineString", "coordinates": [[160.71993401549508, 68.53343076396825], [160.70519814937302, 68.52899892742275]]}, "properties": {"source": "3318439", "target": "1042558"}}, {"type": "Feature", "geometry": {"type": "LineString", "coordinates": [[160.71993401549508, 68.53343076396825], [160.7157282184835, 68.53513505471753]]}, "properties": {"source": "3318439", "target": "295474"}}, {"type": "Feature", "geometry": {"type": "LineString", "coordinates": [[160.71993401549508, 68.53343076396825], [160.71811106830114, 68.53042151428926]]}, "properties": {"source": "3318439", "target": "642083"}}, {"type": "Feature", "geometry": {"type": "LineString", "coordinates": [[160.71993401549508, 68.53343076396825], [160.71312303660534, 68.53463878286885]]}, "properties": {"source": "3318439", "target": "1173609"}}, {"type": "Feature", "geometry": {"type": "LineString", "coordinates": [[160.72388767476355, 68.53005501382651], [160.7123226147878, 68.53253125830852]]}, "properties": {"source": "398103", "target": "4784691"}}, {"type": "Feature", "geometry": {"type": "LineString", "coordinates": [[160.72388767476355, 68.53005501382651], [160.72356617192662, 68.52982423620102]]}, "properties": {"source": "398103", "target": "521824"}}, {"type": "Feature", "geometry": {"type": "LineString", "coordinates": [[160.72388767476355, 68.53005501382651], [160.72710523617945, 68.52896639275764]]}, "properties": {"source": "398103", "target": "955274"}}, {"type": "Feature", "geometry": {"type": "LineString", "coordinates": [[160.72388767476355, 68.53005501382651], [160.71373450611532, 68.53536758736121]]}, "properties": {"source": "398103", "target": "285289"}}, {"type": "Feature", "geometry": {"type": "LineString", "coordinates": [[160.72388767476355, 68.53005501382651], [160.72391471658545, 68.5298880908617]]}, "properties": {"source": "398103", "target": "197680"}}, {"type": "Feature", "geometry": {"type": "LineString", "coordinates": [[160.7103303584281, 68.52903787392412], [160.7149494373233, 68.53043836236711]]}, "properties": {"source": "3270925", "target": "3842803"}}, {"type": "Feature", "geometry": {"type": "LineString", "coordinates": [[160.7103303584281, 68.52903787392412], [160.71500809881553, 68.53381409913024]]}, "properties": {"source": "3270925", "target": "486388"}}, {"type": "Feature", "geometry": {"type": "LineString", "coordinates": [[160.7103303584281, 68.52903787392412], [160.71115524321556, 68.52837785153591]]}, "properties": {"source": "3270925", "target": "2974421"}}, {"type": "Feature", "geometry": {"type": "LineString", "coordinates": [[160.7103303584281, 68.52903787392412], [160.70633827712174, 68.53407959547084]]}, "properties": {"source": "3270925", "target": "27276348"}}, {"type": "Feature", "geometry": {"type": "LineString", "coordinates": [[160.7103303584281, 68.52903787392412], [160.71210809292887, 68.52910202983529]]}, "properties": {"source": "3270925", "target": "612990"}}, {"type": "Feature", "geometry": {"type": "LineString", "coordinates": [[160.7103303584281, 68.52903787392412], [160.71686569855842, 68.5322420482751]]}, "properties": {"source": "3270925", "target": "32588129"}}, {"type": "Feature", "geometry": {"type": "LineString", "coordinates": [[160.7149494373233, 68.53043836236711], [160.70817932840816, 68.52952096093472]]}, "properties": {"source": "3842803", "target": "1073577"}}, {"type": "Feature", "geometry": {"type": "LineString", "coordinates": [[160.71373773616853, 68.53444218014096], [160.7123226147878, 68.53253125830852]]}, "properties": {"source": "1308139", "target": "4784691"}}, {"type": "Feature", "geometry": {"type": "LineString", "coordinates": [[160.71373773616853, 68.53444218014096], [160.70519814937302, 68.52899892742275]]}, "properties": {"source": "1308139", "target": "1042558"}}, {"type": "Feature", "geometry": {"type": "LineString", "coordinates": [[160.71373773616853, 68.53444218014096], [160.71312303660534, 68.53463878286885]]}, "properties": {"source": "1308139", "target": "1173609"}}, {"type": "Feature", "geometry": {"type": "LineString", "coordinates": [[160.71112828533143, 68.53553826684094], [160.72388767476355, 68.53005501382651]]}, "properties": {"source": "9280354", "target": "398103"}}, {"type": "Feature", "geometry": {"type": "LineString", "coordinates": [[160.71112828533143, 68.53553826684094], [160.7123226147878, 68.53253125830852]]}, "properties": {"source": "9280354", "target": "4784691"}}, {"type": "Feature", "geometry": {"type": "LineString", "coordinates": [[160.71112828533143, 68.53553826684094], [160.72356617192662, 68.52982423620102]]}, "properties": {"source": "9280354", "target": "521824"}}, {"type": "Feature", "geometry": {"type": "LineString", "coordinates": [[160.71112828533143, 68.53553826684094], [160.72710523617945, 68.52896639275764]]}, "properties": {"source": "9280354", "target": "955274"}}, {"type": "Feature", "geometry": {"type": "LineString", "coordinates": [[160.71112828533143, 68.53553826684094], [160.72391471658545, 68.5298880908617]]}, "properties": {"source": "9280354", "target": "197680"}}, {"type": "Feature", "geometry": {"type": "LineString", "coordinates": [[160.71373773616853, 68.53444218014096], [160.7268667424858, 68.52985252980397]]}, "properties": {"source": "1308139", "target": "4505830"}}, {"type": "Feature", "geometry": {"type": "LineString", "coordinates": [[160.72854099487841, 68.5283198266701], [160.72356617192662, 68.52982423620102]]}, "properties": {"source": "25785317", "target": "521824"}}, {"type": "Feature", "geometry": {"type": "LineString", "coordinates": [[160.72854099487841, 68.5283198266701], [160.72710523617945, 68.52896639275764]]}, "properties": {"source": "25785317", "target": "955274"}}, {"type": "Feature", "geometry": {"type": "LineString", "coordinates": [[160.72854099487841, 68.5283198266701], [160.72391471658545, 68.5298880908617]]}, "properties": {"source": "25785317", "target": "197680"}}, {"type": "Feature", "geometry": {"type": "LineString", "coordinates": [[160.72854099487841, 68.5283198266701], [160.70790660150698, 68.53442347669804]]}, "properties": {"source": "25785317", "target": "1864398"}}, {"type": "Feature", "geometry": {"type": "LineString", "coordinates": [[160.7236148201264, 68.53096921680225], [160.72815256834508, 68.53420564019575]]}, "properties": {"source": "138917", "target": "731141"}}, {"type": "Feature", "geometry": {"type": "LineString", "coordinates": [[160.71913286468862, 68.53310454537805], [160.7123226147878, 68.53253125830852]]}, "properties": {"source": "22535453", "target": "4784691"}}, {"type": "Feature", "geometry": {"type": "LineString", "coordinates": [[160.71913286468862, 68.53310454537805], [160.72710523617945, 68.52896639275764]]}, "properties": {"source": "22535453", "target": "955274"}}, {"type": "Feature", "geometry": {"type": "LineString", "coordinates": [[160.7250740880499, 68.53051882337971], [160.71993401549508, 68.53343076396825]]}, "properties": {"source": "13230780", "target": "3318439"}}, {"type": "Feature", "geometry": {"type": "LineString", "coordinates": [[160.7250740880499, 68.53051882337971], [160.71194252880025, 68.53152223285326]]}, "properties": {"source": "13230780", "target": "855695"}}, {"type": "Feature", "geometry": {"type": "LineString", "coordinates": [[160.7250740880499, 68.53051882337971], [160.71811106830114, 68.53042151428926]]}, "properties": {"source": "13230780", "target": "642083"}}, {"type": "Feature", "geometry": {"type": "LineString", "coordinates": [[160.7250740880499, 68.53051882337971], [160.70705048585893, 68.53085748974806]]}, "properties": {"source": "13230780", "target": "419478"}}, {"type": "Feature", "geometry": {"type": "LineString", "coordinates": [[160.71194252880025, 68.53152223285326], [160.71993401549508, 68.53343076396825]]}, "properties": {"source": "855695", "target": "3318439"}}, {"type": "Feature", "geometry": {"type": "LineString", "coordinates": [[160.71194252880025, 68.53152223285326], [160.71811106830114, 68.53042151428926]]}, "properties": {"source": "855695", "target": "642083"}}, {"type": "Feature", "geometry": {"type": "LineString", "coordinates": [[160.71194252880025, 68.53152223285326], [160.70705048585893, 68.53085748974806]]}, "properties": {"source": "855695", "target": "419478"}}, {"type": "Feature", "geometry": {"type": "LineString", "coordinates": [[160.7236148201264, 68.53096921680225], [160.7268667424858, 68.52985252980397]]}, "properties": {"source": "138917", "target": "4505830"}}, {"type": "Feature", "geometry": {"type": "LineString", "coordinates": [[160.7236148201264, 68.53096921680225], [160.71985895185935, 68.53506244879333]]}, "properties": {"source": "138917", "target": "2850547"}}, {"type": "Feature", "geometry": {"type": "LineString", "coordinates": [[160.7263379948687, 68.52965231808733], [160.70699985060998, 68.53440879441953]]}, "properties": {"source": "33616", "target": "4557827"}}, {"type": "Feature", "geometry": {"type": "LineString", "coordinates": [[160.7263379948687, 68.52965231808733], [160.7174652300377, 68.52845085832084]]}, "properties": {"source": "33616", "target": "334560"}}, {"type": "Feature", "geometry": {"type": "LineString", "coordinates": [[160.7263379948687, 68.52965231808733], [160.72423169611204, 68.52927971176226]]}, "properties": {"source": "33616", "target": "3750283"}}, {"type": "Feature", "geometry": {"type": "LineString", "coordinates": [[160.7263379948687, 68.52965231808733], [160.71211474264572, 68.52939451981663]]}, "properties": {"source": "33616", "target": "304863"}}, {"type": "Feature", "geometry": {"type": "LineString", "coordinates": [[160.71226095354803, 68.53389473143986], [160.72356617192662, 68.52982423620102]]}, "properties": {"source": "34274961", "target": "521824"}}, {"type": "Feature", "geometry": {"type": "LineString", "coordinates": [[160.71226095354803, 68.53389473143986], [160.72710523617945, 68.52896639275764]]}, "properties": {"source": "34274961", "target": "955274"}}, {"type": "Feature", "geometry": {"type": "LineString", "coordinates": [[160.7232154972329, 68.53545006833565], [160.71337608293038, 68.530375199204]]}, "properties": {"source": "4466386", "target": "372009"}}, {"type": "Feature", "geometry": {"type": "LineString", "coordinates": [[160.70914423269966, 68.52876269335306], [160.7081904929306, 68.52880667379148]]}, "properties": {"source": "30185", "target": "25856414"}}, {"type": "Feature", "geometry": {"type": "LineString", "coordinates": [[160.70914423269966, 68.52876269335306], [160.7103303584281, 68.52903787392412]]}, "properties": {"source": "30185", "target": "3270925"}}, {"type": "Feature", "geometry": {"type": "LineString", "coordinates": [[160.70686140003284, 68.53204741572807], [160.71371956855336, 68.53419842112046]]}, "properties": {"source": "1659914", "target": "19263675"}}, {"type": "Feature", "geometry": {"type": "LineString", "coordinates": [[160.70686140003284, 68.53204741572807], [160.715849927254, 68.53606549797303]]}, "properties": {"source": "1659914", "target": "2058155"}}, {"type": "Feature", "geometry": {"type": "LineString", "coordinates": [[160.7099365220181, 68.53159166618164], [160.71371956855336, 68.53419842112046]]}, "properties": {"source": "26008960", "target": "19263675"}}, {"type": "Feature", "geometry": {"type": "LineString", "coordinates": [[160.71512655293702, 68.53136016546406], [160.71500809881553, 68.53381409913024]]}, "properties": {"source": "12617062", "target": "486388"}}, {"type": "Feature", "geometry": {"type": "LineString", "coordinates": [[160.7263379948687, 68.52965231808733], [160.7268667424858, 68.52985252980397]]}, "properties": {"source": "33616", "target": "4505830"}}, {"type": "Feature", "geometry": {"type": "LineString", "coordinates": [[160.7099365220181, 68.53159166618164], [160.71985895185935, 68.53506244879333]]}, "properties": {"source": "26008960", "target": "2850547"}}, {"type": "Feature", "geometry": {"type": "LineString", "coordinates": [[160.7133545717258, 68.53047832867986], [160.71985895185935, 68.53506244879333]]}, "properties": {"source": "42449", "target": "2850547"}}, {"type": "Feature", "geometry": {"type": "LineString", "coordinates": [[160.71310355427926, 68.52912047820209], [160.7090013636514, 68.53057430184586]]}, "properties": {"source": "74618", "target": "836582"}}, {"type": "Feature", "geometry": {"type": "LineString", "coordinates": [[160.71773729778698, 68.53273646776114], [160.71993401549508, 68.53343076396825]]}, "properties": {"source": "1243562", "target": "3318439"}}, {"type": "Feature", "geometry": {"type": "LineString", "coordinates": [[160.71773729778698, 68.53273646776114], [160.7250740880499, 68.53051882337971]]}, "properties": {"source": "1243562", "target": "13230780"}}, {"type": "Feature", "geometry": {"type": "LineString", "coordinates": [[160.71773729778698, 68.53273646776114], [160.71194252880025, 68.53152223285326]]}, "properties": {"source": "1243562", "target": "855695"}}, {"type": "Feature", "geometry": {"type": "LineString", "coordinates": [[160.71773729778698, 68.53273646776114], [160.71811106830114, 68.53042151428926]]}, "properties": {"source": "1243562", "target": "642083"}}, {"type": "Feature", "geometry": {"type": "LineString", "coordinates": [[160.7159984934375, 68.52880489540996], [160.70470514949147, 68.53099128437407]]}, "properties": {"source": "23848458", "target": "20001193"}}, {"type": "Feature", "geometry": {"type": "LineString", "coordinates": [[160.7159984934375, 68.52880489540996], [160.71652481040127, 68.5296298862153]]}, "properties": {"source": "23848458", "target": "2297624"}}, {"type": "Feature", "geometry": {"type": "LineString", "coordinates": [[160.715073163049, 68.5307955277544], [160.7149494373233, 68.53043836236711]]}, "properties": {"source": "12687322", "target": "3842803"}}, {"type": "Feature", "geometry": {"type": "LineString", "coordinates": [[160.715073163049, 68.5307955277544], [160.70979539828897, 68.53377731974402]]}, "properties": {"source": "12687322", "target": "13138023"}}, {"type": "Feature", "geometry": {"type": "LineString", "coordinates": [[160.715849927254, 68.53606549797303], [160.71371956855336, 68.53419842112046]]}, "properties": {"source": "2058155", "target": "19263675"}}, {"type": "Feature", "geometry": {"type": "LineString", "coordinates": [[160.715849927254, 68.53606549797303], [160.7236148201264, 68.53096921680225]]}, "properties": {"source": "2058155", "target": "138917"}}, {"type": "Feature", "geometry": {"type": "LineString", "coordinates": [[160.715849927254, 68.53606549797303], [160.7157282184835, 68.53513505471753]]}, "properties": {"source": "2058155", "target": "295474"}}, {"type": "Feature", "geometry": {"type": "LineString", "coordinates": [[160.715849927254, 68.53606549797303], [160.7099365220181, 68.53159166618164]]}, "properties": {"source": "2058155", "target": "26008960"}}, {"type": "Feature", "geometry": {"type": "LineString", "coordinates": [[160.7147076716451, 68.5302866849378], [160.70699985060998, 68.53440879441953]]}, "properties": {"source": "667288", "target": "4557827"}}, {"type": "Feature", "geometry": {"type": "LineString", "coordinates": [[160.7147076716451, 68.5302866849378], [160.72167111814275, 68.52985786694589]]}, "properties": {"source": "667288", "target": "6457545"}}, {"type": "Feature", "geometry": {"type": "LineString", "coordinates": [[160.715849927254, 68.53606549797303], [160.71985895185935, 68.53506244879333]]}, "properties": {"source": "2058155", "target": "2850547"}}]}