{"type": "FeatureCollection", "features": [{"type": "Feature", "geometry": {"type": "LineString", "coordinates": [[-66.49794162162974, 69.23283501539007], [-66.49974092137575, 69.23252635586803]]}, "properties": {"source": "1351751", "target": "1168939"}}, {"type": "Feature", "geometry": {"type": "LineString", "coordinates": [[-66.49794162162974, 69.23283501539007], [-66.50248522999308, 69.23267914802506]]}, "properties": {"source": "1351751", "target": "1351516"}}, {"type": "Feature", "geometry": {"type": "LineString", "coordinates": [[-66.50632857556319, 69.23149776748974], [-66.50436909065839, 69.23242498913177]]}, "properties": {"source": "6348132", "target": "747252"}}, {"type": "Feature", "geometry": {"type": "LineString", "coordinates": [[-66.50632857556319, 69.23149776748974], [-66.49762196524699, 69.23141619524353]]}, "properties": {"source": "6348132", "target": "6744143"}}, {"type": "Feature", "geometry": {"type": "LineString", "coordinates": [[-66.49844738002717, 69.23293273508645], [-66.50603334132997, 69.23298342761754]]}, "properties": {"source": "6473888", "target": "1172721"}}, {"type": "Feature", "geometry": {"type": "LineString", "coordinates": [[-66.49844738002717, 69.23293273508645], [-66.49869758721563, 69.23228106291401]]}, "properties": {"source": "6473888", "target": "1351653"}}, {"type": "Feature", "geometry": {"type": "LineString", "coordinates": [[-66.49844738002717, 69.23293273508645], [-66.49682337442552, 69.233463462477]]}, "properties": {"source": "6473888", "target": "1351527"}}, {"type": "Feature", "geometry": {"type": "LineString", "coordinates": [[-66.49844738002717, 69.23293273508645], [-66.49974092137575, 69.23252635586803]]}, "properties": {"source": "6473888", "target": "1168939"}}, {"type": "Feature", "geometry": {"type": "LineString", "coordinates": [[-66.49844738002717, 69.23293273508645], [-66.50124153165012, 69.2301308012303]]}, "properties": {"source": "6473888", "target": "6585140"}}, {"type": "Feature", "geometry": {"type": "LineString", "coordinates": [[-66.49844738002717, 69.23293273508645], [-66.49699835028538, 69.22974000770441]]}, "properties": {"source": "6473888", "target": "1110791"}}, {"type": "Feature", "geometry": {"type": "LineString", "coordinates": [[-66.49844738002717, 69.23293273508645], [-66.50015027248577, 69.23181416606829]]}, "properties": {"source": "6473888", "target": "1351706"}}, {"type": "Feature", "geometry": {"type": "LineString", "coordinates": [[-66.49844738002717, 69.23293273508645], [-66.50388126156047, 69.23241195397827]]}, "properties": {"source": "6473888", "target": "1351669"}}, {"type": "Feature", "geometry": {"type": "LineString", "coordinates": [[-66.49844738002717, 69.23293273508645], [-66.50645203828776, 69.23110441457021]]}, "properties": {"source": "6473888", "target": "532872"}}, {"type": "Feature", "geometry": {"type": "LineString", "coordinates": [[-66.49844738002717, 69.23293273508645], [-66.49643070135677, 69.23274495560861]]}, "properties": {"source": "6473888", "target": "1351479"}}, {"type": "Feature", "geometry": {"type": "LineString", "coordinates": [[-66.49726220366496, 69.23124672320662], [-66.50603334132997, 69.23298342761754]]}, "properties": {"source": "159590", "target": "1172721"}}, {"type": "Feature", "geometry": {"type": "LineString", "coordinates": [[-66.49726220366496, 69.23124672320662], [-66.49869758721563, 69.23228106291401]]}, "properties": {"source": "159590", "target": "1351653"}}, {"type": "Feature", "geometry": {"type": "LineString", "coordinates": [[-66.49726220366496, 69.23124672320662], [-66.49682337442552, 69.233463462477]]}, "properties": {"source": "159590", "target": "1351527"}}, {"type": "Feature", "geometry": {"type": "LineString", "coordinates": [[-66.49726220366496, 69.23124672320662], [-66.49974092137575, 69.23252635586803]]}, "properties": {"source": "159590", "target": "1168939"}}, {"type": "Feature", "geometry": {"type": "LineString", "coordinates": [[-66.50544692493759, 69.23216290586458], [-66.50343596980184, 69.23137869284216]]}, "properties": {"source": "7843495", "target": "949497"}}, {"type": "Feature", "geometry": {"type": "LineString", "coordinates": [[-66.49873010325256, 69.2318125266658], [-66.50544692493759, 69.23216290586458]]}, "properties": {"source": "7689983", "target": "7843495"}}, {"type": "Feature", "geometry": {"type": "LineString", "coordinates": [[-66.49808290117977, 69.22991343755402], [-66.50603334132997, 69.23298342761754]]}, "properties": {"source": "6992502", "target": "1172721"}}, {"type": "Feature", "geometry": {"type": "LineString", "coordinates": [[-66.49808290117977, 69.22991343755402], [-66.49869758721563, 69.23228106291401]]}, "properties": {"source": "6992502", "target": "1351653"}}, {"type": "Feature", "geometry": {"type": "LineString", "coordinates": [[-66.49808290117977, 69.22991343755402], [-66.49873010325256, 69.2318125266658]]}, "properties": {"source": "6992502", "target": "7689983"}}, {"type": "Feature", "geometry": {"type": "LineString", "coordinates": [[-66.49808290117977, 69.22991343755402], [-66.49682337442552, 69.233463462477]]}, "properties": {"source": "6992502", "target": "1351527"}}, {"type": "Feature", "geometry": {"type": "LineString", "coordinates": [[-66.49808290117977, 69.22991343755402], [-66.49974092137575, 69.23252635586803]]}, "properties": {"source": "6992502", "target": "1168939"}}, {"type": "Feature", "geometry": {"type": "LineString", "coordinates": [[-66.49808290117977, 69.22991343755402], [-66.50124153165012, 69.2301308012303]]}, "properties": {"source": "6992502", "target": "6585140"}}, {"type": "Feature", "geometry": {"type": "LineString", "coordinates": [[-66.49808290117977, 69.22991343755402], [-66.50436909065839, 69.23242498913177]]}, "properties": {"source": "6992502", "target": "747252"}}, {"type": "Feature", "geometry": {"type": "LineString", "coordinates": [[-66.49808290117977, 69.22991343755402], [-66.50015027248577, 69.23181416606829]]}, "properties": {"source": "6992502", "target": "1351706"}}, {"type": "Feature", "geometry": {"type": "LineString", "coordinates": [[-66.49794162162974, 69.23283501539007], [-66.49808290117977, 69.22991343755402]]}, "properties": {"source": "1351751", "target": "6992502"}}, {"type": "Feature", "geometry": {"type": "LineString", "coordinates": [[-66.49794162162974, 69.23283501539007], [-66.49780378147166, 69.23245179729815]]}, "properties": {"source": "1351751", "target": "1351796"}}, {"type": "Feature", "geometry": {"type": "LineString", "coordinates": [[-66.49794162162974, 69.23283501539007], [-66.49726220366496, 69.23124672320662]]}, "properties": {"source": "1351751", "target": "159590"}}, {"type": "Feature", "geometry": {"type": "LineString", "coordinates": [[-66.49794162162974, 69.23283501539007], [-66.50603334132997, 69.23298342761754]]}, "properties": {"source": "1351751", "target": "1172721"}}, {"type": "Feature", "geometry": {"type": "LineString", "coordinates": [[-66.49794162162974, 69.23283501539007], [-66.49869758721563, 69.23228106291401]]}, "properties": {"source": "1351751", "target": "1351653"}}, {"type": "Feature", "geometry": {"type": "LineString", "coordinates": [[-66.49794162162974, 69.23283501539007], [-66.49682337442552, 69.233463462477]]}, "properties": {"source": "1351751", "target": "1351527"}}, {"type": "Feature", "geometry": {"type": "LineString", "coordinates": [[-66.49726220366496, 69.23124672320662], [-66.49699835028538, 69.22974000770441]]}, "properties": {"source": "159590", "target": "1110791"}}, {"type": "Feature", "geometry": {"type": "LineString", "coordinates": [[-66.49726220366496, 69.23124672320662], [-66.50015027248577, 69.23181416606829]]}, "properties": {"source": "159590", "target": "1351706"}}, {"type": "Feature", "geometry": {"type": "LineString", "coordinates": [[-66.49726220366496, 69.23124672320662], [-66.50388126156047, 69.23241195397827]]}, "properties": {"source": "159590", "target": "1351669"}}, {"type": "Feature", "geometry": {"type": "LineString", "coordinates": [[-66.49726220366496, 69.23124672320662], [-66.4960962686876, 69.23066588419124]]}, "properties": {"source": "159590", "target": "1351687"}}, {"type": "Feature", "geometry": {"type": "LineString", "coordinates": [[-66.49726220366496, 69.23124672320662], [-66.49643070135677, 69.23274495560861]]}, "properties": {"source": "159590", "target": "1351479"}}, {"type": "Feature", "geometry": {"type": "LineString", "coordinates": [[-66.49726220366496, 69.23124672320662], [-66.4963949198618, 69.23312407899971]]}, "properties": {"source": "159590", "target": "1444005"}}, {"type": "Feature", "geometry": {"type": "LineString", "coordinates": [[-66.49726220366496, 69.23124672320662], [-66.5053266345751, 69.23137253726333]]}, "properties": {"source": "159590", "target": "1722143"}}, {"type": "Feature", "geometry": {"type": "LineString", "coordinates": [[-66.50603334132997, 69.23298342761754], [-66.49974092137575, 69.23252635586803]]}, "properties": {"source": "1172721", "target": "1168939"}}, {"type": "Feature", "geometry": {"type": "LineString", "coordinates": [[-66.50603334132997, 69.23298342761754], [-66.50388126156047, 69.23241195397827]]}, "properties": {"source": "1172721", "target": "1351669"}}, {"type": "Feature", "geometry": {"type": "LineString", "coordinates": [[-66.50603334132997, 69.23298342761754], [-66.50272995363203, 69.23176185318783]]}, "properties": {"source": "1172721", "target": "3153099"}}, {"type": "Feature", "geometry": {"type": "LineString", "coordinates": [[-66.49869758721563, 69.23228106291401], [-66.50388126156047, 69.23241195397827]]}, "properties": {"source": "1351653", "target": "1351669"}}, {"type": "Feature", "geometry": {"type": "LineString", "coordinates": [[-66.49869758721563, 69.23228106291401], [-66.50591178818627, 69.2302233719266]]}, "properties": {"source": "1351653", "target": "7140623"}}, {"type": "Feature", "geometry": {"type": "LineString", "coordinates": [[-66.49869758721563, 69.23228106291401], [-66.5033000135621, 69.23104079975721]]}, "properties": {"source": "1351653", "target": "7135281"}}, {"type": "Feature", "geometry": {"type": "LineString", "coordinates": [[-66.50544692493759, 69.23216290586458], [-66.5037274158577, 69.23132548615385]]}, "properties": {"source": "7843495", "target": "799147"}}, {"type": "Feature", "geometry": {"type": "LineString", "coordinates": [[-66.50544692493759, 69.23216290586458], [-66.50124153165012, 69.2301308012303]]}, "properties": {"source": "7843495", "target": "6585140"}}, {"type": "Feature", "geometry": {"type": "LineString", "coordinates": [[-66.50544692493759, 69.23216290586458], [-66.50060187329707, 69.23342003389314]]}, "properties": {"source": "7843495", "target": "8008082"}}, {"type": "Feature", "geometry": {"type": "LineString", "coordinates": [[-66.4956554113976, 69.23024396113104], [-66.5028983646, 69.23022833091144]]}, "properties": {"source": "8933010", "target": "8525606"}}, {"type": "Feature", "geometry": {"type": "LineString", "coordinates": [[-66.50155640720598, 69.23285878885707], [-66.50259288225637, 69.23203486150712]]}, "properties": {"source": "7851770", "target": "9279711"}}, {"type": "Feature", "geometry": {"type": "LineString", "coordinates": [[-66.49794162162974, 69.23283501539007], [-66.49699835028538, 69.22974000770441]]}, "properties": {"source": "1351751", "target": "1110791"}}, {"type": "Feature", "geometry": {"type": "LineString", "coordinates": [[-66.49794162162974, 69.23283501539007], [-66.50015027248577, 69.23181416606829]]}, "properties": {"source": "1351751", "target": "1351706"}}, {"type": "Feature", "geometry": {"type": "LineString", "coordinates": [[-66.49794162162974, 69.23283501539007], [-66.50388126156047, 69.23241195397827]]}, "properties": {"source": "1351751", "target": "1351669"}}, {"type": "Feature", "geometry": {"type": "LineString", "coordinates": [[-66.49794162162974, 69.23283501539007], [-66.4960962686876, 69.23066588419124]]}, "properties": {"source": "1351751", "target": "1351687"}}, {"type": "Feature", "geometry": {"type": "LineString", "coordinates": [[-66.49794162162974, 69.23283501539007], [-66.49643070135677, 69.23274495560861]]}, "properties": {"source": "1351751", "target": "1351479"}}, {"type": "Feature", "geometry": {"type": "LineString", "coordinates": [[-66.49794162162974, 69.23283501539007], [-66.4963949198618, 69.23312407899971]]}, "properties": {"source": "1351751", "target": "1444005"}}, {"type": "Feature", "geometry": {"type": "LineString", "coordinates": [[-66.49780378147166, 69.23245179729815], [-66.49808290117977, 69.22991343755402]]}, "properties": {"source": "1351796", "target": "6992502"}}, {"type": "Feature", "geometry": {"type": "LineString", "coordinates": [[-66.49780378147166, 69.23245179729815], [-66.49726220366496, 69.23124672320662]]}, "properties": {"source": "1351796", "target": "159590"}}, {"type": "Feature", "geometry": {"type": "LineString", "coordinates": [[-66.49780378147166, 69.23245179729815], [-66.50603334132997, 69.23298342761754]]}, "properties": {"source": "1351796", "target": "1172721"}}, {"type": "Feature", "geometry": {"type": "LineString", "coordinates": [[-66.49780378147166, 69.23245179729815], [-66.49869758721563, 69.23228106291401]]}, "properties": {"source": "1351796", "target": "1351653"}}, {"type": "Feature", "geometry": {"type": "LineString", "coordinates": [[-66.49780378147166, 69.23245179729815], [-66.50544692493759, 69.23216290586458]]}, "properties": {"source": "1351796", "target": "7843495"}}, {"type": "Feature", "geometry": {"type": "LineString", "coordinates": [[-66.49780378147166, 69.23245179729815], [-66.49682337442552, 69.233463462477]]}, "properties": {"source": "1351796", "target": "1351527"}}, {"type": "Feature", "geometry": {"type": "LineString", "coordinates": [[-66.49780378147166, 69.23245179729815], [-66.49974092137575, 69.23252635586803]]}, "properties": {"source": "1351796", "target": "1168939"}}, {"type": "Feature", "geometry": {"type": "LineString", "coordinates": [[-66.49780378147166, 69.23245179729815], [-66.50124153165012, 69.2301308012303]]}, "properties": {"source": "1351796", "target": "6585140"}}, {"type": "Feature", "geometry": {"type": "LineString", "coordinates": [[-66.49844738002717, 69.23293273508645], [-66.49780378147166, 69.23245179729815]]}, "properties": {"source": "6473888", "target": "1351796"}}, {"type": "Feature", "geometry": {"type": "LineString", "coordinates": [[-66.49844738002717, 69.23293273508645], [-66.49841599372766, 69.23155296813229]]}, "properties": {"source": "6473888", "target": "857961"}}, {"type": "Feature", "geometry": {"type": "LineString", "coordinates": [[-66.49780378147166, 69.23245179729815], [-66.50015027248577, 69.23181416606829]]}, "properties": {"source": "1351796", "target": "1351706"}}, {"type": "Feature", "geometry": {"type": "LineString", "coordinates": [[-66.49780378147166, 69.23245179729815], [-66.4960962686876, 69.23066588419124]]}, "properties": {"source": "1351796", "target": "1351687"}}, {"type": "Feature", "geometry": {"type": "LineString", "coordinates": [[-66.49841599372766, 69.23155296813229], [-66.49808290117977, 69.22991343755402]]}, "properties": {"source": "857961", "target": "6992502"}}, {"type": "Feature", "geometry": {"type": "LineString", "coordinates": [[-66.49841599372766, 69.23155296813229], [-66.49869758721563, 69.23228106291401]]}, "properties": {"source": "857961", "target": "1351653"}}, {"type": "Feature", "geometry": {"type": "LineString", "coordinates": [[-66.49841599372766, 69.23155296813229], [-66.50544692493759, 69.23216290586458]]}, "properties": {"source": "857961", "target": "7843495"}}, {"type": "Feature", "geometry": {"type": "LineString", "coordinates": [[-66.49841599372766, 69.23155296813229], [-66.49873010325256, 69.2318125266658]]}, "properties": {"source": "857961", "target": "7689983"}}, {"type": "Feature", "geometry": {"type": "LineString", "coordinates": [[-66.49841599372766, 69.23155296813229], [-66.49682337442552, 69.233463462477]]}, "properties": {"source": "857961", "target": "1351527"}}, {"type": "Feature", "geometry": {"type": "LineString", "coordinates": [[-66.49841599372766, 69.23155296813229], [-66.5037274158577, 69.23132548615385]]}, "properties": {"source": "857961", "target": "799147"}}, {"type": "Feature", "geometry": {"type": "LineString", "coordinates": [[-66.49841599372766, 69.23155296813229], [-66.50060187329707, 69.23342003389314]]}, "properties": {"source": "857961", "target": "8008082"}}, {"type": "Feature", "geometry": {"type": "LineString", "coordinates": [[-66.49841599372766, 69.23155296813229], [-66.4979994647558, 69.23084498704273]]}, "properties": {"source": "857961", "target": "836240"}}, {"type": "Feature", "geometry": {"type": "LineString", "coordinates": [[-66.49841599372766, 69.23155296813229], [-66.50459904947827, 69.2314044810148]]}, "properties": {"source": "857961", "target": "7965122"}}, {"type": "Feature", "geometry": {"type": "LineString", "coordinates": [[-66.49841599372766, 69.23155296813229], [-66.49726227335248, 69.23150480271443]]}, "properties": {"source": "857961", "target": "7846882"}}, {"type": "Feature", "geometry": {"type": "LineString", "coordinates": [[-66.49841599372766, 69.23155296813229], [-66.50259288225637, 69.23203486150712]]}, "properties": {"source": "857961", "target": "9279711"}}, {"type": "Feature", "geometry": {"type": "LineString", "coordinates": [[-66.50148951315654, 69.23073553161348], [-66.49808290117977, 69.22991343755402]]}, "properties": {"source": "7074355", "target": "6992502"}}, {"type": "Feature", "geometry": {"type": "LineString", "coordinates": [[-66.5028983646, 69.23022833091144], [-66.49726227335248, 69.23150480271443]]}, "properties": {"source": "8525606", "target": "7846882"}}, {"type": "Feature", "geometry": {"type": "LineString", "coordinates": [[-66.49709203341266, 69.23015301763584], [-66.49952632191409, 69.2308587078854]]}, "properties": {"source": "1384563", "target": "786443"}}, {"type": "Feature", "geometry": {"type": "LineString", "coordinates": [[-66.49699835028538, 69.22974000770441], [-66.49808290117977, 69.22991343755402]]}, "properties": {"source": "1110791", "target": "6992502"}}, {"type": "Feature", "geometry": {"type": "LineString", "coordinates": [[-66.49699835028538, 69.22974000770441], [-66.50603334132997, 69.23298342761754]]}, "properties": {"source": "1110791", "target": "1172721"}}, {"type": "Feature", "geometry": {"type": "LineString", "coordinates": [[-66.49699835028538, 69.22974000770441], [-66.49974092137575, 69.23252635586803]]}, "properties": {"source": "1110791", "target": "1168939"}}, {"type": "Feature", "geometry": {"type": "LineString", "coordinates": [[-66.4979994647558, 69.23084498704273], [-66.50544692493759, 69.23216290586458]]}, "properties": {"source": "836240", "target": "7843495"}}, {"type": "Feature", "geometry": {"type": "LineString", "coordinates": [[-66.4979994647558, 69.23084498704273], [-66.49873010325256, 69.2318125266658]]}, "properties": {"source": "836240", "target": "7689983"}}, {"type": "Feature", "geometry": {"type": "LineString", "coordinates": [[-66.4979994647558, 69.23084498704273], [-66.5037274158577, 69.23132548615385]]}, "properties": {"source": "836240", "target": "799147"}}, {"type": "Feature", "geometry": {"type": "LineString", "coordinates": [[-66.4979994647558, 69.23084498704273], [-66.50060187329707, 69.23342003389314]]}, "properties": {"source": "836240", "target": "8008082"}}, {"type": "Feature", "geometry": {"type": "LineString", "coordinates": [[-66.4979994647558, 69.23084498704273], [-66.50343596980184, 69.23137869284216]]}, "properties": {"source": "836240", "target": "949497"}}, {"type": "Feature", "geometry": {"type": "LineString", "coordinates": [[-66.50459904947827, 69.2314044810148], [-66.50544692493759, 69.23216290586458]]}, "properties": {"source": "7965122", "target": "7843495"}}, {"type": "Feature", "geometry": {"type": "LineString", "coordinates": [[-66.50459904947827, 69.2314044810148], [-66.49873010325256, 69.2318125266658]]}, "properties": {"source": "7965122", "target": "7689983"}}, {"type": "Feature", "geometry": {"type": "LineString", "coordinates": [[-66.50459904947827, 69.2314044810148], [-66.5037274158577, 69.23132548615385]]}, "properties": {"source": "7965122", "target": "799147"}}, {"type": "Feature", "geometry": {"type": "LineString", "coordinates": [[-66.50436909065839, 69.23242498913177], [-66.5037274158577, 69.23132548615385]]}, "properties": {"source": "747252", "target": "799147"}}, {"type": "Feature", "geometry": {"type": "LineString", "coordinates": [[-66.50549898521264, 69.23065852739731], [-66.49794162162974, 69.23283501539007]]}, "properties": {"source": "1045526", "target": "1351751"}}, {"type": "Feature", "geometry": {"type": "LineString", "coordinates": [[-66.50549898521264, 69.23065852739731], [-66.49844738002717, 69.23293273508645]]}, "properties": {"source": "1045526", "target": "6473888"}}, {"type": "Feature", "geometry": {"type": "LineString", "coordinates": [[-66.50549898521264, 69.23065852739731], [-66.49726220366496, 69.23124672320662]]}, "properties": {"source": "1045526", "target": "159590"}}, {"type": "Feature", "geometry": {"type": "LineString", "coordinates": [[-66.50549898521264, 69.23065852739731], [-66.50603334132997, 69.23298342761754]]}, "properties": {"source": "1045526", "target": "1172721"}}, {"type": "Feature", "geometry": {"type": "LineString", "coordinates": [[-66.49873010325256, 69.2318125266658], [-66.5037274158577, 69.23132548615385]]}, "properties": {"source": "7689983", "target": "799147"}}, {"type": "Feature", "geometry": {"type": "LineString", "coordinates": [[-66.49873010325256, 69.2318125266658], [-66.50124153165012, 69.2301308012303]]}, "properties": {"source": "7689983", "target": "6585140"}}, {"type": "Feature", "geometry": {"type": "LineString", "coordinates": [[-66.49873010325256, 69.2318125266658], [-66.50060187329707, 69.23342003389314]]}, "properties": {"source": "7689983", "target": "8008082"}}, {"type": "Feature", "geometry": {"type": "LineString", "coordinates": [[-66.49873010325256, 69.2318125266658], [-66.50436909065839, 69.23242498913177]]}, "properties": {"source": "7689983", "target": "747252"}}, {"type": "Feature", "geometry": {"type": "LineString", "coordinates": [[-66.49682337442552, 69.233463462477], [-66.49869758721563, 69.23228106291401]]}, "properties": {"source": "1351527", "target": "1351653"}}, {"type": "Feature", "geometry": {"type": "LineString", "coordinates": [[-66.49682337442552, 69.233463462477], [-66.50015027248577, 69.23181416606829]]}, "properties": {"source": "1351527", "target": "1351706"}}, {"type": "Feature", "geometry": {"type": "LineString", "coordinates": [[-66.49682337442552, 69.233463462477], [-66.50388126156047, 69.23241195397827]]}, "properties": {"source": "1351527", "target": "1351669"}}, {"type": "Feature", "geometry": {"type": "LineString", "coordinates": [[-66.49682337442552, 69.233463462477], [-66.4963949198618, 69.23312407899971]]}, "properties": {"source": "1351527", "target": "1444005"}}, {"type": "Feature", "geometry": {"type": "LineString", "coordinates": [[-66.49974092137575, 69.23252635586803], [-66.49821472315847, 69.23010691294445]]}, "properties": {"source": "1168939", "target": "26102772"}}, {"type": "Feature", "geometry": {"type": "LineString", "coordinates": [[-66.49749469958883, 69.22972216509334], [-66.49841599372766, 69.23155296813229]]}, "properties": {"source": "8036448", "target": "857961"}}, {"type": "Feature", "geometry": {"type": "LineString", "coordinates": [[-66.49749469958883, 69.22972216509334], [-66.50544692493759, 69.23216290586458]]}, "properties": {"source": "8036448", "target": "7843495"}}, {"type": "Feature", "geometry": {"type": "LineString", "coordinates": [[-66.49749469958883, 69.22972216509334], [-66.49873010325256, 69.2318125266658]]}, "properties": {"source": "8036448", "target": "7689983"}}, {"type": "Feature", "geometry": {"type": "LineString", "coordinates": [[-66.49749469958883, 69.22972216509334], [-66.5037274158577, 69.23132548615385]]}, "properties": {"source": "8036448", "target": "799147"}}, {"type": "Feature", "geometry": {"type": "LineString", "coordinates": [[-66.49749469958883, 69.22972216509334], [-66.50060187329707, 69.23342003389314]]}, "properties": {"source": "8036448", "target": "8008082"}}, {"type": "Feature", "geometry": {"type": "LineString", "coordinates": [[-66.50148951315654, 69.23073553161348], [-66.49780378147166, 69.23245179729815]]}, "properties": {"source": "7074355", "target": "1351796"}}, {"type": "Feature", "geometry": {"type": "LineString", "coordinates": [[-66.50148951315654, 69.23073553161348], [-66.50544692493759, 69.23216290586458]]}, "properties": {"source": "7074355", "target": "7843495"}}, {"type": "Feature", "geometry": {"type": "LineString", "coordinates": [[-66.50549898521264, 69.23065852739731], [-66.49974092137575, 69.23252635586803]]}, "properties": {"source": "1045526", "target": "1168939"}}, {"type": "Feature", "geometry": {"type": "LineString", "coordinates": [[-66.50151769757456, 69.23256482380404], [-66.49869758721563, 69.23228106291401]]}, "properties": {"source": "11218576", "target": "1351653"}}, {"type": "Feature", "geometry": {"type": "LineString", "coordinates": [[-66.50151769757456, 69.23256482380404], [-66.5035925824668, 69.2307114821046]]}, "properties": {"source": "11218576", "target": "489320"}}, {"type": "Feature", "geometry": {"type": "LineString", "coordinates": [[-66.50151769757456, 69.23256482380404], [-66.50591178818627, 69.2302233719266]]}, "properties": {"source": "11218576", "target": "7140623"}}, {"type": "Feature", "geometry": {"type": "LineString", "coordinates": [[-66.50151769757456, 69.23256482380404], [-66.5033000135621, 69.23104079975721]]}, "properties": {"source": "11218576", "target": "7135281"}}, {"type": "Feature", "geometry": {"type": "LineString", "coordinates": [[-66.50645203828776, 69.23110441457021], [-66.49808290117977, 69.22991343755402]]}, "properties": {"source": "532872", "target": "6992502"}}, {"type": "Feature", "geometry": {"type": "LineString", "coordinates": [[-66.50645203828776, 69.23110441457021], [-66.50124153165012, 69.2301308012303]]}, "properties": {"source": "532872", "target": "6585140"}}, {"type": "Feature", "geometry": {"type": "LineString", "coordinates": [[-66.50645203828776, 69.23110441457021], [-66.50632857556319, 69.23149776748974]]}, "properties": {"source": "532872", "target": "6348132"}}, {"type": "Feature", "geometry": {"type": "LineString", "coordinates": [[-66.5035925824668, 69.2307114821046], [-66.49869758721563, 69.23228106291401]]}, "properties": {"source": "489320", "target": "1351653"}}, {"type": "Feature", "geometry": {"type": "LineString", "coordinates": [[-66.5035925824668, 69.2307114821046], [-66.50591178818627, 69.2302233719266]]}, "properties": {"source": "489320", "target": "7140623"}}, {"type": "Feature", "geometry": {"type": "LineString", "coordinates": [[-66.5035925824668, 69.2307114821046], [-66.5033000135621, 69.23104079975721]]}, "properties": {"source": "489320", "target": "7135281"}}, {"type": "Feature", "geometry": {"type": "LineString", "coordinates": [[-66.4960962686876, 69.23066588419124], [-66.49841599372766, 69.23155296813229]]}, "properties": {"source": "1351687", "target": "857961"}}, {"type": "Feature", "geometry": {"type": "LineString", "coordinates": [[-66.50591178818627, 69.2302233719266], [-66.5033000135621, 69.23104079975721]]}, "properties": {"source": "7140623", "target": "7135281"}}, {"type": "Feature", "geometry": {"type": "LineString", "coordinates": [[-66.50343596980184, 69.23137869284216], [-66.5037274158577, 69.23132548615385]]}, "properties": {"source": "949497", "target": "799147"}}, {"type": "Feature", "geometry": {"type": "LineString", "coordinates": [[-66.50343596980184, 69.23137869284216], [-66.50060187329707, 69.23342003389314]]}, "properties": {"source": "949497", "target": "8008082"}}, {"type": "Feature", "geometry": {"type": "LineString", "coordinates": [[-66.49706957375729, 69.23207047638999], [-66.50603334132997, 69.23298342761754]]}, "properties": {"source": "1087400", "target": "1172721"}}, {"type": "Feature", "geometry": {"type": "LineString", "coordinates": [[-66.49706957375729, 69.23207047638999], [-66.50272995363203, 69.23176185318783]]}, "properties": {"source": "1087400", "target": "3153099"}}, {"type": "Feature", "geometry": {"type": "LineString", "coordinates": [[-66.49706957375729, 69.23207047638999], [-66.49555067993491, 69.23126594426952]]}, "properties": {"source": "1087400", "target": "890475"}}, {"type": "Feature", "geometry": {"type": "LineString", "coordinates": [[-66.49706957375729, 69.23207047638999], [-66.49984657065895, 69.23059325624527]]}, "properties": {"source": "1087400", "target": "12171800"}}, {"type": "Feature", "geometry": {"type": "LineString", "coordinates": [[-66.49916101868459, 69.23300427662096], [-66.50151769757456, 69.23256482380404]]}, "properties": {"source": "7031651", "target": "11218576"}}, {"type": "Feature", "geometry": {"type": "LineString", "coordinates": [[-66.49916101868459, 69.23300427662096], [-66.5035925824668, 69.2307114821046]]}, "properties": {"source": "7031651", "target": "489320"}}, {"type": "Feature", "geometry": {"type": "LineString", "coordinates": [[-66.49916101868459, 69.23300427662096], [-66.50591178818627, 69.2302233719266]]}, "properties": {"source": "7031651", "target": "7140623"}}, {"type": "Feature", "geometry": {"type": "LineString", "coordinates": [[-66.49916101868459, 69.23300427662096], [-66.5033000135621, 69.23104079975721]]}, "properties": {"source": "7031651", "target": "7135281"}}, {"type": "Feature", "geometry": {"type": "LineString", "coordinates": [[-66.49762196524699, 69.23141619524353], [-66.49808290117977, 69.22991343755402]]}, "properties": {"source": "6744143", "target": "6992502"}}, {"type": "Feature", "geometry": {"type": "LineString", "coordinates": [[-66.50617415740798, 69.22993551224002], [-66.49841599372766, 69.23155296813229]]}, "properties": {"source": "1351590", "target": "857961"}}, {"type": "Feature", "geometry": {"type": "LineString", "coordinates": [[-66.50617415740798, 69.22993551224002], [-66.50544692493759, 69.23216290586458]]}, "properties": {"source": "1351590", "target": "7843495"}}, {"type": "Feature", "geometry": {"type": "LineString", "coordinates": [[-66.49726227335248, 69.23150480271443], [-66.50259288225637, 69.23203486150712]]}, "properties": {"source": "7846882", "target": "9279711"}}, {"type": "Feature", "geometry": {"type": "LineString", "coordinates": [[-66.50235020451677, 69.23043076083323], [-66.50272995363203, 69.23176185318783]]}, "properties": {"source": "3384865", "target": "3153099"}}, {"type": "Feature", "geometry": {"type": "LineString", "coordinates": [[-66.50235020451677, 69.23043076083323], [-66.49709203341266, 69.23015301763584]]}, "properties": {"source": "3384865", "target": "1384563"}}, {"type": "Feature", "geometry": {"type": "LineString", "coordinates": [[-66.49555067993491, 69.23126594426952], [-66.50603334132997, 69.23298342761754]]}, "properties": {"source": "890475", "target": "1172721"}}, {"type": "Feature", "geometry": {"type": "LineString", "coordinates": [[-66.49780378147166, 69.23245179729815], [-66.49699835028538, 69.22974000770441]]}, "properties": {"source": "1351796", "target": "1110791"}}, {"type": "Feature", "geometry": {"type": "LineString", "coordinates": [[-66.49780378147166, 69.23245179729815], [-66.50459904947827, 69.2314044810148]]}, "properties": {"source": "1351796", "target": "7965122"}}, {"type": "Feature", "geometry": {"type": "LineString", "coordinates": [[-66.50148951315654, 69.23073553161348], [-66.49873010325256, 69.2318125266658]]}, "properties": {"source": "7074355", "target": "7689983"}}, {"type": "Feature", "geometry": {"type": "LineString", "coordinates": [[-66.50148951315654, 69.23073553161348], [-66.5037274158577, 69.23132548615385]]}, "properties": {"source": "7074355", "target": "799147"}}, {"type": "Feature", "geometry": {"type": "LineString", "coordinates": [[-66.50148951315654, 69.23073553161348], [-66.50124153165012, 69.2301308012303]]}, "properties": {"source": "7074355", "target": "6585140"}}, {"type": "Feature", "geometry": {"type": "LineString", "coordinates": [[-66.50148951315654, 69.23073553161348], [-66.49749469958883, 69.22972216509334]]}, "properties": {"source": "7074355", "target": "8036448"}}, {"type": "Feature", "geometry": {"type": "LineString", "coordinates": [[-66.50148951315654, 69.23073553161348], [-66.50060187329707, 69.23342003389314]]}, "properties": {"source": "7074355", "target": "8008082"}}, {"type": "Feature", "geometry": {"type": "LineString", "coordinates": [[-66.50148951315654, 69.23073553161348], [-66.50170305068487, 69.23320270286342]]}, "properties": {"source": "7074355", "target": "6262458"}}, {"type": "Feature", "geometry": {"type": "LineString", "coordinates": [[-66.50148951315654, 69.23073553161348], [-66.50248522999308, 69.23267914802506]]}, "properties": {"source": "7074355", "target": "1351516"}}, {"type": "Feature", "geometry": {"type": "LineString", "coordinates": [[-66.50148951315654, 69.23073553161348], [-66.50632857556319, 69.23149776748974]]}, "properties": {"source": "7074355", "target": "6348132"}}, {"type": "Feature", "geometry": {"type": "LineString", "coordinates": [[-66.50148951315654, 69.23073553161348], [-66.50459904947827, 69.2314044810148]]}, "properties": {"source": "7074355", "target": "7965122"}}, {"type": "Feature", "geometry": {"type": "LineString", "coordinates": [[-66.50148951315654, 69.23073553161348], [-66.50436909065839, 69.23242498913177]]}, "properties": {"source": "7074355", "target": "747252"}}, {"type": "Feature", "geometry": {"type": "LineString", "coordinates": [[-66.50148951315654, 69.23073553161348], [-66.49762196524699, 69.23141619524353]]}, "properties": {"source": "7074355", "target": "6744143"}}, {"type": "Feature", "geometry": {"type": "LineString", "coordinates": [[-66.50148951315654, 69.23073553161348], [-66.50617415740798, 69.22993551224002]]}, "properties": {"source": "7074355", "target": "1351590"}}, {"type": "Feature", "geometry": {"type": "LineString", "coordinates": [[-66.49844738002717, 69.23293273508645], [-66.49808290117977, 69.22991343755402]]}, "properties": {"source": "6473888", "target": "6992502"}}, {"type": "Feature", "geometry": {"type": "LineString", "coordinates": [[-66.49844738002717, 69.23293273508645], [-66.49794162162974, 69.23283501539007]]}, "properties": {"source": "6473888", "target": "1351751"}}, {"type": "Feature", "geometry": {"type": "LineString", "coordinates": [[-66.49749469958883, 69.22972216509334], [-66.4979994647558, 69.23084498704273]]}, "properties": {"source": "8036448", "target": "836240"}}, {"type": "Feature", "geometry": {"type": "LineString", "coordinates": [[-66.49749469958883, 69.22972216509334], [-66.50343596980184, 69.23137869284216]]}, "properties": {"source": "8036448", "target": "949497"}}, {"type": "Feature", "geometry": {"type": "LineString", "coordinates": [[-66.50060187329707, 69.23342003389314], [-66.5037274158577, 69.23132548615385]]}, "properties": {"source": "8008082", "target": "799147"}}, {"type": "Feature", "geometry": {"type": "LineString", "coordinates": [[-66.50170305068487, 69.23320270286342], [-66.49808290117977, 69.22991343755402]]}, "properties": {"source": "6262458", "target": "6992502"}}, {"type": "Feature", "geometry": {"type": "LineString", "coordinates": [[-66.50170305068487, 69.23320270286342], [-66.50124153165012, 69.2301308012303]]}, "properties": {"source": "6262458", "target": "6585140"}}, {"type": "Feature", "geometry": {"type": "LineString", "coordinates": [[-66.50170305068487, 69.23320270286342], [-66.50632857556319, 69.23149776748974]]}, "properties": {"source": "6262458", "target": "6348132"}}, {"type": "Feature", "geometry": {"type": "LineString", "coordinates": [[-66.50170305068487, 69.23320270286342], [-66.50436909065839, 69.23242498913177]]}, "properties": {"source": "6262458", "target": "747252"}}, {"type": "Feature", "geometry": {"type": "LineString", "coordinates": [[-66.50170305068487, 69.23320270286342], [-66.50645203828776, 69.23110441457021]]}, "properties": {"source": "6262458", "target": "532872"}}, {"type": "Feature", "geometry": {"type": "LineString", "coordinates": [[-66.50170305068487, 69.23320270286342], [-66.49762196524699, 69.23141619524353]]}, "properties": {"source": "6262458", "target": "6744143"}}, {"type": "Feature", "geometry": {"type": "LineString", "coordinates": [[-66.50248522999308, 69.23267914802506], [-66.49780378147166, 69.23245179729815]]}, "properties": {"source": "1351516", "target": "1351796"}}, {"type": "Feature", "geometry": {"type": "LineString", "coordinates": [[-66.50248522999308, 69.23267914802506], [-66.49841599372766, 69.23155296813229]]}, "properties": {"source": "1351516", "target": "857961"}}, {"type": "Feature", "geometry": {"type": "LineString", "coordinates": [[-66.50248522999308, 69.23267914802506], [-66.49726220366496, 69.23124672320662]]}, "properties": {"source": "1351516", "target": "159590"}}, {"type": "Feature", "geometry": {"type": "LineString", "coordinates": [[-66.50248522999308, 69.23267914802506], [-66.4960962686876, 69.23066588419124]]}, "properties": {"source": "1351516", "target": "1351687"}}, {"type": "Feature", "geometry": {"type": "LineString", "coordinates": [[-66.50248522999308, 69.23267914802506], [-66.49643070135677, 69.23274495560861]]}, "properties": {"source": "1351516", "target": "1351479"}}, {"type": "Feature", "geometry": {"type": "LineString", "coordinates": [[-66.50632857556319, 69.23149776748974], [-66.49808290117977, 69.22991343755402]]}, "properties": {"source": "6348132", "target": "6992502"}}, {"type": "Feature", "geometry": {"type": "LineString", "coordinates": [[-66.50632857556319, 69.23149776748974], [-66.50124153165012, 69.2301308012303]]}, "properties": {"source": "6348132", "target": "6585140"}}]}