{"type": "FeatureCollection", "features": [{"type": "Feature", "geometry": {"type": "LineString", "coordinates": [[15.469766621896554, 69.04079165696533], [15.475675135065075, 69.038744075437]]}, "properties": {"source": "10975624", "target": "13622898"}}, {"type": "Feature", "geometry": {"type": "LineString", "coordinates": [[15.469766621896554, 69.04079165696533], [15.475757597886371, 69.0399166422585]]}, "properties": {"source": "10975624", "target": "12049641"}}, {"type": "Feature", "geometry": {"type": "LineString", "coordinates": [[15.479964965694677, 69.03815732243294], [15.479038226138044, 69.04087935959484]]}, "properties": {"source": "11703946", "target": "31054263"}}, {"type": "Feature", "geometry": {"type": "LineString", "coordinates": [[15.479964965694677, 69.03815732243294], [15.479432283252322, 69.03774342949978]]}, "properties": {"source": "11703946", "target": "3214533"}}, {"type": "Feature", "geometry": {"type": "LineString", "coordinates": [[15.479964965694677, 69.03815732243294], [15.48083694559989, 69.03736851730173]]}, "properties": {"source": "11703946", "target": "29201119"}}, {"type": "Feature", "geometry": {"type": "LineString", "coordinates": [[15.479964965694677, 69.03815732243294], [15.471809486412155, 69.03906171057315]]}, "properties": {"source": "11703946", "target": "17275797"}}, {"type": "Feature", "geometry": {"type": "LineString", "coordinates": [[15.479964965694677, 69.03815732243294], [15.469645236571608, 69.03941364365181]]}, "properties": {"source": "11703946", "target": "1635939"}}, {"type": "Feature", "geometry": {"type": "LineString", "coordinates": [[15.479964965694677, 69.03815732243294], [15.475675135065075, 69.038744075437]]}, "properties": {"source": "11703946", "target": "13622898"}}, {"type": "Feature", "geometry": {"type": "LineString", "coordinates": [[15.479964965694677, 69.03815732243294], [15.475757597886371, 69.0399166422585]]}, "properties": {"source": "11703946", "target": "12049641"}}, {"type": "Feature", "geometry": {"type": "LineString", "coordinates": [[15.480493156682002, 69.03937537081134], [15.479432283252322, 69.03774342949978]]}, "properties": {"source": "28961855", "target": "3214533"}}, {"type": "Feature", "geometry": {"type": "LineString", "coordinates": [[15.480493156682002, 69.03937537081134], [15.48083694559989, 69.03736851730173]]}, "properties": {"source": "28961855", "target": "29201119"}}, {"type": "Feature", "geometry": {"type": "LineString", "coordinates": [[15.470245994136235, 69.04242606316791], [15.479432283252322, 69.03774342949978]]}, "properties": {"source": "13077769", "target": "3214533"}}, {"type": "Feature", "geometry": {"type": "LineString", "coordinates": [[15.470245994136235, 69.04242606316791], [15.48083694559989, 69.03736851730173]]}, "properties": {"source": "13077769", "target": "29201119"}}, {"type": "Feature", "geometry": {"type": "LineString", "coordinates": [[15.470245994136235, 69.04242606316791], [15.475675135065075, 69.038744075437]]}, "properties": {"source": "13077769", "target": "13622898"}}, {"type": "Feature", "geometry": {"type": "LineString", "coordinates": [[15.476125538593607, 69.04039092382942], [15.479432283252322, 69.03774342949978]]}, "properties": {"source": "1199208", "target": "3214533"}}, {"type": "Feature", "geometry": {"type": "LineString", "coordinates": [[15.476125538593607, 69.04039092382942], [15.48083694559989, 69.03736851730173]]}, "properties": {"source": "1199208", "target": "29201119"}}, {"type": "Feature", "geometry": {"type": "LineString", "coordinates": [[15.48083694559989, 69.03736851730173], [15.483609181521558, 69.03731253393815]]}, "properties": {"source": "29201119", "target": "2730250"}}, {"type": "Feature", "geometry": {"type": "LineString", "coordinates": [[15.484901146630762, 69.03760700824668], [15.479038226138044, 69.04087935959484]]}, "properties": {"source": "7507635", "target": "31054263"}}, {"type": "Feature", "geometry": {"type": "LineString", "coordinates": [[15.484901146630762, 69.03760700824668], [15.479432283252322, 69.03774342949978]]}, "properties": {"source": "7507635", "target": "3214533"}}, {"type": "Feature", "geometry": {"type": "LineString", "coordinates": [[15.484901146630762, 69.03760700824668], [15.48083694559989, 69.03736851730173]]}, "properties": {"source": "7507635", "target": "29201119"}}, {"type": "Feature", "geometry": {"type": "LineString", "coordinates": [[15.484901146630762, 69.03760700824668], [15.471809486412155, 69.03906171057315]]}, "properties": {"source": "7507635", "target": "17275797"}}, {"type": "Feature", "geometry": {"type": "LineString", "coordinates": [[15.484901146630762, 69.03760700824668], [15.469645236571608, 69.03941364365181]]}, "properties": {"source": "7507635", "target": "1635939"}}, {"type": "Feature", "geometry": {"type": "LineString", "coordinates": [[15.484901146630762, 69.03760700824668], [15.484144562161362, 69.0396385665168]]}, "properties": {"source": "7507635", "target": "25263831"}}, {"type": "Feature", "geometry": {"type": "LineString", "coordinates": [[15.484901146630762, 69.03760700824668], [15.475675135065075, 69.038744075437]]}, "properties": {"source": "7507635", "target": "13622898"}}, {"type": "Feature", "geometry": {"type": "LineString", "coordinates": [[15.484901146630762, 69.03760700824668], [15.475757597886371, 69.0399166422585]]}, "properties": {"source": "7507635", "target": "12049641"}}, {"type": "Feature", "geometry": {"type": "LineString", "coordinates": [[15.484901146630762, 69.03760700824668], [15.475718287322309, 69.03950711950651]]}, "properties": {"source": "7507635", "target": "628976"}}, {"type": "Feature", "geometry": {"type": "LineString", "coordinates": [[15.484901146630762, 69.03760700824668], [15.476059396629864, 69.0418638644228]]}, "properties": {"source": "7507635", "target": "8133793"}}, {"type": "Feature", "geometry": {"type": "LineString", "coordinates": [[15.484901146630762, 69.03760700824668], [15.479027575123894, 69.0374844846715]]}, "properties": {"source": "7507635", "target": "628938"}}, {"type": "Feature", "geometry": {"type": "LineString", "coordinates": [[15.484901146630762, 69.03760700824668], [15.470147385855313, 69.03738576131974]]}, "properties": {"source": "7507635", "target": "628980"}}, {"type": "Feature", "geometry": {"type": "LineString", "coordinates": [[15.484901146630762, 69.03760700824668], [15.478236849234321, 69.04158134462907]]}, "properties": {"source": "7507635", "target": "25565708"}}, {"type": "Feature", "geometry": {"type": "LineString", "coordinates": [[15.484901146630762, 69.03760700824668], [15.47577099741369, 69.04139052156569]]}, "properties": {"source": "7507635", "target": "12214480"}}, {"type": "Feature", "geometry": {"type": "LineString", "coordinates": [[15.484901146630762, 69.03760700824668], [15.479964965694677, 69.03815732243294]]}, "properties": {"source": "7507635", "target": "11703946"}}, {"type": "Feature", "geometry": {"type": "LineString", "coordinates": [[15.474784485642317, 69.04185205769389], [15.472281284612421, 69.03950763401261]]}, "properties": {"source": "16369750", "target": "31552773"}}, {"type": "Feature", "geometry": {"type": "LineString", "coordinates": [[15.474784485642317, 69.04185205769389], [15.479038226138044, 69.04087935959484]]}, "properties": {"source": "16369750", "target": "31054263"}}, {"type": "Feature", "geometry": {"type": "LineString", "coordinates": [[15.474784485642317, 69.04185205769389], [15.479432283252322, 69.03774342949978]]}, "properties": {"source": "16369750", "target": "3214533"}}, {"type": "Feature", "geometry": {"type": "LineString", "coordinates": [[15.474784485642317, 69.04185205769389], [15.48083694559989, 69.03736851730173]]}, "properties": {"source": "16369750", "target": "29201119"}}, {"type": "Feature", "geometry": {"type": "LineString", "coordinates": [[15.474784485642317, 69.04185205769389], [15.484901146630762, 69.03760700824668]]}, "properties": {"source": "16369750", "target": "7507635"}}, {"type": "Feature", "geometry": {"type": "LineString", "coordinates": [[15.474784485642317, 69.04185205769389], [15.471809486412155, 69.03906171057315]]}, "properties": {"source": "16369750", "target": "17275797"}}, {"type": "Feature", "geometry": {"type": "LineString", "coordinates": [[15.474784485642317, 69.04185205769389], [15.485072288854042, 69.03858892419535]]}, "properties": {"source": "16369750", "target": "20755501"}}, {"type": "Feature", "geometry": {"type": "LineString", "coordinates": [[15.471106393879722, 69.03824330930183], [15.479432283252322, 69.03774342949978]]}, "properties": {"source": "1534080", "target": "3214533"}}, {"type": "Feature", "geometry": {"type": "LineString", "coordinates": [[15.471106393879722, 69.03824330930183], [15.48083694559989, 69.03736851730173]]}, "properties": {"source": "1534080", "target": "29201119"}}, {"type": "Feature", "geometry": {"type": "LineString", "coordinates": [[15.472658945243978, 69.03777518319055], [15.48083694559989, 69.03736851730173]]}, "properties": {"source": "23388476", "target": "29201119"}}, {"type": "Feature", "geometry": {"type": "LineString", "coordinates": [[15.472658945243978, 69.03777518319055], [15.484144562161362, 69.0396385665168]]}, "properties": {"source": "23388476", "target": "25263831"}}, {"type": "Feature", "geometry": {"type": "LineString", "coordinates": [[15.472658945243978, 69.03777518319055], [15.472347200907393, 69.03884973689654]]}, "properties": {"source": "23388476", "target": "24581447"}}, {"type": "Feature", "geometry": {"type": "LineString", "coordinates": [[15.474020279007675, 69.04012634106488], [15.48083694559989, 69.03736851730173]]}, "properties": {"source": "24639142", "target": "29201119"}}, {"type": "Feature", "geometry": {"type": "LineString", "coordinates": [[15.474020279007675, 69.04012634106488], [15.484144562161362, 69.0396385665168]]}, "properties": {"source": "24639142", "target": "25263831"}}, {"type": "Feature", "geometry": {"type": "LineString", "coordinates": [[15.471453834451978, 69.04248862144371], [15.48083694559989, 69.03736851730173]]}, "properties": {"source": "13615384", "target": "29201119"}}, {"type": "Feature", "geometry": {"type": "LineString", "coordinates": [[15.48449224906372, 69.03865074355329], [15.475718287322309, 69.03950711950651]]}, "properties": {"source": "687330", "target": "628976"}}, {"type": "Feature", "geometry": {"type": "LineString", "coordinates": [[15.46922954062569, 69.03885731315361], [15.469841757096049, 69.04056991657819]]}, "properties": {"source": "34202581", "target": "3703358"}}, {"type": "Feature", "geometry": {"type": "LineString", "coordinates": [[15.46922954062569, 69.03885731315361], [15.484144562161362, 69.0396385665168]]}, "properties": {"source": "34202581", "target": "25263831"}}, {"type": "Feature", "geometry": {"type": "LineString", "coordinates": [[15.46922954062569, 69.03885731315361], [15.480225943506298, 69.04039076643485]]}, "properties": {"source": "34202581", "target": "35399019"}}, {"type": "Feature", "geometry": {"type": "LineString", "coordinates": [[15.46922954062569, 69.03885731315361], [15.472347200907393, 69.03884973689654]]}, "properties": {"source": "34202581", "target": "24581447"}}, {"type": "Feature", "geometry": {"type": "LineString", "coordinates": [[15.46922954062569, 69.03885731315361], [15.475718287322309, 69.03950711950651]]}, "properties": {"source": "34202581", "target": "628976"}}, {"type": "Feature", "geometry": {"type": "LineString", "coordinates": [[15.46922954062569, 69.03885731315361], [15.476059396629864, 69.0418638644228]]}, "properties": {"source": "34202581", "target": "8133793"}}, {"type": "Feature", "geometry": {"type": "LineString", "coordinates": [[15.46922954062569, 69.03885731315361], [15.479027575123894, 69.0374844846715]]}, "properties": {"source": "34202581", "target": "628938"}}, {"type": "Feature", "geometry": {"type": "LineString", "coordinates": [[15.46922954062569, 69.03885731315361], [15.470147385855313, 69.03738576131974]]}, "properties": {"source": "34202581", "target": "628980"}}, {"type": "Feature", "geometry": {"type": "LineString", "coordinates": [[15.46922954062569, 69.03885731315361], [15.478236849234321, 69.04158134462907]]}, "properties": {"source": "34202581", "target": "25565708"}}, {"type": "Feature", "geometry": {"type": "LineString", "coordinates": [[15.46922954062569, 69.03885731315361], [15.48325666965357, 69.04030916217542]]}, "properties": {"source": "34202581", "target": "23792004"}}, {"type": "Feature", "geometry": {"type": "LineString", "coordinates": [[15.46922954062569, 69.03885731315361], [15.480493156682002, 69.03937537081134]]}, "properties": {"source": "34202581", "target": "28961855"}}, {"type": "Feature", "geometry": {"type": "LineString", "coordinates": [[15.46922954062569, 69.03885731315361], [15.474020279007675, 69.04012634106488]]}, "properties": {"source": "34202581", "target": "24639142"}}, {"type": "Feature", "geometry": {"type": "LineString", "coordinates": [[15.46922954062569, 69.03885731315361], [15.470262547323074, 69.04119498169604]]}, "properties": {"source": "34202581", "target": "432952"}}, {"type": "Feature", "geometry": {"type": "LineString", "coordinates": [[15.469841757096049, 69.04056991657819], [15.472281284612421, 69.03950763401261]]}, "properties": {"source": "3703358", "target": "31552773"}}, {"type": "Feature", "geometry": {"type": "LineString", "coordinates": [[15.469841757096049, 69.04056991657819], [15.479038226138044, 69.04087935959484]]}, "properties": {"source": "3703358", "target": "31054263"}}, {"type": "Feature", "geometry": {"type": "LineString", "coordinates": [[15.469841757096049, 69.04056991657819], [15.479432283252322, 69.03774342949978]]}, "properties": {"source": "3703358", "target": "3214533"}}, {"type": "Feature", "geometry": {"type": "LineString", "coordinates": [[15.472281284612421, 69.03950763401261], [15.479038226138044, 69.04087935959484]]}, "properties": {"source": "31552773", "target": "31054263"}}, {"type": "Feature", "geometry": {"type": "LineString", "coordinates": [[15.472281284612421, 69.03950763401261], [15.479432283252322, 69.03774342949978]]}, "properties": {"source": "31552773", "target": "3214533"}}, {"type": "Feature", "geometry": {"type": "LineString", "coordinates": [[15.472281284612421, 69.03950763401261], [15.48083694559989, 69.03736851730173]]}, "properties": {"source": "31552773", "target": "29201119"}}, {"type": "Feature", "geometry": {"type": "LineString", "coordinates": [[15.472281284612421, 69.03950763401261], [15.484901146630762, 69.03760700824668]]}, "properties": {"source": "31552773", "target": "7507635"}}, {"type": "Feature", "geometry": {"type": "LineString", "coordinates": [[15.472281284612421, 69.03950763401261], [15.471809486412155, 69.03906171057315]]}, "properties": {"source": "31552773", "target": "17275797"}}, {"type": "Feature", "geometry": {"type": "LineString", "coordinates": [[15.472281284612421, 69.03950763401261], [15.469645236571608, 69.03941364365181]]}, "properties": {"source": "31552773", "target": "1635939"}}, {"type": "Feature", "geometry": {"type": "LineString", "coordinates": [[15.472281284612421, 69.03950763401261], [15.484144562161362, 69.0396385665168]]}, "properties": {"source": "31552773", "target": "25263831"}}, {"type": "Feature", "geometry": {"type": "LineString", "coordinates": [[15.472281284612421, 69.03950763401261], [15.475675135065075, 69.038744075437]]}, "properties": {"source": "31552773", "target": "13622898"}}, {"type": "Feature", "geometry": {"type": "LineString", "coordinates": [[15.472281284612421, 69.03950763401261], [15.475757597886371, 69.0399166422585]]}, "properties": {"source": "31552773", "target": "12049641"}}, {"type": "Feature", "geometry": {"type": "LineString", "coordinates": [[15.472281284612421, 69.03950763401261], [15.480225943506298, 69.04039076643485]]}, "properties": {"source": "31552773", "target": "35399019"}}, {"type": "Feature", "geometry": {"type": "LineString", "coordinates": [[15.472281284612421, 69.03950763401261], [15.472347200907393, 69.03884973689654]]}, "properties": {"source": "31552773", "target": "24581447"}}, {"type": "Feature", "geometry": {"type": "LineString", "coordinates": [[15.472281284612421, 69.03950763401261], [15.475718287322309, 69.03950711950651]]}, "properties": {"source": "31552773", "target": "628976"}}, {"type": "Feature", "geometry": {"type": "LineString", "coordinates": [[15.472281284612421, 69.03950763401261], [15.476059396629864, 69.0418638644228]]}, "properties": {"source": "31552773", "target": "8133793"}}, {"type": "Feature", "geometry": {"type": "LineString", "coordinates": [[15.472281284612421, 69.03950763401261], [15.478236849234321, 69.04158134462907]]}, "properties": {"source": "31552773", "target": "25565708"}}, {"type": "Feature", "geometry": {"type": "LineString", "coordinates": [[15.472281284612421, 69.03950763401261], [15.48325666965357, 69.04030916217542]]}, "properties": {"source": "31552773", "target": "23792004"}}, {"type": "Feature", "geometry": {"type": "LineString", "coordinates": [[15.472281284612421, 69.03950763401261], [15.47577099741369, 69.04139052156569]]}, "properties": {"source": "31552773", "target": "12214480"}}, {"type": "Feature", "geometry": {"type": "LineString", "coordinates": [[15.474526641731245, 69.03953184305053], [15.472281284612421, 69.03950763401261]]}, "properties": {"source": "26087531", "target": "31552773"}}, {"type": "Feature", "geometry": {"type": "LineString", "coordinates": [[15.474526641731245, 69.03953184305053], [15.479038226138044, 69.04087935959484]]}, "properties": {"source": "26087531", "target": "31054263"}}, {"type": "Feature", "geometry": {"type": "LineString", "coordinates": [[15.474526641731245, 69.03953184305053], [15.479432283252322, 69.03774342949978]]}, "properties": {"source": "26087531", "target": "3214533"}}, {"type": "Feature", "geometry": {"type": "LineString", "coordinates": [[15.474526641731245, 69.03953184305053], [15.48083694559989, 69.03736851730173]]}, "properties": {"source": "26087531", "target": "29201119"}}, {"type": "Feature", "geometry": {"type": "LineString", "coordinates": [[15.474526641731245, 69.03953184305053], [15.484901146630762, 69.03760700824668]]}, "properties": {"source": "26087531", "target": "7507635"}}, {"type": "Feature", "geometry": {"type": "LineString", "coordinates": [[15.474526641731245, 69.03953184305053], [15.475528203205158, 69.0413508087675]]}, "properties": {"source": "26087531", "target": "33864359"}}, {"type": "Feature", "geometry": {"type": "LineString", "coordinates": [[15.482469594588792, 69.04207737366625], [15.472281284612421, 69.03950763401261]]}, "properties": {"source": "21243452", "target": "31552773"}}, {"type": "Feature", "geometry": {"type": "LineString", "coordinates": [[15.482469594588792, 69.04207737366625], [15.479038226138044, 69.04087935959484]]}, "properties": {"source": "21243452", "target": "31054263"}}, {"type": "Feature", "geometry": {"type": "LineString", "coordinates": [[15.482469594588792, 69.04207737366625], [15.479432283252322, 69.03774342949978]]}, "properties": {"source": "21243452", "target": "3214533"}}, {"type": "Feature", "geometry": {"type": "LineString", "coordinates": [[15.482469594588792, 69.04207737366625], [15.48083694559989, 69.03736851730173]]}, "properties": {"source": "21243452", "target": "29201119"}}, {"type": "Feature", "geometry": {"type": "LineString", "coordinates": [[15.482469594588792, 69.04207737366625], [15.484144562161362, 69.0396385665168]]}, "properties": {"source": "21243452", "target": "25263831"}}, {"type": "Feature", "geometry": {"type": "LineString", "coordinates": [[15.48208034022548, 69.04159676347356], [15.48083694559989, 69.03736851730173]]}, "properties": {"source": "16042559", "target": "29201119"}}, {"type": "Feature", "geometry": {"type": "LineString", "coordinates": [[15.47956627883994, 69.03918818520381], [15.480225943506298, 69.04039076643485]]}, "properties": {"source": "24556039", "target": "35399019"}}, {"type": "Feature", "geometry": {"type": "LineString", "coordinates": [[15.471350095541766, 69.03983370680874], [15.475718287322309, 69.03950711950651]]}, "properties": {"source": "8690023", "target": "628976"}}, {"type": "Feature", "geometry": {"type": "LineString", "coordinates": [[15.471350095541766, 69.03983370680874], [15.479027575123894, 69.0374844846715]]}, "properties": {"source": "8690023", "target": "628938"}}, {"type": "Feature", "geometry": {"type": "LineString", "coordinates": [[15.471350095541766, 69.03983370680874], [15.470147385855313, 69.03738576131974]]}, "properties": {"source": "8690023", "target": "628980"}}, {"type": "Feature", "geometry": {"type": "LineString", "coordinates": [[15.472347200907393, 69.03884973689654], [15.48325666965357, 69.04030916217542]]}, "properties": {"source": "24581447", "target": "23792004"}}, {"type": "Feature", "geometry": {"type": "LineString", "coordinates": [[15.475718287322309, 69.03950711950651], [15.470262547323074, 69.04119498169604]]}, "properties": {"source": "628976", "target": "432952"}}, {"type": "Feature", "geometry": {"type": "LineString", "coordinates": [[15.476059396629864, 69.0418638644228], [15.475718287322309, 69.03950711950651]]}, "properties": {"source": "8133793", "target": "628976"}}, {"type": "Feature", "geometry": {"type": "LineString", "coordinates": [[15.476059396629864, 69.0418638644228], [15.479027575123894, 69.0374844846715]]}, "properties": {"source": "8133793", "target": "628938"}}, {"type": "Feature", "geometry": {"type": "LineString", "coordinates": [[15.476059396629864, 69.0418638644228], [15.470147385855313, 69.03738576131974]]}, "properties": {"source": "8133793", "target": "628980"}}, {"type": "Feature", "geometry": {"type": "LineString", "coordinates": [[15.476059396629864, 69.0418638644228], [15.48449224906372, 69.03865074355329]]}, "properties": {"source": "8133793", "target": "687330"}}, {"type": "Feature", "geometry": {"type": "LineString", "coordinates": [[15.479027575123894, 69.0374844846715], [15.475718287322309, 69.03950711950651]]}, "properties": {"source": "628938", "target": "628976"}}, {"type": "Feature", "geometry": {"type": "LineString", "coordinates": [[15.479027575123894, 69.0374844846715], [15.470147385855313, 69.03738576131974]]}, "properties": {"source": "628938", "target": "628980"}}, {"type": "Feature", "geometry": {"type": "LineString", "coordinates": [[15.479027575123894, 69.0374844846715], [15.48449224906372, 69.03865074355329]]}, "properties": {"source": "628938", "target": "687330"}}, {"type": "Feature", "geometry": {"type": "LineString", "coordinates": [[15.479027575123894, 69.0374844846715], [15.470262547323074, 69.04119498169604]]}, "properties": {"source": "628938", "target": "432952"}}, {"type": "Feature", "geometry": {"type": "LineString", "coordinates": [[15.470147385855313, 69.03738576131974], [15.475718287322309, 69.03950711950651]]}, "properties": {"source": "628980", "target": "628976"}}, {"type": "Feature", "geometry": {"type": "LineString", "coordinates": [[15.470147385855313, 69.03738576131974], [15.48449224906372, 69.03865074355329]]}, "properties": {"source": "628980", "target": "687330"}}, {"type": "Feature", "geometry": {"type": "LineString", "coordinates": [[15.470147385855313, 69.03738576131974], [15.470262547323074, 69.04119498169604]]}, "properties": {"source": "628980", "target": "432952"}}, {"type": "Feature", "geometry": {"type": "LineString", "coordinates": [[15.478236849234321, 69.04158134462907], [15.48083694559989, 69.03736851730173]]}, "properties": {"source": "25565708", "target": "29201119"}}, {"type": "Feature", "geometry": {"type": "LineString", "coordinates": [[15.478236849234321, 69.04158134462907], [15.484144562161362, 69.0396385665168]]}, "properties": {"source": "25565708", "target": "25263831"}}, {"type": "Feature", "geometry": {"type": "LineString", "coordinates": [[15.478236849234321, 69.04158134462907], [15.47083426989434, 69.0390550372239]]}, "properties": {"source": "25565708", "target": "25147880"}}, {"type": "Feature", "geometry": {"type": "LineString", "coordinates": [[15.479038226138044, 69.04087935959484], [15.477461987410948, 69.03798142468051]]}, "properties": {"source": "31054263", "target": "1100730"}}, {"type": "Feature", "geometry": {"type": "LineString", "coordinates": [[15.479038226138044, 69.04087935959484], [15.477591224090673, 69.03806369126141]]}, "properties": {"source": "31054263", "target": "10080680"}}, {"type": "Feature", "geometry": {"type": "LineString", "coordinates": [[15.479038226138044, 69.04087935959484], [15.471106393879722, 69.03824330930183]]}, "properties": {"source": "31054263", "target": "1534080"}}, {"type": "Feature", "geometry": {"type": "LineString", "coordinates": [[15.479038226138044, 69.04087935959484], [15.472658945243978, 69.03777518319055]]}, "properties": {"source": "31054263", "target": "23388476"}}, {"type": "Feature", "geometry": {"type": "LineString", "coordinates": [[15.479038226138044, 69.04087935959484], [15.474020279007675, 69.04012634106488]]}, "properties": {"source": "31054263", "target": "24639142"}}, {"type": "Feature", "geometry": {"type": "LineString", "coordinates": [[15.479038226138044, 69.04087935959484], [15.471453834451978, 69.04248862144371]]}, "properties": {"source": "31054263", "target": "13615384"}}, {"type": "Feature", "geometry": {"type": "LineString", "coordinates": [[15.479038226138044, 69.04087935959484], [15.480614649057259, 69.0404406813874]]}, "properties": {"source": "31054263", "target": "15742185"}}, {"type": "Feature", "geometry": {"type": "LineString", "coordinates": [[15.479038226138044, 69.04087935959484], [15.48208034022548, 69.04159676347356]]}, "properties": {"source": "31054263", "target": "16042559"}}, {"type": "Feature", "geometry": {"type": "LineString", "coordinates": [[15.479038226138044, 69.04087935959484], [15.483609181521558, 69.03731253393815]]}, "properties": {"source": "31054263", "target": "2730250"}}, {"type": "Feature", "geometry": {"type": "LineString", "coordinates": [[15.479432283252322, 69.03774342949978], [15.48083694559989, 69.03736851730173]]}, "properties": {"source": "3214533", "target": "29201119"}}, {"type": "Feature", "geometry": {"type": "LineString", "coordinates": [[15.479432283252322, 69.03774342949978], [15.484144562161362, 69.0396385665168]]}, "properties": {"source": "3214533", "target": "25263831"}}, {"type": "Feature", "geometry": {"type": "LineString", "coordinates": [[15.479432283252322, 69.03774342949978], [15.475675135065075, 69.038744075437]]}, "properties": {"source": "3214533", "target": "13622898"}}, {"type": "Feature", "geometry": {"type": "LineString", "coordinates": [[15.479432283252322, 69.03774342949978], [15.475757597886371, 69.0399166422585]]}, "properties": {"source": "3214533", "target": "12049641"}}, {"type": "Feature", "geometry": {"type": "LineString", "coordinates": [[15.479432283252322, 69.03774342949978], [15.472347200907393, 69.03884973689654]]}, "properties": {"source": "3214533", "target": "24581447"}}, {"type": "Feature", "geometry": {"type": "LineString", "coordinates": [[15.479432283252322, 69.03774342949978], [15.475718287322309, 69.03950711950651]]}, "properties": {"source": "3214533", "target": "628976"}}, {"type": "Feature", "geometry": {"type": "LineString", "coordinates": [[15.479432283252322, 69.03774342949978], [15.476059396629864, 69.0418638644228]]}, "properties": {"source": "3214533", "target": "8133793"}}, {"type": "Feature", "geometry": {"type": "LineString", "coordinates": [[15.479038226138044, 69.04087935959484], [15.479432283252322, 69.03774342949978]]}, "properties": {"source": "31054263", "target": "3214533"}}, {"type": "Feature", "geometry": {"type": "LineString", "coordinates": [[15.479038226138044, 69.04087935959484], [15.48083694559989, 69.03736851730173]]}, "properties": {"source": "31054263", "target": "29201119"}}, {"type": "Feature", "geometry": {"type": "LineString", "coordinates": [[15.479038226138044, 69.04087935959484], [15.484144562161362, 69.0396385665168]]}, "properties": {"source": "31054263", "target": "25263831"}}, {"type": "Feature", "geometry": {"type": "LineString", "coordinates": [[15.479038226138044, 69.04087935959484], [15.475675135065075, 69.038744075437]]}, "properties": {"source": "31054263", "target": "13622898"}}, {"type": "Feature", "geometry": {"type": "LineString", "coordinates": [[15.479038226138044, 69.04087935959484], [15.475757597886371, 69.0399166422585]]}, "properties": {"source": "31054263", "target": "12049641"}}, {"type": "Feature", "geometry": {"type": "LineString", "coordinates": [[15.479038226138044, 69.04087935959484], [15.472347200907393, 69.03884973689654]]}, "properties": {"source": "31054263", "target": "24581447"}}, {"type": "Feature", "geometry": {"type": "LineString", "coordinates": [[15.479038226138044, 69.04087935959484], [15.476059396629864, 69.0418638644228]]}, "properties": {"source": "31054263", "target": "8133793"}}, {"type": "Feature", "geometry": {"type": "LineString", "coordinates": [[15.479038226138044, 69.04087935959484], [15.478236849234321, 69.04158134462907]]}, "properties": {"source": "31054263", "target": "25565708"}}, {"type": "Feature", "geometry": {"type": "LineString", "coordinates": [[15.479038226138044, 69.04087935959484], [15.48325666965357, 69.04030916217542]]}, "properties": {"source": "31054263", "target": "23792004"}}, {"type": "Feature", "geometry": {"type": "LineString", "coordinates": [[15.479038226138044, 69.04087935959484], [15.47577099741369, 69.04139052156569]]}, "properties": {"source": "31054263", "target": "12214480"}}, {"type": "Feature", "geometry": {"type": "LineString", "coordinates": [[15.479038226138044, 69.04087935959484], [15.480493156682002, 69.03937537081134]]}, "properties": {"source": "31054263", "target": "28961855"}}, {"type": "Feature", "geometry": {"type": "LineString", "coordinates": [[15.479038226138044, 69.04087935959484], [15.470245994136235, 69.04242606316791]]}, "properties": {"source": "31054263", "target": "13077769"}}, {"type": "Feature", "geometry": {"type": "LineString", "coordinates": [[15.479038226138044, 69.04087935959484], [15.476125538593607, 69.04039092382942]]}, "properties": {"source": "31054263", "target": "1199208"}}, {"type": "Feature", "geometry": {"type": "LineString", "coordinates": [[15.479038226138044, 69.04087935959484], [15.473536554719658, 69.0412943190143]]}, "properties": {"source": "31054263", "target": "13042188"}}, {"type": "Feature", "geometry": {"type": "LineString", "coordinates": [[15.479038226138044, 69.04087935959484], [15.480867985965546, 69.03962713048753]]}, "properties": {"source": "31054263", "target": "13425416"}}, {"type": "Feature", "geometry": {"type": "LineString", "coordinates": [[15.479038226138044, 69.04087935959484], [15.478650873671683, 69.03958222952252]]}, "properties": {"source": "31054263", "target": "1199210"}}, {"type": "Feature", "geometry": {"type": "LineString", "coordinates": [[15.473397559516116, 69.04011132781878], [15.475528203205158, 69.0413508087675]]}, "properties": {"source": "25219806", "target": "33864359"}}, {"type": "Feature", "geometry": {"type": "LineString", "coordinates": [[15.473397559516116, 69.04011132781878], [15.484144562161362, 69.0396385665168]]}, "properties": {"source": "25219806", "target": "25263831"}}, {"type": "Feature", "geometry": {"type": "LineString", "coordinates": [[15.473397559516116, 69.04011132781878], [15.485072288854042, 69.03858892419535]]}, "properties": {"source": "25219806", "target": "20755501"}}, {"type": "Feature", "geometry": {"type": "LineString", "coordinates": [[15.473397559516116, 69.04011132781878], [15.472347200907393, 69.03884973689654]]}, "properties": {"source": "25219806", "target": "24581447"}}, {"type": "Feature", "geometry": {"type": "LineString", "coordinates": [[15.473397559516116, 69.04011132781878], [15.47066886580933, 69.0413990747191]]}, "properties": {"source": "25219806", "target": "13422112"}}, {"type": "Feature", "geometry": {"type": "LineString", "coordinates": [[15.473397559516116, 69.04011132781878], [15.47144693669216, 69.03947586726613]]}, "properties": {"source": "25219806", "target": "19009382"}}, {"type": "Feature", "geometry": {"type": "LineString", "coordinates": [[15.473397559516116, 69.04011132781878], [15.47267247703408, 69.03979194250252]]}, "properties": {"source": "25219806", "target": "1331976"}}, {"type": "Feature", "geometry": {"type": "LineString", "coordinates": [[15.473397559516116, 69.04011132781878], [15.473885010204327, 69.04018849358766]]}, "properties": {"source": "25219806", "target": "18745428"}}, {"type": "Feature", "geometry": {"type": "LineString", "coordinates": [[15.473397559516116, 69.04011132781878], [15.47083426989434, 69.0390550372239]]}, "properties": {"source": "25219806", "target": "25147880"}}, {"type": "Feature", "geometry": {"type": "LineString", "coordinates": [[15.480225943506298, 69.04039076643485], [15.479038226138044, 69.04087935959484]]}, "properties": {"source": "35399019", "target": "31054263"}}, {"type": "Feature", "geometry": {"type": "LineString", "coordinates": [[15.480225943506298, 69.04039076643485], [15.479432283252322, 69.03774342949978]]}, "properties": {"source": "35399019", "target": "3214533"}}, {"type": "Feature", "geometry": {"type": "LineString", "coordinates": [[15.480225943506298, 69.04039076643485], [15.48083694559989, 69.03736851730173]]}, "properties": {"source": "35399019", "target": "29201119"}}, {"type": "Feature", "geometry": {"type": "LineString", "coordinates": [[15.480225943506298, 69.04039076643485], [15.484901146630762, 69.03760700824668]]}, "properties": {"source": "35399019", "target": "7507635"}}, {"type": "Feature", "geometry": {"type": "LineString", "coordinates": [[15.480225943506298, 69.04039076643485], [15.47540565166662, 69.03892944886721]]}, "properties": {"source": "35399019", "target": "31277786"}}, {"type": "Feature", "geometry": {"type": "LineString", "coordinates": [[15.480225943506298, 69.04039076643485], [15.482208127485649, 69.04100957482763]]}, "properties": {"source": "35399019", "target": "29011153"}}, {"type": "Feature", "geometry": {"type": "LineString", "coordinates": [[15.480225943506298, 69.04039076643485], [15.4814851735388, 69.0410209768929]]}, "properties": {"source": "35399019", "target": "33651470"}}, {"type": "Feature", "geometry": {"type": "LineString", "coordinates": [[15.472980521130268, 69.04193654215183], [15.471809486412155, 69.03906171057315]]}, "properties": {"source": "25083860", "target": "17275797"}}, {"type": "Feature", "geometry": {"type": "LineString", "coordinates": [[15.472980521130268, 69.04193654215183], [15.475528203205158, 69.0413508087675]]}, "properties": {"source": "25083860", "target": "33864359"}}, {"type": "Feature", "geometry": {"type": "LineString", "coordinates": [[15.472980521130268, 69.04193654215183], [15.469645236571608, 69.03941364365181]]}, "properties": {"source": "25083860", "target": "1635939"}}, {"type": "Feature", "geometry": {"type": "LineString", "coordinates": [[15.472980521130268, 69.04193654215183], [15.46922954062569, 69.03885731315361]]}, "properties": {"source": "25083860", "target": "34202581"}}, {"type": "Feature", "geometry": {"type": "LineString", "coordinates": [[15.472980521130268, 69.04193654215183], [15.469841757096049, 69.04056991657819]]}, "properties": {"source": "25083860", "target": "3703358"}}, {"type": "Feature", "geometry": {"type": "LineString", "coordinates": [[15.472980521130268, 69.04193654215183], [15.484144562161362, 69.0396385665168]]}, "properties": {"source": "25083860", "target": "25263831"}}, {"type": "Feature", "geometry": {"type": "LineString", "coordinates": [[15.472980521130268, 69.04193654215183], [15.485072288854042, 69.03858892419535]]}, "properties": {"source": "25083860", "target": "20755501"}}, {"type": "Feature", "geometry": {"type": "LineString", "coordinates": [[15.472980521130268, 69.04193654215183], [15.475675135065075, 69.038744075437]]}, "properties": {"source": "25083860", "target": "13622898"}}, {"type": "Feature", "geometry": {"type": "LineString", "coordinates": [[15.472980521130268, 69.04193654215183], [15.475757597886371, 69.0399166422585]]}, "properties": {"source": "25083860", "target": "12049641"}}, {"type": "Feature", "geometry": {"type": "LineString", "coordinates": [[15.472980521130268, 69.04193654215183], [15.473397559516116, 69.04011132781878]]}, "properties": {"source": "25083860", "target": "25219806"}}, {"type": "Feature", "geometry": {"type": "LineString", "coordinates": [[15.472980521130268, 69.04193654215183], [15.472347200907393, 69.03884973689654]]}, "properties": {"source": "25083860", "target": "24581447"}}, {"type": "Feature", "geometry": {"type": "LineString", "coordinates": [[15.472980521130268, 69.04193654215183], [15.478236849234321, 69.04158134462907]]}, "properties": {"source": "25083860", "target": "25565708"}}, {"type": "Feature", "geometry": {"type": "LineString", "coordinates": [[15.472980521130268, 69.04193654215183], [15.48325666965357, 69.04030916217542]]}, "properties": {"source": "25083860", "target": "23792004"}}, {"type": "Feature", "geometry": {"type": "LineString", "coordinates": [[15.472980521130268, 69.04193654215183], [15.47577099741369, 69.04139052156569]]}, "properties": {"source": "25083860", "target": "12214480"}}, {"type": "Feature", "geometry": {"type": "LineString", "coordinates": [[15.472980521130268, 69.04193654215183], [15.47856883386163, 69.03994402706019]]}, "properties": {"source": "25083860", "target": "12103731"}}, {"type": "Feature", "geometry": {"type": "LineString", "coordinates": [[15.472980521130268, 69.04193654215183], [15.469766621896554, 69.04079165696533]]}, "properties": {"source": "25083860", "target": "10975624"}}, {"type": "Feature", "geometry": {"type": "LineString", "coordinates": [[15.479432283252322, 69.03774342949978], [15.479027575123894, 69.0374844846715]]}, "properties": {"source": "3214533", "target": "628938"}}, {"type": "Feature", "geometry": {"type": "LineString", "coordinates": [[15.479432283252322, 69.03774342949978], [15.478236849234321, 69.04158134462907]]}, "properties": {"source": "3214533", "target": "25565708"}}, {"type": "Feature", "geometry": {"type": "LineString", "coordinates": [[15.479432283252322, 69.03774342949978], [15.48325666965357, 69.04030916217542]]}, "properties": {"source": "3214533", "target": "23792004"}}, {"type": "Feature", "geometry": {"type": "LineString", "coordinates": [[15.479432283252322, 69.03774342949978], [15.47577099741369, 69.04139052156569]]}, "properties": {"source": "3214533", "target": "12214480"}}, {"type": "Feature", "geometry": {"type": "LineString", "coordinates": [[15.479432283252322, 69.03774342949978], [15.480867985965546, 69.03962713048753]]}, "properties": {"source": "3214533", "target": "13425416"}}, {"type": "Feature", "geometry": {"type": "LineString", "coordinates": [[15.479432283252322, 69.03774342949978], [15.478650873671683, 69.03958222952252]]}, "properties": {"source": "3214533", "target": "1199210"}}, {"type": "Feature", "geometry": {"type": "LineString", "coordinates": [[15.479432283252322, 69.03774342949978], [15.477461987410948, 69.03798142468051]]}, "properties": {"source": "3214533", "target": "1100730"}}, {"type": "Feature", "geometry": {"type": "LineString", "coordinates": [[15.479432283252322, 69.03774342949978], [15.477591224090673, 69.03806369126141]]}, "properties": {"source": "3214533", "target": "10080680"}}, {"type": "Feature", "geometry": {"type": "LineString", "coordinates": [[15.479432283252322, 69.03774342949978], [15.472658945243978, 69.03777518319055]]}, "properties": {"source": "3214533", "target": "23388476"}}, {"type": "Feature", "geometry": {"type": "LineString", "coordinates": [[15.479432283252322, 69.03774342949978], [15.474020279007675, 69.04012634106488]]}, "properties": {"source": "3214533", "target": "24639142"}}, {"type": "Feature", "geometry": {"type": "LineString", "coordinates": [[15.479432283252322, 69.03774342949978], [15.471453834451978, 69.04248862144371]]}, "properties": {"source": "3214533", "target": "13615384"}}, {"type": "Feature", "geometry": {"type": "LineString", "coordinates": [[15.48083694559989, 69.03736851730173], [15.472347200907393, 69.03884973689654]]}, "properties": {"source": "29201119", "target": "24581447"}}, {"type": "Feature", "geometry": {"type": "LineString", "coordinates": [[15.48083694559989, 69.03736851730173], [15.48325666965357, 69.04030916217542]]}, "properties": {"source": "29201119", "target": "23792004"}}, {"type": "Feature", "geometry": {"type": "LineString", "coordinates": [[15.48083694559989, 69.03736851730173], [15.47577099741369, 69.04139052156569]]}, "properties": {"source": "29201119", "target": "12214480"}}, {"type": "Feature", "geometry": {"type": "LineString", "coordinates": [[15.48083694559989, 69.03736851730173], [15.478650873671683, 69.03958222952252]]}, "properties": {"source": "29201119", "target": "1199210"}}, {"type": "Feature", "geometry": {"type": "LineString", "coordinates": [[15.48083694559989, 69.03736851730173], [15.477591224090673, 69.03806369126141]]}, "properties": {"source": "29201119", "target": "10080680"}}, {"type": "Feature", "geometry": {"type": "LineString", "coordinates": [[15.475528203205158, 69.0413508087675], [15.476059396629864, 69.0418638644228]]}, "properties": {"source": "33864359", "target": "8133793"}}, {"type": "Feature", "geometry": {"type": "LineString", "coordinates": [[15.475528203205158, 69.0413508087675], [15.479027575123894, 69.0374844846715]]}, "properties": {"source": "33864359", "target": "628938"}}, {"type": "Feature", "geometry": {"type": "LineString", "coordinates": [[15.475528203205158, 69.0413508087675], [15.470147385855313, 69.03738576131974]]}, "properties": {"source": "33864359", "target": "628980"}}, {"type": "Feature", "geometry": {"type": "LineString", "coordinates": [[15.475528203205158, 69.0413508087675], [15.478236849234321, 69.04158134462907]]}, "properties": {"source": "33864359", "target": "25565708"}}, {"type": "Feature", "geometry": {"type": "LineString", "coordinates": [[15.475528203205158, 69.0413508087675], [15.48325666965357, 69.04030916217542]]}, "properties": {"source": "33864359", "target": "23792004"}}, {"type": "Feature", "geometry": {"type": "LineString", "coordinates": [[15.475528203205158, 69.0413508087675], [15.480493156682002, 69.03937537081134]]}, "properties": {"source": "33864359", "target": "28961855"}}, {"type": "Feature", "geometry": {"type": "LineString", "coordinates": [[15.475528203205158, 69.0413508087675], [15.472658945243978, 69.03777518319055]]}, "properties": {"source": "33864359", "target": "23388476"}}, {"type": "Feature", "geometry": {"type": "LineString", "coordinates": [[15.475528203205158, 69.0413508087675], [15.474020279007675, 69.04012634106488]]}, "properties": {"source": "33864359", "target": "24639142"}}, {"type": "Feature", "geometry": {"type": "LineString", "coordinates": [[15.469645236571608, 69.03941364365181], [15.479038226138044, 69.04087935959484]]}, "properties": {"source": "1635939", "target": "31054263"}}, {"type": "Feature", "geometry": {"type": "LineString", "coordinates": [[15.469645236571608, 69.03941364365181], [15.479432283252322, 69.03774342949978]]}, "properties": {"source": "1635939", "target": "3214533"}}, {"type": "Feature", "geometry": {"type": "LineString", "coordinates": [[15.469645236571608, 69.03941364365181], [15.48083694559989, 69.03736851730173]]}, "properties": {"source": "1635939", "target": "29201119"}}, {"type": "Feature", "geometry": {"type": "LineString", "coordinates": [[15.469645236571608, 69.03941364365181], [15.471809486412155, 69.03906171057315]]}, "properties": {"source": "1635939", "target": "17275797"}}, {"type": "Feature", "geometry": {"type": "LineString", "coordinates": [[15.469645236571608, 69.03941364365181], [15.484144562161362, 69.0396385665168]]}, "properties": {"source": "1635939", "target": "25263831"}}, {"type": "Feature", "geometry": {"type": "LineString", "coordinates": [[15.469645236571608, 69.03941364365181], [15.475675135065075, 69.038744075437]]}, "properties": {"source": "1635939", "target": "13622898"}}, {"type": "Feature", "geometry": {"type": "LineString", "coordinates": [[15.469645236571608, 69.03941364365181], [15.475757597886371, 69.0399166422585]]}, "properties": {"source": "1635939", "target": "12049641"}}, {"type": "Feature", "geometry": {"type": "LineString", "coordinates": [[15.469645236571608, 69.03941364365181], [15.47577099741369, 69.04139052156569]]}, "properties": {"source": "1635939", "target": "12214480"}}, {"type": "Feature", "geometry": {"type": "LineString", "coordinates": [[15.476125538593607, 69.04039092382942], [15.475675135065075, 69.038744075437]]}, "properties": {"source": "1199208", "target": "13622898"}}, {"type": "Feature", "geometry": {"type": "LineString", "coordinates": [[15.476125538593607, 69.04039092382942], [15.475757597886371, 69.0399166422585]]}, "properties": {"source": "1199208", "target": "12049641"}}, {"type": "Feature", "geometry": {"type": "LineString", "coordinates": [[15.473536554719658, 69.0412943190143], [15.479432283252322, 69.03774342949978]]}, "properties": {"source": "13042188", "target": "3214533"}}, {"type": "Feature", "geometry": {"type": "LineString", "coordinates": [[15.473536554719658, 69.0412943190143], [15.48083694559989, 69.03736851730173]]}, "properties": {"source": "13042188", "target": "29201119"}}, {"type": "Feature", "geometry": {"type": "LineString", "coordinates": [[15.473536554719658, 69.0412943190143], [15.475675135065075, 69.038744075437]]}, "properties": {"source": "13042188", "target": "13622898"}}, {"type": "Feature", "geometry": {"type": "LineString", "coordinates": [[15.480867985965546, 69.03962713048753], [15.48083694559989, 69.03736851730173]]}, "properties": {"source": "13425416", "target": "29201119"}}, {"type": "Feature", "geometry": {"type": "LineString", "coordinates": [[15.478650873671683, 69.03958222952252], [15.470262547323074, 69.04119498169604]]}, "properties": {"source": "1199210", "target": "432952"}}, {"type": "Feature", "geometry": {"type": "LineString", "coordinates": [[15.477461987410948, 69.03798142468051], [15.48083694559989, 69.03736851730173]]}, "properties": {"source": "1100730", "target": "29201119"}}, {"type": "Feature", "geometry": {"type": "LineString", "coordinates": [[15.469827800638967, 69.04198445247368], [15.484582115847815, 69.03883072365389]]}, "properties": {"source": "35049501", "target": "2229144"}}, {"type": "Feature", "geometry": {"type": "LineString", "coordinates": [[15.469827800638967, 69.04198445247368], [15.473569591758519, 69.04210304874746]]}, "properties": {"source": "35049501", "target": "22113676"}}, {"type": "Feature", "geometry": {"type": "LineString", "coordinates": [[15.469827800638967, 69.04198445247368], [15.47066886580933, 69.0413990747191]]}, "properties": {"source": "35049501", "target": "13422112"}}, {"type": "Feature", "geometry": {"type": "LineString", "coordinates": [[15.469827800638967, 69.04198445247368], [15.47144693669216, 69.03947586726613]]}, "properties": {"source": "35049501", "target": "19009382"}}, {"type": "Feature", "geometry": {"type": "LineString", "coordinates": [[15.469827800638967, 69.04198445247368], [15.47267247703408, 69.03979194250252]]}, "properties": {"source": "35049501", "target": "1331976"}}, {"type": "Feature", "geometry": {"type": "LineString", "coordinates": [[15.469827800638967, 69.04198445247368], [15.483910868867895, 69.04026312726066]]}, "properties": {"source": "35049501", "target": "22465182"}}, {"type": "Feature", "geometry": {"type": "LineString", "coordinates": [[15.469827800638967, 69.04198445247368], [15.473885010204327, 69.04018849358766]]}, "properties": {"source": "35049501", "target": "18745428"}}, {"type": "Feature", "geometry": {"type": "LineString", "coordinates": [[15.469827800638967, 69.04198445247368], [15.469250921970314, 69.03906184874708]]}, "properties": {"source": "35049501", "target": "24020962"}}, {"type": "Feature", "geometry": {"type": "LineString", "coordinates": [[15.482114627769306, 69.0399151007224], [15.48083694559989, 69.03736851730173]]}, "properties": {"source": "8499444", "target": "29201119"}}, {"type": "Feature", "geometry": {"type": "LineString", "coordinates": [[15.482114627769306, 69.0399151007224], [15.484901146630762, 69.03760700824668]]}, "properties": {"source": "8499444", "target": "7507635"}}, {"type": "Feature", "geometry": {"type": "LineString", "coordinates": [[15.482114627769306, 69.0399151007224], [15.475528203205158, 69.0413508087675]]}, "properties": {"source": "8499444", "target": "33864359"}}, {"type": "Feature", "geometry": {"type": "LineString", "coordinates": [[15.482114627769306, 69.0399151007224], [15.46922954062569, 69.03885731315361]]}, "properties": {"source": "8499444", "target": "34202581"}}, {"type": "Feature", "geometry": {"type": "LineString", "coordinates": [[15.482114627769306, 69.0399151007224], [15.469841757096049, 69.04056991657819]]}, "properties": {"source": "8499444", "target": "3703358"}}, {"type": "Feature", "geometry": {"type": "LineString", "coordinates": [[15.482114627769306, 69.0399151007224], [15.475718287322309, 69.03950711950651]]}, "properties": {"source": "8499444", "target": "628976"}}, {"type": "Feature", "geometry": {"type": "LineString", "coordinates": [[15.482114627769306, 69.0399151007224], [15.476059396629864, 69.0418638644228]]}, "properties": {"source": "8499444", "target": "8133793"}}, {"type": "Feature", "geometry": {"type": "LineString", "coordinates": [[15.482114627769306, 69.0399151007224], [15.479027575123894, 69.0374844846715]]}, "properties": {"source": "8499444", "target": "628938"}}, {"type": "Feature", "geometry": {"type": "LineString", "coordinates": [[15.482114627769306, 69.0399151007224], [15.470147385855313, 69.03738576131974]]}, "properties": {"source": "8499444", "target": "628980"}}, {"type": "Feature", "geometry": {"type": "LineString", "coordinates": [[15.482114627769306, 69.0399151007224], [15.480493156682002, 69.03937537081134]]}, "properties": {"source": "8499444", "target": "28961855"}}, {"type": "Feature", "geometry": {"type": "LineString", "coordinates": [[15.482114627769306, 69.0399151007224], [15.48449224906372, 69.03865074355329]]}, "properties": {"source": "8499444", "target": "687330"}}, {"type": "Feature", "geometry": {"type": "LineString", "coordinates": [[15.473397559516116, 69.04011132781878], [15.472281284612421, 69.03950763401261]]}, "properties": {"source": "25219806", "target": "31552773"}}, {"type": "Feature", "geometry": {"type": "LineString", "coordinates": [[15.473397559516116, 69.04011132781878], [15.479038226138044, 69.04087935959484]]}, "properties": {"source": "25219806", "target": "31054263"}}, {"type": "Feature", "geometry": {"type": "LineString", "coordinates": [[15.473397559516116, 69.04011132781878], [15.479432283252322, 69.03774342949978]]}, "properties": {"source": "25219806", "target": "3214533"}}, {"type": "Feature", "geometry": {"type": "LineString", "coordinates": [[15.473397559516116, 69.04011132781878], [15.48083694559989, 69.03736851730173]]}, "properties": {"source": "25219806", "target": "29201119"}}, {"type": "Feature", "geometry": {"type": "LineString", "coordinates": [[15.473397559516116, 69.04011132781878], [15.484901146630762, 69.03760700824668]]}, "properties": {"source": "25219806", "target": "7507635"}}, {"type": "Feature", "geometry": {"type": "LineString", "coordinates": [[15.469645236571608, 69.03941364365181], [15.470245994136235, 69.04242606316791]]}, "properties": {"source": "1635939", "target": "13077769"}}, {"type": "Feature", "geometry": {"type": "LineString", "coordinates": [[15.469645236571608, 69.03941364365181], [15.476125538593607, 69.04039092382942]]}, "properties": {"source": "1635939", "target": "1199208"}}, {"type": "Feature", "geometry": {"type": "LineString", "coordinates": [[15.469645236571608, 69.03941364365181], [15.473536554719658, 69.0412943190143]]}, "properties": {"source": "1635939", "target": "13042188"}}, {"type": "Feature", "geometry": {"type": "LineString", "coordinates": [[15.469645236571608, 69.03941364365181], [15.480867985965546, 69.03962713048753]]}, "properties": {"source": "1635939", "target": "13425416"}}, {"type": "Feature", "geometry": {"type": "LineString", "coordinates": [[15.469645236571608, 69.03941364365181], [15.478650873671683, 69.03958222952252]]}, "properties": {"source": "1635939", "target": "1199210"}}, {"type": "Feature", "geometry": {"type": "LineString", "coordinates": [[15.469645236571608, 69.03941364365181], [15.477461987410948, 69.03798142468051]]}, "properties": {"source": "1635939", "target": "1100730"}}, {"type": "Feature", "geometry": {"type": "LineString", "coordinates": [[15.469645236571608, 69.03941364365181], [15.477591224090673, 69.03806369126141]]}, "properties": {"source": "1635939", "target": "10080680"}}, {"type": "Feature", "geometry": {"type": "LineString", "coordinates": [[15.469645236571608, 69.03941364365181], [15.471106393879722, 69.03824330930183]]}, "properties": {"source": "1635939", "target": "1534080"}}, {"type": "Feature", "geometry": {"type": "LineString", "coordinates": [[15.469645236571608, 69.03941364365181], [15.471453834451978, 69.04248862144371]]}, "properties": {"source": "1635939", "target": "13615384"}}, {"type": "Feature", "geometry": {"type": "LineString", "coordinates": [[15.469645236571608, 69.03941364365181], [15.480614649057259, 69.0404406813874]]}, "properties": {"source": "1635939", "target": "15742185"}}, {"type": "Feature", "geometry": {"type": "LineString", "coordinates": [[15.469645236571608, 69.03941364365181], [15.48208034022548, 69.04159676347356]]}, "properties": {"source": "1635939", "target": "16042559"}}, {"type": "Feature", "geometry": {"type": "LineString", "coordinates": [[15.46922954062569, 69.03885731315361], [15.472281284612421, 69.03950763401261]]}, "properties": {"source": "34202581", "target": "31552773"}}, {"type": "Feature", "geometry": {"type": "LineString", "coordinates": [[15.46922954062569, 69.03885731315361], [15.479038226138044, 69.04087935959484]]}, "properties": {"source": "34202581", "target": "31054263"}}, {"type": "Feature", "geometry": {"type": "LineString", "coordinates": [[15.46922954062569, 69.03885731315361], [15.479432283252322, 69.03774342949978]]}, "properties": {"source": "34202581", "target": "3214533"}}, {"type": "Feature", "geometry": {"type": "LineString", "coordinates": [[15.46922954062569, 69.03885731315361], [15.48083694559989, 69.03736851730173]]}, "properties": {"source": "34202581", "target": "29201119"}}, {"type": "Feature", "geometry": {"type": "LineString", "coordinates": [[15.46922954062569, 69.03885731315361], [15.484901146630762, 69.03760700824668]]}, "properties": {"source": "34202581", "target": "7507635"}}, {"type": "Feature", "geometry": {"type": "LineString", "coordinates": [[15.472281284612421, 69.03950763401261], [15.479964965694677, 69.03815732243294]]}, "properties": {"source": "31552773", "target": "11703946"}}, {"type": "Feature", "geometry": {"type": "LineString", "coordinates": [[15.472281284612421, 69.03950763401261], [15.480493156682002, 69.03937537081134]]}, "properties": {"source": "31552773", "target": "28961855"}}, {"type": "Feature", "geometry": {"type": "LineString", "coordinates": [[15.472281284612421, 69.03950763401261], [15.470245994136235, 69.04242606316791]]}, "properties": {"source": "31552773", "target": "13077769"}}, {"type": "Feature", "geometry": {"type": "LineString", "coordinates": [[15.472281284612421, 69.03950763401261], [15.476125538593607, 69.04039092382942]]}, "properties": {"source": "31552773", "target": "1199208"}}, {"type": "Feature", "geometry": {"type": "LineString", "coordinates": [[15.472281284612421, 69.03950763401261], [15.473536554719658, 69.0412943190143]]}, "properties": {"source": "31552773", "target": "13042188"}}, {"type": "Feature", "geometry": {"type": "LineString", "coordinates": [[15.472281284612421, 69.03950763401261], [15.480867985965546, 69.03962713048753]]}, "properties": {"source": "31552773", "target": "13425416"}}, {"type": "Feature", "geometry": {"type": "LineString", "coordinates": [[15.472281284612421, 69.03950763401261], [15.478650873671683, 69.03958222952252]]}, "properties": {"source": "31552773", "target": "1199210"}}, {"type": "Feature", "geometry": {"type": "LineString", "coordinates": [[15.472281284612421, 69.03950763401261], [15.477461987410948, 69.03798142468051]]}, "properties": {"source": "31552773", "target": "1100730"}}, {"type": "Feature", "geometry": {"type": "LineString", "coordinates": [[15.472281284612421, 69.03950763401261], [15.477591224090673, 69.03806369126141]]}, "properties": {"source": "31552773", "target": "10080680"}}, {"type": "Feature", "geometry": {"type": "LineString", "coordinates": [[15.472281284612421, 69.03950763401261], [15.471106393879722, 69.03824330930183]]}, "properties": {"source": "31552773", "target": "1534080"}}, {"type": "Feature", "geometry": {"type": "LineString", "coordinates": [[15.472281284612421, 69.03950763401261], [15.472658945243978, 69.03777518319055]]}, "properties": {"source": "31552773", "target": "23388476"}}, {"type": "Feature", "geometry": {"type": "LineString", "coordinates": [[15.472281284612421, 69.03950763401261], [15.474020279007675, 69.04012634106488]]}, "properties": {"source": "31552773", "target": "24639142"}}, {"type": "Feature", "geometry": {"type": "LineString", "coordinates": [[15.472281284612421, 69.03950763401261], [15.471453834451978, 69.04248862144371]]}, "properties": {"source": "31552773", "target": "13615384"}}, {"type": "Feature", "geometry": {"type": "LineString", "coordinates": [[15.472281284612421, 69.03950763401261], [15.480614649057259, 69.0404406813874]]}, "properties": {"source": "31552773", "target": "15742185"}}, {"type": "Feature", "geometry": {"type": "LineString", "coordinates": [[15.472281284612421, 69.03950763401261], [15.48208034022548, 69.04159676347356]]}, "properties": {"source": "31552773", "target": "16042559"}}, {"type": "Feature", "geometry": {"type": "LineString", "coordinates": [[15.472281284612421, 69.03950763401261], [15.483609181521558, 69.03731253393815]]}, "properties": {"source": "31552773", "target": "2730250"}}, {"type": "Feature", "geometry": {"type": "LineString", "coordinates": [[15.471319903554217, 69.03749247417085], [15.475528203205158, 69.0413508087675]]}, "properties": {"source": "32497385", "target": "33864359"}}, {"type": "Feature", "geometry": {"type": "LineString", "coordinates": [[15.471319903554217, 69.03749247417085], [15.46922954062569, 69.03885731315361]]}, "properties": {"source": "32497385", "target": "34202581"}}, {"type": "Feature", "geometry": {"type": "LineString", "coordinates": [[15.471319903554217, 69.03749247417085], [15.469841757096049, 69.04056991657819]]}, "properties": {"source": "32497385", "target": "3703358"}}, {"type": "Feature", "geometry": {"type": "LineString", "coordinates": [[15.471319903554217, 69.03749247417085], [15.480225943506298, 69.04039076643485]]}, "properties": {"source": "32497385", "target": "35399019"}}, {"type": "Feature", "geometry": {"type": "LineString", "coordinates": [[15.471319903554217, 69.03749247417085], [15.47540565166662, 69.03892944886721]]}, "properties": {"source": "32497385", "target": "31277786"}}, {"type": "Feature", "geometry": {"type": "LineString", "coordinates": [[15.471319903554217, 69.03749247417085], [15.47956627883994, 69.03918818520381]]}, "properties": {"source": "32497385", "target": "24556039"}}, {"type": "Feature", "geometry": {"type": "LineString", "coordinates": [[15.471319903554217, 69.03749247417085], [15.482208127485649, 69.04100957482763]]}, "properties": {"source": "32497385", "target": "29011153"}}, {"type": "Feature", "geometry": {"type": "LineString", "coordinates": [[15.484582115847815, 69.03883072365389], [15.473569591758519, 69.04210304874746]]}, "properties": {"source": "2229144", "target": "22113676"}}, {"type": "Feature", "geometry": {"type": "LineString", "coordinates": [[15.484582115847815, 69.03883072365389], [15.475416566290221, 69.04099891998277]]}, "properties": {"source": "2229144", "target": "18074270"}}, {"type": "Feature", "geometry": {"type": "LineString", "coordinates": [[15.484582115847815, 69.03883072365389], [15.483910868867895, 69.04026312726066]]}, "properties": {"source": "2229144", "target": "22465182"}}, {"type": "Feature", "geometry": {"type": "LineString", "coordinates": [[15.484582115847815, 69.03883072365389], [15.469250921970314, 69.03906184874708]]}, "properties": {"source": "2229144", "target": "24020962"}}, {"type": "Feature", "geometry": {"type": "LineString", "coordinates": [[15.480614649057259, 69.0404406813874], [15.479432283252322, 69.03774342949978]]}, "properties": {"source": "15742185", "target": "3214533"}}, {"type": "Feature", "geometry": {"type": "LineString", "coordinates": [[15.480614649057259, 69.0404406813874], [15.48083694559989, 69.03736851730173]]}, "properties": {"source": "15742185", "target": "29201119"}}, {"type": "Feature", "geometry": {"type": "LineString", "coordinates": [[15.473569591758519, 69.04210304874746], [15.475416566290221, 69.04099891998277]]}, "properties": {"source": "22113676", "target": "18074270"}}, {"type": "Feature", "geometry": {"type": "LineString", "coordinates": [[15.473569591758519, 69.04210304874746], [15.483910868867895, 69.04026312726066]]}, "properties": {"source": "22113676", "target": "22465182"}}, {"type": "Feature", "geometry": {"type": "LineString", "coordinates": [[15.473569591758519, 69.04210304874746], [15.469250921970314, 69.03906184874708]]}, "properties": {"source": "22113676", "target": "24020962"}}, {"type": "Feature", "geometry": {"type": "LineString", "coordinates": [[15.469841757096049, 69.04056991657819], [15.48083694559989, 69.03736851730173]]}, "properties": {"source": "3703358", "target": "29201119"}}, {"type": "Feature", "geometry": {"type": "LineString", "coordinates": [[15.469841757096049, 69.04056991657819], [15.484901146630762, 69.03760700824668]]}, "properties": {"source": "3703358", "target": "7507635"}}, {"type": "Feature", "geometry": {"type": "LineString", "coordinates": [[15.469841757096049, 69.04056991657819], [15.484144562161362, 69.0396385665168]]}, "properties": {"source": "3703358", "target": "25263831"}}, {"type": "Feature", "geometry": {"type": "LineString", "coordinates": [[15.469841757096049, 69.04056991657819], [15.480225943506298, 69.04039076643485]]}, "properties": {"source": "3703358", "target": "35399019"}}, {"type": "Feature", "geometry": {"type": "LineString", "coordinates": [[15.469841757096049, 69.04056991657819], [15.472347200907393, 69.03884973689654]]}, "properties": {"source": "3703358", "target": "24581447"}}, {"type": "Feature", "geometry": {"type": "LineString", "coordinates": [[15.469841757096049, 69.04056991657819], [15.475718287322309, 69.03950711950651]]}, "properties": {"source": "3703358", "target": "628976"}}, {"type": "Feature", "geometry": {"type": "LineString", "coordinates": [[15.469841757096049, 69.04056991657819], [15.476059396629864, 69.0418638644228]]}, "properties": {"source": "3703358", "target": "8133793"}}, {"type": "Feature", "geometry": {"type": "LineString", "coordinates": [[15.469841757096049, 69.04056991657819], [15.479027575123894, 69.0374844846715]]}, "properties": {"source": "3703358", "target": "628938"}}, {"type": "Feature", "geometry": {"type": "LineString", "coordinates": [[15.469841757096049, 69.04056991657819], [15.470147385855313, 69.03738576131974]]}, "properties": {"source": "3703358", "target": "628980"}}, {"type": "Feature", "geometry": {"type": "LineString", "coordinates": [[15.469841757096049, 69.04056991657819], [15.48325666965357, 69.04030916217542]]}, "properties": {"source": "3703358", "target": "23792004"}}, {"type": "Feature", "geometry": {"type": "LineString", "coordinates": [[15.469841757096049, 69.04056991657819], [15.480493156682002, 69.03937537081134]]}, "properties": {"source": "3703358", "target": "28961855"}}, {"type": "Feature", "geometry": {"type": "LineString", "coordinates": [[15.469841757096049, 69.04056991657819], [15.48449224906372, 69.03865074355329]]}, "properties": {"source": "3703358", "target": "687330"}}, {"type": "Feature", "geometry": {"type": "LineString", "coordinates": [[15.469841757096049, 69.04056991657819], [15.470262547323074, 69.04119498169604]]}, "properties": {"source": "3703358", "target": "432952"}}, {"type": "Feature", "geometry": {"type": "LineString", "coordinates": [[15.484144562161362, 69.0396385665168], [15.48083694559989, 69.03736851730173]]}, "properties": {"source": "25263831", "target": "29201119"}}, {"type": "Feature", "geometry": {"type": "LineString", "coordinates": [[15.484144562161362, 69.0396385665168], [15.475675135065075, 69.038744075437]]}, "properties": {"source": "25263831", "target": "13622898"}}, {"type": "Feature", "geometry": {"type": "LineString", "coordinates": [[15.469841757096049, 69.04056991657819], [15.471350095541766, 69.03983370680874]]}, "properties": {"source": "3703358", "target": "8690023"}}, {"type": "Feature", "geometry": {"type": "LineString", "coordinates": [[15.47856883386163, 69.03994402706019], [15.472281284612421, 69.03950763401261]]}, "properties": {"source": "12103731", "target": "31552773"}}, {"type": "Feature", "geometry": {"type": "LineString", "coordinates": [[15.47856883386163, 69.03994402706019], [15.479038226138044, 69.04087935959484]]}, "properties": {"source": "12103731", "target": "31054263"}}, {"type": "Feature", "geometry": {"type": "LineString", "coordinates": [[15.47856883386163, 69.03994402706019], [15.479432283252322, 69.03774342949978]]}, "properties": {"source": "12103731", "target": "3214533"}}, {"type": "Feature", "geometry": {"type": "LineString", "coordinates": [[15.47856883386163, 69.03994402706019], [15.48083694559989, 69.03736851730173]]}, "properties": {"source": "12103731", "target": "29201119"}}, {"type": "Feature", "geometry": {"type": "LineString", "coordinates": [[15.47856883386163, 69.03994402706019], [15.484901146630762, 69.03760700824668]]}, "properties": {"source": "12103731", "target": "7507635"}}, {"type": "Feature", "geometry": {"type": "LineString", "coordinates": [[15.47856883386163, 69.03994402706019], [15.471809486412155, 69.03906171057315]]}, "properties": {"source": "12103731", "target": "17275797"}}, {"type": "Feature", "geometry": {"type": "LineString", "coordinates": [[15.47856883386163, 69.03994402706019], [15.469645236571608, 69.03941364365181]]}, "properties": {"source": "12103731", "target": "1635939"}}, {"type": "Feature", "geometry": {"type": "LineString", "coordinates": [[15.47856883386163, 69.03994402706019], [15.485072288854042, 69.03858892419535]]}, "properties": {"source": "12103731", "target": "20755501"}}, {"type": "Feature", "geometry": {"type": "LineString", "coordinates": [[15.47856883386163, 69.03994402706019], [15.475675135065075, 69.038744075437]]}, "properties": {"source": "12103731", "target": "13622898"}}, {"type": "Feature", "geometry": {"type": "LineString", "coordinates": [[15.469766621896554, 69.04079165696533], [15.472281284612421, 69.03950763401261]]}, "properties": {"source": "10975624", "target": "31552773"}}, {"type": "Feature", "geometry": {"type": "LineString", "coordinates": [[15.469766621896554, 69.04079165696533], [15.479038226138044, 69.04087935959484]]}, "properties": {"source": "10975624", "target": "31054263"}}, {"type": "Feature", "geometry": {"type": "LineString", "coordinates": [[15.469766621896554, 69.04079165696533], [15.479432283252322, 69.03774342949978]]}, "properties": {"source": "10975624", "target": "3214533"}}, {"type": "Feature", "geometry": {"type": "LineString", "coordinates": [[15.469766621896554, 69.04079165696533], [15.48083694559989, 69.03736851730173]]}, "properties": {"source": "10975624", "target": "29201119"}}, {"type": "Feature", "geometry": {"type": "LineString", "coordinates": [[15.469766621896554, 69.04079165696533], [15.484901146630762, 69.03760700824668]]}, "properties": {"source": "10975624", "target": "7507635"}}, {"type": "Feature", "geometry": {"type": "LineString", "coordinates": [[15.469766621896554, 69.04079165696533], [15.471809486412155, 69.03906171057315]]}, "properties": {"source": "10975624", "target": "17275797"}}, {"type": "Feature", "geometry": {"type": "LineString", "coordinates": [[15.469766621896554, 69.04079165696533], [15.469645236571608, 69.03941364365181]]}, "properties": {"source": "10975624", "target": "1635939"}}, {"type": "Feature", "geometry": {"type": "LineString", "coordinates": [[15.472611353538696, 69.04062834488047], [15.472980521130268, 69.04193654215183]]}, "properties": {"source": "22401781", "target": "25083860"}}, {"type": "Feature", "geometry": {"type": "LineString", "coordinates": [[15.472611353538696, 69.04062834488047], [15.484144562161362, 69.0396385665168]]}, "properties": {"source": "22401781", "target": "25263831"}}, {"type": "Feature", "geometry": {"type": "LineString", "coordinates": [[15.472611353538696, 69.04062834488047], [15.472347200907393, 69.03884973689654]]}, "properties": {"source": "22401781", "target": "24581447"}}, {"type": "Feature", "geometry": {"type": "LineString", "coordinates": [[15.471030810156748, 69.03819785098722], [15.483609181521558, 69.03731253393815]]}, "properties": {"source": "7843453", "target": "2730250"}}, {"type": "Feature", "geometry": {"type": "LineString", "coordinates": [[15.471030810156748, 69.03819785098722], [15.478879273378482, 69.04101898424477]]}, "properties": {"source": "7843453", "target": "2520862"}}, {"type": "Feature", "geometry": {"type": "LineString", "coordinates": [[15.471030810156748, 69.03819785098722], [15.479945926740527, 69.03920082354944]]}, "properties": {"source": "7843453", "target": "1311238"}}, {"type": "Feature", "geometry": {"type": "LineString", "coordinates": [[15.478879273378482, 69.04101898424477], [15.483609181521558, 69.03731253393815]]}, "properties": {"source": "2520862", "target": "2730250"}}, {"type": "Feature", "geometry": {"type": "LineString", "coordinates": [[15.478879273378482, 69.04101898424477], [15.479945926740527, 69.03920082354944]]}, "properties": {"source": "2520862", "target": "1311238"}}, {"type": "Feature", "geometry": {"type": "LineString", "coordinates": [[15.470231679852702, 69.0389247741114], [15.484582115847815, 69.03883072365389]]}, "properties": {"source": "1358884", "target": "2229144"}}, {"type": "Feature", "geometry": {"type": "LineString", "coordinates": [[15.470231679852702, 69.0389247741114], [15.473569591758519, 69.04210304874746]]}, "properties": {"source": "1358884", "target": "22113676"}}, {"type": "Feature", "geometry": {"type": "LineString", "coordinates": [[15.470231679852702, 69.0389247741114], [15.475416566290221, 69.04099891998277]]}, "properties": {"source": "1358884", "target": "18074270"}}, {"type": "Feature", "geometry": {"type": "LineString", "coordinates": [[15.47083426989434, 69.0390550372239], [15.484144562161362, 69.0396385665168]]}, "properties": {"source": "25147880", "target": "25263831"}}, {"type": "Feature", "geometry": {"type": "LineString", "coordinates": [[15.475339030369582, 69.03760032741468], [15.484582115847815, 69.03883072365389]]}, "properties": {"source": "34751386", "target": "2229144"}}, {"type": "Feature", "geometry": {"type": "LineString", "coordinates": [[15.475339030369582, 69.03760032741468], [15.473569591758519, 69.04210304874746]]}, "properties": {"source": "34751386", "target": "22113676"}}, {"type": "Feature", "geometry": {"type": "LineString", "coordinates": [[15.480279657264845, 69.0412219226263], [15.47577099741369, 69.04139052156569]]}, "properties": {"source": "1191360", "target": "12214480"}}, {"type": "Feature", "geometry": {"type": "LineString", "coordinates": [[15.472154517388645, 69.04037275625046], [15.47540565166662, 69.03892944886721]]}, "properties": {"source": "18631317", "target": "31277786"}}, {"type": "Feature", "geometry": {"type": "LineString", "coordinates": [[15.484901146630762, 69.03760700824668], [15.480493156682002, 69.03937537081134]]}, "properties": {"source": "7507635", "target": "28961855"}}, {"type": "Feature", "geometry": {"type": "LineString", "coordinates": [[15.484901146630762, 69.03760700824668], [15.470245994136235, 69.04242606316791]]}, "properties": {"source": "7507635", "target": "13077769"}}, {"type": "Feature", "geometry": {"type": "LineString", "coordinates": [[15.484901146630762, 69.03760700824668], [15.476125538593607, 69.04039092382942]]}, "properties": {"source": "7507635", "target": "1199208"}}, {"type": "Feature", "geometry": {"type": "LineString", "coordinates": [[15.484901146630762, 69.03760700824668], [15.473536554719658, 69.0412943190143]]}, "properties": {"source": "7507635", "target": "13042188"}}, {"type": "Feature", "geometry": {"type": "LineString", "coordinates": [[15.484901146630762, 69.03760700824668], [15.480867985965546, 69.03962713048753]]}, "properties": {"source": "7507635", "target": "13425416"}}, {"type": "Feature", "geometry": {"type": "LineString", "coordinates": [[15.484901146630762, 69.03760700824668], [15.478650873671683, 69.03958222952252]]}, "properties": {"source": "7507635", "target": "1199210"}}, {"type": "Feature", "geometry": {"type": "LineString", "coordinates": [[15.484901146630762, 69.03760700824668], [15.477461987410948, 69.03798142468051]]}, "properties": {"source": "7507635", "target": "1100730"}}, {"type": "Feature", "geometry": {"type": "LineString", "coordinates": [[15.484901146630762, 69.03760700824668], [15.477591224090673, 69.03806369126141]]}, "properties": {"source": "7507635", "target": "10080680"}}, {"type": "Feature", "geometry": {"type": "LineString", "coordinates": [[15.484901146630762, 69.03760700824668], [15.471106393879722, 69.03824330930183]]}, "properties": {"source": "7507635", "target": "1534080"}}, {"type": "Feature", "geometry": {"type": "LineString", "coordinates": [[15.484901146630762, 69.03760700824668], [15.471453834451978, 69.04248862144371]]}, "properties": {"source": "7507635", "target": "13615384"}}, {"type": "Feature", "geometry": {"type": "LineString", "coordinates": [[15.484901146630762, 69.03760700824668], [15.48449224906372, 69.03865074355329]]}, "properties": {"source": "7507635", "target": "687330"}}, {"type": "Feature", "geometry": {"type": "LineString", "coordinates": [[15.472980521130268, 69.04193654215183], [15.472281284612421, 69.03950763401261]]}, "properties": {"source": "25083860", "target": "31552773"}}, {"type": "Feature", "geometry": {"type": "LineString", "coordinates": [[15.472980521130268, 69.04193654215183], [15.479038226138044, 69.04087935959484]]}, "properties": {"source": "25083860", "target": "31054263"}}, {"type": "Feature", "geometry": {"type": "LineString", "coordinates": [[15.472980521130268, 69.04193654215183], [15.479432283252322, 69.03774342949978]]}, "properties": {"source": "25083860", "target": "3214533"}}, {"type": "Feature", "geometry": {"type": "LineString", "coordinates": [[15.472980521130268, 69.04193654215183], [15.48083694559989, 69.03736851730173]]}, "properties": {"source": "25083860", "target": "29201119"}}, {"type": "Feature", "geometry": {"type": "LineString", "coordinates": [[15.484901146630762, 69.03760700824668], [15.471350095541766, 69.03983370680874]]}, "properties": {"source": "7507635", "target": "8690023"}}, {"type": "Feature", "geometry": {"type": "LineString", "coordinates": [[15.471809486412155, 69.03906171057315], [15.479038226138044, 69.04087935959484]]}, "properties": {"source": "17275797", "target": "31054263"}}, {"type": "Feature", "geometry": {"type": "LineString", "coordinates": [[15.471809486412155, 69.03906171057315], [15.479432283252322, 69.03774342949978]]}, "properties": {"source": "17275797", "target": "3214533"}}, {"type": "Feature", "geometry": {"type": "LineString", "coordinates": [[15.471809486412155, 69.03906171057315], [15.48083694559989, 69.03736851730173]]}, "properties": {"source": "17275797", "target": "29201119"}}, {"type": "Feature", "geometry": {"type": "LineString", "coordinates": [[15.471809486412155, 69.03906171057315], [15.484144562161362, 69.0396385665168]]}, "properties": {"source": "17275797", "target": "25263831"}}, {"type": "Feature", "geometry": {"type": "LineString", "coordinates": [[15.471809486412155, 69.03906171057315], [15.475675135065075, 69.038744075437]]}, "properties": {"source": "17275797", "target": "13622898"}}, {"type": "Feature", "geometry": {"type": "LineString", "coordinates": [[15.471809486412155, 69.03906171057315], [15.475757597886371, 69.0399166422585]]}, "properties": {"source": "17275797", "target": "12049641"}}, {"type": "Feature", "geometry": {"type": "LineString", "coordinates": [[15.471809486412155, 69.03906171057315], [15.47577099741369, 69.04139052156569]]}, "properties": {"source": "17275797", "target": "12214480"}}, {"type": "Feature", "geometry": {"type": "LineString", "coordinates": [[15.471809486412155, 69.03906171057315], [15.470245994136235, 69.04242606316791]]}, "properties": {"source": "17275797", "target": "13077769"}}, {"type": "Feature", "geometry": {"type": "LineString", "coordinates": [[15.471809486412155, 69.03906171057315], [15.476125538593607, 69.04039092382942]]}, "properties": {"source": "17275797", "target": "1199208"}}, {"type": "Feature", "geometry": {"type": "LineString", "coordinates": [[15.471809486412155, 69.03906171057315], [15.473536554719658, 69.0412943190143]]}, "properties": {"source": "17275797", "target": "13042188"}}, {"type": "Feature", "geometry": {"type": "LineString", "coordinates": [[15.471809486412155, 69.03906171057315], [15.480867985965546, 69.03962713048753]]}, "properties": {"source": "17275797", "target": "13425416"}}, {"type": "Feature", "geometry": {"type": "LineString", "coordinates": [[15.471809486412155, 69.03906171057315], [15.478650873671683, 69.03958222952252]]}, "properties": {"source": "17275797", "target": "1199210"}}, {"type": "Feature", "geometry": {"type": "LineString", "coordinates": [[15.471809486412155, 69.03906171057315], [15.477461987410948, 69.03798142468051]]}, "properties": {"source": "17275797", "target": "1100730"}}, {"type": "Feature", "geometry": {"type": "LineString", "coordinates": [[15.471809486412155, 69.03906171057315], [15.477591224090673, 69.03806369126141]]}, "properties": {"source": "17275797", "target": "10080680"}}, {"type": "Feature", "geometry": {"type": "LineString", "coordinates": [[15.471809486412155, 69.03906171057315], [15.471106393879722, 69.03824330930183]]}, "properties": {"source": "17275797", "target": "1534080"}}, {"type": "Feature", "geometry": {"type": "LineString", "coordinates": [[15.471809486412155, 69.03906171057315], [15.471453834451978, 69.04248862144371]]}, "properties": {"source": "17275797", "target": "13615384"}}, {"type": "Feature", "geometry": {"type": "LineString", "coordinates": [[15.471809486412155, 69.03906171057315], [15.480614649057259, 69.0404406813874]]}, "properties": {"source": "17275797", "target": "15742185"}}, {"type": "Feature", "geometry": {"type": "LineString", "coordinates": [[15.471809486412155, 69.03906171057315], [15.48208034022548, 69.04159676347356]]}, "properties": {"source": "17275797", "target": "16042559"}}, {"type": "Feature", "geometry": {"type": "LineString", "coordinates": [[15.475528203205158, 69.0413508087675], [15.472281284612421, 69.03950763401261]]}, "properties": {"source": "33864359", "target": "31552773"}}, {"type": "Feature", "geometry": {"type": "LineString", "coordinates": [[15.475528203205158, 69.0413508087675], [15.479038226138044, 69.04087935959484]]}, "properties": {"source": "33864359", "target": "31054263"}}, {"type": "Feature", "geometry": {"type": "LineString", "coordinates": [[15.475528203205158, 69.0413508087675], [15.479432283252322, 69.03774342949978]]}, "properties": {"source": "33864359", "target": "3214533"}}, {"type": "Feature", "geometry": {"type": "LineString", "coordinates": [[15.475528203205158, 69.0413508087675], [15.48083694559989, 69.03736851730173]]}, "properties": {"source": "33864359", "target": "29201119"}}, {"type": "Feature", "geometry": {"type": "LineString", "coordinates": [[15.475528203205158, 69.0413508087675], [15.484901146630762, 69.03760700824668]]}, "properties": {"source": "33864359", "target": "7507635"}}, {"type": "Feature", "geometry": {"type": "LineString", "coordinates": [[15.475528203205158, 69.0413508087675], [15.471809486412155, 69.03906171057315]]}, "properties": {"source": "33864359", "target": "17275797"}}, {"type": "Feature", "geometry": {"type": "LineString", "coordinates": [[15.475528203205158, 69.0413508087675], [15.469645236571608, 69.03941364365181]]}, "properties": {"source": "33864359", "target": "1635939"}}, {"type": "Feature", "geometry": {"type": "LineString", "coordinates": [[15.475528203205158, 69.0413508087675], [15.46922954062569, 69.03885731315361]]}, "properties": {"source": "33864359", "target": "34202581"}}, {"type": "Feature", "geometry": {"type": "LineString", "coordinates": [[15.475528203205158, 69.0413508087675], [15.469841757096049, 69.04056991657819]]}, "properties": {"source": "33864359", "target": "3703358"}}, {"type": "Feature", "geometry": {"type": "LineString", "coordinates": [[15.475528203205158, 69.0413508087675], [15.484144562161362, 69.0396385665168]]}, "properties": {"source": "33864359", "target": "25263831"}}, {"type": "Feature", "geometry": {"type": "LineString", "coordinates": [[15.475528203205158, 69.0413508087675], [15.485072288854042, 69.03858892419535]]}, "properties": {"source": "33864359", "target": "20755501"}}, {"type": "Feature", "geometry": {"type": "LineString", "coordinates": [[15.475528203205158, 69.0413508087675], [15.480225943506298, 69.04039076643485]]}, "properties": {"source": "33864359", "target": "35399019"}}, {"type": "Feature", "geometry": {"type": "LineString", "coordinates": [[15.475528203205158, 69.0413508087675], [15.472347200907393, 69.03884973689654]]}, "properties": {"source": "33864359", "target": "24581447"}}, {"type": "Feature", "geometry": {"type": "LineString", "coordinates": [[15.475528203205158, 69.0413508087675], [15.475718287322309, 69.03950711950651]]}, "properties": {"source": "33864359", "target": "628976"}}, {"type": "Feature", "geometry": {"type": "LineString", "coordinates": [[15.484144562161362, 69.0396385665168], [15.472347200907393, 69.03884973689654]]}, "properties": {"source": "25263831", "target": "24581447"}}, {"type": "Feature", "geometry": {"type": "LineString", "coordinates": [[15.484144562161362, 69.0396385665168], [15.48325666965357, 69.04030916217542]]}, "properties": {"source": "25263831", "target": "23792004"}}, {"type": "Feature", "geometry": {"type": "LineString", "coordinates": [[15.485243248831154, 69.0411890451843], [15.472281284612421, 69.03950763401261]]}, "properties": {"source": "7507738", "target": "31552773"}}, {"type": "Feature", "geometry": {"type": "LineString", "coordinates": [[15.485243248831154, 69.0411890451843], [15.479038226138044, 69.04087935959484]]}, "properties": {"source": "7507738", "target": "31054263"}}, {"type": "Feature", "geometry": {"type": "LineString", "coordinates": [[15.485243248831154, 69.0411890451843], [15.479432283252322, 69.03774342949978]]}, "properties": {"source": "7507738", "target": "3214533"}}, {"type": "Feature", "geometry": {"type": "LineString", "coordinates": [[15.485243248831154, 69.0411890451843], [15.48083694559989, 69.03736851730173]]}, "properties": {"source": "7507738", "target": "29201119"}}, {"type": "Feature", "geometry": {"type": "LineString", "coordinates": [[15.485243248831154, 69.0411890451843], [15.484901146630762, 69.03760700824668]]}, "properties": {"source": "7507738", "target": "7507635"}}, {"type": "Feature", "geometry": {"type": "LineString", "coordinates": [[15.485243248831154, 69.0411890451843], [15.471809486412155, 69.03906171057315]]}, "properties": {"source": "7507738", "target": "17275797"}}, {"type": "Feature", "geometry": {"type": "LineString", "coordinates": [[15.485243248831154, 69.0411890451843], [15.475528203205158, 69.0413508087675]]}, "properties": {"source": "7507738", "target": "33864359"}}, {"type": "Feature", "geometry": {"type": "LineString", "coordinates": [[15.485243248831154, 69.0411890451843], [15.46922954062569, 69.03885731315361]]}, "properties": {"source": "7507738", "target": "34202581"}}, {"type": "Feature", "geometry": {"type": "LineString", "coordinates": [[15.485243248831154, 69.0411890451843], [15.469841757096049, 69.04056991657819]]}, "properties": {"source": "7507738", "target": "3703358"}}, {"type": "Feature", "geometry": {"type": "LineString", "coordinates": [[15.485243248831154, 69.0411890451843], [15.484144562161362, 69.0396385665168]]}, "properties": {"source": "7507738", "target": "25263831"}}, {"type": "Feature", "geometry": {"type": "LineString", "coordinates": [[15.485243248831154, 69.0411890451843], [15.482114627769306, 69.0399151007224]]}, "properties": {"source": "7507738", "target": "8499444"}}, {"type": "Feature", "geometry": {"type": "LineString", "coordinates": [[15.485243248831154, 69.0411890451843], [15.480225943506298, 69.04039076643485]]}, "properties": {"source": "7507738", "target": "35399019"}}, {"type": "Feature", "geometry": {"type": "LineString", "coordinates": [[15.485243248831154, 69.0411890451843], [15.475718287322309, 69.03950711950651]]}, "properties": {"source": "7507738", "target": "628976"}}, {"type": "Feature", "geometry": {"type": "LineString", "coordinates": [[15.485243248831154, 69.0411890451843], [15.476059396629864, 69.0418638644228]]}, "properties": {"source": "7507738", "target": "8133793"}}, {"type": "Feature", "geometry": {"type": "LineString", "coordinates": [[15.472980521130268, 69.04193654215183], [15.479964965694677, 69.03815732243294]]}, "properties": {"source": "25083860", "target": "11703946"}}, {"type": "Feature", "geometry": {"type": "LineString", "coordinates": [[15.472980521130268, 69.04193654215183], [15.470245994136235, 69.04242606316791]]}, "properties": {"source": "25083860", "target": "13077769"}}, {"type": "Feature", "geometry": {"type": "LineString", "coordinates": [[15.472980521130268, 69.04193654215183], [15.476125538593607, 69.04039092382942]]}, "properties": {"source": "25083860", "target": "1199208"}}, {"type": "Feature", "geometry": {"type": "LineString", "coordinates": [[15.472980521130268, 69.04193654215183], [15.473536554719658, 69.0412943190143]]}, "properties": {"source": "25083860", "target": "13042188"}}, {"type": "Feature", "geometry": {"type": "LineString", "coordinates": [[15.472980521130268, 69.04193654215183], [15.480867985965546, 69.03962713048753]]}, "properties": {"source": "25083860", "target": "13425416"}}, {"type": "Feature", "geometry": {"type": "LineString", "coordinates": [[15.472980521130268, 69.04193654215183], [15.478650873671683, 69.03958222952252]]}, "properties": {"source": "25083860", "target": "1199210"}}, {"type": "Feature", "geometry": {"type": "LineString", "coordinates": [[15.472980521130268, 69.04193654215183], [15.477461987410948, 69.03798142468051]]}, "properties": {"source": "25083860", "target": "1100730"}}, {"type": "Feature", "geometry": {"type": "LineString", "coordinates": [[15.472980521130268, 69.04193654215183], [15.477591224090673, 69.03806369126141]]}, "properties": {"source": "25083860", "target": "10080680"}}, {"type": "Feature", "geometry": {"type": "LineString", "coordinates": [[15.472980521130268, 69.04193654215183], [15.474784485642317, 69.04185205769389]]}, "properties": {"source": "25083860", "target": "16369750"}}, {"type": "Feature", "geometry": {"type": "LineString", "coordinates": [[15.472980521130268, 69.04193654215183], [15.471106393879722, 69.03824330930183]]}, "properties": {"source": "25083860", "target": "1534080"}}, {"type": "Feature", "geometry": {"type": "LineString", "coordinates": [[15.472980521130268, 69.04193654215183], [15.472658945243978, 69.03777518319055]]}, "properties": {"source": "25083860", "target": "23388476"}}, {"type": "Feature", "geometry": {"type": "LineString", "coordinates": [[15.472980521130268, 69.04193654215183], [15.474020279007675, 69.04012634106488]]}, "properties": {"source": "25083860", "target": "24639142"}}, {"type": "Feature", "geometry": {"type": "LineString", "coordinates": [[15.472980521130268, 69.04193654215183], [15.471453834451978, 69.04248862144371]]}, "properties": {"source": "25083860", "target": "13615384"}}, {"type": "Feature", "geometry": {"type": "LineString", "coordinates": [[15.472980521130268, 69.04193654215183], [15.480614649057259, 69.0404406813874]]}, "properties": {"source": "25083860", "target": "15742185"}}, {"type": "Feature", "geometry": {"type": "LineString", "coordinates": [[15.472980521130268, 69.04193654215183], [15.482469594588792, 69.04207737366625]]}, "properties": {"source": "25083860", "target": "21243452"}}, {"type": "Feature", "geometry": {"type": "LineString", "coordinates": [[15.472980521130268, 69.04193654215183], [15.48208034022548, 69.04159676347356]]}, "properties": {"source": "25083860", "target": "16042559"}}, {"type": "Feature", "geometry": {"type": "LineString", "coordinates": [[15.485072288854042, 69.03858892419535], [15.48325666965357, 69.04030916217542]]}, "properties": {"source": "20755501", "target": "23792004"}}, {"type": "Feature", "geometry": {"type": "LineString", "coordinates": [[15.485072288854042, 69.03858892419535], [15.47577099741369, 69.04139052156569]]}, "properties": {"source": "20755501", "target": "12214480"}}, {"type": "Feature", "geometry": {"type": "LineString", "coordinates": [[15.485072288854042, 69.03858892419535], [15.470245994136235, 69.04242606316791]]}, "properties": {"source": "20755501", "target": "13077769"}}, {"type": "Feature", "geometry": {"type": "LineString", "coordinates": [[15.485072288854042, 69.03858892419535], [15.473536554719658, 69.0412943190143]]}, "properties": {"source": "20755501", "target": "13042188"}}, {"type": "Feature", "geometry": {"type": "LineString", "coordinates": [[15.485072288854042, 69.03858892419535], [15.480867985965546, 69.03962713048753]]}, "properties": {"source": "20755501", "target": "13425416"}}, {"type": "Feature", "geometry": {"type": "LineString", "coordinates": [[15.475675135065075, 69.038744075437], [15.48083694559989, 69.03736851730173]]}, "properties": {"source": "13622898", "target": "29201119"}}, {"type": "Feature", "geometry": {"type": "LineString", "coordinates": [[15.475675135065075, 69.038744075437], [15.47577099741369, 69.04139052156569]]}, "properties": {"source": "13622898", "target": "12214480"}}, {"type": "Feature", "geometry": {"type": "LineString", "coordinates": [[15.475675135065075, 69.038744075437], [15.480867985965546, 69.03962713048753]]}, "properties": {"source": "13622898", "target": "13425416"}}, {"type": "Feature", "geometry": {"type": "LineString", "coordinates": [[15.475757597886371, 69.0399166422585], [15.48083694559989, 69.03736851730173]]}, "properties": {"source": "12049641", "target": "29201119"}}, {"type": "Feature", "geometry": {"type": "LineString", "coordinates": [[15.475757597886371, 69.0399166422585], [15.475675135065075, 69.038744075437]]}, "properties": {"source": "12049641", "target": "13622898"}}, {"type": "Feature", "geometry": {"type": "LineString", "coordinates": [[15.475757597886371, 69.0399166422585], [15.478650873671683, 69.03958222952252]]}, "properties": {"source": "12049641", "target": "1199210"}}, {"type": "Feature", "geometry": {"type": "LineString", "coordinates": [[15.475757597886371, 69.0399166422585], [15.477461987410948, 69.03798142468051]]}, "properties": {"source": "12049641", "target": "1100730"}}, {"type": "Feature", "geometry": {"type": "LineString", "coordinates": [[15.475757597886371, 69.0399166422585], [15.477591224090673, 69.03806369126141]]}, "properties": {"source": "12049641", "target": "10080680"}}, {"type": "Feature", "geometry": {"type": "LineString", "coordinates": [[15.482114627769306, 69.0399151007224], [15.472281284612421, 69.03950763401261]]}, "properties": {"source": "8499444", "target": "31552773"}}, {"type": "Feature", "geometry": {"type": "LineString", "coordinates": [[15.482114627769306, 69.0399151007224], [15.479038226138044, 69.04087935959484]]}, "properties": {"source": "8499444", "target": "31054263"}}, {"type": "Feature", "geometry": {"type": "LineString", "coordinates": [[15.482114627769306, 69.0399151007224], [15.479432283252322, 69.03774342949978]]}, "properties": {"source": "8499444", "target": "3214533"}}, {"type": "Feature", "geometry": {"type": "LineString", "coordinates": [[15.47956627883994, 69.03918818520381], [15.47540565166662, 69.03892944886721]]}, "properties": {"source": "24556039", "target": "31277786"}}, {"type": "Feature", "geometry": {"type": "LineString", "coordinates": [[15.47956627883994, 69.03918818520381], [15.4814851735388, 69.0410209768929]]}, "properties": {"source": "24556039", "target": "33651470"}}, {"type": "Feature", "geometry": {"type": "LineString", "coordinates": [[15.47066886580933, 69.0413990747191], [15.47144693669216, 69.03947586726613]]}, "properties": {"source": "13422112", "target": "19009382"}}, {"type": "Feature", "geometry": {"type": "LineString", "coordinates": [[15.47066886580933, 69.0413990747191], [15.47267247703408, 69.03979194250252]]}, "properties": {"source": "13422112", "target": "1331976"}}, {"type": "Feature", "geometry": {"type": "LineString", "coordinates": [[15.47066886580933, 69.0413990747191], [15.471328859026642, 69.03918694158594]]}, "properties": {"source": "13422112", "target": "13258341"}}, {"type": "Feature", "geometry": {"type": "LineString", "coordinates": [[15.482208127485649, 69.04100957482763], [15.47540565166662, 69.03892944886721]]}, "properties": {"source": "29011153", "target": "31277786"}}, {"type": "Feature", "geometry": {"type": "LineString", "coordinates": [[15.482208127485649, 69.04100957482763], [15.4814851735388, 69.0410209768929]]}, "properties": {"source": "29011153", "target": "33651470"}}, {"type": "Feature", "geometry": {"type": "LineString", "coordinates": [[15.4814851735388, 69.0410209768929], [15.47540565166662, 69.03892944886721]]}, "properties": {"source": "33651470", "target": "31277786"}}, {"type": "Feature", "geometry": {"type": "LineString", "coordinates": [[15.47144693669216, 69.03947586726613], [15.47267247703408, 69.03979194250252]]}, "properties": {"source": "19009382", "target": "1331976"}}, {"type": "Feature", "geometry": {"type": "LineString", "coordinates": [[15.483910868867895, 69.04026312726066], [15.475416566290221, 69.04099891998277]]}, "properties": {"source": "22465182", "target": "18074270"}}, {"type": "Feature", "geometry": {"type": "LineString", "coordinates": [[15.473885010204327, 69.04018849358766], [15.47144693669216, 69.03947586726613]]}, "properties": {"source": "18745428", "target": "19009382"}}, {"type": "Feature", "geometry": {"type": "LineString", "coordinates": [[15.473885010204327, 69.04018849358766], [15.47267247703408, 69.03979194250252]]}, "properties": {"source": "18745428", "target": "1331976"}}, {"type": "Feature", "geometry": {"type": "LineString", "coordinates": [[15.469250921970314, 69.03906184874708], [15.475416566290221, 69.04099891998277]]}, "properties": {"source": "24020962", "target": "18074270"}}, {"type": "Feature", "geometry": {"type": "LineString", "coordinates": [[15.47956627883994, 69.03918818520381], [15.472154517388645, 69.04037275625046]]}, "properties": {"source": "24556039", "target": "18631317"}}, {"type": "Feature", "geometry": {"type": "LineString", "coordinates": [[15.482208127485649, 69.04100957482763], [15.472154517388645, 69.04037275625046]]}, "properties": {"source": "29011153", "target": "18631317"}}, {"type": "Feature", "geometry": {"type": "LineString", "coordinates": [[15.4814851735388, 69.0410209768929], [15.472154517388645, 69.04037275625046]]}, "properties": {"source": "33651470", "target": "18631317"}}, {"type": "Feature", "geometry": {"type": "LineString", "coordinates": [[15.485243248831154, 69.0411890451843], [15.479027575123894, 69.0374844846715]]}, "properties": {"source": "7507738", "target": "628938"}}, {"type": "Feature", "geometry": {"type": "LineString", "coordinates": [[15.485243248831154, 69.0411890451843], [15.470147385855313, 69.03738576131974]]}, "properties": {"source": "7507738", "target": "628980"}}, {"type": "Feature", "geometry": {"type": "LineString", "coordinates": [[15.485243248831154, 69.0411890451843], [15.478236849234321, 69.04158134462907]]}, "properties": {"source": "7507738", "target": "25565708"}}, {"type": "Feature", "geometry": {"type": "LineString", "coordinates": [[15.485243248831154, 69.0411890451843], [15.480493156682002, 69.03937537081134]]}, "properties": {"source": "7507738", "target": "28961855"}}, {"type": "Feature", "geometry": {"type": "LineString", "coordinates": [[15.485243248831154, 69.0411890451843], [15.48449224906372, 69.03865074355329]]}, "properties": {"source": "7507738", "target": "687330"}}, {"type": "Feature", "geometry": {"type": "LineString", "coordinates": [[15.485072288854042, 69.03858892419535], [15.472281284612421, 69.03950763401261]]}, "properties": {"source": "20755501", "target": "31552773"}}, {"type": "Feature", "geometry": {"type": "LineString", "coordinates": [[15.485072288854042, 69.03858892419535], [15.479038226138044, 69.04087935959484]]}, "properties": {"source": "20755501", "target": "31054263"}}, {"type": "Feature", "geometry": {"type": "LineString", "coordinates": [[15.485072288854042, 69.03858892419535], [15.479432283252322, 69.03774342949978]]}, "properties": {"source": "20755501", "target": "3214533"}}, {"type": "Feature", "geometry": {"type": "LineString", "coordinates": [[15.485072288854042, 69.03858892419535], [15.48083694559989, 69.03736851730173]]}, "properties": {"source": "20755501", "target": "29201119"}}, {"type": "Feature", "geometry": {"type": "LineString", "coordinates": [[15.485072288854042, 69.03858892419535], [15.471809486412155, 69.03906171057315]]}, "properties": {"source": "20755501", "target": "17275797"}}, {"type": "Feature", "geometry": {"type": "LineString", "coordinates": [[15.485072288854042, 69.03858892419535], [15.469645236571608, 69.03941364365181]]}, "properties": {"source": "20755501", "target": "1635939"}}, {"type": "Feature", "geometry": {"type": "LineString", "coordinates": [[15.485072288854042, 69.03858892419535], [15.484144562161362, 69.0396385665168]]}, "properties": {"source": "20755501", "target": "25263831"}}, {"type": "Feature", "geometry": {"type": "LineString", "coordinates": [[15.485072288854042, 69.03858892419535], [15.475675135065075, 69.038744075437]]}, "properties": {"source": "20755501", "target": "13622898"}}, {"type": "Feature", "geometry": {"type": "LineString", "coordinates": [[15.485072288854042, 69.03858892419535], [15.475757597886371, 69.0399166422585]]}, "properties": {"source": "20755501", "target": "12049641"}}, {"type": "Feature", "geometry": {"type": "LineString", "coordinates": [[15.485072288854042, 69.03858892419535], [15.472347200907393, 69.03884973689654]]}, "properties": {"source": "20755501", "target": "24581447"}}, {"type": "Feature", "geometry": {"type": "LineString", "coordinates": [[15.485243248831154, 69.0411890451843], [15.471350095541766, 69.03983370680874]]}, "properties": {"source": "7507738", "target": "8690023"}}]}