{"type": "FeatureCollection", "features": [{"type": "Feature", "geometry": {"type": "LineString", "coordinates": [[131.10364101012044, 69.22970559956343], [131.10346890890992, 69.22980715455125]]}, "properties": {"source": "13076542", "target": "1897047"}}, {"type": "Feature", "geometry": {"type": "LineString", "coordinates": [[131.10364101012044, 69.22970559956343], [131.10518796261653, 69.23009236653948]]}, "properties": {"source": "13076542", "target": "1103210"}}, {"type": "Feature", "geometry": {"type": "LineString", "coordinates": [[131.10346890890992, 69.22980715455125], [131.10333668566335, 69.23005783062538]]}, "properties": {"source": "1897047", "target": "240836"}}, {"type": "Feature", "geometry": {"type": "LineString", "coordinates": [[131.10346890890992, 69.22980715455125], [131.10286674505062, 69.23022740215708]]}, "properties": {"source": "1897047", "target": "383950"}}, {"type": "Feature", "geometry": {"type": "LineString", "coordinates": [[131.10346890890992, 69.22980715455125], [131.1022571452229, 69.23082460613588]]}, "properties": {"source": "1897047", "target": "299514"}}, {"type": "Feature", "geometry": {"type": "LineString", "coordinates": [[131.10186788711945, 69.23088042479918], [131.10281061026757, 69.22969926008159]]}, "properties": {"source": "383952", "target": "4545718"}}, {"type": "Feature", "geometry": {"type": "LineString", "coordinates": [[131.10186788711945, 69.23088042479918], [131.1035868647615, 69.22978533975004]]}, "properties": {"source": "383952", "target": "383951"}}, {"type": "Feature", "geometry": {"type": "LineString", "coordinates": [[131.10186788711945, 69.23088042479918], [131.1020621964518, 69.23009791838811]]}, "properties": {"source": "383952", "target": "970683"}}, {"type": "Feature", "geometry": {"type": "LineString", "coordinates": [[131.10186788711945, 69.23088042479918], [131.10333668566335, 69.23005783062538]]}, "properties": {"source": "383952", "target": "240836"}}, {"type": "Feature", "geometry": {"type": "LineString", "coordinates": [[131.10186788711945, 69.23088042479918], [131.10286674505062, 69.23022740215708]]}, "properties": {"source": "383952", "target": "383950"}}, {"type": "Feature", "geometry": {"type": "LineString", "coordinates": [[131.10186788711945, 69.23088042479918], [131.1014650094706, 69.2309360241587]]}, "properties": {"source": "383952", "target": "240835"}}, {"type": "Feature", "geometry": {"type": "LineString", "coordinates": [[131.10186788711945, 69.23088042479918], [131.10469522189055, 69.23064165769168]]}, "properties": {"source": "383952", "target": "7908246"}}, {"type": "Feature", "geometry": {"type": "LineString", "coordinates": [[131.10186788711945, 69.23088042479918], [131.1022571452229, 69.23082460613588]]}, "properties": {"source": "383952", "target": "299514"}}, {"type": "Feature", "geometry": {"type": "LineString", "coordinates": [[131.10186788711945, 69.23088042479918], [131.10364101012044, 69.22970559956343]]}, "properties": {"source": "383952", "target": "13076542"}}, {"type": "Feature", "geometry": {"type": "LineString", "coordinates": [[131.10186788711945, 69.23088042479918], [131.10346890890992, 69.22980715455125]]}, "properties": {"source": "383952", "target": "1897047"}}, {"type": "Feature", "geometry": {"type": "LineString", "coordinates": [[131.10186788711945, 69.23088042479918], [131.1046089747947, 69.23016326776533]]}, "properties": {"source": "383952", "target": "1103212"}}, {"type": "Feature", "geometry": {"type": "LineString", "coordinates": [[131.10210107482976, 69.23017732406984], [131.10281061026757, 69.22969926008159]]}, "properties": {"source": "18692145", "target": "4545718"}}, {"type": "Feature", "geometry": {"type": "LineString", "coordinates": [[131.10210107482976, 69.23017732406984], [131.1035868647615, 69.22978533975004]]}, "properties": {"source": "18692145", "target": "383951"}}, {"type": "Feature", "geometry": {"type": "LineString", "coordinates": [[131.10210107482976, 69.23017732406984], [131.1020621964518, 69.23009791838811]]}, "properties": {"source": "18692145", "target": "970683"}}, {"type": "Feature", "geometry": {"type": "LineString", "coordinates": [[131.10210107482976, 69.23017732406984], [131.10333668566335, 69.23005783062538]]}, "properties": {"source": "18692145", "target": "240836"}}, {"type": "Feature", "geometry": {"type": "LineString", "coordinates": [[131.10210107482976, 69.23017732406984], [131.10286674505062, 69.23022740215708]]}, "properties": {"source": "18692145", "target": "383950"}}, {"type": "Feature", "geometry": {"type": "LineString", "coordinates": [[131.10210107482976, 69.23017732406984], [131.1014650094706, 69.2309360241587]]}, "properties": {"source": "18692145", "target": "240835"}}, {"type": "Feature", "geometry": {"type": "LineString", "coordinates": [[131.10210107482976, 69.23017732406984], [131.10469522189055, 69.23064165769168]]}, "properties": {"source": "18692145", "target": "7908246"}}, {"type": "Feature", "geometry": {"type": "LineString", "coordinates": [[131.10210107482976, 69.23017732406984], [131.1022571452229, 69.23082460613588]]}, "properties": {"source": "18692145", "target": "299514"}}, {"type": "Feature", "geometry": {"type": "LineString", "coordinates": [[131.10210107482976, 69.23017732406984], [131.10364101012044, 69.22970559956343]]}, "properties": {"source": "18692145", "target": "13076542"}}, {"type": "Feature", "geometry": {"type": "LineString", "coordinates": [[131.10210107482976, 69.23017732406984], [131.10346890890992, 69.22980715455125]]}, "properties": {"source": "18692145", "target": "1897047"}}, {"type": "Feature", "geometry": {"type": "LineString", "coordinates": [[131.10210107482976, 69.23017732406984], [131.10161903831107, 69.23072457270962]]}, "properties": {"source": "18692145", "target": "27846288"}}, {"type": "Feature", "geometry": {"type": "LineString", "coordinates": [[131.10210107482976, 69.23017732406984], [131.10309697824175, 69.23041692909777]]}, "properties": {"source": "18692145", "target": "18586485"}}, {"type": "Feature", "geometry": {"type": "LineString", "coordinates": [[131.1046089747947, 69.23016326776533], [131.1035868647615, 69.22978533975004]]}, "properties": {"source": "1103212", "target": "383951"}}, {"type": "Feature", "geometry": {"type": "LineString", "coordinates": [[131.1046089747947, 69.23016326776533], [131.1020621964518, 69.23009791838811]]}, "properties": {"source": "1103212", "target": "970683"}}, {"type": "Feature", "geometry": {"type": "LineString", "coordinates": [[131.1046089747947, 69.23016326776533], [131.10333668566335, 69.23005783062538]]}, "properties": {"source": "1103212", "target": "240836"}}, {"type": "Feature", "geometry": {"type": "LineString", "coordinates": [[131.1046089747947, 69.23016326776533], [131.10286674505062, 69.23022740215708]]}, "properties": {"source": "1103212", "target": "383950"}}, {"type": "Feature", "geometry": {"type": "LineString", "coordinates": [[131.10281061026757, 69.22969926008159], [131.1035868647615, 69.22978533975004]]}, "properties": {"source": "4545718", "target": "383951"}}, {"type": "Feature", "geometry": {"type": "LineString", "coordinates": [[131.10281061026757, 69.22969926008159], [131.1020621964518, 69.23009791838811]]}, "properties": {"source": "4545718", "target": "970683"}}, {"type": "Feature", "geometry": {"type": "LineString", "coordinates": [[131.10281061026757, 69.22969926008159], [131.10333668566335, 69.23005783062538]]}, "properties": {"source": "4545718", "target": "240836"}}, {"type": "Feature", "geometry": {"type": "LineString", "coordinates": [[131.10281061026757, 69.22969926008159], [131.10286674505062, 69.23022740215708]]}, "properties": {"source": "4545718", "target": "383950"}}, {"type": "Feature", "geometry": {"type": "LineString", "coordinates": [[131.10281061026757, 69.22969926008159], [131.1014650094706, 69.2309360241587]]}, "properties": {"source": "4545718", "target": "240835"}}, {"type": "Feature", "geometry": {"type": "LineString", "coordinates": [[131.10281061026757, 69.22969926008159], [131.10469522189055, 69.23064165769168]]}, "properties": {"source": "4545718", "target": "7908246"}}, {"type": "Feature", "geometry": {"type": "LineString", "coordinates": [[131.10281061026757, 69.22969926008159], [131.1022571452229, 69.23082460613588]]}, "properties": {"source": "4545718", "target": "299514"}}, {"type": "Feature", "geometry": {"type": "LineString", "coordinates": [[131.10281061026757, 69.22969926008159], [131.10364101012044, 69.22970559956343]]}, "properties": {"source": "4545718", "target": "13076542"}}, {"type": "Feature", "geometry": {"type": "LineString", "coordinates": [[131.10281061026757, 69.22969926008159], [131.10346890890992, 69.22980715455125]]}, "properties": {"source": "4545718", "target": "1897047"}}, {"type": "Feature", "geometry": {"type": "LineString", "coordinates": [[131.10281061026757, 69.22969926008159], [131.1046089747947, 69.23016326776533]]}, "properties": {"source": "4545718", "target": "1103212"}}, {"type": "Feature", "geometry": {"type": "LineString", "coordinates": [[131.10281061026757, 69.22969926008159], [131.10518796261653, 69.23009236653948]]}, "properties": {"source": "4545718", "target": "1103210"}}, {"type": "Feature", "geometry": {"type": "LineString", "coordinates": [[131.10281061026757, 69.22969926008159], [131.10161903831107, 69.23072457270962]]}, "properties": {"source": "4545718", "target": "27846288"}}, {"type": "Feature", "geometry": {"type": "LineString", "coordinates": [[131.1035868647615, 69.22978533975004], [131.1020621964518, 69.23009791838811]]}, "properties": {"source": "383951", "target": "970683"}}, {"type": "Feature", "geometry": {"type": "LineString", "coordinates": [[131.1035868647615, 69.22978533975004], [131.10333668566335, 69.23005783062538]]}, "properties": {"source": "383951", "target": "240836"}}, {"type": "Feature", "geometry": {"type": "LineString", "coordinates": [[131.1035868647615, 69.22978533975004], [131.10286674505062, 69.23022740215708]]}, "properties": {"source": "383951", "target": "383950"}}, {"type": "Feature", "geometry": {"type": "LineString", "coordinates": [[131.1035868647615, 69.22978533975004], [131.1014650094706, 69.2309360241587]]}, "properties": {"source": "383951", "target": "240835"}}, {"type": "Feature", "geometry": {"type": "LineString", "coordinates": [[131.1046089747947, 69.23016326776533], [131.1014650094706, 69.2309360241587]]}, "properties": {"source": "1103212", "target": "240835"}}, {"type": "Feature", "geometry": {"type": "LineString", "coordinates": [[131.1046089747947, 69.23016326776533], [131.10469522189055, 69.23064165769168]]}, "properties": {"source": "1103212", "target": "7908246"}}, {"type": "Feature", "geometry": {"type": "LineString", "coordinates": [[131.1046089747947, 69.23016326776533], [131.1022571452229, 69.23082460613588]]}, "properties": {"source": "1103212", "target": "299514"}}, {"type": "Feature", "geometry": {"type": "LineString", "coordinates": [[131.1046089747947, 69.23016326776533], [131.10364101012044, 69.22970559956343]]}, "properties": {"source": "1103212", "target": "13076542"}}, {"type": "Feature", "geometry": {"type": "LineString", "coordinates": [[131.1046089747947, 69.23016326776533], [131.10518796261653, 69.23009236653948]]}, "properties": {"source": "1103212", "target": "1103210"}}, {"type": "Feature", "geometry": {"type": "LineString", "coordinates": [[131.10184180330913, 69.23032158274182], [131.10281061026757, 69.22969926008159]]}, "properties": {"source": "1103211", "target": "4545718"}}, {"type": "Feature", "geometry": {"type": "LineString", "coordinates": [[131.10184180330913, 69.23032158274182], [131.1035868647615, 69.22978533975004]]}, "properties": {"source": "1103211", "target": "383951"}}, {"type": "Feature", "geometry": {"type": "LineString", "coordinates": [[131.10184180330913, 69.23032158274182], [131.1020621964518, 69.23009791838811]]}, "properties": {"source": "1103211", "target": "970683"}}, {"type": "Feature", "geometry": {"type": "LineString", "coordinates": [[131.10184180330913, 69.23032158274182], [131.10333668566335, 69.23005783062538]]}, "properties": {"source": "1103211", "target": "240836"}}, {"type": "Feature", "geometry": {"type": "LineString", "coordinates": [[131.10184180330913, 69.23032158274182], [131.10286674505062, 69.23022740215708]]}, "properties": {"source": "1103211", "target": "383950"}}, {"type": "Feature", "geometry": {"type": "LineString", "coordinates": [[131.10184180330913, 69.23032158274182], [131.1014650094706, 69.2309360241587]]}, "properties": {"source": "1103211", "target": "240835"}}, {"type": "Feature", "geometry": {"type": "LineString", "coordinates": [[131.10184180330913, 69.23032158274182], [131.10469522189055, 69.23064165769168]]}, "properties": {"source": "1103211", "target": "7908246"}}, {"type": "Feature", "geometry": {"type": "LineString", "coordinates": [[131.10184180330913, 69.23032158274182], [131.1022571452229, 69.23082460613588]]}, "properties": {"source": "1103211", "target": "299514"}}, {"type": "Feature", "geometry": {"type": "LineString", "coordinates": [[131.10184180330913, 69.23032158274182], [131.10364101012044, 69.22970559956343]]}, "properties": {"source": "1103211", "target": "13076542"}}, {"type": "Feature", "geometry": {"type": "LineString", "coordinates": [[131.10184180330913, 69.23032158274182], [131.1046089747947, 69.23016326776533]]}, "properties": {"source": "1103211", "target": "1103212"}}, {"type": "Feature", "geometry": {"type": "LineString", "coordinates": [[131.10184180330913, 69.23032158274182], [131.10518796261653, 69.23009236653948]]}, "properties": {"source": "1103211", "target": "1103210"}}, {"type": "Feature", "geometry": {"type": "LineString", "coordinates": [[131.10333668566335, 69.23005783062538], [131.1022571452229, 69.23082460613588]]}, "properties": {"source": "240836", "target": "299514"}}, {"type": "Feature", "geometry": {"type": "LineString", "coordinates": [[131.10286674505062, 69.23022740215708], [131.1022571452229, 69.23082460613588]]}, "properties": {"source": "383950", "target": "299514"}}, {"type": "Feature", "geometry": {"type": "LineString", "coordinates": [[131.1014650094706, 69.2309360241587], [131.10333668566335, 69.23005783062538]]}, "properties": {"source": "240835", "target": "240836"}}, {"type": "Feature", "geometry": {"type": "LineString", "coordinates": [[131.1014650094706, 69.2309360241587], [131.10286674505062, 69.23022740215708]]}, "properties": {"source": "240835", "target": "383950"}}, {"type": "Feature", "geometry": {"type": "LineString", "coordinates": [[131.1014650094706, 69.2309360241587], [131.1022571452229, 69.23082460613588]]}, "properties": {"source": "240835", "target": "299514"}}, {"type": "Feature", "geometry": {"type": "LineString", "coordinates": [[131.1014650094706, 69.2309360241587], [131.10364101012044, 69.22970559956343]]}, "properties": {"source": "240835", "target": "13076542"}}, {"type": "Feature", "geometry": {"type": "LineString", "coordinates": [[131.1014650094706, 69.2309360241587], [131.10346890890992, 69.22980715455125]]}, "properties": {"source": "240835", "target": "1897047"}}, {"type": "Feature", "geometry": {"type": "LineString", "coordinates": [[131.1014650094706, 69.2309360241587], [131.10518796261653, 69.23009236653948]]}, "properties": {"source": "240835", "target": "1103210"}}, {"type": "Feature", "geometry": {"type": "LineString", "coordinates": [[131.10469522189055, 69.23064165769168], [131.10333668566335, 69.23005783062538]]}, "properties": {"source": "7908246", "target": "240836"}}, {"type": "Feature", "geometry": {"type": "LineString", "coordinates": [[131.10469522189055, 69.23064165769168], [131.10286674505062, 69.23022740215708]]}, "properties": {"source": "7908246", "target": "383950"}}, {"type": "Feature", "geometry": {"type": "LineString", "coordinates": [[131.10469522189055, 69.23064165769168], [131.1014650094706, 69.2309360241587]]}, "properties": {"source": "7908246", "target": "240835"}}, {"type": "Feature", "geometry": {"type": "LineString", "coordinates": [[131.10469522189055, 69.23064165769168], [131.1022571452229, 69.23082460613588]]}, "properties": {"source": "7908246", "target": "299514"}}, {"type": "Feature", "geometry": {"type": "LineString", "coordinates": [[131.10469522189055, 69.23064165769168], [131.10364101012044, 69.22970559956343]]}, "properties": {"source": "7908246", "target": "13076542"}}, {"type": "Feature", "geometry": {"type": "LineString", "coordinates": [[131.10469522189055, 69.23064165769168], [131.10346890890992, 69.22980715455125]]}, "properties": {"source": "7908246", "target": "1897047"}}, {"type": "Feature", "geometry": {"type": "LineString", "coordinates": [[131.10364101012044, 69.22970559956343], [131.10333668566335, 69.23005783062538]]}, "properties": {"source": "13076542", "target": "240836"}}, {"type": "Feature", "geometry": {"type": "LineString", "coordinates": [[131.10364101012044, 69.22970559956343], [131.10286674505062, 69.23022740215708]]}, "properties": {"source": "13076542", "target": "383950"}}, {"type": "Feature", "geometry": {"type": "LineString", "coordinates": [[131.1044374378826, 69.23090959395077], [131.10281061026757, 69.22969926008159]]}, "properties": {"source": "383949", "target": "4545718"}}, {"type": "Feature", "geometry": {"type": "LineString", "coordinates": [[131.1044374378826, 69.23090959395077], [131.1035868647615, 69.22978533975004]]}, "properties": {"source": "383949", "target": "383951"}}, {"type": "Feature", "geometry": {"type": "LineString", "coordinates": [[131.1044374378826, 69.23090959395077], [131.1020621964518, 69.23009791838811]]}, "properties": {"source": "383949", "target": "970683"}}, {"type": "Feature", "geometry": {"type": "LineString", "coordinates": [[131.1044374378826, 69.23090959395077], [131.10333668566335, 69.23005783062538]]}, "properties": {"source": "383949", "target": "240836"}}, {"type": "Feature", "geometry": {"type": "LineString", "coordinates": [[131.1044374378826, 69.23090959395077], [131.10286674505062, 69.23022740215708]]}, "properties": {"source": "383949", "target": "383950"}}, {"type": "Feature", "geometry": {"type": "LineString", "coordinates": [[131.1044374378826, 69.23090959395077], [131.1014650094706, 69.2309360241587]]}, "properties": {"source": "383949", "target": "240835"}}, {"type": "Feature", "geometry": {"type": "LineString", "coordinates": [[131.1044374378826, 69.23090959395077], [131.10469522189055, 69.23064165769168]]}, "properties": {"source": "383949", "target": "7908246"}}, {"type": "Feature", "geometry": {"type": "LineString", "coordinates": [[131.1044374378826, 69.23090959395077], [131.1022571452229, 69.23082460613588]]}, "properties": {"source": "383949", "target": "299514"}}, {"type": "Feature", "geometry": {"type": "LineString", "coordinates": [[131.1044374378826, 69.23090959395077], [131.10346890890992, 69.22980715455125]]}, "properties": {"source": "383949", "target": "1897047"}}, {"type": "Feature", "geometry": {"type": "LineString", "coordinates": [[131.1044374378826, 69.23090959395077], [131.10186788711945, 69.23088042479918]]}, "properties": {"source": "383949", "target": "383952"}}, {"type": "Feature", "geometry": {"type": "LineString", "coordinates": [[131.10518796261653, 69.23009236653948], [131.10333668566335, 69.23005783062538]]}, "properties": {"source": "1103210", "target": "240836"}}, {"type": "Feature", "geometry": {"type": "LineString", "coordinates": [[131.10518796261653, 69.23009236653948], [131.10286674505062, 69.23022740215708]]}, "properties": {"source": "1103210", "target": "383950"}}, {"type": "Feature", "geometry": {"type": "LineString", "coordinates": [[131.10518796261653, 69.23009236653948], [131.10346890890992, 69.22980715455125]]}, "properties": {"source": "1103210", "target": "1897047"}}, {"type": "Feature", "geometry": {"type": "LineString", "coordinates": [[131.10161903831107, 69.23072457270962], [131.10333668566335, 69.23005783062538]]}, "properties": {"source": "27846288", "target": "240836"}}, {"type": "Feature", "geometry": {"type": "LineString", "coordinates": [[131.10161903831107, 69.23072457270962], [131.10286674505062, 69.23022740215708]]}, "properties": {"source": "27846288", "target": "383950"}}, {"type": "Feature", "geometry": {"type": "LineString", "coordinates": [[131.10161903831107, 69.23072457270962], [131.1022571452229, 69.23082460613588]]}, "properties": {"source": "27846288", "target": "299514"}}, {"type": "Feature", "geometry": {"type": "LineString", "coordinates": [[131.1035868647615, 69.22978533975004], [131.10469522189055, 69.23064165769168]]}, "properties": {"source": "383951", "target": "7908246"}}, {"type": "Feature", "geometry": {"type": "LineString", "coordinates": [[131.1035868647615, 69.22978533975004], [131.1022571452229, 69.23082460613588]]}, "properties": {"source": "383951", "target": "299514"}}, {"type": "Feature", "geometry": {"type": "LineString", "coordinates": [[131.1035868647615, 69.22978533975004], [131.10364101012044, 69.22970559956343]]}, "properties": {"source": "383951", "target": "13076542"}}, {"type": "Feature", "geometry": {"type": "LineString", "coordinates": [[131.1035868647615, 69.22978533975004], [131.10346890890992, 69.22980715455125]]}, "properties": {"source": "383951", "target": "1897047"}}, {"type": "Feature", "geometry": {"type": "LineString", "coordinates": [[131.1035868647615, 69.22978533975004], [131.10518796261653, 69.23009236653948]]}, "properties": {"source": "383951", "target": "1103210"}}, {"type": "Feature", "geometry": {"type": "LineString", "coordinates": [[131.1035868647615, 69.22978533975004], [131.10161903831107, 69.23072457270962]]}, "properties": {"source": "383951", "target": "27846288"}}, {"type": "Feature", "geometry": {"type": "LineString", "coordinates": [[131.1020621964518, 69.23009791838811], [131.10333668566335, 69.23005783062538]]}, "properties": {"source": "970683", "target": "240836"}}, {"type": "Feature", "geometry": {"type": "LineString", "coordinates": [[131.1020621964518, 69.23009791838811], [131.10286674505062, 69.23022740215708]]}, "properties": {"source": "970683", "target": "383950"}}, {"type": "Feature", "geometry": {"type": "LineString", "coordinates": [[131.1020621964518, 69.23009791838811], [131.1014650094706, 69.2309360241587]]}, "properties": {"source": "970683", "target": "240835"}}, {"type": "Feature", "geometry": {"type": "LineString", "coordinates": [[131.1020621964518, 69.23009791838811], [131.10469522189055, 69.23064165769168]]}, "properties": {"source": "970683", "target": "7908246"}}, {"type": "Feature", "geometry": {"type": "LineString", "coordinates": [[131.1020621964518, 69.23009791838811], [131.1022571452229, 69.23082460613588]]}, "properties": {"source": "970683", "target": "299514"}}, {"type": "Feature", "geometry": {"type": "LineString", "coordinates": [[131.1020621964518, 69.23009791838811], [131.10364101012044, 69.22970559956343]]}, "properties": {"source": "970683", "target": "13076542"}}, {"type": "Feature", "geometry": {"type": "LineString", "coordinates": [[131.1020621964518, 69.23009791838811], [131.10346890890992, 69.22980715455125]]}, "properties": {"source": "970683", "target": "1897047"}}, {"type": "Feature", "geometry": {"type": "LineString", "coordinates": [[131.1020621964518, 69.23009791838811], [131.10518796261653, 69.23009236653948]]}, "properties": {"source": "970683", "target": "1103210"}}, {"type": "Feature", "geometry": {"type": "LineString", "coordinates": [[131.1020621964518, 69.23009791838811], [131.10161903831107, 69.23072457270962]]}, "properties": {"source": "970683", "target": "27846288"}}, {"type": "Feature", "geometry": {"type": "LineString", "coordinates": [[131.10333668566335, 69.23005783062538], [131.10286674505062, 69.23022740215708]]}, "properties": {"source": "240836", "target": "383950"}}]}