{"type": "FeatureCollection", "features": [{"type": "Feature", "geometry": {"type": "LineString", "coordinates": [[84.71813575739674, 69.2297392776548], [84.71839558028745, 69.23193830208686]]}, "properties": {"source": "1022151", "target": "1156092"}}, {"type": "Feature", "geometry": {"type": "LineString", "coordinates": [[84.71813575739674, 69.2297392776548], [84.71851392247902, 69.2305745577184]]}, "properties": {"source": "1022151", "target": "1046558"}}, {"type": "Feature", "geometry": {"type": "LineString", "coordinates": [[84.71813575739674, 69.2297392776548], [84.71818340370942, 69.23055584293243]]}, "properties": {"source": "1022151", "target": "1022152"}}, {"type": "Feature", "geometry": {"type": "LineString", "coordinates": [[84.71813575739674, 69.2297392776548], [84.71895297886726, 69.23170819016451]]}, "properties": {"source": "1022151", "target": "127645"}}, {"type": "Feature", "geometry": {"type": "LineString", "coordinates": [[84.71813575739674, 69.2297392776548], [84.72295937211771, 69.23171025092475]]}, "properties": {"source": "1022151", "target": "1022148"}}, {"type": "Feature", "geometry": {"type": "LineString", "coordinates": [[84.71895297886726, 69.23170819016451], [84.72289383555523, 69.22978316446375]]}, "properties": {"source": "127645", "target": "513257"}}, {"type": "Feature", "geometry": {"type": "LineString", "coordinates": [[84.72386643383891, 69.23082948592128], [84.71951834294254, 69.23002950054519]]}, "properties": {"source": "513253", "target": "559476"}}, {"type": "Feature", "geometry": {"type": "LineString", "coordinates": [[84.72386643383891, 69.23082948592128], [84.72437979254067, 69.23016796984675]]}, "properties": {"source": "513253", "target": "480444"}}, {"type": "Feature", "geometry": {"type": "LineString", "coordinates": [[84.72386643383891, 69.23082948592128], [84.72009588108392, 69.23193424930625]]}, "properties": {"source": "513253", "target": "480443"}}, {"type": "Feature", "geometry": {"type": "LineString", "coordinates": [[84.72269699027515, 69.23122413948067], [84.72289383555523, 69.22978316446375]]}, "properties": {"source": "1156059", "target": "513257"}}, {"type": "Feature", "geometry": {"type": "LineString", "coordinates": [[84.72269699027515, 69.23122413948067], [84.72339179404139, 69.23055448327233]]}, "properties": {"source": "1156059", "target": "513255"}}, {"type": "Feature", "geometry": {"type": "LineString", "coordinates": [[84.72269699027515, 69.23122413948067], [84.7248011580727, 69.230193245594]]}, "properties": {"source": "1156059", "target": "513252"}}, {"type": "Feature", "geometry": {"type": "LineString", "coordinates": [[84.71818340370942, 69.23055584293243], [84.71839558028745, 69.23193830208686]]}, "properties": {"source": "1022152", "target": "1156092"}}, {"type": "Feature", "geometry": {"type": "LineString", "coordinates": [[84.71818340370942, 69.23055584293243], [84.71851392247902, 69.2305745577184]]}, "properties": {"source": "1022152", "target": "1046558"}}, {"type": "Feature", "geometry": {"type": "LineString", "coordinates": [[84.71818340370942, 69.23055584293243], [84.72327748788462, 69.23093460278778]]}, "properties": {"source": "1022152", "target": "559475"}}, {"type": "Feature", "geometry": {"type": "LineString", "coordinates": [[84.71818340370942, 69.23055584293243], [84.72382294460209, 69.23037531014029]]}, "properties": {"source": "1022152", "target": "15808613"}}, {"type": "Feature", "geometry": {"type": "LineString", "coordinates": [[84.71813575739674, 69.2297392776548], [84.72289383555523, 69.22978316446375]]}, "properties": {"source": "1022151", "target": "513257"}}, {"type": "Feature", "geometry": {"type": "LineString", "coordinates": [[84.71813575739674, 69.2297392776548], [84.72147040759876, 69.23027386773728]]}, "properties": {"source": "1022151", "target": "513269"}}, {"type": "Feature", "geometry": {"type": "LineString", "coordinates": [[84.71813575739674, 69.2297392776548], [84.7215332273845, 69.23044624557332]]}, "properties": {"source": "1022151", "target": "513267"}}, {"type": "Feature", "geometry": {"type": "LineString", "coordinates": [[84.71813575739674, 69.2297392776548], [84.72339179404139, 69.23055448327233]]}, "properties": {"source": "1022151", "target": "513255"}}, {"type": "Feature", "geometry": {"type": "LineString", "coordinates": [[84.71813575739674, 69.2297392776548], [84.72293003486578, 69.23070133990774]]}, "properties": {"source": "1022151", "target": "127647"}}, {"type": "Feature", "geometry": {"type": "LineString", "coordinates": [[84.71813575739674, 69.2297392776548], [84.72269699027515, 69.23122413948067]]}, "properties": {"source": "1022151", "target": "1156059"}}, {"type": "Feature", "geometry": {"type": "LineString", "coordinates": [[84.72147040759876, 69.23027386773728], [84.72339179404139, 69.23055448327233]]}, "properties": {"source": "513269", "target": "513255"}}, {"type": "Feature", "geometry": {"type": "LineString", "coordinates": [[84.72147040759876, 69.23027386773728], [84.7248011580727, 69.230193245594]]}, "properties": {"source": "513269", "target": "513252"}}, {"type": "Feature", "geometry": {"type": "LineString", "coordinates": [[84.72147040759876, 69.23027386773728], [84.72386643383891, 69.23082948592128]]}, "properties": {"source": "513269", "target": "513253"}}, {"type": "Feature", "geometry": {"type": "LineString", "coordinates": [[84.72147040759876, 69.23027386773728], [84.72269699027515, 69.23122413948067]]}, "properties": {"source": "513269", "target": "1156059"}}, {"type": "Feature", "geometry": {"type": "LineString", "coordinates": [[84.72147040759876, 69.23027386773728], [84.72354569690913, 69.23145410466134]]}, "properties": {"source": "513269", "target": "513251"}}, {"type": "Feature", "geometry": {"type": "LineString", "coordinates": [[84.72147040759876, 69.23027386773728], [84.71839558028745, 69.23193830208686]]}, "properties": {"source": "513269", "target": "1156092"}}, {"type": "Feature", "geometry": {"type": "LineString", "coordinates": [[84.7248011580727, 69.230193245594], [84.72339179404139, 69.23055448327233]]}, "properties": {"source": "513252", "target": "513255"}}, {"type": "Feature", "geometry": {"type": "LineString", "coordinates": [[84.7248011580727, 69.230193245594], [84.71839558028745, 69.23193830208686]]}, "properties": {"source": "513252", "target": "1156092"}}, {"type": "Feature", "geometry": {"type": "LineString", "coordinates": [[84.72386643383891, 69.23082948592128], [84.72289383555523, 69.22978316446375]]}, "properties": {"source": "513253", "target": "513257"}}, {"type": "Feature", "geometry": {"type": "LineString", "coordinates": [[84.72386643383891, 69.23082948592128], [84.72339179404139, 69.23055448327233]]}, "properties": {"source": "513253", "target": "513255"}}, {"type": "Feature", "geometry": {"type": "LineString", "coordinates": [[84.72386643383891, 69.23082948592128], [84.72269699027515, 69.23122413948067]]}, "properties": {"source": "513253", "target": "1156059"}}, {"type": "Feature", "geometry": {"type": "LineString", "coordinates": [[84.72386643383891, 69.23082948592128], [84.72354569690913, 69.23145410466134]]}, "properties": {"source": "513253", "target": "513251"}}, {"type": "Feature", "geometry": {"type": "LineString", "coordinates": [[84.72386643383891, 69.23082948592128], [84.71839558028745, 69.23193830208686]]}, "properties": {"source": "513253", "target": "1156092"}}, {"type": "Feature", "geometry": {"type": "LineString", "coordinates": [[84.72386643383891, 69.23082948592128], [84.72327748788462, 69.23093460278778]]}, "properties": {"source": "513253", "target": "559475"}}, {"type": "Feature", "geometry": {"type": "LineString", "coordinates": [[84.72386643383891, 69.23082948592128], [84.71818340370942, 69.23055584293243]]}, "properties": {"source": "513253", "target": "1022152"}}, {"type": "Feature", "geometry": {"type": "LineString", "coordinates": [[84.72386643383891, 69.23082948592128], [84.7191526389916, 69.23111374480018]]}, "properties": {"source": "513253", "target": "513254"}}, {"type": "Feature", "geometry": {"type": "LineString", "coordinates": [[84.7215332273845, 69.23044624557332], [84.72269699027515, 69.23122413948067]]}, "properties": {"source": "513267", "target": "1156059"}}, {"type": "Feature", "geometry": {"type": "LineString", "coordinates": [[84.7215332273845, 69.23044624557332], [84.72354569690913, 69.23145410466134]]}, "properties": {"source": "513267", "target": "513251"}}, {"type": "Feature", "geometry": {"type": "LineString", "coordinates": [[84.7215332273845, 69.23044624557332], [84.71839558028745, 69.23193830208686]]}, "properties": {"source": "513267", "target": "1156092"}}, {"type": "Feature", "geometry": {"type": "LineString", "coordinates": [[84.7215332273845, 69.23044624557332], [84.71851392247902, 69.2305745577184]]}, "properties": {"source": "513267", "target": "1046558"}}, {"type": "Feature", "geometry": {"type": "LineString", "coordinates": [[84.7215332273845, 69.23044624557332], [84.72327748788462, 69.23093460278778]]}, "properties": {"source": "513267", "target": "559475"}}, {"type": "Feature", "geometry": {"type": "LineString", "coordinates": [[84.7215332273845, 69.23044624557332], [84.7191526389916, 69.23111374480018]]}, "properties": {"source": "513267", "target": "513254"}}, {"type": "Feature", "geometry": {"type": "LineString", "coordinates": [[84.72289383555523, 69.22978316446375], [84.72339179404139, 69.23055448327233]]}, "properties": {"source": "513257", "target": "513255"}}, {"type": "Feature", "geometry": {"type": "LineString", "coordinates": [[84.72289383555523, 69.22978316446375], [84.7248011580727, 69.230193245594]]}, "properties": {"source": "513257", "target": "513252"}}, {"type": "Feature", "geometry": {"type": "LineString", "coordinates": [[84.72289383555523, 69.22978316446375], [84.72354569690913, 69.23145410466134]]}, "properties": {"source": "513257", "target": "513251"}}, {"type": "Feature", "geometry": {"type": "LineString", "coordinates": [[84.72289383555523, 69.22978316446375], [84.71839558028745, 69.23193830208686]]}, "properties": {"source": "513257", "target": "1156092"}}, {"type": "Feature", "geometry": {"type": "LineString", "coordinates": [[84.72289383555523, 69.22978316446375], [84.71851392247902, 69.2305745577184]]}, "properties": {"source": "513257", "target": "1046558"}}, {"type": "Feature", "geometry": {"type": "LineString", "coordinates": [[84.72289383555523, 69.22978316446375], [84.72327748788462, 69.23093460278778]]}, "properties": {"source": "513257", "target": "559475"}}, {"type": "Feature", "geometry": {"type": "LineString", "coordinates": [[84.72289383555523, 69.22978316446375], [84.71951834294254, 69.23002950054519]]}, "properties": {"source": "513257", "target": "559476"}}, {"type": "Feature", "geometry": {"type": "LineString", "coordinates": [[84.72147040759876, 69.23027386773728], [84.72289383555523, 69.22978316446375]]}, "properties": {"source": "513269", "target": "513257"}}, {"type": "Feature", "geometry": {"type": "LineString", "coordinates": [[84.72147040759876, 69.23027386773728], [84.7215332273845, 69.23044624557332]]}, "properties": {"source": "513269", "target": "513267"}}, {"type": "Feature", "geometry": {"type": "LineString", "coordinates": [[84.72147040759876, 69.23027386773728], [84.72395525225556, 69.23048085170379]]}, "properties": {"source": "513269", "target": "513260"}}, {"type": "Feature", "geometry": {"type": "LineString", "coordinates": [[84.72327748788462, 69.23093460278778], [84.72339179404139, 69.23055448327233]]}, "properties": {"source": "559475", "target": "513255"}}, {"type": "Feature", "geometry": {"type": "LineString", "coordinates": [[84.72327748788462, 69.23093460278778], [84.7248011580727, 69.230193245594]]}, "properties": {"source": "559475", "target": "513252"}}, {"type": "Feature", "geometry": {"type": "LineString", "coordinates": [[84.71818340370942, 69.23055584293243], [84.72289383555523, 69.22978316446375]]}, "properties": {"source": "1022152", "target": "513257"}}, {"type": "Feature", "geometry": {"type": "LineString", "coordinates": [[84.71818340370942, 69.23055584293243], [84.72339179404139, 69.23055448327233]]}, "properties": {"source": "1022152", "target": "513255"}}, {"type": "Feature", "geometry": {"type": "LineString", "coordinates": [[84.71818340370942, 69.23055584293243], [84.72269699027515, 69.23122413948067]]}, "properties": {"source": "1022152", "target": "1156059"}}, {"type": "Feature", "geometry": {"type": "LineString", "coordinates": [[84.71818340370942, 69.23055584293243], [84.72354569690913, 69.23145410466134]]}, "properties": {"source": "1022152", "target": "513251"}}, {"type": "Feature", "geometry": {"type": "LineString", "coordinates": [[84.72147040759876, 69.23027386773728], [84.71851392247902, 69.2305745577184]]}, "properties": {"source": "513269", "target": "1046558"}}, {"type": "Feature", "geometry": {"type": "LineString", "coordinates": [[84.72147040759876, 69.23027386773728], [84.72327748788462, 69.23093460278778]]}, "properties": {"source": "513269", "target": "559475"}}, {"type": "Feature", "geometry": {"type": "LineString", "coordinates": [[84.72147040759876, 69.23027386773728], [84.7191526389916, 69.23111374480018]]}, "properties": {"source": "513269", "target": "513254"}}, {"type": "Feature", "geometry": {"type": "LineString", "coordinates": [[84.72147040759876, 69.23027386773728], [84.72382294460209, 69.23037531014029]]}, "properties": {"source": "513269", "target": "15808613"}}, {"type": "Feature", "geometry": {"type": "LineString", "coordinates": [[84.72147040759876, 69.23027386773728], [84.72329132508946, 69.23084324461368]]}, "properties": {"source": "513269", "target": "513258"}}, {"type": "Feature", "geometry": {"type": "LineString", "coordinates": [[84.72147040759876, 69.23027386773728], [84.72077155357573, 69.23164636667576]]}, "properties": {"source": "513269", "target": "662639"}}, {"type": "Feature", "geometry": {"type": "LineString", "coordinates": [[84.7215332273845, 69.23044624557332], [84.72289383555523, 69.22978316446375]]}, "properties": {"source": "513267", "target": "513257"}}, {"type": "Feature", "geometry": {"type": "LineString", "coordinates": [[84.7215332273845, 69.23044624557332], [84.72339179404139, 69.23055448327233]]}, "properties": {"source": "513267", "target": "513255"}}, {"type": "Feature", "geometry": {"type": "LineString", "coordinates": [[84.7215332273845, 69.23044624557332], [84.7248011580727, 69.230193245594]]}, "properties": {"source": "513267", "target": "513252"}}, {"type": "Feature", "geometry": {"type": "LineString", "coordinates": [[84.7215332273845, 69.23044624557332], [84.72386643383891, 69.23082948592128]]}, "properties": {"source": "513267", "target": "513253"}}, {"type": "Feature", "geometry": {"type": "LineString", "coordinates": [[84.72295937211771, 69.23171025092475], [84.71839558028745, 69.23193830208686]]}, "properties": {"source": "1022148", "target": "1156092"}}, {"type": "Feature", "geometry": {"type": "LineString", "coordinates": [[84.72295937211771, 69.23171025092475], [84.71851392247902, 69.2305745577184]]}, "properties": {"source": "1022148", "target": "1046558"}}, {"type": "Feature", "geometry": {"type": "LineString", "coordinates": [[84.72295937211771, 69.23171025092475], [84.72327748788462, 69.23093460278778]]}, "properties": {"source": "1022148", "target": "559475"}}, {"type": "Feature", "geometry": {"type": "LineString", "coordinates": [[84.72295937211771, 69.23171025092475], [84.71818340370942, 69.23055584293243]]}, "properties": {"source": "1022148", "target": "1022152"}}, {"type": "Feature", "geometry": {"type": "LineString", "coordinates": [[84.72295937211771, 69.23171025092475], [84.72382294460209, 69.23037531014029]]}, "properties": {"source": "1022148", "target": "15808613"}}, {"type": "Feature", "geometry": {"type": "LineString", "coordinates": [[84.7191526389916, 69.23111374480018], [84.72289383555523, 69.22978316446375]]}, "properties": {"source": "513254", "target": "513257"}}, {"type": "Feature", "geometry": {"type": "LineString", "coordinates": [[84.72329132508946, 69.23084324461368], [84.7215332273845, 69.23044624557332]]}, "properties": {"source": "513258", "target": "513267"}}, {"type": "Feature", "geometry": {"type": "LineString", "coordinates": [[84.72329132508946, 69.23084324461368], [84.7191526389916, 69.23111374480018]]}, "properties": {"source": "513258", "target": "513254"}}, {"type": "Feature", "geometry": {"type": "LineString", "coordinates": [[84.72329132508946, 69.23084324461368], [84.72390065791183, 69.22977276993444]]}, "properties": {"source": "513258", "target": "615004"}}, {"type": "Feature", "geometry": {"type": "LineString", "coordinates": [[84.72329132508946, 69.23084324461368], [84.72421410944361, 69.229735148033]]}, "properties": {"source": "513258", "target": "127646"}}, {"type": "Feature", "geometry": {"type": "LineString", "coordinates": [[84.72437979254067, 69.23016796984675], [84.72354569690913, 69.23145410466134]]}, "properties": {"source": "480444", "target": "513251"}}, {"type": "Feature", "geometry": {"type": "LineString", "coordinates": [[84.72437979254067, 69.23016796984675], [84.71951834294254, 69.23002950054519]]}, "properties": {"source": "480444", "target": "559476"}}, {"type": "Feature", "geometry": {"type": "LineString", "coordinates": [[84.72437979254067, 69.23016796984675], [84.72009588108392, 69.23193424930625]]}, "properties": {"source": "480444", "target": "480443"}}, {"type": "Feature", "geometry": {"type": "LineString", "coordinates": [[84.72437979254067, 69.23016796984675], [84.71816571165749, 69.22998708786929]]}, "properties": {"source": "480444", "target": "365257"}}, {"type": "Feature", "geometry": {"type": "LineString", "coordinates": [[84.7214134079781, 69.2303229056277], [84.72289383555523, 69.22978316446375]]}, "properties": {"source": "662636", "target": "513257"}}, {"type": "Feature", "geometry": {"type": "LineString", "coordinates": [[84.7214134079781, 69.2303229056277], [84.72339179404139, 69.23055448327233]]}, "properties": {"source": "662636", "target": "513255"}}, {"type": "Feature", "geometry": {"type": "LineString", "coordinates": [[84.72395525225556, 69.23048085170379], [84.72327748788462, 69.23093460278778]]}, "properties": {"source": "513260", "target": "559475"}}, {"type": "Feature", "geometry": {"type": "LineString", "coordinates": [[84.72395525225556, 69.23048085170379], [84.7191526389916, 69.23111374480018]]}, "properties": {"source": "513260", "target": "513254"}}, {"type": "Feature", "geometry": {"type": "LineString", "coordinates": [[84.72395525225556, 69.23048085170379], [84.72382294460209, 69.23037531014029]]}, "properties": {"source": "513260", "target": "15808613"}}, {"type": "Feature", "geometry": {"type": "LineString", "coordinates": [[84.72395525225556, 69.23048085170379], [84.72329132508946, 69.23084324461368]]}, "properties": {"source": "513260", "target": "513258"}}, {"type": "Feature", "geometry": {"type": "LineString", "coordinates": [[84.72395525225556, 69.23048085170379], [84.72077155357573, 69.23164636667576]]}, "properties": {"source": "513260", "target": "662639"}}, {"type": "Feature", "geometry": {"type": "LineString", "coordinates": [[84.72395525225556, 69.23048085170379], [84.72428823265477, 69.23051657358965]]}, "properties": {"source": "513260", "target": "481644"}}, {"type": "Feature", "geometry": {"type": "LineString", "coordinates": [[84.7191526389916, 69.23111374480018], [84.72339179404139, 69.23055448327233]]}, "properties": {"source": "513254", "target": "513255"}}, {"type": "Feature", "geometry": {"type": "LineString", "coordinates": [[84.7191526389916, 69.23111374480018], [84.7248011580727, 69.230193245594]]}, "properties": {"source": "513254", "target": "513252"}}, {"type": "Feature", "geometry": {"type": "LineString", "coordinates": [[84.7191526389916, 69.23111374480018], [84.72327748788462, 69.23093460278778]]}, "properties": {"source": "513254", "target": "559475"}}, {"type": "Feature", "geometry": {"type": "LineString", "coordinates": [[84.72382294460209, 69.23037531014029], [84.72289383555523, 69.22978316446375]]}, "properties": {"source": "15808613", "target": "513257"}}, {"type": "Feature", "geometry": {"type": "LineString", "coordinates": [[84.72382294460209, 69.23037531014029], [84.7248011580727, 69.230193245594]]}, "properties": {"source": "15808613", "target": "513252"}}, {"type": "Feature", "geometry": {"type": "LineString", "coordinates": [[84.71991872146612, 69.23161160194232], [84.72147040759876, 69.23027386773728]]}, "properties": {"source": "513250", "target": "513269"}}, {"type": "Feature", "geometry": {"type": "LineString", "coordinates": [[84.71991872146612, 69.23161160194232], [84.7215332273845, 69.23044624557332]]}, "properties": {"source": "513250", "target": "513267"}}, {"type": "Feature", "geometry": {"type": "LineString", "coordinates": [[84.71991872146612, 69.23161160194232], [84.72395525225556, 69.23048085170379]]}, "properties": {"source": "513250", "target": "513260"}}, {"type": "Feature", "geometry": {"type": "LineString", "coordinates": [[84.71991872146612, 69.23161160194232], [84.72293003486578, 69.23070133990774]]}, "properties": {"source": "513250", "target": "127647"}}, {"type": "Feature", "geometry": {"type": "LineString", "coordinates": [[84.71991872146612, 69.23161160194232], [84.7248011580727, 69.230193245594]]}, "properties": {"source": "513250", "target": "513252"}}, {"type": "Feature", "geometry": {"type": "LineString", "coordinates": [[84.71991872146612, 69.23161160194232], [84.72329132508946, 69.23084324461368]]}, "properties": {"source": "513250", "target": "513258"}}, {"type": "Feature", "geometry": {"type": "LineString", "coordinates": [[84.71991872146612, 69.23161160194232], [84.72390065791183, 69.22977276993444]]}, "properties": {"source": "513250", "target": "615004"}}, {"type": "Feature", "geometry": {"type": "LineString", "coordinates": [[84.71991872146612, 69.23161160194232], [84.72421410944361, 69.229735148033]]}, "properties": {"source": "513250", "target": "127646"}}, {"type": "Feature", "geometry": {"type": "LineString", "coordinates": [[84.71951834294254, 69.23002950054519], [84.72339179404139, 69.23055448327233]]}, "properties": {"source": "559476", "target": "513255"}}, {"type": "Feature", "geometry": {"type": "LineString", "coordinates": [[84.71951834294254, 69.23002950054519], [84.72354569690913, 69.23145410466134]]}, "properties": {"source": "559476", "target": "513251"}}, {"type": "Feature", "geometry": {"type": "LineString", "coordinates": [[84.71951834294254, 69.23002950054519], [84.72327748788462, 69.23093460278778]]}, "properties": {"source": "559476", "target": "559475"}}, {"type": "Feature", "geometry": {"type": "LineString", "coordinates": [[84.72269699027515, 69.23122413948067], [84.71839558028745, 69.23193830208686]]}, "properties": {"source": "1156059", "target": "1156092"}}, {"type": "Feature", "geometry": {"type": "LineString", "coordinates": [[84.72269699027515, 69.23122413948067], [84.71851392247902, 69.2305745577184]]}, "properties": {"source": "1156059", "target": "1046558"}}, {"type": "Feature", "geometry": {"type": "LineString", "coordinates": [[84.72269699027515, 69.23122413948067], [84.71951834294254, 69.23002950054519]]}, "properties": {"source": "1156059", "target": "559476"}}, {"type": "Feature", "geometry": {"type": "LineString", "coordinates": [[84.72354569690913, 69.23145410466134], [84.72339179404139, 69.23055448327233]]}, "properties": {"source": "513251", "target": "513255"}}, {"type": "Feature", "geometry": {"type": "LineString", "coordinates": [[84.72354569690913, 69.23145410466134], [84.7248011580727, 69.230193245594]]}, "properties": {"source": "513251", "target": "513252"}}, {"type": "Feature", "geometry": {"type": "LineString", "coordinates": [[84.72354569690913, 69.23145410466134], [84.71839558028745, 69.23193830208686]]}, "properties": {"source": "513251", "target": "1156092"}}, {"type": "Feature", "geometry": {"type": "LineString", "coordinates": [[84.72354569690913, 69.23145410466134], [84.72327748788462, 69.23093460278778]]}, "properties": {"source": "513251", "target": "559475"}}, {"type": "Feature", "geometry": {"type": "LineString", "coordinates": [[84.71851392247902, 69.2305745577184], [84.72339179404139, 69.23055448327233]]}, "properties": {"source": "1046558", "target": "513255"}}, {"type": "Feature", "geometry": {"type": "LineString", "coordinates": [[84.71851392247902, 69.2305745577184], [84.7248011580727, 69.230193245594]]}, "properties": {"source": "1046558", "target": "513252"}}, {"type": "Feature", "geometry": {"type": "LineString", "coordinates": [[84.71851392247902, 69.2305745577184], [84.71839558028745, 69.23193830208686]]}, "properties": {"source": "1046558", "target": "1156092"}}, {"type": "Feature", "geometry": {"type": "LineString", "coordinates": [[84.72293003486578, 69.23070133990774], [84.72327748788462, 69.23093460278778]]}, "properties": {"source": "127647", "target": "559475"}}, {"type": "Feature", "geometry": {"type": "LineString", "coordinates": [[84.72293003486578, 69.23070133990774], [84.71818340370942, 69.23055584293243]]}, "properties": {"source": "127647", "target": "1022152"}}, {"type": "Feature", "geometry": {"type": "LineString", "coordinates": [[84.72293003486578, 69.23070133990774], [84.71895297886726, 69.23170819016451]]}, "properties": {"source": "127647", "target": "127645"}}, {"type": "Feature", "geometry": {"type": "LineString", "coordinates": [[84.72293003486578, 69.23070133990774], [84.72295937211771, 69.23171025092475]]}, "properties": {"source": "127647", "target": "1022148"}}, {"type": "Feature", "geometry": {"type": "LineString", "coordinates": [[84.72293003486578, 69.23070133990774], [84.7191526389916, 69.23111374480018]]}, "properties": {"source": "127647", "target": "513254"}}, {"type": "Feature", "geometry": {"type": "LineString", "coordinates": [[84.72293003486578, 69.23070133990774], [84.72382294460209, 69.23037531014029]]}, "properties": {"source": "127647", "target": "15808613"}}, {"type": "Feature", "geometry": {"type": "LineString", "coordinates": [[84.71895297886726, 69.23170819016451], [84.72147040759876, 69.23027386773728]]}, "properties": {"source": "127645", "target": "513269"}}, {"type": "Feature", "geometry": {"type": "LineString", "coordinates": [[84.71895297886726, 69.23170819016451], [84.7215332273845, 69.23044624557332]]}, "properties": {"source": "127645", "target": "513267"}}, {"type": "Feature", "geometry": {"type": "LineString", "coordinates": [[84.71895297886726, 69.23170819016451], [84.72395525225556, 69.23048085170379]]}, "properties": {"source": "127645", "target": "513260"}}, {"type": "Feature", "geometry": {"type": "LineString", "coordinates": [[84.71895297886726, 69.23170819016451], [84.7248011580727, 69.230193245594]]}, "properties": {"source": "127645", "target": "513252"}}, {"type": "Feature", "geometry": {"type": "LineString", "coordinates": [[84.71895297886726, 69.23170819016451], [84.71839558028745, 69.23193830208686]]}, "properties": {"source": "127645", "target": "1156092"}}, {"type": "Feature", "geometry": {"type": "LineString", "coordinates": [[84.71895297886726, 69.23170819016451], [84.71851392247902, 69.2305745577184]]}, "properties": {"source": "127645", "target": "1046558"}}, {"type": "Feature", "geometry": {"type": "LineString", "coordinates": [[84.71895297886726, 69.23170819016451], [84.72382294460209, 69.23037531014029]]}, "properties": {"source": "127645", "target": "15808613"}}, {"type": "Feature", "geometry": {"type": "LineString", "coordinates": [[84.72295937211771, 69.23171025092475], [84.72289383555523, 69.22978316446375]]}, "properties": {"source": "1022148", "target": "513257"}}, {"type": "Feature", "geometry": {"type": "LineString", "coordinates": [[84.72295937211771, 69.23171025092475], [84.72339179404139, 69.23055448327233]]}, "properties": {"source": "1022148", "target": "513255"}}, {"type": "Feature", "geometry": {"type": "LineString", "coordinates": [[84.72295937211771, 69.23171025092475], [84.72269699027515, 69.23122413948067]]}, "properties": {"source": "1022148", "target": "1156059"}}, {"type": "Feature", "geometry": {"type": "LineString", "coordinates": [[84.7214134079781, 69.2303229056277], [84.72386643383891, 69.23082948592128]]}, "properties": {"source": "662636", "target": "513253"}}, {"type": "Feature", "geometry": {"type": "LineString", "coordinates": [[84.7214134079781, 69.2303229056277], [84.72354569690913, 69.23145410466134]]}, "properties": {"source": "662636", "target": "513251"}}, {"type": "Feature", "geometry": {"type": "LineString", "coordinates": [[84.7214134079781, 69.2303229056277], [84.71951834294254, 69.23002950054519]]}, "properties": {"source": "662636", "target": "559476"}}, {"type": "Feature", "geometry": {"type": "LineString", "coordinates": [[84.7214134079781, 69.2303229056277], [84.72390065791183, 69.22977276993444]]}, "properties": {"source": "662636", "target": "615004"}}, {"type": "Feature", "geometry": {"type": "LineString", "coordinates": [[84.72077155357573, 69.23164636667576], [84.7248011580727, 69.230193245594]]}, "properties": {"source": "662639", "target": "513252"}}, {"type": "Feature", "geometry": {"type": "LineString", "coordinates": [[84.7225452473943, 69.23082249153086], [84.72437979254067, 69.23016796984675]]}, "properties": {"source": "480435", "target": "480444"}}, {"type": "Feature", "geometry": {"type": "LineString", "coordinates": [[84.7215332273845, 69.23044624557332], [84.72382294460209, 69.23037531014029]]}, "properties": {"source": "513267", "target": "15808613"}}, {"type": "Feature", "geometry": {"type": "LineString", "coordinates": [[84.7215332273845, 69.23044624557332], [84.72077155357573, 69.23164636667576]]}, "properties": {"source": "513267", "target": "662639"}}, {"type": "Feature", "geometry": {"type": "LineString", "coordinates": [[84.72395525225556, 69.23048085170379], [84.72289383555523, 69.22978316446375]]}, "properties": {"source": "513260", "target": "513257"}}, {"type": "Feature", "geometry": {"type": "LineString", "coordinates": [[84.72395525225556, 69.23048085170379], [84.7215332273845, 69.23044624557332]]}, "properties": {"source": "513260", "target": "513267"}}, {"type": "Feature", "geometry": {"type": "LineString", "coordinates": [[84.72395525225556, 69.23048085170379], [84.72339179404139, 69.23055448327233]]}, "properties": {"source": "513260", "target": "513255"}}, {"type": "Feature", "geometry": {"type": "LineString", "coordinates": [[84.72395525225556, 69.23048085170379], [84.7248011580727, 69.230193245594]]}, "properties": {"source": "513260", "target": "513252"}}, {"type": "Feature", "geometry": {"type": "LineString", "coordinates": [[84.72395525225556, 69.23048085170379], [84.72386643383891, 69.23082948592128]]}, "properties": {"source": "513260", "target": "513253"}}, {"type": "Feature", "geometry": {"type": "LineString", "coordinates": [[84.72395525225556, 69.23048085170379], [84.72269699027515, 69.23122413948067]]}, "properties": {"source": "513260", "target": "1156059"}}, {"type": "Feature", "geometry": {"type": "LineString", "coordinates": [[84.72395525225556, 69.23048085170379], [84.72354569690913, 69.23145410466134]]}, "properties": {"source": "513260", "target": "513251"}}, {"type": "Feature", "geometry": {"type": "LineString", "coordinates": [[84.72395525225556, 69.23048085170379], [84.71851392247902, 69.2305745577184]]}, "properties": {"source": "513260", "target": "1046558"}}, {"type": "Feature", "geometry": {"type": "LineString", "coordinates": [[84.7225452473943, 69.23082249153086], [84.72009588108392, 69.23193424930625]]}, "properties": {"source": "480435", "target": "480443"}}, {"type": "Feature", "geometry": {"type": "LineString", "coordinates": [[84.7225452473943, 69.23082249153086], [84.72176411922652, 69.2305328597993]]}, "properties": {"source": "480435", "target": "427474"}}, {"type": "Feature", "geometry": {"type": "LineString", "coordinates": [[84.7225452473943, 69.23082249153086], [84.71816571165749, 69.22998708786929]]}, "properties": {"source": "480435", "target": "365257"}}, {"type": "Feature", "geometry": {"type": "LineString", "coordinates": [[84.72009588108392, 69.23193424930625], [84.72354569690913, 69.23145410466134]]}, "properties": {"source": "480443", "target": "513251"}}, {"type": "Feature", "geometry": {"type": "LineString", "coordinates": [[84.72176411922652, 69.2305328597993], [84.72437979254067, 69.23016796984675]]}, "properties": {"source": "427474", "target": "480444"}}, {"type": "Feature", "geometry": {"type": "LineString", "coordinates": [[84.72428823265477, 69.23051657358965], [84.72077155357573, 69.23164636667576]]}, "properties": {"source": "481644", "target": "662639"}}, {"type": "Feature", "geometry": {"type": "LineString", "coordinates": [[84.72339179404139, 69.23055448327233], [84.71839558028745, 69.23193830208686]]}, "properties": {"source": "513255", "target": "1156092"}}, {"type": "Feature", "geometry": {"type": "LineString", "coordinates": [[84.72293003486578, 69.23070133990774], [84.72289383555523, 69.22978316446375]]}, "properties": {"source": "127647", "target": "513257"}}, {"type": "Feature", "geometry": {"type": "LineString", "coordinates": [[84.72293003486578, 69.23070133990774], [84.72147040759876, 69.23027386773728]]}, "properties": {"source": "127647", "target": "513269"}}, {"type": "Feature", "geometry": {"type": "LineString", "coordinates": [[84.72293003486578, 69.23070133990774], [84.7215332273845, 69.23044624557332]]}, "properties": {"source": "127647", "target": "513267"}}, {"type": "Feature", "geometry": {"type": "LineString", "coordinates": [[84.72293003486578, 69.23070133990774], [84.72395525225556, 69.23048085170379]]}, "properties": {"source": "127647", "target": "513260"}}, {"type": "Feature", "geometry": {"type": "LineString", "coordinates": [[84.72293003486578, 69.23070133990774], [84.72339179404139, 69.23055448327233]]}, "properties": {"source": "127647", "target": "513255"}}, {"type": "Feature", "geometry": {"type": "LineString", "coordinates": [[84.72293003486578, 69.23070133990774], [84.7248011580727, 69.230193245594]]}, "properties": {"source": "127647", "target": "513252"}}, {"type": "Feature", "geometry": {"type": "LineString", "coordinates": [[84.72293003486578, 69.23070133990774], [84.72269699027515, 69.23122413948067]]}, "properties": {"source": "127647", "target": "1156059"}}, {"type": "Feature", "geometry": {"type": "LineString", "coordinates": [[84.72293003486578, 69.23070133990774], [84.71839558028745, 69.23193830208686]]}, "properties": {"source": "127647", "target": "1156092"}}, {"type": "Feature", "geometry": {"type": "LineString", "coordinates": [[84.72293003486578, 69.23070133990774], [84.71851392247902, 69.2305745577184]]}, "properties": {"source": "127647", "target": "1046558"}}]}