{"type": "FeatureCollection", "features": [{"type": "Feature", "geometry": {"type": "LineString", "coordinates": [[161.43730774257398, 68.80195006550642], [161.43306260299357, 68.80410183813672]]}, "properties": {"source": "21532015", "target": "18762095"}}, {"type": "Feature", "geometry": {"type": "LineString", "coordinates": [[161.43730774257398, 68.80195006550642], [161.4275288217745, 68.80017753634078]]}, "properties": {"source": "21532015", "target": "20958091"}}, {"type": "Feature", "geometry": {"type": "LineString", "coordinates": [[161.43730774257398, 68.80195006550642], [161.4377286877281, 68.80435783536504]]}, "properties": {"source": "21532015", "target": "13495947"}}, {"type": "Feature", "geometry": {"type": "LineString", "coordinates": [[161.42856215887753, 68.80005624512549], [161.4379564867503, 68.80192086618482]]}, "properties": {"source": "1444508", "target": "617510"}}, {"type": "Feature", "geometry": {"type": "LineString", "coordinates": [[161.43318527351454, 68.80503212985738], [161.43377539056013, 68.80606063641784]]}, "properties": {"source": "8096530", "target": "3549781"}}, {"type": "Feature", "geometry": {"type": "LineString", "coordinates": [[161.43505836343422, 68.80500867696352], [161.42940568337036, 68.80525523568895]]}, "properties": {"source": "13362652", "target": "24179293"}}, {"type": "Feature", "geometry": {"type": "LineString", "coordinates": [[161.43730774257398, 68.80195006550642], [161.4223931021765, 68.80392101304025]]}, "properties": {"source": "21532015", "target": "17851860"}}, {"type": "Feature", "geometry": {"type": "LineString", "coordinates": [[161.43730774257398, 68.80195006550642], [161.43195973526406, 68.80172250179928]]}, "properties": {"source": "21532015", "target": "16109045"}}, {"type": "Feature", "geometry": {"type": "LineString", "coordinates": [[161.43730774257398, 68.80195006550642], [161.4240705776645, 68.80063194828679]]}, "properties": {"source": "21532015", "target": "20708244"}}, {"type": "Feature", "geometry": {"type": "LineString", "coordinates": [[161.43589354880794, 68.80075153440049], [161.42941685426825, 68.80110906509054]]}, "properties": {"source": "25990405", "target": "25677085"}}, {"type": "Feature", "geometry": {"type": "LineString", "coordinates": [[161.43589354880794, 68.80075153440049], [161.423930965907, 68.80177337948265]]}, "properties": {"source": "25990405", "target": "25177757"}}, {"type": "Feature", "geometry": {"type": "LineString", "coordinates": [[161.43589354880794, 68.80075153440049], [161.42952354066148, 68.80218756958206]]}, "properties": {"source": "25990405", "target": "27236906"}}, {"type": "Feature", "geometry": {"type": "LineString", "coordinates": [[161.43589354880794, 68.80075153440049], [161.43403479825076, 68.80260314455273]]}, "properties": {"source": "25990405", "target": "25842085"}}, {"type": "Feature", "geometry": {"type": "LineString", "coordinates": [[161.43589354880794, 68.80075153440049], [161.42952250728888, 68.80178913422208]]}, "properties": {"source": "25990405", "target": "27856251"}}, {"type": "Feature", "geometry": {"type": "LineString", "coordinates": [[161.43721086135713, 68.80481869659104], [161.4381042370291, 68.8009422041701]]}, "properties": {"source": "25140255", "target": "25464558"}}, {"type": "Feature", "geometry": {"type": "LineString", "coordinates": [[161.43721086135713, 68.80481869659104], [161.42941685426825, 68.80110906509054]]}, "properties": {"source": "25140255", "target": "25677085"}}, {"type": "Feature", "geometry": {"type": "LineString", "coordinates": [[161.43721086135713, 68.80481869659104], [161.423930965907, 68.80177337948265]]}, "properties": {"source": "25140255", "target": "25177757"}}, {"type": "Feature", "geometry": {"type": "LineString", "coordinates": [[161.43721086135713, 68.80481869659104], [161.4323310341773, 68.80147084230904]]}, "properties": {"source": "25140255", "target": "24361151"}}, {"type": "Feature", "geometry": {"type": "LineString", "coordinates": [[161.43721086135713, 68.80481869659104], [161.43821327507368, 68.80335925705253]]}, "properties": {"source": "25140255", "target": "24360059"}}, {"type": "Feature", "geometry": {"type": "LineString", "coordinates": [[161.43639905785273, 68.80317778111197], [161.42449916963312, 68.80027638178768]]}, "properties": {"source": "23582051", "target": "23118603"}}, {"type": "Feature", "geometry": {"type": "LineString", "coordinates": [[161.4223931021765, 68.80392101304025], [161.4240705776645, 68.80063194828679]]}, "properties": {"source": "17851860", "target": "20708244"}}, {"type": "Feature", "geometry": {"type": "LineString", "coordinates": [[161.4223931021765, 68.80392101304025], [161.42475873911184, 68.80007872709584]]}, "properties": {"source": "17851860", "target": "18720440"}}, {"type": "Feature", "geometry": {"type": "LineString", "coordinates": [[161.43379747885695, 68.8023090248775], [161.43377539056013, 68.80606063641784]]}, "properties": {"source": "1444509", "target": "3549781"}}, {"type": "Feature", "geometry": {"type": "LineString", "coordinates": [[161.43379747885695, 68.8023090248775], [161.4225935114581, 68.80512921424011]]}, "properties": {"source": "1444509", "target": "7790680"}}, {"type": "Feature", "geometry": {"type": "LineString", "coordinates": [[161.43379747885695, 68.8023090248775], [161.42516999666776, 68.8054821148466]]}, "properties": {"source": "1444509", "target": "1444510"}}, {"type": "Feature", "geometry": {"type": "LineString", "coordinates": [[161.43379747885695, 68.8023090248775], [161.42856215887753, 68.80005624512549]]}, "properties": {"source": "1444509", "target": "1444508"}}, {"type": "Feature", "geometry": {"type": "LineString", "coordinates": [[161.43379747885695, 68.8023090248775], [161.43318527351454, 68.80503212985738]]}, "properties": {"source": "1444509", "target": "8096530"}}, {"type": "Feature", "geometry": {"type": "LineString", "coordinates": [[161.43379747885695, 68.8023090248775], [161.4358646305568, 68.79996021092711]]}, "properties": {"source": "1444509", "target": "6090443"}}, {"type": "Feature", "geometry": {"type": "LineString", "coordinates": [[161.43379747885695, 68.8023090248775], [161.4379564867503, 68.80192086618482]]}, "properties": {"source": "1444509", "target": "617510"}}, {"type": "Feature", "geometry": {"type": "LineString", "coordinates": [[161.43379747885695, 68.8023090248775], [161.4218612361268, 68.80325519090098]]}, "properties": {"source": "1444509", "target": "3359887"}}, {"type": "Feature", "geometry": {"type": "LineString", "coordinates": [[161.42856215887753, 68.80005624512549], [161.42940568337036, 68.80525523568895]]}, "properties": {"source": "1444508", "target": "24179293"}}, {"type": "Feature", "geometry": {"type": "LineString", "coordinates": [[161.42856215887753, 68.80005624512549], [161.43377539056013, 68.80606063641784]]}, "properties": {"source": "1444508", "target": "3549781"}}, {"type": "Feature", "geometry": {"type": "LineString", "coordinates": [[161.42856215887753, 68.80005624512549], [161.4225935114581, 68.80512921424011]]}, "properties": {"source": "1444508", "target": "7790680"}}, {"type": "Feature", "geometry": {"type": "LineString", "coordinates": [[161.42856215887753, 68.80005624512549], [161.43318527351454, 68.80503212985738]]}, "properties": {"source": "1444508", "target": "8096530"}}, {"type": "Feature", "geometry": {"type": "LineString", "coordinates": [[161.42856215887753, 68.80005624512549], [161.4358646305568, 68.79996021092711]]}, "properties": {"source": "1444508", "target": "6090443"}}, {"type": "Feature", "geometry": {"type": "LineString", "coordinates": [[161.4377286877281, 68.80435783536504], [161.4223931021765, 68.80392101304025]]}, "properties": {"source": "13495947", "target": "17851860"}}, {"type": "Feature", "geometry": {"type": "LineString", "coordinates": [[161.4377286877281, 68.80435783536504], [161.43673397709358, 68.80489587294932]]}, "properties": {"source": "13495947", "target": "17830325"}}, {"type": "Feature", "geometry": {"type": "LineString", "coordinates": [[161.4377286877281, 68.80435783536504], [161.43529368141867, 68.80440623078377]]}, "properties": {"source": "13495947", "target": "18718218"}}, {"type": "Feature", "geometry": {"type": "LineString", "coordinates": [[161.4336653882758, 68.80305492424193], [161.4225935114581, 68.80512921424011]]}, "properties": {"source": "1074784", "target": "7790680"}}, {"type": "Feature", "geometry": {"type": "LineString", "coordinates": [[161.4336653882758, 68.80305492424193], [161.43884906720535, 68.80422863134658]]}, "properties": {"source": "1074784", "target": "31676757"}}, {"type": "Feature", "geometry": {"type": "LineString", "coordinates": [[161.4336653882758, 68.80305492424193], [161.42516999666776, 68.8054821148466]]}, "properties": {"source": "1074784", "target": "1444510"}}, {"type": "Feature", "geometry": {"type": "LineString", "coordinates": [[161.4336653882758, 68.80305492424193], [161.43318527351454, 68.80503212985738]]}, "properties": {"source": "1074784", "target": "8096530"}}, {"type": "Feature", "geometry": {"type": "LineString", "coordinates": [[161.4336653882758, 68.80305492424193], [161.43671958830788, 68.80356731621342]]}, "properties": {"source": "1074784", "target": "17158752"}}, {"type": "Feature", "geometry": {"type": "LineString", "coordinates": [[161.427875880901, 68.80362154189078], [161.4381042370291, 68.8009422041701]]}, "properties": {"source": "12830824", "target": "25464558"}}, {"type": "Feature", "geometry": {"type": "LineString", "coordinates": [[161.427875880901, 68.80362154189078], [161.43613319093106, 68.80462954728168]]}, "properties": {"source": "12830824", "target": "20653878"}}, {"type": "Feature", "geometry": {"type": "LineString", "coordinates": [[161.427875880901, 68.80362154189078], [161.43673397709358, 68.80489587294932]]}, "properties": {"source": "12830824", "target": "17830325"}}, {"type": "Feature", "geometry": {"type": "LineString", "coordinates": [[161.427875880901, 68.80362154189078], [161.43529368141867, 68.80440623078377]]}, "properties": {"source": "12830824", "target": "18718218"}}, {"type": "Feature", "geometry": {"type": "LineString", "coordinates": [[161.4362828934607, 68.80319853919525], [161.43884906720535, 68.80422863134658]]}, "properties": {"source": "28936719", "target": "31676757"}}, {"type": "Feature", "geometry": {"type": "LineString", "coordinates": [[161.4362828934607, 68.80319853919525], [161.43498720048382, 68.80463682477941]]}, "properties": {"source": "28936719", "target": "31831197"}}, {"type": "Feature", "geometry": {"type": "LineString", "coordinates": [[161.4362828934607, 68.80319853919525], [161.43727766173168, 68.80145754116563]]}, "properties": {"source": "28936719", "target": "31818150"}}, {"type": "Feature", "geometry": {"type": "LineString", "coordinates": [[161.4362828934607, 68.80319853919525], [161.42952250728888, 68.80178913422208]]}, "properties": {"source": "28936719", "target": "27856251"}}, {"type": "Feature", "geometry": {"type": "LineString", "coordinates": [[161.4362828934607, 68.80319853919525], [161.4253679296924, 68.80015766676095]]}, "properties": {"source": "28936719", "target": "32149118"}}, {"type": "Feature", "geometry": {"type": "LineString", "coordinates": [[161.4362828934607, 68.80319853919525], [161.43763143840778, 68.80177392956392]]}, "properties": {"source": "28936719", "target": "31344001"}}, {"type": "Feature", "geometry": {"type": "LineString", "coordinates": [[161.42952250728888, 68.80178913422208], [161.43884906720535, 68.80422863134658]]}, "properties": {"source": "27856251", "target": "31676757"}}, {"type": "Feature", "geometry": {"type": "LineString", "coordinates": [[161.4381042370291, 68.8009422041701], [161.42940568337036, 68.80525523568895]]}, "properties": {"source": "25464558", "target": "24179293"}}, {"type": "Feature", "geometry": {"type": "LineString", "coordinates": [[161.4381042370291, 68.8009422041701], [161.4323310341773, 68.80147084230904]]}, "properties": {"source": "25464558", "target": "24361151"}}, {"type": "Feature", "geometry": {"type": "LineString", "coordinates": [[161.4381042370291, 68.8009422041701], [161.4299029843121, 68.80487166263828]]}, "properties": {"source": "25464558", "target": "24648217"}}, {"type": "Feature", "geometry": {"type": "LineString", "coordinates": [[161.42941685426825, 68.80110906509054], [161.4381042370291, 68.8009422041701]]}, "properties": {"source": "25677085", "target": "25464558"}}, {"type": "Feature", "geometry": {"type": "LineString", "coordinates": [[161.42941685426825, 68.80110906509054], [161.423930965907, 68.80177337948265]]}, "properties": {"source": "25677085", "target": "25177757"}}, {"type": "Feature", "geometry": {"type": "LineString", "coordinates": [[161.42941685426825, 68.80110906509054], [161.42952354066148, 68.80218756958206]]}, "properties": {"source": "25677085", "target": "27236906"}}, {"type": "Feature", "geometry": {"type": "LineString", "coordinates": [[161.42941685426825, 68.80110906509054], [161.43403479825076, 68.80260314455273]]}, "properties": {"source": "25677085", "target": "25842085"}}, {"type": "Feature", "geometry": {"type": "LineString", "coordinates": [[161.42941685426825, 68.80110906509054], [161.4323310341773, 68.80147084230904]]}, "properties": {"source": "25677085", "target": "24361151"}}, {"type": "Feature", "geometry": {"type": "LineString", "coordinates": [[161.42941685426825, 68.80110906509054], [161.43821327507368, 68.80335925705253]]}, "properties": {"source": "25677085", "target": "24360059"}}, {"type": "Feature", "geometry": {"type": "LineString", "coordinates": [[161.42941685426825, 68.80110906509054], [161.439025280541, 68.80077752367481]]}, "properties": {"source": "25677085", "target": "25686066"}}, {"type": "Feature", "geometry": {"type": "LineString", "coordinates": [[161.42941685426825, 68.80110906509054], [161.42722022145, 68.80255932742907]]}, "properties": {"source": "25677085", "target": "15833842"}}, {"type": "Feature", "geometry": {"type": "LineString", "coordinates": [[161.42941685426825, 68.80110906509054], [161.4299029843121, 68.80487166263828]]}, "properties": {"source": "25677085", "target": "24648217"}}, {"type": "Feature", "geometry": {"type": "LineString", "coordinates": [[161.42941685426825, 68.80110906509054], [161.43748130500825, 68.8010517049913]]}, "properties": {"source": "25677085", "target": "24968581"}}, {"type": "Feature", "geometry": {"type": "LineString", "coordinates": [[161.4330728499471, 68.80165406126082], [161.42940568337036, 68.80525523568895]]}, "properties": {"source": "21530238", "target": "24179293"}}, {"type": "Feature", "geometry": {"type": "LineString", "coordinates": [[161.4330728499471, 68.80165406126082], [161.43884906720535, 68.80422863134658]]}, "properties": {"source": "21530238", "target": "31676757"}}, {"type": "Feature", "geometry": {"type": "LineString", "coordinates": [[161.4330728499471, 68.80165406126082], [161.43671958830788, 68.80356731621342]]}, "properties": {"source": "21530238", "target": "17158752"}}, {"type": "Feature", "geometry": {"type": "LineString", "coordinates": [[161.42952250728888, 68.80178913422208], [161.43498720048382, 68.80463682477941]]}, "properties": {"source": "27856251", "target": "31831197"}}, {"type": "Feature", "geometry": {"type": "LineString", "coordinates": [[161.42952250728888, 68.80178913422208], [161.43727766173168, 68.80145754116563]]}, "properties": {"source": "27856251", "target": "31818150"}}, {"type": "Feature", "geometry": {"type": "LineString", "coordinates": [[161.42952250728888, 68.80178913422208], [161.43403479825076, 68.80260314455273]]}, "properties": {"source": "27856251", "target": "25842085"}}, {"type": "Feature", "geometry": {"type": "LineString", "coordinates": [[161.4352694105301, 68.80135591058402], [161.43246972544586, 68.80304302576519]]}, "properties": {"source": "28684530", "target": "28804338"}}, {"type": "Feature", "geometry": {"type": "LineString", "coordinates": [[161.4352694105301, 68.80135591058402], [161.42795644603018, 68.80542245624818]]}, "properties": {"source": "28684530", "target": "29369429"}}, {"type": "Feature", "geometry": {"type": "LineString", "coordinates": [[161.4323310341773, 68.80147084230904], [161.439025280541, 68.80077752367481]]}, "properties": {"source": "24361151", "target": "25686066"}}, {"type": "Feature", "geometry": {"type": "LineString", "coordinates": [[161.43973979887232, 68.8037461752399], [161.4381042370291, 68.8009422041701]]}, "properties": {"source": "10769689", "target": "25464558"}}, {"type": "Feature", "geometry": {"type": "LineString", "coordinates": [[161.43973979887232, 68.8037461752399], [161.42249740139562, 68.80153709283877]]}, "properties": {"source": "10769689", "target": "20831142"}}, {"type": "Feature", "geometry": {"type": "LineString", "coordinates": [[161.43973979887232, 68.8037461752399], [161.4275288217745, 68.80017753634078]]}, "properties": {"source": "10769689", "target": "20958091"}}, {"type": "Feature", "geometry": {"type": "LineString", "coordinates": [[161.43973979887232, 68.8037461752399], [161.43613319093106, 68.80462954728168]]}, "properties": {"source": "10769689", "target": "20653878"}}, {"type": "Feature", "geometry": {"type": "LineString", "coordinates": [[161.43973979887232, 68.8037461752399], [161.43957232931808, 68.80331773553849]]}, "properties": {"source": "10769689", "target": "28017649"}}, {"type": "Feature", "geometry": {"type": "LineString", "coordinates": [[161.43973979887232, 68.8037461752399], [161.43673397709358, 68.80489587294932]]}, "properties": {"source": "10769689", "target": "17830325"}}, {"type": "Feature", "geometry": {"type": "LineString", "coordinates": [[161.43973979887232, 68.8037461752399], [161.43529368141867, 68.80440623078377]]}, "properties": {"source": "10769689", "target": "18718218"}}, {"type": "Feature", "geometry": {"type": "LineString", "coordinates": [[161.43444166828738, 68.80143938696452], [161.4381042370291, 68.8009422041701]]}, "properties": {"source": "28439402", "target": "25464558"}}, {"type": "Feature", "geometry": {"type": "LineString", "coordinates": [[161.43444166828738, 68.80143938696452], [161.427875880901, 68.80362154189078]]}, "properties": {"source": "28439402", "target": "12830824"}}, {"type": "Feature", "geometry": {"type": "LineString", "coordinates": [[161.43444166828738, 68.80143938696452], [161.43173434187435, 68.80391819470759]]}, "properties": {"source": "28439402", "target": "28267873"}}, {"type": "Feature", "geometry": {"type": "LineString", "coordinates": [[161.43613319093106, 68.80462954728168], [161.42936658711142, 68.80149580048285]]}, "properties": {"source": "20653878", "target": "14568231"}}, {"type": "Feature", "geometry": {"type": "LineString", "coordinates": [[161.43613319093106, 68.80462954728168], [161.42475873911184, 68.80007872709584]]}, "properties": {"source": "20653878", "target": "18720440"}}, {"type": "Feature", "geometry": {"type": "LineString", "coordinates": [[161.43727766173168, 68.80145754116563], [161.43884906720535, 68.80422863134658]]}, "properties": {"source": "31818150", "target": "31676757"}}, {"type": "Feature", "geometry": {"type": "LineString", "coordinates": [[161.43727766173168, 68.80145754116563], [161.43498720048382, 68.80463682477941]]}, "properties": {"source": "31818150", "target": "31831197"}}, {"type": "Feature", "geometry": {"type": "LineString", "coordinates": [[161.43727766173168, 68.80145754116563], [161.4253679296924, 68.80015766676095]]}, "properties": {"source": "31818150", "target": "32149118"}}, {"type": "Feature", "geometry": {"type": "LineString", "coordinates": [[161.43727766173168, 68.80145754116563], [161.43934052893343, 68.8000673436947]]}, "properties": {"source": "31818150", "target": "33931283"}}, {"type": "Feature", "geometry": {"type": "LineString", "coordinates": [[161.4358646305568, 68.79996021092711], [161.42940568337036, 68.80525523568895]]}, "properties": {"source": "6090443", "target": "24179293"}}, {"type": "Feature", "geometry": {"type": "LineString", "coordinates": [[161.4358646305568, 68.79996021092711], [161.43377539056013, 68.80606063641784]]}, "properties": {"source": "6090443", "target": "3549781"}}, {"type": "Feature", "geometry": {"type": "LineString", "coordinates": [[161.4358646305568, 68.79996021092711], [161.43318527351454, 68.80503212985738]]}, "properties": {"source": "6090443", "target": "8096530"}}, {"type": "Feature", "geometry": {"type": "LineString", "coordinates": [[161.42937783156037, 68.8022717106], [161.4381042370291, 68.8009422041701]]}, "properties": {"source": "25343542", "target": "25464558"}}, {"type": "Feature", "geometry": {"type": "LineString", "coordinates": [[161.42937783156037, 68.8022717106], [161.42941685426825, 68.80110906509054]]}, "properties": {"source": "25343542", "target": "25677085"}}, {"type": "Feature", "geometry": {"type": "LineString", "coordinates": [[161.42937783156037, 68.8022717106], [161.423930965907, 68.80177337948265]]}, "properties": {"source": "25343542", "target": "25177757"}}, {"type": "Feature", "geometry": {"type": "LineString", "coordinates": [[161.42937783156037, 68.8022717106], [161.42459499376344, 68.80153817611273]]}, "properties": {"source": "25343542", "target": "25349450"}}, {"type": "Feature", "geometry": {"type": "LineString", "coordinates": [[161.42926802034805, 68.80203239482935], [161.42830734154376, 68.80265806501251]]}, "properties": {"source": "25128178", "target": "25850504"}}, {"type": "Feature", "geometry": {"type": "LineString", "coordinates": [[161.4234293162906, 68.80089915748127], [161.43318527351454, 68.80503212985738]]}, "properties": {"source": "790448", "target": "8096530"}}, {"type": "Feature", "geometry": {"type": "LineString", "coordinates": [[161.42488601211323, 68.80167139736938], [161.4225935114581, 68.80512921424011]]}, "properties": {"source": "13616016", "target": "7790680"}}, {"type": "Feature", "geometry": {"type": "LineString", "coordinates": [[161.42249740139562, 68.80153709283877], [161.4381042370291, 68.8009422041701]]}, "properties": {"source": "20831142", "target": "25464558"}}, {"type": "Feature", "geometry": {"type": "LineString", "coordinates": [[161.42249740139562, 68.80153709283877], [161.43613319093106, 68.80462954728168]]}, "properties": {"source": "20831142", "target": "20653878"}}, {"type": "Feature", "geometry": {"type": "LineString", "coordinates": [[161.42249740139562, 68.80153709283877], [161.427875880901, 68.80362154189078]]}, "properties": {"source": "20831142", "target": "12830824"}}, {"type": "Feature", "geometry": {"type": "LineString", "coordinates": [[161.42249740139562, 68.80153709283877], [161.43673397709358, 68.80489587294932]]}, "properties": {"source": "20831142", "target": "17830325"}}, {"type": "Feature", "geometry": {"type": "LineString", "coordinates": [[161.42249740139562, 68.80153709283877], [161.42936658711142, 68.80149580048285]]}, "properties": {"source": "20831142", "target": "14568231"}}, {"type": "Feature", "geometry": {"type": "LineString", "coordinates": [[161.4225935114581, 68.80512921424011], [161.42940568337036, 68.80525523568895]]}, "properties": {"source": "7790680", "target": "24179293"}}, {"type": "Feature", "geometry": {"type": "LineString", "coordinates": [[161.4225935114581, 68.80512921424011], [161.43377539056013, 68.80606063641784]]}, "properties": {"source": "7790680", "target": "3549781"}}, {"type": "Feature", "geometry": {"type": "LineString", "coordinates": [[161.4225935114581, 68.80512921424011], [161.43318527351454, 68.80503212985738]]}, "properties": {"source": "7790680", "target": "8096530"}}, {"type": "Feature", "geometry": {"type": "LineString", "coordinates": [[161.4225935114581, 68.80512921424011], [161.4358646305568, 68.79996021092711]]}, "properties": {"source": "7790680", "target": "6090443"}}, {"type": "Feature", "geometry": {"type": "LineString", "coordinates": [[161.43884906720535, 68.80422863134658], [161.42940568337036, 68.80525523568895]]}, "properties": {"source": "31676757", "target": "24179293"}}, {"type": "Feature", "geometry": {"type": "LineString", "coordinates": [[161.43884906720535, 68.80422863134658], [161.43377539056013, 68.80606063641784]]}, "properties": {"source": "31676757", "target": "3549781"}}, {"type": "Feature", "geometry": {"type": "LineString", "coordinates": [[161.43884906720535, 68.80422863134658], [161.43498720048382, 68.80463682477941]]}, "properties": {"source": "31676757", "target": "31831197"}}, {"type": "Feature", "geometry": {"type": "LineString", "coordinates": [[161.4330285785411, 68.80389757294012], [161.4381042370291, 68.8009422041701]]}, "properties": {"source": "18781466", "target": "25464558"}}, {"type": "Feature", "geometry": {"type": "LineString", "coordinates": [[161.423930965907, 68.80177337948265], [161.4381042370291, 68.8009422041701]]}, "properties": {"source": "25177757", "target": "25464558"}}, {"type": "Feature", "geometry": {"type": "LineString", "coordinates": [[161.423930965907, 68.80177337948265], [161.42940568337036, 68.80525523568895]]}, "properties": {"source": "25177757", "target": "24179293"}}, {"type": "Feature", "geometry": {"type": "LineString", "coordinates": [[161.423930965907, 68.80177337948265], [161.43403479825076, 68.80260314455273]]}, "properties": {"source": "25177757", "target": "25842085"}}, {"type": "Feature", "geometry": {"type": "LineString", "coordinates": [[161.43240733944765, 68.80567297591762], [161.4352694105301, 68.80135591058402]]}, "properties": {"source": "33158563", "target": "28684530"}}, {"type": "Feature", "geometry": {"type": "LineString", "coordinates": [[161.43240733944765, 68.80567297591762], [161.43246972544586, 68.80304302576519]]}, "properties": {"source": "33158563", "target": "28804338"}}, {"type": "Feature", "geometry": {"type": "LineString", "coordinates": [[161.43240733944765, 68.80567297591762], [161.43235982442758, 68.8010866915273]]}, "properties": {"source": "33158563", "target": "18478536"}}, {"type": "Feature", "geometry": {"type": "LineString", "coordinates": [[161.43306671366315, 68.80149522967594], [161.4381042370291, 68.8009422041701]]}, "properties": {"source": "25733831", "target": "25464558"}}, {"type": "Feature", "geometry": {"type": "LineString", "coordinates": [[161.43306671366315, 68.80149522967594], [161.43444166828738, 68.80143938696452]]}, "properties": {"source": "25733831", "target": "28439402"}}, {"type": "Feature", "geometry": {"type": "LineString", "coordinates": [[161.42259647116043, 68.80261222011256], [161.4225935114581, 68.80512921424011]]}, "properties": {"source": "90139", "target": "7790680"}}, {"type": "Feature", "geometry": {"type": "LineString", "coordinates": [[161.42259647116043, 68.80261222011256], [161.43318527351454, 68.80503212985738]]}, "properties": {"source": "90139", "target": "8096530"}}, {"type": "Feature", "geometry": {"type": "LineString", "coordinates": [[161.42259647116043, 68.80261222011256], [161.43407703842388, 68.80466797142978]]}, "properties": {"source": "90139", "target": "206983"}}, {"type": "Feature", "geometry": {"type": "LineString", "coordinates": [[161.4328980003682, 68.8008916066128], [161.43377539056013, 68.80606063641784]]}, "properties": {"source": "13374079", "target": "3549781"}}, {"type": "Feature", "geometry": {"type": "LineString", "coordinates": [[161.4328980003682, 68.8008916066128], [161.4225935114581, 68.80512921424011]]}, "properties": {"source": "13374079", "target": "7790680"}}, {"type": "Feature", "geometry": {"type": "LineString", "coordinates": [[161.43407703842388, 68.80466797142978], [161.42207415014133, 68.80041703989866]]}, "properties": {"source": "206983", "target": "181723"}}, {"type": "Feature", "geometry": {"type": "LineString", "coordinates": [[161.43748130500825, 68.8010517049913], [161.423930965907, 68.80177337948265]]}, "properties": {"source": "24968581", "target": "25177757"}}, {"type": "Feature", "geometry": {"type": "LineString", "coordinates": [[161.4333495984676, 68.80558766925796], [161.42795644603018, 68.80542245624818]]}, "properties": {"source": "27812298", "target": "29369429"}}, {"type": "Feature", "geometry": {"type": "LineString", "coordinates": [[161.42746208019355, 68.80413697389258], [161.43727766173168, 68.80145754116563]]}, "properties": {"source": "33003577", "target": "31818150"}}, {"type": "Feature", "geometry": {"type": "LineString", "coordinates": [[161.42746208019355, 68.80413697389258], [161.4253679296924, 68.80015766676095]]}, "properties": {"source": "33003577", "target": "32149118"}}, {"type": "Feature", "geometry": {"type": "LineString", "coordinates": [[161.42488601211323, 68.80167139736938], [161.43377539056013, 68.80606063641784]]}, "properties": {"source": "13616016", "target": "3549781"}}, {"type": "Feature", "geometry": {"type": "LineString", "coordinates": [[161.4330728499471, 68.80165406126082], [161.43639905785273, 68.80317778111197]]}, "properties": {"source": "21530238", "target": "23582051"}}, {"type": "Feature", "geometry": {"type": "LineString", "coordinates": [[161.4330728499471, 68.80165406126082], [161.42830734154376, 68.80265806501251]]}, "properties": {"source": "21530238", "target": "25850504"}}, {"type": "Feature", "geometry": {"type": "LineString", "coordinates": [[161.4330728499471, 68.80165406126082], [161.42207415014133, 68.80041703989866]]}, "properties": {"source": "21530238", "target": "181723"}}, {"type": "Feature", "geometry": {"type": "LineString", "coordinates": [[161.4330728499471, 68.80165406126082], [161.43407703842388, 68.80466797142978]]}, "properties": {"source": "21530238", "target": "206983"}}, {"type": "Feature", "geometry": {"type": "LineString", "coordinates": [[161.43195973526406, 68.80172250179928], [161.42249740139562, 68.80153709283877]]}, "properties": {"source": "16109045", "target": "20831142"}}, {"type": "Feature", "geometry": {"type": "LineString", "coordinates": [[161.43195973526406, 68.80172250179928], [161.4223931021765, 68.80392101304025]]}, "properties": {"source": "16109045", "target": "17851860"}}, {"type": "Feature", "geometry": {"type": "LineString", "coordinates": [[161.43195973526406, 68.80172250179928], [161.43673397709358, 68.80489587294932]]}, "properties": {"source": "16109045", "target": "17830325"}}, {"type": "Feature", "geometry": {"type": "LineString", "coordinates": [[161.43195973526406, 68.80172250179928], [161.43529368141867, 68.80440623078377]]}, "properties": {"source": "16109045", "target": "18718218"}}, {"type": "Feature", "geometry": {"type": "LineString", "coordinates": [[161.43195973526406, 68.80172250179928], [161.42583946434303, 68.80262726738215]]}, "properties": {"source": "16109045", "target": "12030849"}}, {"type": "Feature", "geometry": {"type": "LineString", "coordinates": [[161.42583946434303, 68.80262726738215], [161.4381042370291, 68.8009422041701]]}, "properties": {"source": "12030849", "target": "25464558"}}, {"type": "Feature", "geometry": {"type": "LineString", "coordinates": [[161.42583946434303, 68.80262726738215], [161.42249740139562, 68.80153709283877]]}, "properties": {"source": "12030849", "target": "20831142"}}, {"type": "Feature", "geometry": {"type": "LineString", "coordinates": [[161.42583946434303, 68.80262726738215], [161.4223931021765, 68.80392101304025]]}, "properties": {"source": "12030849", "target": "17851860"}}, {"type": "Feature", "geometry": {"type": "LineString", "coordinates": [[161.42583946434303, 68.80262726738215], [161.43529368141867, 68.80440623078377]]}, "properties": {"source": "12030849", "target": "18718218"}}, {"type": "Feature", "geometry": {"type": "LineString", "coordinates": [[161.4336653882758, 68.80305492424193], [161.42940568337036, 68.80525523568895]]}, "properties": {"source": "1074784", "target": "24179293"}}, {"type": "Feature", "geometry": {"type": "LineString", "coordinates": [[161.4336653882758, 68.80305492424193], [161.43377539056013, 68.80606063641784]]}, "properties": {"source": "1074784", "target": "3549781"}}, {"type": "Feature", "geometry": {"type": "LineString", "coordinates": [[161.423930965907, 68.80177337948265], [161.4323310341773, 68.80147084230904]]}, "properties": {"source": "25177757", "target": "24361151"}}, {"type": "Feature", "geometry": {"type": "LineString", "coordinates": [[161.423930965907, 68.80177337948265], [161.43821327507368, 68.80335925705253]]}, "properties": {"source": "25177757", "target": "24360059"}}, {"type": "Feature", "geometry": {"type": "LineString", "coordinates": [[161.423930965907, 68.80177337948265], [161.439025280541, 68.80077752367481]]}, "properties": {"source": "25177757", "target": "25686066"}}, {"type": "Feature", "geometry": {"type": "LineString", "coordinates": [[161.423930965907, 68.80177337948265], [161.4299029843121, 68.80487166263828]]}, "properties": {"source": "25177757", "target": "24648217"}}, {"type": "Feature", "geometry": {"type": "LineString", "coordinates": [[161.42940568337036, 68.80525523568895], [161.43377539056013, 68.80606063641784]]}, "properties": {"source": "24179293", "target": "3549781"}}, {"type": "Feature", "geometry": {"type": "LineString", "coordinates": [[161.42459499376344, 68.80153817611273], [161.4381042370291, 68.8009422041701]]}, "properties": {"source": "25349450", "target": "25464558"}}, {"type": "Feature", "geometry": {"type": "LineString", "coordinates": [[161.42459499376344, 68.80153817611273], [161.42941685426825, 68.80110906509054]]}, "properties": {"source": "25349450", "target": "25677085"}}, {"type": "Feature", "geometry": {"type": "LineString", "coordinates": [[161.42459499376344, 68.80153817611273], [161.423930965907, 68.80177337948265]]}, "properties": {"source": "25349450", "target": "25177757"}}, {"type": "Feature", "geometry": {"type": "LineString", "coordinates": [[161.42459499376344, 68.80153817611273], [161.42940568337036, 68.80525523568895]]}, "properties": {"source": "25349450", "target": "24179293"}}, {"type": "Feature", "geometry": {"type": "LineString", "coordinates": [[161.42459499376344, 68.80153817611273], [161.42952354066148, 68.80218756958206]]}, "properties": {"source": "25349450", "target": "27236906"}}, {"type": "Feature", "geometry": {"type": "LineString", "coordinates": [[161.42459499376344, 68.80153817611273], [161.43403479825076, 68.80260314455273]]}, "properties": {"source": "25349450", "target": "25842085"}}, {"type": "Feature", "geometry": {"type": "LineString", "coordinates": [[161.42459499376344, 68.80153817611273], [161.4323310341773, 68.80147084230904]]}, "properties": {"source": "25349450", "target": "24361151"}}, {"type": "Feature", "geometry": {"type": "LineString", "coordinates": [[161.42459499376344, 68.80153817611273], [161.43821327507368, 68.80335925705253]]}, "properties": {"source": "25349450", "target": "24360059"}}, {"type": "Feature", "geometry": {"type": "LineString", "coordinates": [[161.43202450077547, 68.80323743983058], [161.42488601211323, 68.80167139736938]]}, "properties": {"source": "1511626", "target": "13616016"}}, {"type": "Feature", "geometry": {"type": "LineString", "coordinates": [[161.4330285785411, 68.80389757294012], [161.42249740139562, 68.80153709283877]]}, "properties": {"source": "18781466", "target": "20831142"}}, {"type": "Feature", "geometry": {"type": "LineString", "coordinates": [[161.4330285785411, 68.80389757294012], [161.43306260299357, 68.80410183813672]]}, "properties": {"source": "18781466", "target": "18762095"}}, {"type": "Feature", "geometry": {"type": "LineString", "coordinates": [[161.4330285785411, 68.80389757294012], [161.4275288217745, 68.80017753634078]]}, "properties": {"source": "18781466", "target": "20958091"}}, {"type": "Feature", "geometry": {"type": "LineString", "coordinates": [[161.43264943551276, 68.80127571287736], [161.43246972544586, 68.80304302576519]]}, "properties": {"source": "15038247", "target": "28804338"}}, {"type": "Feature", "geometry": {"type": "LineString", "coordinates": [[161.43264943551276, 68.80127571287736], [161.4279444294765, 68.80617847718051]]}, "properties": {"source": "15038247", "target": "27880961"}}, {"type": "Feature", "geometry": {"type": "LineString", "coordinates": [[161.42475873911184, 68.80007872709584], [161.4240705776645, 68.80063194828679]]}, "properties": {"source": "18720440", "target": "20708244"}}, {"type": "Feature", "geometry": {"type": "LineString", "coordinates": [[161.42915096486018, 68.80418017087311], [161.42516999666776, 68.8054821148466]]}, "properties": {"source": "13362653", "target": "1444510"}}, {"type": "Feature", "geometry": {"type": "LineString", "coordinates": [[161.42915096486018, 68.80418017087311], [161.43379747885695, 68.8023090248775]]}, "properties": {"source": "13362653", "target": "1444509"}}, {"type": "Feature", "geometry": {"type": "LineString", "coordinates": [[161.42915096486018, 68.80418017087311], [161.42856215887753, 68.80005624512549]]}, "properties": {"source": "13362653", "target": "1444508"}}, {"type": "Feature", "geometry": {"type": "LineString", "coordinates": [[161.42915096486018, 68.80418017087311], [161.43505836343422, 68.80500867696352]]}, "properties": {"source": "13362653", "target": "13362652"}}, {"type": "Feature", "geometry": {"type": "LineString", "coordinates": [[161.42722022145, 68.80255932742907], [161.423930965907, 68.80177337948265]]}, "properties": {"source": "15833842", "target": "25177757"}}, {"type": "Feature", "geometry": {"type": "LineString", "coordinates": [[161.42722022145, 68.80255932742907], [161.43498720048382, 68.80463682477941]]}, "properties": {"source": "15833842", "target": "31831197"}}, {"type": "Feature", "geometry": {"type": "LineString", "coordinates": [[161.42722022145, 68.80255932742907], [161.4403194939938, 68.80172356683221]]}, "properties": {"source": "15833842", "target": "36073563"}}, {"type": "Feature", "geometry": {"type": "LineString", "coordinates": [[161.43934052893343, 68.8000673436947], [161.43498720048382, 68.80463682477941]]}, "properties": {"source": "33931283", "target": "31831197"}}, {"type": "Feature", "geometry": {"type": "LineString", "coordinates": [[161.43934052893343, 68.8000673436947], [161.4253679296924, 68.80015766676095]]}, "properties": {"source": "33931283", "target": "32149118"}}, {"type": "Feature", "geometry": {"type": "LineString", "coordinates": [[161.42746208019355, 68.80413697389258], [161.43498720048382, 68.80463682477941]]}, "properties": {"source": "33003577", "target": "31831197"}}, {"type": "Feature", "geometry": {"type": "LineString", "coordinates": [[161.43973979887232, 68.8037461752399], [161.43444166828738, 68.80143938696452]]}, "properties": {"source": "10769689", "target": "28439402"}}, {"type": "Feature", "geometry": {"type": "LineString", "coordinates": [[161.43642730099265, 68.80138385251848], [161.4352694105301, 68.80135591058402]]}, "properties": {"source": "27798230", "target": "28684530"}}, {"type": "Feature", "geometry": {"type": "LineString", "coordinates": [[161.43642730099265, 68.80138385251848], [161.43246972544586, 68.80304302576519]]}, "properties": {"source": "27798230", "target": "28804338"}}, {"type": "Feature", "geometry": {"type": "LineString", "coordinates": [[161.42689704834282, 68.80350333856754], [161.4352694105301, 68.80135591058402]]}, "properties": {"source": "27858007", "target": "28684530"}}, {"type": "Feature", "geometry": {"type": "LineString", "coordinates": [[161.42689704834282, 68.80350333856754], [161.43246972544586, 68.80304302576519]]}, "properties": {"source": "27858007", "target": "28804338"}}, {"type": "Feature", "geometry": {"type": "LineString", "coordinates": [[161.42689704834282, 68.80350333856754], [161.4279444294765, 68.80617847718051]]}, "properties": {"source": "27858007", "target": "27880961"}}, {"type": "Feature", "geometry": {"type": "LineString", "coordinates": [[161.42689704834282, 68.80350333856754], [161.42795644603018, 68.80542245624818]]}, "properties": {"source": "27858007", "target": "29369429"}}, {"type": "Feature", "geometry": {"type": "LineString", "coordinates": [[161.42689704834282, 68.80350333856754], [161.43264943551276, 68.80127571287736]]}, "properties": {"source": "27858007", "target": "15038247"}}, {"type": "Feature", "geometry": {"type": "LineString", "coordinates": [[161.43673397709358, 68.80489587294932], [161.43529368141867, 68.80440623078377]]}, "properties": {"source": "17830325", "target": "18718218"}}, {"type": "Feature", "geometry": {"type": "LineString", "coordinates": [[161.43673397709358, 68.80489587294932], [161.42936658711142, 68.80149580048285]]}, "properties": {"source": "17830325", "target": "14568231"}}, {"type": "Feature", "geometry": {"type": "LineString", "coordinates": [[161.4279444294765, 68.80617847718051], [161.4352694105301, 68.80135591058402]]}, "properties": {"source": "27880961", "target": "28684530"}}, {"type": "Feature", "geometry": {"type": "LineString", "coordinates": [[161.4279444294765, 68.80617847718051], [161.43246972544586, 68.80304302576519]]}, "properties": {"source": "27880961", "target": "28804338"}}, {"type": "Feature", "geometry": {"type": "LineString", "coordinates": [[161.4279444294765, 68.80617847718051], [161.42795644603018, 68.80542245624818]]}, "properties": {"source": "27880961", "target": "29369429"}}, {"type": "Feature", "geometry": {"type": "LineString", "coordinates": [[161.43529368141867, 68.80440623078377], [161.42936658711142, 68.80149580048285]]}, "properties": {"source": "18718218", "target": "14568231"}}, {"type": "Feature", "geometry": {"type": "LineString", "coordinates": [[161.4253679296924, 68.80015766676095], [161.43498720048382, 68.80463682477941]]}, "properties": {"source": "32149118", "target": "31831197"}}, {"type": "Feature", "geometry": {"type": "LineString", "coordinates": [[161.43730774257398, 68.80195006550642], [161.4330285785411, 68.80389757294012]]}, "properties": {"source": "21532015", "target": "18781466"}}, {"type": "Feature", "geometry": {"type": "LineString", "coordinates": [[161.42459499376344, 68.80153817611273], [161.439025280541, 68.80077752367481]]}, "properties": {"source": "25349450", "target": "25686066"}}, {"type": "Feature", "geometry": {"type": "LineString", "coordinates": [[161.42459499376344, 68.80153817611273], [161.43589354880794, 68.80075153440049]]}, "properties": {"source": "25349450", "target": "25990405"}}, {"type": "Feature", "geometry": {"type": "LineString", "coordinates": [[161.42459499376344, 68.80153817611273], [161.43721086135713, 68.80481869659104]]}, "properties": {"source": "25349450", "target": "25140255"}}, {"type": "Feature", "geometry": {"type": "LineString", "coordinates": [[161.42937783156037, 68.8022717106], [161.43821327507368, 68.80335925705253]]}, "properties": {"source": "25343542", "target": "24360059"}}, {"type": "Feature", "geometry": {"type": "LineString", "coordinates": [[161.42937783156037, 68.8022717106], [161.43721086135713, 68.80481869659104]]}, "properties": {"source": "25343542", "target": "25140255"}}, {"type": "Feature", "geometry": {"type": "LineString", "coordinates": [[161.42937783156037, 68.8022717106], [161.43886594685898, 68.8049093921459]]}, "properties": {"source": "25343542", "target": "24562161"}}, {"type": "Feature", "geometry": {"type": "LineString", "coordinates": [[161.43941625029044, 68.80009601535525], [161.43884906720535, 68.80422863134658]]}, "properties": {"source": "29388902", "target": "31676757"}}, {"type": "Feature", "geometry": {"type": "LineString", "coordinates": [[161.43941625029044, 68.80009601535525], [161.43498720048382, 68.80463682477941]]}, "properties": {"source": "29388902", "target": "31831197"}}, {"type": "Feature", "geometry": {"type": "LineString", "coordinates": [[161.43941625029044, 68.80009601535525], [161.42952354066148, 68.80218756958206]]}, "properties": {"source": "29388902", "target": "27236906"}}, {"type": "Feature", "geometry": {"type": "LineString", "coordinates": [[161.43941625029044, 68.80009601535525], [161.43727766173168, 68.80145754116563]]}, "properties": {"source": "29388902", "target": "31818150"}}, {"type": "Feature", "geometry": {"type": "LineString", "coordinates": [[161.43941625029044, 68.80009601535525], [161.4362828934607, 68.80319853919525]]}, "properties": {"source": "29388902", "target": "28936719"}}, {"type": "Feature", "geometry": {"type": "LineString", "coordinates": [[161.43941625029044, 68.80009601535525], [161.42952250728888, 68.80178913422208]]}, "properties": {"source": "29388902", "target": "27856251"}}, {"type": "Feature", "geometry": {"type": "LineString", "coordinates": [[161.43941625029044, 68.80009601535525], [161.4253679296924, 68.80015766676095]]}, "properties": {"source": "29388902", "target": "32149118"}}, {"type": "Feature", "geometry": {"type": "LineString", "coordinates": [[161.43941625029044, 68.80009601535525], [161.43763143840778, 68.80177392956392]]}, "properties": {"source": "29388902", "target": "31344001"}}, {"type": "Feature", "geometry": {"type": "LineString", "coordinates": [[161.4377286877281, 68.80435783536504], [161.42249740139562, 68.80153709283877]]}, "properties": {"source": "13495947", "target": "20831142"}}, {"type": "Feature", "geometry": {"type": "LineString", "coordinates": [[161.43941625029044, 68.80009601535525], [161.42746208019355, 68.80413697389258]]}, "properties": {"source": "29388902", "target": "33003577"}}, {"type": "Feature", "geometry": {"type": "LineString", "coordinates": [[161.42516999666776, 68.8054821148466], [161.4358646305568, 68.79996021092711]]}, "properties": {"source": "1444510", "target": "6090443"}}, {"type": "Feature", "geometry": {"type": "LineString", "coordinates": [[161.42516999666776, 68.8054821148466], [161.4379564867503, 68.80192086618482]]}, "properties": {"source": "1444510", "target": "617510"}}, {"type": "Feature", "geometry": {"type": "LineString", "coordinates": [[161.43379747885695, 68.8023090248775], [161.42940568337036, 68.80525523568895]]}, "properties": {"source": "1444509", "target": "24179293"}}, {"type": "Feature", "geometry": {"type": "LineString", "coordinates": [[161.4403194939938, 68.80172356683221], [161.43377539056013, 68.80606063641784]]}, "properties": {"source": "36073563", "target": "3549781"}}, {"type": "Feature", "geometry": {"type": "LineString", "coordinates": [[161.4403194939938, 68.80172356683221], [161.43884906720535, 68.80422863134658]]}, "properties": {"source": "36073563", "target": "31676757"}}, {"type": "Feature", "geometry": {"type": "LineString", "coordinates": [[161.4403194939938, 68.80172356683221], [161.43498720048382, 68.80463682477941]]}, "properties": {"source": "36073563", "target": "31831197"}}, {"type": "Feature", "geometry": {"type": "LineString", "coordinates": [[161.4403194939938, 68.80172356683221], [161.43727766173168, 68.80145754116563]]}, "properties": {"source": "36073563", "target": "31818150"}}, {"type": "Feature", "geometry": {"type": "LineString", "coordinates": [[161.4403194939938, 68.80172356683221], [161.4253679296924, 68.80015766676095]]}, "properties": {"source": "36073563", "target": "32149118"}}, {"type": "Feature", "geometry": {"type": "LineString", "coordinates": [[161.4403194939938, 68.80172356683221], [161.43934052893343, 68.8000673436947]]}, "properties": {"source": "36073563", "target": "33931283"}}, {"type": "Feature", "geometry": {"type": "LineString", "coordinates": [[161.4379564867503, 68.80192086618482], [161.43318527351454, 68.80503212985738]]}, "properties": {"source": "617510", "target": "8096530"}}, {"type": "Feature", "geometry": {"type": "LineString", "coordinates": [[161.4379564867503, 68.80192086618482], [161.4358646305568, 68.79996021092711]]}, "properties": {"source": "617510", "target": "6090443"}}, {"type": "Feature", "geometry": {"type": "LineString", "coordinates": [[161.42830734154376, 68.80265806501251], [161.43377539056013, 68.80606063641784]]}, "properties": {"source": "25850504", "target": "3549781"}}, {"type": "Feature", "geometry": {"type": "LineString", "coordinates": [[161.42830734154376, 68.80265806501251], [161.43884906720535, 68.80422863134658]]}, "properties": {"source": "25850504", "target": "31676757"}}, {"type": "Feature", "geometry": {"type": "LineString", "coordinates": [[161.4218612361268, 68.80325519090098], [161.42516999666776, 68.8054821148466]]}, "properties": {"source": "3359887", "target": "1444510"}}, {"type": "Feature", "geometry": {"type": "LineString", "coordinates": [[161.4218612361268, 68.80325519090098], [161.42856215887753, 68.80005624512549]]}, "properties": {"source": "3359887", "target": "1444508"}}, {"type": "Feature", "geometry": {"type": "LineString", "coordinates": [[161.4218612361268, 68.80325519090098], [161.43318527351454, 68.80503212985738]]}, "properties": {"source": "3359887", "target": "8096530"}}, {"type": "Feature", "geometry": {"type": "LineString", "coordinates": [[161.42207415014133, 68.80041703989866], [161.42830734154376, 68.80265806501251]]}, "properties": {"source": "181723", "target": "25850504"}}, {"type": "Feature", "geometry": {"type": "LineString", "coordinates": [[161.42207415014133, 68.80041703989866], [161.42181925702454, 68.8056822897795]]}, "properties": {"source": "181723", "target": "13625656"}}, {"type": "Feature", "geometry": {"type": "LineString", "coordinates": [[161.43264943551276, 68.80127571287736], [161.4352694105301, 68.80135591058402]]}, "properties": {"source": "15038247", "target": "28684530"}}, {"type": "Feature", "geometry": {"type": "LineString", "coordinates": [[161.43957232931808, 68.80331773553849], [161.42583946434303, 68.80262726738215]]}, "properties": {"source": "28017649", "target": "12030849"}}, {"type": "Feature", "geometry": {"type": "LineString", "coordinates": [[161.43957232931808, 68.80331773553849], [161.43444166828738, 68.80143938696452]]}, "properties": {"source": "28017649", "target": "28439402"}}, {"type": "Feature", "geometry": {"type": "LineString", "coordinates": [[161.43957232931808, 68.80331773553849], [161.43173434187435, 68.80391819470759]]}, "properties": {"source": "28017649", "target": "28267873"}}, {"type": "Feature", "geometry": {"type": "LineString", "coordinates": [[161.43403479825076, 68.80260314455273], [161.4381042370291, 68.8009422041701]]}, "properties": {"source": "25842085", "target": "25464558"}}, {"type": "Feature", "geometry": {"type": "LineString", "coordinates": [[161.43403479825076, 68.80260314455273], [161.439025280541, 68.80077752367481]]}, "properties": {"source": "25842085", "target": "25686066"}}, {"type": "Feature", "geometry": {"type": "LineString", "coordinates": [[161.43202450077547, 68.80323743983058], [161.43377539056013, 68.80606063641784]]}, "properties": {"source": "1511626", "target": "3549781"}}, {"type": "Feature", "geometry": {"type": "LineString", "coordinates": [[161.43202450077547, 68.80323743983058], [161.4225935114581, 68.80512921424011]]}, "properties": {"source": "1511626", "target": "7790680"}}, {"type": "Feature", "geometry": {"type": "LineString", "coordinates": [[161.43202450077547, 68.80323743983058], [161.42516999666776, 68.8054821148466]]}, "properties": {"source": "1511626", "target": "1444510"}}, {"type": "Feature", "geometry": {"type": "LineString", "coordinates": [[161.43202450077547, 68.80323743983058], [161.43379747885695, 68.8023090248775]]}, "properties": {"source": "1511626", "target": "1444509"}}, {"type": "Feature", "geometry": {"type": "LineString", "coordinates": [[161.43202450077547, 68.80323743983058], [161.42856215887753, 68.80005624512549]]}, "properties": {"source": "1511626", "target": "1444508"}}, {"type": "Feature", "geometry": {"type": "LineString", "coordinates": [[161.43202450077547, 68.80323743983058], [161.43671958830788, 68.80356731621342]]}, "properties": {"source": "1511626", "target": "17158752"}}, {"type": "Feature", "geometry": {"type": "LineString", "coordinates": [[161.43202450077547, 68.80323743983058], [161.4336653882758, 68.80305492424193]]}, "properties": {"source": "1511626", "target": "1074784"}}, {"type": "Feature", "geometry": {"type": "LineString", "coordinates": [[161.43202450077547, 68.80323743983058], [161.4379564867503, 68.80192086618482]]}, "properties": {"source": "1511626", "target": "617510"}}, {"type": "Feature", "geometry": {"type": "LineString", "coordinates": [[161.42937783156037, 68.8022717106], [161.42952354066148, 68.80218756958206]]}, "properties": {"source": "25343542", "target": "27236906"}}, {"type": "Feature", "geometry": {"type": "LineString", "coordinates": [[161.42937783156037, 68.8022717106], [161.43403479825076, 68.80260314455273]]}, "properties": {"source": "25343542", "target": "25842085"}}, {"type": "Feature", "geometry": {"type": "LineString", "coordinates": [[161.42937783156037, 68.8022717106], [161.4323310341773, 68.80147084230904]]}, "properties": {"source": "25343542", "target": "24361151"}}, {"type": "Feature", "geometry": {"type": "LineString", "coordinates": [[161.43642730099265, 68.80138385251848], [161.42689704834282, 68.80350333856754]]}, "properties": {"source": "27798230", "target": "27858007"}}, {"type": "Feature", "geometry": {"type": "LineString", "coordinates": [[161.43642730099265, 68.80138385251848], [161.4279444294765, 68.80617847718051]]}, "properties": {"source": "27798230", "target": "27880961"}}, {"type": "Feature", "geometry": {"type": "LineString", "coordinates": [[161.43642730099265, 68.80138385251848], [161.42795644603018, 68.80542245624818]]}, "properties": {"source": "27798230", "target": "29369429"}}, {"type": "Feature", "geometry": {"type": "LineString", "coordinates": [[161.43642730099265, 68.80138385251848], [161.43264943551276, 68.80127571287736]]}, "properties": {"source": "27798230", "target": "15038247"}}, {"type": "Feature", "geometry": {"type": "LineString", "coordinates": [[161.43642730099265, 68.80138385251848], [161.4333495984676, 68.80558766925796]]}, "properties": {"source": "27798230", "target": "27812298"}}, {"type": "Feature", "geometry": {"type": "LineString", "coordinates": [[161.43821327507368, 68.80335925705253], [161.4381042370291, 68.8009422041701]]}, "properties": {"source": "24360059", "target": "25464558"}}, {"type": "Feature", "geometry": {"type": "LineString", "coordinates": [[161.43821327507368, 68.80335925705253], [161.4323310341773, 68.80147084230904]]}, "properties": {"source": "24360059", "target": "24361151"}}, {"type": "Feature", "geometry": {"type": "LineString", "coordinates": [[161.43821327507368, 68.80335925705253], [161.439025280541, 68.80077752367481]]}, "properties": {"source": "24360059", "target": "25686066"}}, {"type": "Feature", "geometry": {"type": "LineString", "coordinates": [[161.43639905785273, 68.80317778111197], [161.42940568337036, 68.80525523568895]]}, "properties": {"source": "23582051", "target": "24179293"}}, {"type": "Feature", "geometry": {"type": "LineString", "coordinates": [[161.43639905785273, 68.80317778111197], [161.43884906720535, 68.80422863134658]]}, "properties": {"source": "23582051", "target": "31676757"}}, {"type": "Feature", "geometry": {"type": "LineString", "coordinates": [[161.43639905785273, 68.80317778111197], [161.42830734154376, 68.80265806501251]]}, "properties": {"source": "23582051", "target": "25850504"}}, {"type": "Feature", "geometry": {"type": "LineString", "coordinates": [[161.43639905785273, 68.80317778111197], [161.42207415014133, 68.80041703989866]]}, "properties": {"source": "23582051", "target": "181723"}}, {"type": "Feature", "geometry": {"type": "LineString", "coordinates": [[161.43639905785273, 68.80317778111197], [161.42926802034805, 68.80203239482935]]}, "properties": {"source": "23582051", "target": "25128178"}}, {"type": "Feature", "geometry": {"type": "LineString", "coordinates": [[161.43306260299357, 68.80410183813672], [161.43444166828738, 68.80143938696452]]}, "properties": {"source": "18762095", "target": "28439402"}}, {"type": "Feature", "geometry": {"type": "LineString", "coordinates": [[161.43306260299357, 68.80410183813672], [161.4240705776645, 68.80063194828679]]}, "properties": {"source": "18762095", "target": "20708244"}}, {"type": "Feature", "geometry": {"type": "LineString", "coordinates": [[161.43306260299357, 68.80410183813672], [161.43149142693272, 68.80345675980087]]}, "properties": {"source": "18762095", "target": "18131689"}}, {"type": "Feature", "geometry": {"type": "LineString", "coordinates": [[161.43306260299357, 68.80410183813672], [161.42936658711142, 68.80149580048285]]}, "properties": {"source": "18762095", "target": "14568231"}}, {"type": "Feature", "geometry": {"type": "LineString", "coordinates": [[161.43306260299357, 68.80410183813672], [161.43306671366315, 68.80149522967594]]}, "properties": {"source": "18762095", "target": "25733831"}}, {"type": "Feature", "geometry": {"type": "LineString", "coordinates": [[161.4275288217745, 68.80017753634078], [161.42249740139562, 68.80153709283877]]}, "properties": {"source": "20958091", "target": "20831142"}}, {"type": "Feature", "geometry": {"type": "LineString", "coordinates": [[161.4275288217745, 68.80017753634078], [161.43613319093106, 68.80462954728168]]}, "properties": {"source": "20958091", "target": "20653878"}}, {"type": "Feature", "geometry": {"type": "LineString", "coordinates": [[161.4275288217745, 68.80017753634078], [161.43957232931808, 68.80331773553849]]}, "properties": {"source": "20958091", "target": "28017649"}}, {"type": "Feature", "geometry": {"type": "LineString", "coordinates": [[161.4275288217745, 68.80017753634078], [161.427875880901, 68.80362154189078]]}, "properties": {"source": "20958091", "target": "12830824"}}, {"type": "Feature", "geometry": {"type": "LineString", "coordinates": [[161.4275288217745, 68.80017753634078], [161.4240705776645, 68.80063194828679]]}, "properties": {"source": "20958091", "target": "20708244"}}, {"type": "Feature", "geometry": {"type": "LineString", "coordinates": [[161.4275288217745, 68.80017753634078], [161.43149142693272, 68.80345675980087]]}, "properties": {"source": "20958091", "target": "18131689"}}, {"type": "Feature", "geometry": {"type": "LineString", "coordinates": [[161.4275288217745, 68.80017753634078], [161.42936658711142, 68.80149580048285]]}, "properties": {"source": "20958091", "target": "14568231"}}, {"type": "Feature", "geometry": {"type": "LineString", "coordinates": [[161.42952354066148, 68.80218756958206], [161.4381042370291, 68.8009422041701]]}, "properties": {"source": "27236906", "target": "25464558"}}, {"type": "Feature", "geometry": {"type": "LineString", "coordinates": [[161.42952354066148, 68.80218756958206], [161.43403479825076, 68.80260314455273]]}, "properties": {"source": "27236906", "target": "25842085"}}, {"type": "Feature", "geometry": {"type": "LineString", "coordinates": [[161.42952354066148, 68.80218756958206], [161.4362828934607, 68.80319853919525]]}, "properties": {"source": "27236906", "target": "28936719"}}, {"type": "Feature", "geometry": {"type": "LineString", "coordinates": [[161.42952354066148, 68.80218756958206], [161.42952250728888, 68.80178913422208]]}, "properties": {"source": "27236906", "target": "27856251"}}, {"type": "Feature", "geometry": {"type": "LineString", "coordinates": [[161.43957232931808, 68.80331773553849], [161.42249740139562, 68.80153709283877]]}, "properties": {"source": "28017649", "target": "20831142"}}, {"type": "Feature", "geometry": {"type": "LineString", "coordinates": [[161.43957232931808, 68.80331773553849], [161.427875880901, 68.80362154189078]]}, "properties": {"source": "28017649", "target": "12830824"}}, {"type": "Feature", "geometry": {"type": "LineString", "coordinates": [[161.43957232931808, 68.80331773553849], [161.4223931021765, 68.80392101304025]]}, "properties": {"source": "28017649", "target": "17851860"}}, {"type": "Feature", "geometry": {"type": "LineString", "coordinates": [[161.42459499376344, 68.80153817611273], [161.43886594685898, 68.8049093921459]]}, "properties": {"source": "25349450", "target": "24562161"}}, {"type": "Feature", "geometry": {"type": "LineString", "coordinates": [[161.42459499376344, 68.80153817611273], [161.4299029843121, 68.80487166263828]]}, "properties": {"source": "25349450", "target": "24648217"}}, {"type": "Feature", "geometry": {"type": "LineString", "coordinates": [[161.4222968956916, 68.80035214983374], [161.42941685426825, 68.80110906509054]]}, "properties": {"source": "27855373", "target": "25677085"}}, {"type": "Feature", "geometry": {"type": "LineString", "coordinates": [[161.4222968956916, 68.80035214983374], [161.43498720048382, 68.80463682477941]]}, "properties": {"source": "27855373", "target": "31831197"}}, {"type": "Feature", "geometry": {"type": "LineString", "coordinates": [[161.4222968956916, 68.80035214983374], [161.42952354066148, 68.80218756958206]]}, "properties": {"source": "27855373", "target": "27236906"}}, {"type": "Feature", "geometry": {"type": "LineString", "coordinates": [[161.4222968956916, 68.80035214983374], [161.43727766173168, 68.80145754116563]]}, "properties": {"source": "27855373", "target": "31818150"}}, {"type": "Feature", "geometry": {"type": "LineString", "coordinates": [[161.4222968956916, 68.80035214983374], [161.43941625029044, 68.80009601535525]]}, "properties": {"source": "27855373", "target": "29388902"}}, {"type": "Feature", "geometry": {"type": "LineString", "coordinates": [[161.4222968956916, 68.80035214983374], [161.43403479825076, 68.80260314455273]]}, "properties": {"source": "27855373", "target": "25842085"}}, {"type": "Feature", "geometry": {"type": "LineString", "coordinates": [[161.4222968956916, 68.80035214983374], [161.4362828934607, 68.80319853919525]]}, "properties": {"source": "27855373", "target": "28936719"}}, {"type": "Feature", "geometry": {"type": "LineString", "coordinates": [[161.4222968956916, 68.80035214983374], [161.4352694105301, 68.80135591058402]]}, "properties": {"source": "27855373", "target": "28684530"}}, {"type": "Feature", "geometry": {"type": "LineString", "coordinates": [[161.4222968956916, 68.80035214983374], [161.43246972544586, 68.80304302576519]]}, "properties": {"source": "27855373", "target": "28804338"}}, {"type": "Feature", "geometry": {"type": "LineString", "coordinates": [[161.4222968956916, 68.80035214983374], [161.43642730099265, 68.80138385251848]]}, "properties": {"source": "27855373", "target": "27798230"}}, {"type": "Feature", "geometry": {"type": "LineString", "coordinates": [[161.4222968956916, 68.80035214983374], [161.42689704834282, 68.80350333856754]]}, "properties": {"source": "27855373", "target": "27858007"}}, {"type": "Feature", "geometry": {"type": "LineString", "coordinates": [[161.4234293162906, 68.80089915748127], [161.4358646305568, 68.79996021092711]]}, "properties": {"source": "790448", "target": "6090443"}}, {"type": "Feature", "geometry": {"type": "LineString", "coordinates": [[161.43257216101023, 68.79977874218082], [161.42449916963312, 68.80027638178768]]}, "properties": {"source": "21926419", "target": "23118603"}}, {"type": "Feature", "geometry": {"type": "LineString", "coordinates": [[161.42945063288425, 68.79993932492027], [161.4253679296924, 68.80015766676095]]}, "properties": {"source": "32469225", "target": "32149118"}}, {"type": "Feature", "geometry": {"type": "LineString", "coordinates": [[161.4377286877281, 68.80435783536504], [161.43195973526406, 68.80172250179928]]}, "properties": {"source": "13495947", "target": "16109045"}}, {"type": "Feature", "geometry": {"type": "LineString", "coordinates": [[161.4377286877281, 68.80435783536504], [161.42583946434303, 68.80262726738215]]}, "properties": {"source": "13495947", "target": "12030849"}}, {"type": "Feature", "geometry": {"type": "LineString", "coordinates": [[161.4377286877281, 68.80435783536504], [161.4240705776645, 68.80063194828679]]}, "properties": {"source": "13495947", "target": "20708244"}}, {"type": "Feature", "geometry": {"type": "LineString", "coordinates": [[161.4377286877281, 68.80435783536504], [161.43149142693272, 68.80345675980087]]}, "properties": {"source": "13495947", "target": "18131689"}}, {"type": "Feature", "geometry": {"type": "LineString", "coordinates": [[161.4377286877281, 68.80435783536504], [161.42475873911184, 68.80007872709584]]}, "properties": {"source": "13495947", "target": "18720440"}}, {"type": "Feature", "geometry": {"type": "LineString", "coordinates": [[161.43671958830788, 68.80356731621342], [161.42940568337036, 68.80525523568895]]}, "properties": {"source": "17158752", "target": "24179293"}}, {"type": "Feature", "geometry": {"type": "LineString", "coordinates": [[161.43671958830788, 68.80356731621342], [161.43377539056013, 68.80606063641784]]}, "properties": {"source": "17158752", "target": "3549781"}}, {"type": "Feature", "geometry": {"type": "LineString", "coordinates": [[161.43671958830788, 68.80356731621342], [161.4225935114581, 68.80512921424011]]}, "properties": {"source": "17158752", "target": "7790680"}}, {"type": "Feature", "geometry": {"type": "LineString", "coordinates": [[161.43671958830788, 68.80356731621342], [161.43884906720535, 68.80422863134658]]}, "properties": {"source": "17158752", "target": "31676757"}}, {"type": "Feature", "geometry": {"type": "LineString", "coordinates": [[161.43671958830788, 68.80356731621342], [161.43639905785273, 68.80317778111197]]}, "properties": {"source": "17158752", "target": "23582051"}}, {"type": "Feature", "geometry": {"type": "LineString", "coordinates": [[161.43671958830788, 68.80356731621342], [161.42830734154376, 68.80265806501251]]}, "properties": {"source": "17158752", "target": "25850504"}}, {"type": "Feature", "geometry": {"type": "LineString", "coordinates": [[161.43671958830788, 68.80356731621342], [161.4328980003682, 68.8008916066128]]}, "properties": {"source": "17158752", "target": "13374079"}}, {"type": "Feature", "geometry": {"type": "LineString", "coordinates": [[161.43957232931808, 68.80331773553849], [161.4381042370291, 68.8009422041701]]}, "properties": {"source": "28017649", "target": "25464558"}}, {"type": "Feature", "geometry": {"type": "LineString", "coordinates": [[161.42952354066148, 68.80218756958206], [161.439025280541, 68.80077752367481]]}, "properties": {"source": "27236906", "target": "25686066"}}, {"type": "Feature", "geometry": {"type": "LineString", "coordinates": [[161.43613319093106, 68.80462954728168], [161.4381042370291, 68.8009422041701]]}, "properties": {"source": "20653878", "target": "25464558"}}, {"type": "Feature", "geometry": {"type": "LineString", "coordinates": [[161.43613319093106, 68.80462954728168], [161.43529368141867, 68.80440623078377]]}, "properties": {"source": "20653878", "target": "18718218"}}, {"type": "Feature", "geometry": {"type": "LineString", "coordinates": [[161.4330285785411, 68.80389757294012], [161.43613319093106, 68.80462954728168]]}, "properties": {"source": "18781466", "target": "20653878"}}, {"type": "Feature", "geometry": {"type": "LineString", "coordinates": [[161.4330285785411, 68.80389757294012], [161.43957232931808, 68.80331773553849]]}, "properties": {"source": "18781466", "target": "28017649"}}, {"type": "Feature", "geometry": {"type": "LineString", "coordinates": [[161.4330285785411, 68.80389757294012], [161.427875880901, 68.80362154189078]]}, "properties": {"source": "18781466", "target": "12830824"}}, {"type": "Feature", "geometry": {"type": "LineString", "coordinates": [[161.4330285785411, 68.80389757294012], [161.4223931021765, 68.80392101304025]]}, "properties": {"source": "18781466", "target": "17851860"}}, {"type": "Feature", "geometry": {"type": "LineString", "coordinates": [[161.4330285785411, 68.80389757294012], [161.43673397709358, 68.80489587294932]]}, "properties": {"source": "18781466", "target": "17830325"}}, {"type": "Feature", "geometry": {"type": "LineString", "coordinates": [[161.4330285785411, 68.80389757294012], [161.4240705776645, 68.80063194828679]]}, "properties": {"source": "18781466", "target": "20708244"}}, {"type": "Feature", "geometry": {"type": "LineString", "coordinates": [[161.4330285785411, 68.80389757294012], [161.43149142693272, 68.80345675980087]]}, "properties": {"source": "18781466", "target": "18131689"}}, {"type": "Feature", "geometry": {"type": "LineString", "coordinates": [[161.4330285785411, 68.80389757294012], [161.42475873911184, 68.80007872709584]]}, "properties": {"source": "18781466", "target": "18720440"}}, {"type": "Feature", "geometry": {"type": "LineString", "coordinates": [[161.42516999666776, 68.8054821148466], [161.42940568337036, 68.80525523568895]]}, "properties": {"source": "1444510", "target": "24179293"}}, {"type": "Feature", "geometry": {"type": "LineString", "coordinates": [[161.42516999666776, 68.8054821148466], [161.43377539056013, 68.80606063641784]]}, "properties": {"source": "1444510", "target": "3549781"}}, {"type": "Feature", "geometry": {"type": "LineString", "coordinates": [[161.42516999666776, 68.8054821148466], [161.4225935114581, 68.80512921424011]]}, "properties": {"source": "1444510", "target": "7790680"}}, {"type": "Feature", "geometry": {"type": "LineString", "coordinates": [[161.42516999666776, 68.8054821148466], [161.42856215887753, 68.80005624512549]]}, "properties": {"source": "1444510", "target": "1444508"}}, {"type": "Feature", "geometry": {"type": "LineString", "coordinates": [[161.42516999666776, 68.8054821148466], [161.43318527351454, 68.80503212985738]]}, "properties": {"source": "1444510", "target": "8096530"}}, {"type": "Feature", "geometry": {"type": "LineString", "coordinates": [[161.4222968956916, 68.80035214983374], [161.4279444294765, 68.80617847718051]]}, "properties": {"source": "27855373", "target": "27880961"}}, {"type": "Feature", "geometry": {"type": "LineString", "coordinates": [[161.4222968956916, 68.80035214983374], [161.439025280541, 68.80077752367481]]}, "properties": {"source": "27855373", "target": "25686066"}}, {"type": "Feature", "geometry": {"type": "LineString", "coordinates": [[161.4222968956916, 68.80035214983374], [161.43589354880794, 68.80075153440049]]}, "properties": {"source": "27855373", "target": "25990405"}}, {"type": "Feature", "geometry": {"type": "LineString", "coordinates": [[161.43505836343422, 68.80500867696352], [161.4225935114581, 68.80512921424011]]}, "properties": {"source": "13362652", "target": "7790680"}}, {"type": "Feature", "geometry": {"type": "LineString", "coordinates": [[161.43505836343422, 68.80500867696352], [161.42516999666776, 68.8054821148466]]}, "properties": {"source": "13362652", "target": "1444510"}}, {"type": "Feature", "geometry": {"type": "LineString", "coordinates": [[161.43505836343422, 68.80500867696352], [161.43379747885695, 68.8023090248775]]}, "properties": {"source": "13362652", "target": "1444509"}}, {"type": "Feature", "geometry": {"type": "LineString", "coordinates": [[161.43505836343422, 68.80500867696352], [161.42856215887753, 68.80005624512549]]}, "properties": {"source": "13362652", "target": "1444508"}}, {"type": "Feature", "geometry": {"type": "LineString", "coordinates": [[161.43505836343422, 68.80500867696352], [161.43318527351454, 68.80503212985738]]}, "properties": {"source": "13362652", "target": "8096530"}}, {"type": "Feature", "geometry": {"type": "LineString", "coordinates": [[161.43505836343422, 68.80500867696352], [161.4358646305568, 68.79996021092711]]}, "properties": {"source": "13362652", "target": "6090443"}}, {"type": "Feature", "geometry": {"type": "LineString", "coordinates": [[161.43505836343422, 68.80500867696352], [161.4336653882758, 68.80305492424193]]}, "properties": {"source": "13362652", "target": "1074784"}}, {"type": "Feature", "geometry": {"type": "LineString", "coordinates": [[161.43505836343422, 68.80500867696352], [161.4379564867503, 68.80192086618482]]}, "properties": {"source": "13362652", "target": "617510"}}, {"type": "Feature", "geometry": {"type": "LineString", "coordinates": [[161.43505836343422, 68.80500867696352], [161.4218612361268, 68.80325519090098]]}, "properties": {"source": "13362652", "target": "3359887"}}, {"type": "Feature", "geometry": {"type": "LineString", "coordinates": [[161.43306260299357, 68.80410183813672], [161.4381042370291, 68.8009422041701]]}, "properties": {"source": "18762095", "target": "25464558"}}, {"type": "Feature", "geometry": {"type": "LineString", "coordinates": [[161.43306260299357, 68.80410183813672], [161.42249740139562, 68.80153709283877]]}, "properties": {"source": "18762095", "target": "20831142"}}, {"type": "Feature", "geometry": {"type": "LineString", "coordinates": [[161.43306260299357, 68.80410183813672], [161.4275288217745, 68.80017753634078]]}, "properties": {"source": "18762095", "target": "20958091"}}, {"type": "Feature", "geometry": {"type": "LineString", "coordinates": [[161.43306260299357, 68.80410183813672], [161.43613319093106, 68.80462954728168]]}, "properties": {"source": "18762095", "target": "20653878"}}, {"type": "Feature", "geometry": {"type": "LineString", "coordinates": [[161.4218612361268, 68.80325519090098], [161.4358646305568, 68.79996021092711]]}, "properties": {"source": "3359887", "target": "6090443"}}, {"type": "Feature", "geometry": {"type": "LineString", "coordinates": [[161.43149142693272, 68.80345675980087], [161.42249740139562, 68.80153709283877]]}, "properties": {"source": "18131689", "target": "20831142"}}, {"type": "Feature", "geometry": {"type": "LineString", "coordinates": [[161.43149142693272, 68.80345675980087], [161.43613319093106, 68.80462954728168]]}, "properties": {"source": "18131689", "target": "20653878"}}, {"type": "Feature", "geometry": {"type": "LineString", "coordinates": [[161.43763143840778, 68.80177392956392], [161.43884906720535, 68.80422863134658]]}, "properties": {"source": "31344001", "target": "31676757"}}, {"type": "Feature", "geometry": {"type": "LineString", "coordinates": [[161.43763143840778, 68.80177392956392], [161.43498720048382, 68.80463682477941]]}, "properties": {"source": "31344001", "target": "31831197"}}, {"type": "Feature", "geometry": {"type": "LineString", "coordinates": [[161.43763143840778, 68.80177392956392], [161.43727766173168, 68.80145754116563]]}, "properties": {"source": "31344001", "target": "31818150"}}, {"type": "Feature", "geometry": {"type": "LineString", "coordinates": [[161.43763143840778, 68.80177392956392], [161.42952250728888, 68.80178913422208]]}, "properties": {"source": "31344001", "target": "27856251"}}, {"type": "Feature", "geometry": {"type": "LineString", "coordinates": [[161.42795644603018, 68.80542245624818], [161.43246972544586, 68.80304302576519]]}, "properties": {"source": "29369429", "target": "28804338"}}, {"type": "Feature", "geometry": {"type": "LineString", "coordinates": [[161.43448078313003, 68.80421654397551], [161.4352694105301, 68.80135591058402]]}, "properties": {"source": "32074843", "target": "28684530"}}, {"type": "Feature", "geometry": {"type": "LineString", "coordinates": [[161.43448078313003, 68.80421654397551], [161.43246972544586, 68.80304302576519]]}, "properties": {"source": "32074843", "target": "28804338"}}, {"type": "Feature", "geometry": {"type": "LineString", "coordinates": [[161.43448078313003, 68.80421654397551], [161.42689704834282, 68.80350333856754]]}, "properties": {"source": "32074843", "target": "27858007"}}, {"type": "Feature", "geometry": {"type": "LineString", "coordinates": [[161.43448078313003, 68.80421654397551], [161.4279444294765, 68.80617847718051]]}, "properties": {"source": "32074843", "target": "27880961"}}, {"type": "Feature", "geometry": {"type": "LineString", "coordinates": [[161.43448078313003, 68.80421654397551], [161.43632168722195, 68.8051318154566]]}, "properties": {"source": "32074843", "target": "2830419"}}, {"type": "Feature", "geometry": {"type": "LineString", "coordinates": [[161.43886594685898, 68.8049093921459], [161.4381042370291, 68.8009422041701]]}, "properties": {"source": "24562161", "target": "25464558"}}, {"type": "Feature", "geometry": {"type": "LineString", "coordinates": [[161.43886594685898, 68.8049093921459], [161.423930965907, 68.80177337948265]]}, "properties": {"source": "24562161", "target": "25177757"}}, {"type": "Feature", "geometry": {"type": "LineString", "coordinates": [[161.43886594685898, 68.8049093921459], [161.4323310341773, 68.80147084230904]]}, "properties": {"source": "24562161", "target": "24361151"}}]}