{"type": "FeatureCollection", "features": [{"type": "Feature", "geometry": {"type": "LineString", "coordinates": [[-129.72596435430233, 68.22503253909349], [-129.73180296044572, 68.22534086673039]]}, "properties": {"source": "6062738", "target": "5997536"}}, {"type": "Feature", "geometry": {"type": "LineString", "coordinates": [[-129.73424362053714, 68.23212713228116], [-129.7196760679692, 68.22907369097632]]}, "properties": {"source": "10178633", "target": "3824556"}}, {"type": "Feature", "geometry": {"type": "LineString", "coordinates": [[-129.73424362053714, 68.23212713228116], [-129.70413030437922, 68.22411087467492]]}, "properties": {"source": "10178633", "target": "11408324"}}, {"type": "Feature", "geometry": {"type": "LineString", "coordinates": [[-129.7181443052243, 68.23091220825046], [-129.72605656996535, 68.23040412438712]]}, "properties": {"source": "10084158", "target": "13541438"}}, {"type": "Feature", "geometry": {"type": "LineString", "coordinates": [[-129.7181443052243, 68.23091220825046], [-129.71986786033239, 68.22516748811438]]}, "properties": {"source": "10084158", "target": "10224602"}}, {"type": "Feature", "geometry": {"type": "LineString", "coordinates": [[-129.72772942270558, 68.22626715904485], [-129.72089067954096, 68.22465615456545]]}, "properties": {"source": "12569098", "target": "34753589"}}, {"type": "Feature", "geometry": {"type": "LineString", "coordinates": [[-129.73424362053714, 68.23212713228116], [-129.71218542214356, 68.22768156021323]]}, "properties": {"source": "10178633", "target": "11187445"}}, {"type": "Feature", "geometry": {"type": "LineString", "coordinates": [[-129.73424362053714, 68.23212713228116], [-129.70765325063016, 68.22843744431799]]}, "properties": {"source": "10178633", "target": "1235818"}}, {"type": "Feature", "geometry": {"type": "LineString", "coordinates": [[-129.70765325063016, 68.22843744431799], [-129.71218542214356, 68.22768156021323]]}, "properties": {"source": "1235818", "target": "11187445"}}, {"type": "Feature", "geometry": {"type": "LineString", "coordinates": [[-129.70765325063016, 68.22843744431799], [-129.7101892533076, 68.22400523450159]]}, "properties": {"source": "1235818", "target": "11417418"}}, {"type": "Feature", "geometry": {"type": "LineString", "coordinates": [[-129.70765325063016, 68.22843744431799], [-129.7306983643282, 68.22534174961422]]}, "properties": {"source": "1235818", "target": "7010715"}}, {"type": "Feature", "geometry": {"type": "LineString", "coordinates": [[-129.72605656996535, 68.23040412438712], [-129.7333171174741, 68.22617240898148]]}, "properties": {"source": "13541438", "target": "6329554"}}, {"type": "Feature", "geometry": {"type": "LineString", "coordinates": [[-129.72605656996535, 68.23040412438712], [-129.71986786033239, 68.22516748811438]]}, "properties": {"source": "13541438", "target": "10224602"}}, {"type": "Feature", "geometry": {"type": "LineString", "coordinates": [[-129.72605656996535, 68.23040412438712], [-129.72216072413235, 68.22492701518541]]}, "properties": {"source": "13541438", "target": "8117224"}}, {"type": "Feature", "geometry": {"type": "LineString", "coordinates": [[-129.72605656996535, 68.23040412438712], [-129.70711321072852, 68.22821538181967]]}, "properties": {"source": "13541438", "target": "9814883"}}, {"type": "Feature", "geometry": {"type": "LineString", "coordinates": [[-129.7101892533076, 68.22400523450159], [-129.7196760679692, 68.22907369097632]]}, "properties": {"source": "11417418", "target": "3824556"}}, {"type": "Feature", "geometry": {"type": "LineString", "coordinates": [[-129.7333171174741, 68.22617240898148], [-129.7188660216243, 68.22697486540511]]}, "properties": {"source": "6329554", "target": "390826"}}, {"type": "Feature", "geometry": {"type": "LineString", "coordinates": [[-129.7333171174741, 68.22617240898148], [-129.72946840255864, 68.23217653148015]]}, "properties": {"source": "6329554", "target": "321872"}}, {"type": "Feature", "geometry": {"type": "LineString", "coordinates": [[-129.7333171174741, 68.22617240898148], [-129.71960877292645, 68.2274815018811]]}, "properties": {"source": "6329554", "target": "4505"}}, {"type": "Feature", "geometry": {"type": "LineString", "coordinates": [[-129.7229459732688, 68.22826322156325], [-129.71760013399324, 68.22878797914666]]}, "properties": {"source": "26136560", "target": "5949778"}}, {"type": "Feature", "geometry": {"type": "LineString", "coordinates": [[-129.7229459732688, 68.22826322156325], [-129.70563503027117, 68.22740441277179]]}, "properties": {"source": "26136560", "target": "7529527"}}, {"type": "Feature", "geometry": {"type": "LineString", "coordinates": [[-129.7229459732688, 68.22826322156325], [-129.71025331642696, 68.22914111909034]]}, "properties": {"source": "26136560", "target": "412772"}}, {"type": "Feature", "geometry": {"type": "LineString", "coordinates": [[-129.7115774172134, 68.22403090613619], [-129.71449840391773, 68.22574291100719]]}, "properties": {"source": "1403277", "target": "6872001"}}, {"type": "Feature", "geometry": {"type": "LineString", "coordinates": [[-129.7115774172134, 68.22403090613619], [-129.72365551802392, 68.22746772165354]]}, "properties": {"source": "1403277", "target": "7137737"}}, {"type": "Feature", "geometry": {"type": "LineString", "coordinates": [[-129.7308088540519, 68.22662988819309], [-129.70765325063016, 68.22843744431799]]}, "properties": {"source": "1120917", "target": "1235818"}}, {"type": "Feature", "geometry": {"type": "LineString", "coordinates": [[-129.7308088540519, 68.22662988819309], [-129.71214546513283, 68.22633547572553]]}, "properties": {"source": "1120917", "target": "6349633"}}, {"type": "Feature", "geometry": {"type": "LineString", "coordinates": [[-129.7308088540519, 68.22662988819309], [-129.7306983643282, 68.22534174961422]]}, "properties": {"source": "1120917", "target": "7010715"}}, {"type": "Feature", "geometry": {"type": "LineString", "coordinates": [[-129.7308088540519, 68.22662988819309], [-129.72444271206632, 68.23020293431847]]}, "properties": {"source": "1120917", "target": "17081562"}}, {"type": "Feature", "geometry": {"type": "LineString", "coordinates": [[-129.72257293468556, 68.22557005926208], [-129.70564163833538, 68.2309047336789]]}, "properties": {"source": "478246", "target": "810418"}}, {"type": "Feature", "geometry": {"type": "LineString", "coordinates": [[-129.72257293468556, 68.22557005926208], [-129.70563503027117, 68.22740441277179]]}, "properties": {"source": "478246", "target": "7529527"}}, {"type": "Feature", "geometry": {"type": "LineString", "coordinates": [[-129.72257293468556, 68.22557005926208], [-129.71025331642696, 68.22914111909034]]}, "properties": {"source": "478246", "target": "412772"}}, {"type": "Feature", "geometry": {"type": "LineString", "coordinates": [[-129.72257293468556, 68.22557005926208], [-129.72606088773077, 68.23229508594568]]}, "properties": {"source": "478246", "target": "3712630"}}, {"type": "Feature", "geometry": {"type": "LineString", "coordinates": [[-129.71388418061701, 68.22815186641981], [-129.73419321987382, 68.22636530602938]]}, "properties": {"source": "28238108", "target": "30089737"}}, {"type": "Feature", "geometry": {"type": "LineString", "coordinates": [[-129.72216072413235, 68.22492701518541], [-129.70711321072852, 68.22821538181967]]}, "properties": {"source": "8117224", "target": "9814883"}}, {"type": "Feature", "geometry": {"type": "LineString", "coordinates": [[-129.7115774172134, 68.22403090613619], [-129.70613726721893, 68.23227932297968]]}, "properties": {"source": "1403277", "target": "6624415"}}, {"type": "Feature", "geometry": {"type": "LineString", "coordinates": [[-129.7333171174741, 68.22617240898148], [-129.70448534863007, 68.2232175029232]]}, "properties": {"source": "6329554", "target": "227534"}}, {"type": "Feature", "geometry": {"type": "LineString", "coordinates": [[-129.7104738432761, 68.22230548932632], [-129.7235329380063, 68.2265656706827]]}, "properties": {"source": "9335797", "target": "9187778"}}, {"type": "Feature", "geometry": {"type": "LineString", "coordinates": [[-129.7104738432761, 68.22230548932632], [-129.7044076675773, 68.23128718392067]]}, "properties": {"source": "9335797", "target": "1034324"}}, {"type": "Feature", "geometry": {"type": "LineString", "coordinates": [[-129.7260505492352, 68.22551752147803], [-129.72365551802392, 68.22746772165354]]}, "properties": {"source": "6309873", "target": "7137737"}}, {"type": "Feature", "geometry": {"type": "LineString", "coordinates": [[-129.7260505492352, 68.22551752147803], [-129.72596435430233, 68.22503253909349]]}, "properties": {"source": "6309873", "target": "6062738"}}, {"type": "Feature", "geometry": {"type": "LineString", "coordinates": [[-129.71960877292645, 68.2274815018811], [-129.7188660216243, 68.22697486540511]]}, "properties": {"source": "4505", "target": "390826"}}, {"type": "Feature", "geometry": {"type": "LineString", "coordinates": [[-129.71960877292645, 68.2274815018811], [-129.72946840255864, 68.23217653148015]]}, "properties": {"source": "4505", "target": "321872"}}, {"type": "Feature", "geometry": {"type": "LineString", "coordinates": [[-129.71960877292645, 68.2274815018811], [-129.70448534863007, 68.2232175029232]]}, "properties": {"source": "4505", "target": "227534"}}, {"type": "Feature", "geometry": {"type": "LineString", "coordinates": [[-129.71960877292645, 68.2274815018811], [-129.71641519081575, 68.22302418980851]]}, "properties": {"source": "4505", "target": "17928333"}}, {"type": "Feature", "geometry": {"type": "LineString", "coordinates": [[-129.71249677780582, 68.22708111385774], [-129.7231512841515, 68.23068520385445]]}, "properties": {"source": "7879218", "target": "809417"}}, {"type": "Feature", "geometry": {"type": "LineString", "coordinates": [[-129.71249677780582, 68.22708111385774], [-129.71753275176613, 68.22355758478287]]}, "properties": {"source": "7879218", "target": "8140681"}}, {"type": "Feature", "geometry": {"type": "LineString", "coordinates": [[-129.71249677780582, 68.22708111385774], [-129.71190477637046, 68.22363054029876]]}, "properties": {"source": "7879218", "target": "6997687"}}, {"type": "Feature", "geometry": {"type": "LineString", "coordinates": [[-129.71249677780582, 68.22708111385774], [-129.70806281325218, 68.23094984055857]]}, "properties": {"source": "7879218", "target": "6997686"}}, {"type": "Feature", "geometry": {"type": "LineString", "coordinates": [[-129.71249677780582, 68.22708111385774], [-129.71484277514338, 68.22885668946833]]}, "properties": {"source": "7879218", "target": "6608990"}}, {"type": "Feature", "geometry": {"type": "LineString", "coordinates": [[-129.7229459732688, 68.22826322156325], [-129.72658678554578, 68.22900100342224]]}, "properties": {"source": "26136560", "target": "990200"}}, {"type": "Feature", "geometry": {"type": "LineString", "coordinates": [[-129.7229459732688, 68.22826322156325], [-129.70564163833538, 68.2309047336789]]}, "properties": {"source": "26136560", "target": "810418"}}, {"type": "Feature", "geometry": {"type": "LineString", "coordinates": [[-129.7084451292336, 68.22284538684937], [-129.71717728111528, 68.22861111514646]]}, "properties": {"source": "480102", "target": "11094626"}}, {"type": "Feature", "geometry": {"type": "LineString", "coordinates": [[-129.72261241607484, 68.22757020816235], [-129.7333956636269, 68.22464455124808]]}, "properties": {"source": "34013966", "target": "73060"}}, {"type": "Feature", "geometry": {"type": "LineString", "coordinates": [[-129.72216634262236, 68.2262976324549], [-129.71406684502188, 68.22694143792557]]}, "properties": {"source": "45891", "target": "700993"}}, {"type": "Feature", "geometry": {"type": "LineString", "coordinates": [[-129.71334118438645, 68.22970398589521], [-129.72314963668057, 68.22744063206608]]}, "properties": {"source": "156248", "target": "13426355"}}, {"type": "Feature", "geometry": {"type": "LineString", "coordinates": [[-129.71334118438645, 68.22970398589521], [-129.71079658486087, 68.22780847184234]]}, "properties": {"source": "156248", "target": "17356927"}}, {"type": "Feature", "geometry": {"type": "LineString", "coordinates": [[-129.732990419269, 68.22803092209733], [-129.71449840391773, 68.22574291100719]]}, "properties": {"source": "6041588", "target": "6872001"}}, {"type": "Feature", "geometry": {"type": "LineString", "coordinates": [[-129.732990419269, 68.22803092209733], [-129.72365551802392, 68.22746772165354]]}, "properties": {"source": "6041588", "target": "7137737"}}, {"type": "Feature", "geometry": {"type": "LineString", "coordinates": [[-129.732990419269, 68.22803092209733], [-129.7215732522082, 68.2293923509119]]}, "properties": {"source": "6041588", "target": "606464"}}, {"type": "Feature", "geometry": {"type": "LineString", "coordinates": [[-129.732990419269, 68.22803092209733], [-129.71406684502188, 68.22694143792557]]}, "properties": {"source": "6041588", "target": "700993"}}, {"type": "Feature", "geometry": {"type": "LineString", "coordinates": [[-129.732990419269, 68.22803092209733], [-129.72596435430233, 68.22503253909349]]}, "properties": {"source": "6041588", "target": "6062738"}}, {"type": "Feature", "geometry": {"type": "LineString", "coordinates": [[-129.732990419269, 68.22803092209733], [-129.73402345255678, 68.22551363682012]]}, "properties": {"source": "6041588", "target": "5357127"}}, {"type": "Feature", "geometry": {"type": "LineString", "coordinates": [[-129.732990419269, 68.22803092209733], [-129.73180296044572, 68.22534086673039]]}, "properties": {"source": "6041588", "target": "5997536"}}, {"type": "Feature", "geometry": {"type": "LineString", "coordinates": [[-129.70828757127686, 68.22844287345734], [-129.72605656996535, 68.23040412438712]]}, "properties": {"source": "8041041", "target": "13541438"}}, {"type": "Feature", "geometry": {"type": "LineString", "coordinates": [[-129.70828757127686, 68.22844287345734], [-129.7333171174741, 68.22617240898148]]}, "properties": {"source": "8041041", "target": "6329554"}}, {"type": "Feature", "geometry": {"type": "LineString", "coordinates": [[-129.70828757127686, 68.22844287345734], [-129.72216072413235, 68.22492701518541]]}, "properties": {"source": "8041041", "target": "8117224"}}, {"type": "Feature", "geometry": {"type": "LineString", "coordinates": [[-129.732990419269, 68.22803092209733], [-129.70613726721893, 68.23227932297968]]}, "properties": {"source": "6041588", "target": "6624415"}}, {"type": "Feature", "geometry": {"type": "LineString", "coordinates": [[-129.73081545276145, 68.22896333342473], [-129.7231512841515, 68.23068520385445]]}, "properties": {"source": "741774", "target": "809417"}}, {"type": "Feature", "geometry": {"type": "LineString", "coordinates": [[-129.73081545276145, 68.22896333342473], [-129.71406684502188, 68.22694143792557]]}, "properties": {"source": "741774", "target": "700993"}}, {"type": "Feature", "geometry": {"type": "LineString", "coordinates": [[-129.73081545276145, 68.22896333342473], [-129.7091043843644, 68.22611145949293]]}, "properties": {"source": "741774", "target": "6430128"}}, {"type": "Feature", "geometry": {"type": "LineString", "coordinates": [[-129.71218542214356, 68.22768156021323], [-129.7196760679692, 68.22907369097632]]}, "properties": {"source": "11187445", "target": "3824556"}}, {"type": "Feature", "geometry": {"type": "LineString", "coordinates": [[-129.72921808442987, 68.2222934504833], [-129.7234556383518, 68.22527670029473]]}, "properties": {"source": "496217", "target": "6059582"}}, {"type": "Feature", "geometry": {"type": "LineString", "coordinates": [[-129.72921808442987, 68.2222934504833], [-129.70828757127686, 68.22844287345734]]}, "properties": {"source": "496217", "target": "8041041"}}, {"type": "Feature", "geometry": {"type": "LineString", "coordinates": [[-129.72921808442987, 68.2222934504833], [-129.72605656996535, 68.23040412438712]]}, "properties": {"source": "496217", "target": "13541438"}}, {"type": "Feature", "geometry": {"type": "LineString", "coordinates": [[-129.72921808442987, 68.2222934504833], [-129.7333171174741, 68.22617240898148]]}, "properties": {"source": "496217", "target": "6329554"}}, {"type": "Feature", "geometry": {"type": "LineString", "coordinates": [[-129.72921808442987, 68.2222934504833], [-129.71986786033239, 68.22516748811438]]}, "properties": {"source": "496217", "target": "10224602"}}, {"type": "Feature", "geometry": {"type": "LineString", "coordinates": [[-129.72921808442987, 68.2222934504833], [-129.72216072413235, 68.22492701518541]]}, "properties": {"source": "496217", "target": "8117224"}}, {"type": "Feature", "geometry": {"type": "LineString", "coordinates": [[-129.72921808442987, 68.2222934504833], [-129.7181443052243, 68.23091220825046]]}, "properties": {"source": "496217", "target": "10084158"}}, {"type": "Feature", "geometry": {"type": "LineString", "coordinates": [[-129.72921808442987, 68.2222934504833], [-129.70699117881048, 68.22859712981258]]}, "properties": {"source": "496217", "target": "852257"}}, {"type": "Feature", "geometry": {"type": "LineString", "coordinates": [[-129.72921808442987, 68.2222934504833], [-129.72283901908344, 68.2224584093893]]}, "properties": {"source": "496217", "target": "7516064"}}, {"type": "Feature", "geometry": {"type": "LineString", "coordinates": [[-129.71334118438645, 68.22970398589521], [-129.70413030437922, 68.22411087467492]]}, "properties": {"source": "156248", "target": "11408324"}}, {"type": "Feature", "geometry": {"type": "LineString", "coordinates": [[-129.71334118438645, 68.22970398589521], [-129.71218542214356, 68.22768156021323]]}, "properties": {"source": "156248", "target": "11187445"}}, {"type": "Feature", "geometry": {"type": "LineString", "coordinates": [[-129.71334118438645, 68.22970398589521], [-129.73424362053714, 68.23212713228116]]}, "properties": {"source": "156248", "target": "10178633"}}, {"type": "Feature", "geometry": {"type": "LineString", "coordinates": [[-129.71334118438645, 68.22970398589521], [-129.7101892533076, 68.22400523450159]]}, "properties": {"source": "156248", "target": "11417418"}}, {"type": "Feature", "geometry": {"type": "LineString", "coordinates": [[-129.71334118438645, 68.22970398589521], [-129.71986786033239, 68.22516748811438]]}, "properties": {"source": "156248", "target": "10224602"}}, {"type": "Feature", "geometry": {"type": "LineString", "coordinates": [[-129.71334118438645, 68.22970398589521], [-129.71268041563667, 68.22260381485609]]}, "properties": {"source": "156248", "target": "1610463"}}, {"type": "Feature", "geometry": {"type": "LineString", "coordinates": [[-129.73026210222758, 68.22602166864365], [-129.7216934451798, 68.23112646460748]]}, "properties": {"source": "7110648", "target": "7246"}}, {"type": "Feature", "geometry": {"type": "LineString", "coordinates": [[-129.720543198964, 68.22990373305254], [-129.70849685368813, 68.2262620808064]]}, "properties": {"source": "17290768", "target": "2090216"}}, {"type": "Feature", "geometry": {"type": "LineString", "coordinates": [[-129.72681239756784, 68.22633084559348], [-129.70849685368813, 68.2262620808064]]}, "properties": {"source": "18928101", "target": "2090216"}}, {"type": "Feature", "geometry": {"type": "LineString", "coordinates": [[-129.73046021142451, 68.22777065835544], [-129.70564163833538, 68.2309047336789]]}, "properties": {"source": "8442206", "target": "810418"}}, {"type": "Feature", "geometry": {"type": "LineString", "coordinates": [[-129.71802937335235, 68.22309308293808], [-129.71388418061701, 68.22815186641981]]}, "properties": {"source": "25061521", "target": "28238108"}}, {"type": "Feature", "geometry": {"type": "LineString", "coordinates": [[-129.71802937335235, 68.22309308293808], [-129.73269234883867, 68.22779895515734]]}, "properties": {"source": "25061521", "target": "27224858"}}, {"type": "Feature", "geometry": {"type": "LineString", "coordinates": [[-129.7193769990149, 68.23058679133987], [-129.72234161024573, 68.22478591226803]]}, "properties": {"source": "6329561", "target": "6618326"}}, {"type": "Feature", "geometry": {"type": "LineString", "coordinates": [[-129.725662013144, 68.22709762159701], [-129.7104738432761, 68.22230548932632]]}, "properties": {"source": "727655", "target": "9335797"}}, {"type": "Feature", "geometry": {"type": "LineString", "coordinates": [[-129.725662013144, 68.22709762159701], [-129.7044076675773, 68.23128718392067]]}, "properties": {"source": "727655", "target": "1034324"}}, {"type": "Feature", "geometry": {"type": "LineString", "coordinates": [[-129.73269234883867, 68.22779895515734], [-129.71388418061701, 68.22815186641981]]}, "properties": {"source": "27224858", "target": "28238108"}}, {"type": "Feature", "geometry": {"type": "LineString", "coordinates": [[-129.7202525814385, 68.23094287442945], [-129.72606088773077, 68.23229508594568]]}, "properties": {"source": "3137696", "target": "3712630"}}, {"type": "Feature", "geometry": {"type": "LineString", "coordinates": [[-129.720543198964, 68.22990373305254], [-129.72717540648048, 68.22579626877635]]}, "properties": {"source": "17290768", "target": "22452257"}}, {"type": "Feature", "geometry": {"type": "LineString", "coordinates": [[-129.7193769990149, 68.23058679133987], [-129.70613726721893, 68.23227932297968]]}, "properties": {"source": "6329561", "target": "6624415"}}, {"type": "Feature", "geometry": {"type": "LineString", "coordinates": [[-129.7076402083248, 68.2298810244701], [-129.71753275176613, 68.22355758478287]]}, "properties": {"source": "8862694", "target": "8140681"}}, {"type": "Feature", "geometry": {"type": "LineString", "coordinates": [[-129.7076402083248, 68.2298810244701], [-129.7292671273987, 68.23026711652327]]}, "properties": {"source": "8862694", "target": "9441603"}}, {"type": "Feature", "geometry": {"type": "LineString", "coordinates": [[-129.73026210222758, 68.22602166864365], [-129.7188660216243, 68.22697486540511]]}, "properties": {"source": "7110648", "target": "390826"}}, {"type": "Feature", "geometry": {"type": "LineString", "coordinates": [[-129.7137830283465, 68.22939088344452], [-129.72314963668057, 68.22744063206608]]}, "properties": {"source": "1769793", "target": "13426355"}}, {"type": "Feature", "geometry": {"type": "LineString", "coordinates": [[-129.7137830283465, 68.22939088344452], [-129.71079658486087, 68.22780847184234]]}, "properties": {"source": "1769793", "target": "17356927"}}, {"type": "Feature", "geometry": {"type": "LineString", "coordinates": [[-129.7234556383518, 68.22527670029473], [-129.70828757127686, 68.22844287345734]]}, "properties": {"source": "6059582", "target": "8041041"}}, {"type": "Feature", "geometry": {"type": "LineString", "coordinates": [[-129.7234556383518, 68.22527670029473], [-129.72605656996535, 68.23040412438712]]}, "properties": {"source": "6059582", "target": "13541438"}}, {"type": "Feature", "geometry": {"type": "LineString", "coordinates": [[-129.7234556383518, 68.22527670029473], [-129.7333171174741, 68.22617240898148]]}, "properties": {"source": "6059582", "target": "6329554"}}, {"type": "Feature", "geometry": {"type": "LineString", "coordinates": [[-129.7234556383518, 68.22527670029473], [-129.71986786033239, 68.22516748811438]]}, "properties": {"source": "6059582", "target": "10224602"}}, {"type": "Feature", "geometry": {"type": "LineString", "coordinates": [[-129.7234556383518, 68.22527670029473], [-129.72216072413235, 68.22492701518541]]}, "properties": {"source": "6059582", "target": "8117224"}}, {"type": "Feature", "geometry": {"type": "LineString", "coordinates": [[-129.7234556383518, 68.22527670029473], [-129.7181443052243, 68.23091220825046]]}, "properties": {"source": "6059582", "target": "10084158"}}, {"type": "Feature", "geometry": {"type": "LineString", "coordinates": [[-129.7234556383518, 68.22527670029473], [-129.70699117881048, 68.22859712981258]]}, "properties": {"source": "6059582", "target": "852257"}}, {"type": "Feature", "geometry": {"type": "LineString", "coordinates": [[-129.7234556383518, 68.22527670029473], [-129.72283901908344, 68.2224584093893]]}, "properties": {"source": "6059582", "target": "7516064"}}, {"type": "Feature", "geometry": {"type": "LineString", "coordinates": [[-129.73081545276145, 68.22896333342473], [-129.71449840391773, 68.22574291100719]]}, "properties": {"source": "741774", "target": "6872001"}}, {"type": "Feature", "geometry": {"type": "LineString", "coordinates": [[-129.73081545276145, 68.22896333342473], [-129.72365551802392, 68.22746772165354]]}, "properties": {"source": "741774", "target": "7137737"}}, {"type": "Feature", "geometry": {"type": "LineString", "coordinates": [[-129.73081545276145, 68.22896333342473], [-129.70613726721893, 68.23227932297968]]}, "properties": {"source": "741774", "target": "6624415"}}, {"type": "Feature", "geometry": {"type": "LineString", "coordinates": [[-129.70828757127686, 68.22844287345734], [-129.70699117881048, 68.22859712981258]]}, "properties": {"source": "8041041", "target": "852257"}}, {"type": "Feature", "geometry": {"type": "LineString", "coordinates": [[-129.70828757127686, 68.22844287345734], [-129.70711321072852, 68.22821538181967]]}, "properties": {"source": "8041041", "target": "9814883"}}, {"type": "Feature", "geometry": {"type": "LineString", "coordinates": [[-129.72338675258675, 68.2273480587553], [-129.71449840391773, 68.22574291100719]]}, "properties": {"source": "798350", "target": "6872001"}}, {"type": "Feature", "geometry": {"type": "LineString", "coordinates": [[-129.70826810610066, 68.2293390604745], [-129.7101892533076, 68.22400523450159]]}, "properties": {"source": "746252", "target": "11417418"}}, {"type": "Feature", "geometry": {"type": "LineString", "coordinates": [[-129.70826810610066, 68.2293390604745], [-129.73326699844915, 68.2228030488732]]}, "properties": {"source": "746252", "target": "6716422"}}, {"type": "Feature", "geometry": {"type": "LineString", "coordinates": [[-129.70826810610066, 68.2293390604745], [-129.71225076510686, 68.22549244816207]]}, "properties": {"source": "746252", "target": "6465695"}}, {"type": "Feature", "geometry": {"type": "LineString", "coordinates": [[-129.70826810610066, 68.2293390604745], [-129.7110601630815, 68.22486280246878]]}, "properties": {"source": "746252", "target": "595781"}}, {"type": "Feature", "geometry": {"type": "LineString", "coordinates": [[-129.70826810610066, 68.2293390604745], [-129.71986786033239, 68.22516748811438]]}, "properties": {"source": "746252", "target": "10224602"}}, {"type": "Feature", "geometry": {"type": "LineString", "coordinates": [[-129.70826810610066, 68.2293390604745], [-129.72018643406435, 68.22545705438776]]}, "properties": {"source": "746252", "target": "802625"}}, {"type": "Feature", "geometry": {"type": "LineString", "coordinates": [[-129.7081570418654, 68.22959377795976], [-129.70849685368813, 68.2262620808064]]}, "properties": {"source": "2062020", "target": "2090216"}}, {"type": "Feature", "geometry": {"type": "LineString", "coordinates": [[-129.7081570418654, 68.22959377795976], [-129.70413030437922, 68.22411087467492]]}, "properties": {"source": "2062020", "target": "11408324"}}, {"type": "Feature", "geometry": {"type": "LineString", "coordinates": [[-129.7081570418654, 68.22959377795976], [-129.71218542214356, 68.22768156021323]]}, "properties": {"source": "2062020", "target": "11187445"}}, {"type": "Feature", "geometry": {"type": "LineString", "coordinates": [[-129.7081570418654, 68.22959377795976], [-129.7101892533076, 68.22400523450159]]}, "properties": {"source": "2062020", "target": "11417418"}}, {"type": "Feature", "geometry": {"type": "LineString", "coordinates": [[-129.7081570418654, 68.22959377795976], [-129.7103451723308, 68.22749814332047]]}, "properties": {"source": "2062020", "target": "2702373"}}, {"type": "Feature", "geometry": {"type": "LineString", "coordinates": [[-129.7081570418654, 68.22959377795976], [-129.7246171164955, 68.23217329962063]]}, "properties": {"source": "2062020", "target": "20523781"}}, {"type": "Feature", "geometry": {"type": "LineString", "coordinates": [[-129.7081570418654, 68.22959377795976], [-129.72924352177367, 68.22868271465256]]}, "properties": {"source": "2062020", "target": "2702674"}}, {"type": "Feature", "geometry": {"type": "LineString", "coordinates": [[-129.72435702289243, 68.22670697236723], [-129.72365551802392, 68.22746772165354]]}, "properties": {"source": "937162", "target": "7137737"}}, {"type": "Feature", "geometry": {"type": "LineString", "coordinates": [[-129.71225076510686, 68.22549244816207], [-129.7110601630815, 68.22486280246878]]}, "properties": {"source": "6465695", "target": "595781"}}, {"type": "Feature", "geometry": {"type": "LineString", "coordinates": [[-129.70944346304003, 68.22714061100521], [-129.73422718019575, 68.23017978183606]]}, "properties": {"source": "558925", "target": "4516716"}}, {"type": "Feature", "geometry": {"type": "LineString", "coordinates": [[-129.70551674750197, 68.23017754299303], [-129.72638169925204, 68.22862467734575]]}, "properties": {"source": "5690777", "target": "8126039"}}, {"type": "Feature", "geometry": {"type": "LineString", "coordinates": [[-129.70551674750197, 68.23017754299303], [-129.72391076098566, 68.22691411468364]]}, "properties": {"source": "5690777", "target": "5564879"}}, {"type": "Feature", "geometry": {"type": "LineString", "coordinates": [[-129.71723380068414, 68.22667884727093], [-129.7196760679692, 68.22907369097632]]}, "properties": {"source": "29978826", "target": "3824556"}}, {"type": "Feature", "geometry": {"type": "LineString", "coordinates": [[-129.71723380068414, 68.22667884727093], [-129.7103451723308, 68.22749814332047]]}, "properties": {"source": "29978826", "target": "2702373"}}, {"type": "Feature", "geometry": {"type": "LineString", "coordinates": [[-129.712216014847, 68.23129969912111], [-129.70564163833538, 68.2309047336789]]}, "properties": {"source": "1421264", "target": "810418"}}, {"type": "Feature", "geometry": {"type": "LineString", "coordinates": [[-129.712216014847, 68.23129969912111], [-129.72954878737383, 68.22672994852903]]}, "properties": {"source": "1421264", "target": "1561005"}}, {"type": "Feature", "geometry": {"type": "LineString", "coordinates": [[-129.71214546513283, 68.22633547572553], [-129.70765325063016, 68.22843744431799]]}, "properties": {"source": "6349633", "target": "1235818"}}, {"type": "Feature", "geometry": {"type": "LineString", "coordinates": [[-129.71214546513283, 68.22633547572553], [-129.7306983643282, 68.22534174961422]]}, "properties": {"source": "6349633", "target": "7010715"}}, {"type": "Feature", "geometry": {"type": "LineString", "coordinates": [[-129.72954878737383, 68.22672994852903], [-129.70564163833538, 68.2309047336789]]}, "properties": {"source": "1561005", "target": "810418"}}, {"type": "Feature", "geometry": {"type": "LineString", "coordinates": [[-129.72314963668057, 68.22744063206608], [-129.71268041563667, 68.22260381485609]]}, "properties": {"source": "13426355", "target": "1610463"}}, {"type": "Feature", "geometry": {"type": "LineString", "coordinates": [[-129.71079658486087, 68.22780847184234], [-129.71268041563667, 68.22260381485609]]}, "properties": {"source": "17356927", "target": "1610463"}}, {"type": "Feature", "geometry": {"type": "LineString", "coordinates": [[-129.70551674750197, 68.23017754299303], [-129.71590063395718, 68.22484752550048]]}, "properties": {"source": "5690777", "target": "11618151"}}, {"type": "Feature", "geometry": {"type": "LineString", "coordinates": [[-129.72391076098566, 68.22691411468364], [-129.71590063395718, 68.22484752550048]]}, "properties": {"source": "5564879", "target": "11618151"}}, {"type": "Feature", "geometry": {"type": "LineString", "coordinates": [[-129.71406684502188, 68.22694143792557], [-129.7091043843644, 68.22611145949293]]}, "properties": {"source": "700993", "target": "6430128"}}, {"type": "Feature", "geometry": {"type": "LineString", "coordinates": [[-129.71406684502188, 68.22694143792557], [-129.7260505492352, 68.22551752147803]]}, "properties": {"source": "700993", "target": "6309873"}}, {"type": "Feature", "geometry": {"type": "LineString", "coordinates": [[-129.71406684502188, 68.22694143792557], [-129.7104902912784, 68.22927252948017]]}, "properties": {"source": "700993", "target": "6406012"}}, {"type": "Feature", "geometry": {"type": "LineString", "coordinates": [[-129.7231512841515, 68.23068520385445], [-129.72365551802392, 68.22746772165354]]}, "properties": {"source": "809417", "target": "7137737"}}, {"type": "Feature", "geometry": {"type": "LineString", "coordinates": [[-129.7231512841515, 68.23068520385445], [-129.71406684502188, 68.22694143792557]]}, "properties": {"source": "809417", "target": "700993"}}, {"type": "Feature", "geometry": {"type": "LineString", "coordinates": [[-129.7231512841515, 68.23068520385445], [-129.7091043843644, 68.22611145949293]]}, "properties": {"source": "809417", "target": "6430128"}}, {"type": "Feature", "geometry": {"type": "LineString", "coordinates": [[-129.7231512841515, 68.23068520385445], [-129.72338675258675, 68.2273480587553]]}, "properties": {"source": "809417", "target": "798350"}}, {"type": "Feature", "geometry": {"type": "LineString", "coordinates": [[-129.7231512841515, 68.23068520385445], [-129.7104738432761, 68.22230548932632]]}, "properties": {"source": "809417", "target": "9335797"}}, {"type": "Feature", "geometry": {"type": "LineString", "coordinates": [[-129.7231512841515, 68.23068520385445], [-129.71832737400274, 68.22229778643603]]}, "properties": {"source": "809417", "target": "886797"}}, {"type": "Feature", "geometry": {"type": "LineString", "coordinates": [[-129.7231512841515, 68.23068520385445], [-129.71190477637046, 68.22363054029876]]}, "properties": {"source": "809417", "target": "6997687"}}, {"type": "Feature", "geometry": {"type": "LineString", "coordinates": [[-129.7231512841515, 68.23068520385445], [-129.70806281325218, 68.23094984055857]]}, "properties": {"source": "809417", "target": "6997686"}}, {"type": "Feature", "geometry": {"type": "LineString", "coordinates": [[-129.7231512841515, 68.23068520385445], [-129.71484277514338, 68.22885668946833]]}, "properties": {"source": "809417", "target": "6608990"}}, {"type": "Feature", "geometry": {"type": "LineString", "coordinates": [[-129.7231512841515, 68.23068520385445], [-129.7235329380063, 68.2265656706827]]}, "properties": {"source": "809417", "target": "9187778"}}, {"type": "Feature", "geometry": {"type": "LineString", "coordinates": [[-129.7231512841515, 68.23068520385445], [-129.71950203780221, 68.22353424753041]]}, "properties": {"source": "809417", "target": "7089677"}}, {"type": "Feature", "geometry": {"type": "LineString", "coordinates": [[-129.7215732522082, 68.2293923509119], [-129.7144938834549, 68.22643325324808]]}, "properties": {"source": "606464", "target": "6006537"}}, {"type": "Feature", "geometry": {"type": "LineString", "coordinates": [[-129.7231512841515, 68.23068520385445], [-129.71825528671914, 68.22468827542943]]}, "properties": {"source": "809417", "target": "9305650"}}, {"type": "Feature", "geometry": {"type": "LineString", "coordinates": [[-129.7215732522082, 68.2293923509119], [-129.71449840391773, 68.22574291100719]]}, "properties": {"source": "606464", "target": "6872001"}}, {"type": "Feature", "geometry": {"type": "LineString", "coordinates": [[-129.7215732522082, 68.2293923509119], [-129.72365551802392, 68.22746772165354]]}, "properties": {"source": "606464", "target": "7137737"}}, {"type": "Feature", "geometry": {"type": "LineString", "coordinates": [[-129.72772942270558, 68.22626715904485], [-129.71388418061701, 68.22815186641981]]}, "properties": {"source": "12569098", "target": "28238108"}}, {"type": "Feature", "geometry": {"type": "LineString", "coordinates": [[-129.72772942270558, 68.22626715904485], [-129.71455103605464, 68.22841372293851]]}, "properties": {"source": "12569098", "target": "12481255"}}, {"type": "Feature", "geometry": {"type": "LineString", "coordinates": [[-129.72772942270558, 68.22626715904485], [-129.73419321987382, 68.22636530602938]]}, "properties": {"source": "12569098", "target": "30089737"}}, {"type": "Feature", "geometry": {"type": "LineString", "coordinates": [[-129.7246171164955, 68.23217329962063], [-129.70849685368813, 68.2262620808064]]}, "properties": {"source": "20523781", "target": "2090216"}}, {"type": "Feature", "geometry": {"type": "LineString", "coordinates": [[-129.7245109790442, 68.2288755544237], [-129.71449840391773, 68.22574291100719]]}, "properties": {"source": "999019", "target": "6872001"}}, {"type": "Feature", "geometry": {"type": "LineString", "coordinates": [[-129.7245109790442, 68.2288755544237], [-129.72365551802392, 68.22746772165354]]}, "properties": {"source": "999019", "target": "7137737"}}, {"type": "Feature", "geometry": {"type": "LineString", "coordinates": [[-129.7245109790442, 68.2288755544237], [-129.72435702289243, 68.22670697236723]]}, "properties": {"source": "999019", "target": "937162"}}, {"type": "Feature", "geometry": {"type": "LineString", "coordinates": [[-129.71455103605464, 68.22841372293851], [-129.71388418061701, 68.22815186641981]]}, "properties": {"source": "12481255", "target": "28238108"}}, {"type": "Feature", "geometry": {"type": "LineString", "coordinates": [[-129.71455103605464, 68.22841372293851], [-129.73419321987382, 68.22636530602938]]}, "properties": {"source": "12481255", "target": "30089737"}}, {"type": "Feature", "geometry": {"type": "LineString", "coordinates": [[-129.72924352177367, 68.22868271465256], [-129.7196760679692, 68.22907369097632]]}, "properties": {"source": "2702674", "target": "3824556"}}, {"type": "Feature", "geometry": {"type": "LineString", "coordinates": [[-129.72924352177367, 68.22868271465256], [-129.70849685368813, 68.2262620808064]]}, "properties": {"source": "2702674", "target": "2090216"}}, {"type": "Feature", "geometry": {"type": "LineString", "coordinates": [[-129.70425846817832, 68.22734325852832], [-129.73402345255678, 68.22551363682012]]}, "properties": {"source": "1189500", "target": "5357127"}}, {"type": "Feature", "geometry": {"type": "LineString", "coordinates": [[-129.7215732522082, 68.2293923509119], [-129.70613726721893, 68.23227932297968]]}, "properties": {"source": "606464", "target": "6624415"}}, {"type": "Feature", "geometry": {"type": "LineString", "coordinates": [[-129.70425846817832, 68.22734325852832], [-129.70613726721893, 68.23227932297968]]}, "properties": {"source": "1189500", "target": "6624415"}}, {"type": "Feature", "geometry": {"type": "LineString", "coordinates": [[-129.73381826219676, 68.23007783830954], [-129.70448534863007, 68.2232175029232]]}, "properties": {"source": "390824", "target": "227534"}}, {"type": "Feature", "geometry": {"type": "LineString", "coordinates": [[-129.73381826219676, 68.23007783830954], [-129.71717728111528, 68.22861111514646]]}, "properties": {"source": "390824", "target": "11094626"}}, {"type": "Feature", "geometry": {"type": "LineString", "coordinates": [[-129.73381826219676, 68.23007783830954], [-129.71641519081575, 68.22302418980851]]}, "properties": {"source": "390824", "target": "17928333"}}, {"type": "Feature", "geometry": {"type": "LineString", "coordinates": [[-129.7103451723308, 68.22749814332047], [-129.70849685368813, 68.2262620808064]]}, "properties": {"source": "2702373", "target": "2090216"}}, {"type": "Feature", "geometry": {"type": "LineString", "coordinates": [[-129.7103451723308, 68.22749814332047], [-129.72924352177367, 68.22868271465256]]}, "properties": {"source": "2702373", "target": "2702674"}}, {"type": "Feature", "geometry": {"type": "LineString", "coordinates": [[-129.7103451723308, 68.22749814332047], [-129.70555738966598, 68.22972839214694]]}, "properties": {"source": "2702373", "target": "280739"}}, {"type": "Feature", "geometry": {"type": "LineString", "coordinates": [[-129.72638169925204, 68.22862467734575], [-129.71190477637046, 68.22363054029876]]}, "properties": {"source": "8126039", "target": "6997687"}}, {"type": "Feature", "geometry": {"type": "LineString", "coordinates": [[-129.72638169925204, 68.22862467734575], [-129.70806281325218, 68.23094984055857]]}, "properties": {"source": "8126039", "target": "6997686"}}, {"type": "Feature", "geometry": {"type": "LineString", "coordinates": [[-129.72638169925204, 68.22862467734575], [-129.71484277514338, 68.22885668946833]]}, "properties": {"source": "8126039", "target": "6608990"}}, {"type": "Feature", "geometry": {"type": "LineString", "coordinates": [[-129.72638169925204, 68.22862467734575], [-129.72391076098566, 68.22691411468364]]}, "properties": {"source": "8126039", "target": "5564879"}}, {"type": "Feature", "geometry": {"type": "LineString", "coordinates": [[-129.71832737400274, 68.22229778643603], [-129.7104738432761, 68.22230548932632]]}, "properties": {"source": "886797", "target": "9335797"}}, {"type": "Feature", "geometry": {"type": "LineString", "coordinates": [[-129.71832737400274, 68.22229778643603], [-129.7235329380063, 68.2265656706827]]}, "properties": {"source": "886797", "target": "9187778"}}, {"type": "Feature", "geometry": {"type": "LineString", "coordinates": [[-129.70563503027117, 68.22740441277179], [-129.70564163833538, 68.2309047336789]]}, "properties": {"source": "7529527", "target": "810418"}}, {"type": "Feature", "geometry": {"type": "LineString", "coordinates": [[-129.70563503027117, 68.22740441277179], [-129.71025331642696, 68.22914111909034]]}, "properties": {"source": "7529527", "target": "412772"}}, {"type": "Feature", "geometry": {"type": "LineString", "coordinates": [[-129.71025331642696, 68.22914111909034], [-129.70564163833538, 68.2309047336789]]}, "properties": {"source": "412772", "target": "810418"}}, {"type": "Feature", "geometry": {"type": "LineString", "coordinates": [[-129.72638169925204, 68.22862467734575], [-129.71590063395718, 68.22484752550048]]}, "properties": {"source": "8126039", "target": "11618151"}}, {"type": "Feature", "geometry": {"type": "LineString", "coordinates": [[-129.71825528671914, 68.22468827542943], [-129.71832737400274, 68.22229778643603]]}, "properties": {"source": "9305650", "target": "886797"}}, {"type": "Feature", "geometry": {"type": "LineString", "coordinates": [[-129.71825528671914, 68.22468827542943], [-129.7235329380063, 68.2265656706827]]}, "properties": {"source": "9305650", "target": "9187778"}}, {"type": "Feature", "geometry": {"type": "LineString", "coordinates": [[-129.71825528671914, 68.22468827542943], [-129.70711151233795, 68.23202907955914]]}, "properties": {"source": "9305650", "target": "873593"}}, {"type": "Feature", "geometry": {"type": "LineString", "coordinates": [[-129.73081545276145, 68.22896333342473], [-129.72338675258675, 68.2273480587553]]}, "properties": {"source": "741774", "target": "798350"}}, {"type": "Feature", "geometry": {"type": "LineString", "coordinates": [[-129.73081545276145, 68.22896333342473], [-129.72435702289243, 68.22670697236723]]}, "properties": {"source": "741774", "target": "937162"}}, {"type": "Feature", "geometry": {"type": "LineString", "coordinates": [[-129.73081545276145, 68.22896333342473], [-129.72538409683864, 68.22725199479157]]}, "properties": {"source": "741774", "target": "946865"}}, {"type": "Feature", "geometry": {"type": "LineString", "coordinates": [[-129.73081545276145, 68.22896333342473], [-129.7245109790442, 68.2288755544237]]}, "properties": {"source": "741774", "target": "999019"}}, {"type": "Feature", "geometry": {"type": "LineString", "coordinates": [[-129.72994786388574, 68.22305780798683], [-129.7144938834549, 68.22643325324808]]}, "properties": {"source": "524571", "target": "6006537"}}, {"type": "Feature", "geometry": {"type": "LineString", "coordinates": [[-129.72994786388574, 68.22305780798683], [-129.7196760679692, 68.22907369097632]]}, "properties": {"source": "524571", "target": "3824556"}}, {"type": "Feature", "geometry": {"type": "LineString", "coordinates": [[-129.72994786388574, 68.22305780798683], [-129.71760013399324, 68.22878797914666]]}, "properties": {"source": "524571", "target": "5949778"}}, {"type": "Feature", "geometry": {"type": "LineString", "coordinates": [[-129.72994786388574, 68.22305780798683], [-129.72089067954096, 68.22465615456545]]}, "properties": {"source": "524571", "target": "34753589"}}, {"type": "Feature", "geometry": {"type": "LineString", "coordinates": [[-129.72994786388574, 68.22305780798683], [-129.71225076510686, 68.22549244816207]]}, "properties": {"source": "524571", "target": "6465695"}}, {"type": "Feature", "geometry": {"type": "LineString", "coordinates": [[-129.72994786388574, 68.22305780798683], [-129.7110601630815, 68.22486280246878]]}, "properties": {"source": "524571", "target": "595781"}}, {"type": "Feature", "geometry": {"type": "LineString", "coordinates": [[-129.72994786388574, 68.22305780798683], [-129.71999089038877, 68.23169437898969]]}, "properties": {"source": "524571", "target": "515772"}}, {"type": "Feature", "geometry": {"type": "LineString", "coordinates": [[-129.72994786388574, 68.22305780798683], [-129.72606088773077, 68.23229508594568]]}, "properties": {"source": "524571", "target": "3712630"}}, {"type": "Feature", "geometry": {"type": "LineString", "coordinates": [[-129.72994786388574, 68.22305780798683], [-129.70651729482336, 68.22946072863576]]}, "properties": {"source": "524571", "target": "829650"}}, {"type": "Feature", "geometry": {"type": "LineString", "coordinates": [[-129.7144938834549, 68.22643325324808], [-129.71999089038877, 68.23169437898969]]}, "properties": {"source": "6006537", "target": "515772"}}, {"type": "Feature", "geometry": {"type": "LineString", "coordinates": [[-129.7144938834549, 68.22643325324808], [-129.7115774172134, 68.22403090613619]]}, "properties": {"source": "6006537", "target": "1403277"}}, {"type": "Feature", "geometry": {"type": "LineString", "coordinates": [[-129.7144938834549, 68.22643325324808], [-129.73422718019575, 68.23017978183606]]}, "properties": {"source": "6006537", "target": "4516716"}}, {"type": "Feature", "geometry": {"type": "LineString", "coordinates": [[-129.72658678554578, 68.22900100342224], [-129.70477177349474, 68.22970046424257]]}, "properties": {"source": "990200", "target": "810419"}}, {"type": "Feature", "geometry": {"type": "LineString", "coordinates": [[-129.72658678554578, 68.22900100342224], [-129.70564163833538, 68.2309047336789]]}, "properties": {"source": "990200", "target": "810418"}}, {"type": "Feature", "geometry": {"type": "LineString", "coordinates": [[-129.72658678554578, 68.22900100342224], [-129.71760013399324, 68.22878797914666]]}, "properties": {"source": "990200", "target": "5949778"}}, {"type": "Feature", "geometry": {"type": "LineString", "coordinates": [[-129.72658678554578, 68.22900100342224], [-129.7104738432761, 68.22230548932632]]}, "properties": {"source": "990200", "target": "9335797"}}, {"type": "Feature", "geometry": {"type": "LineString", "coordinates": [[-129.72658678554578, 68.22900100342224], [-129.71832737400274, 68.22229778643603]]}, "properties": {"source": "990200", "target": "886797"}}, {"type": "Feature", "geometry": {"type": "LineString", "coordinates": [[-129.72658678554578, 68.22900100342224], [-129.70563503027117, 68.22740441277179]]}, "properties": {"source": "990200", "target": "7529527"}}, {"type": "Feature", "geometry": {"type": "LineString", "coordinates": [[-129.72658678554578, 68.22900100342224], [-129.71025331642696, 68.22914111909034]]}, "properties": {"source": "990200", "target": "412772"}}, {"type": "Feature", "geometry": {"type": "LineString", "coordinates": [[-129.72658678554578, 68.22900100342224], [-129.70711151233795, 68.23202907955914]]}, "properties": {"source": "990200", "target": "873593"}}, {"type": "Feature", "geometry": {"type": "LineString", "coordinates": [[-129.72658678554578, 68.22900100342224], [-129.72257293468556, 68.22557005926208]]}, "properties": {"source": "990200", "target": "478246"}}, {"type": "Feature", "geometry": {"type": "LineString", "coordinates": [[-129.70477177349474, 68.22970046424257], [-129.70564163833538, 68.2309047336789]]}, "properties": {"source": "810419", "target": "810418"}}, {"type": "Feature", "geometry": {"type": "LineString", "coordinates": [[-129.70477177349474, 68.22970046424257], [-129.73326699844915, 68.2228030488732]]}, "properties": {"source": "810419", "target": "6716422"}}, {"type": "Feature", "geometry": {"type": "LineString", "coordinates": [[-129.70477177349474, 68.22970046424257], [-129.70563503027117, 68.22740441277179]]}, "properties": {"source": "810419", "target": "7529527"}}, {"type": "Feature", "geometry": {"type": "LineString", "coordinates": [[-129.72658678554578, 68.22900100342224], [-129.71825528671914, 68.22468827542943]]}, "properties": {"source": "990200", "target": "9305650"}}, {"type": "Feature", "geometry": {"type": "LineString", "coordinates": [[-129.70826810610066, 68.2293390604745], [-129.70413030437922, 68.22411087467492]]}, "properties": {"source": "746252", "target": "11408324"}}, {"type": "Feature", "geometry": {"type": "LineString", "coordinates": [[-129.70826810610066, 68.2293390604745], [-129.71218542214356, 68.22768156021323]]}, "properties": {"source": "746252", "target": "11187445"}}, {"type": "Feature", "geometry": {"type": "LineString", "coordinates": [[-129.70826810610066, 68.2293390604745], [-129.73424362053714, 68.23212713228116]]}, "properties": {"source": "746252", "target": "10178633"}}, {"type": "Feature", "geometry": {"type": "LineString", "coordinates": [[-129.73381826219676, 68.23007783830954], [-129.70571360047052, 68.22896054565192]]}, "properties": {"source": "390824", "target": "2736567"}}, {"type": "Feature", "geometry": {"type": "LineString", "coordinates": [[-129.71753275176613, 68.22355758478287], [-129.72638169925204, 68.22862467734575]]}, "properties": {"source": "8140681", "target": "8126039"}}, {"type": "Feature", "geometry": {"type": "LineString", "coordinates": [[-129.71753275176613, 68.22355758478287], [-129.71190477637046, 68.22363054029876]]}, "properties": {"source": "8140681", "target": "6997687"}}, {"type": "Feature", "geometry": {"type": "LineString", "coordinates": [[-129.71753275176613, 68.22355758478287], [-129.70806281325218, 68.23094984055857]]}, "properties": {"source": "8140681", "target": "6997686"}}, {"type": "Feature", "geometry": {"type": "LineString", "coordinates": [[-129.71753275176613, 68.22355758478287], [-129.71484277514338, 68.22885668946833]]}, "properties": {"source": "8140681", "target": "6608990"}}, {"type": "Feature", "geometry": {"type": "LineString", "coordinates": [[-129.71753275176613, 68.22355758478287], [-129.7292671273987, 68.23026711652327]]}, "properties": {"source": "8140681", "target": "9441603"}}, {"type": "Feature", "geometry": {"type": "LineString", "coordinates": [[-129.72089067954096, 68.22465615456545], [-129.71760013399324, 68.22878797914666]]}, "properties": {"source": "34753589", "target": "5949778"}}, {"type": "Feature", "geometry": {"type": "LineString", "coordinates": [[-129.72089067954096, 68.22465615456545], [-129.72606088773077, 68.23229508594568]]}, "properties": {"source": "34753589", "target": "3712630"}}, {"type": "Feature", "geometry": {"type": "LineString", "coordinates": [[-129.72089067954096, 68.22465615456545], [-129.71455103605464, 68.22841372293851]]}, "properties": {"source": "34753589", "target": "12481255"}}, {"type": "Feature", "geometry": {"type": "LineString", "coordinates": [[-129.72089067954096, 68.22465615456545], [-129.73419321987382, 68.22636530602938]]}, "properties": {"source": "34753589", "target": "30089737"}}, {"type": "Feature", "geometry": {"type": "LineString", "coordinates": [[-129.73326699844915, 68.2228030488732], [-129.71225076510686, 68.22549244816207]]}, "properties": {"source": "6716422", "target": "6465695"}}, {"type": "Feature", "geometry": {"type": "LineString", "coordinates": [[-129.73326699844915, 68.2228030488732], [-129.7110601630815, 68.22486280246878]]}, "properties": {"source": "6716422", "target": "595781"}}, {"type": "Feature", "geometry": {"type": "LineString", "coordinates": [[-129.72089067954096, 68.22465615456545], [-129.7202525814385, 68.23094287442945]]}, "properties": {"source": "34753589", "target": "3137696"}}, {"type": "Feature", "geometry": {"type": "LineString", "coordinates": [[-129.70930938467788, 68.22461404463061], [-129.7103451723308, 68.22749814332047]]}, "properties": {"source": "26223956", "target": "2702373"}}, {"type": "Feature", "geometry": {"type": "LineString", "coordinates": [[-129.719163785396, 68.22854973932166], [-129.72006066922535, 68.22329940092914]]}, "properties": {"source": "1498445", "target": "6034321"}}, {"type": "Feature", "geometry": {"type": "LineString", "coordinates": [[-129.73362225544776, 68.2288043996069], [-129.7235329380063, 68.2265656706827]]}, "properties": {"source": "9366212", "target": "9187778"}}, {"type": "Feature", "geometry": {"type": "LineString", "coordinates": [[-129.71717728111528, 68.22861111514646], [-129.72946840255864, 68.23217653148015]]}, "properties": {"source": "11094626", "target": "321872"}}, {"type": "Feature", "geometry": {"type": "LineString", "coordinates": [[-129.70928783568553, 68.23094424219312], [-129.70849685368813, 68.2262620808064]]}, "properties": {"source": "13528401", "target": "2090216"}}, {"type": "Feature", "geometry": {"type": "LineString", "coordinates": [[-129.70928783568553, 68.23094424219312], [-129.72681239756784, 68.22633084559348]]}, "properties": {"source": "13528401", "target": "18928101"}}, {"type": "Feature", "geometry": {"type": "LineString", "coordinates": [[-129.70928783568553, 68.23094424219312], [-129.7333956636269, 68.22464455124808]]}, "properties": {"source": "13528401", "target": "73060"}}, {"type": "Feature", "geometry": {"type": "LineString", "coordinates": [[-129.72283901908344, 68.2224584093893], [-129.70828757127686, 68.22844287345734]]}, "properties": {"source": "7516064", "target": "8041041"}}, {"type": "Feature", "geometry": {"type": "LineString", "coordinates": [[-129.7235989879858, 68.22635453006473], [-129.70765325063016, 68.22843744431799]]}, "properties": {"source": "18144054", "target": "1235818"}}, {"type": "Feature", "geometry": {"type": "LineString", "coordinates": [[-129.7235989879858, 68.22635453006473], [-129.7308088540519, 68.22662988819309]]}, "properties": {"source": "18144054", "target": "1120917"}}, {"type": "Feature", "geometry": {"type": "LineString", "coordinates": [[-129.7235989879858, 68.22635453006473], [-129.72444271206632, 68.23020293431847]]}, "properties": {"source": "18144054", "target": "17081562"}}, {"type": "Feature", "geometry": {"type": "LineString", "coordinates": [[-129.70434552787762, 68.22744311995174], [-129.71449840391773, 68.22574291100719]]}, "properties": {"source": "6997249", "target": "6872001"}}, {"type": "Feature", "geometry": {"type": "LineString", "coordinates": [[-129.70434552787762, 68.22744311995174], [-129.72365551802392, 68.22746772165354]]}, "properties": {"source": "6997249", "target": "7137737"}}, {"type": "Feature", "geometry": {"type": "LineString", "coordinates": [[-129.70434552787762, 68.22744311995174], [-129.71406684502188, 68.22694143792557]]}, "properties": {"source": "6997249", "target": "700993"}}, {"type": "Feature", "geometry": {"type": "LineString", "coordinates": [[-129.70571360047052, 68.22896054565192], [-129.71717728111528, 68.22861111514646]]}, "properties": {"source": "2736567", "target": "11094626"}}, {"type": "Feature", "geometry": {"type": "LineString", "coordinates": [[-129.70571360047052, 68.22896054565192], [-129.7084451292336, 68.22284538684937]]}, "properties": {"source": "2736567", "target": "480102"}}, {"type": "Feature", "geometry": {"type": "LineString", "coordinates": [[-129.70839744522428, 68.22905253249186], [-129.7081570418654, 68.22959377795976]]}, "properties": {"source": "2140089", "target": "2062020"}}, {"type": "Feature", "geometry": {"type": "LineString", "coordinates": [[-129.70839744522428, 68.22905253249186], [-129.70849685368813, 68.2262620808064]]}, "properties": {"source": "2140089", "target": "2090216"}}, {"type": "Feature", "geometry": {"type": "LineString", "coordinates": [[-129.70839744522428, 68.22905253249186], [-129.7246171164955, 68.23217329962063]]}, "properties": {"source": "2140089", "target": "20523781"}}, {"type": "Feature", "geometry": {"type": "LineString", "coordinates": [[-129.71225076510686, 68.22549244816207], [-129.71999089038877, 68.23169437898969]]}, "properties": {"source": "6465695", "target": "515772"}}, {"type": "Feature", "geometry": {"type": "LineString", "coordinates": [[-129.7110601630815, 68.22486280246878], [-129.7196760679692, 68.22907369097632]]}, "properties": {"source": "595781", "target": "3824556"}}, {"type": "Feature", "geometry": {"type": "LineString", "coordinates": [[-129.7110601630815, 68.22486280246878], [-129.71999089038877, 68.23169437898969]]}, "properties": {"source": "595781", "target": "515772"}}, {"type": "Feature", "geometry": {"type": "LineString", "coordinates": [[-129.7188660216243, 68.22697486540511], [-129.72946840255864, 68.23217653148015]]}, "properties": {"source": "390826", "target": "321872"}}, {"type": "Feature", "geometry": {"type": "LineString", "coordinates": [[-129.7188660216243, 68.22697486540511], [-129.70448534863007, 68.2232175029232]]}, "properties": {"source": "390826", "target": "227534"}}, {"type": "Feature", "geometry": {"type": "LineString", "coordinates": [[-129.7188660216243, 68.22697486540511], [-129.71641519081575, 68.22302418980851]]}, "properties": {"source": "390826", "target": "17928333"}}, {"type": "Feature", "geometry": {"type": "LineString", "coordinates": [[-129.72946840255864, 68.23217653148015], [-129.70448534863007, 68.2232175029232]]}, "properties": {"source": "321872", "target": "227534"}}, {"type": "Feature", "geometry": {"type": "LineString", "coordinates": [[-129.72946840255864, 68.23217653148015], [-129.71641519081575, 68.22302418980851]]}, "properties": {"source": "321872", "target": "17928333"}}, {"type": "Feature", "geometry": {"type": "LineString", "coordinates": [[-129.71190477637046, 68.22363054029876], [-129.70806281325218, 68.23094984055857]]}, "properties": {"source": "6997687", "target": "6997686"}}, {"type": "Feature", "geometry": {"type": "LineString", "coordinates": [[-129.71190477637046, 68.22363054029876], [-129.71484277514338, 68.22885668946833]]}, "properties": {"source": "6997687", "target": "6608990"}}, {"type": "Feature", "geometry": {"type": "LineString", "coordinates": [[-129.70806281325218, 68.23094984055857], [-129.71484277514338, 68.22885668946833]]}, "properties": {"source": "6997686", "target": "6608990"}}, {"type": "Feature", "geometry": {"type": "LineString", "coordinates": [[-129.71825528671914, 68.22468827542943], [-129.7104738432761, 68.22230548932632]]}, "properties": {"source": "9305650", "target": "9335797"}}, {"type": "Feature", "geometry": {"type": "LineString", "coordinates": [[-129.7260505492352, 68.22551752147803], [-129.70613726721893, 68.23227932297968]]}, "properties": {"source": "6309873", "target": "6624415"}}, {"type": "Feature", "geometry": {"type": "LineString", "coordinates": [[-129.70613726721893, 68.23227932297968], [-129.7104902912784, 68.22927252948017]]}, "properties": {"source": "6624415", "target": "6406012"}}, {"type": "Feature", "geometry": {"type": "LineString", "coordinates": [[-129.70613726721893, 68.23227932297968], [-129.72006066922535, 68.22329940092914]]}, "properties": {"source": "6624415", "target": "6034321"}}, {"type": "Feature", "geometry": {"type": "LineString", "coordinates": [[-129.70613726721893, 68.23227932297968], [-129.72234161024573, 68.22478591226803]]}, "properties": {"source": "6624415", "target": "6618326"}}, {"type": "Feature", "geometry": {"type": "LineString", "coordinates": [[-129.73402345255678, 68.22551363682012], [-129.72596435430233, 68.22503253909349]]}, "properties": {"source": "5357127", "target": "6062738"}}, {"type": "Feature", "geometry": {"type": "LineString", "coordinates": [[-129.73402345255678, 68.22551363682012], [-129.73422718019575, 68.23017978183606]]}, "properties": {"source": "5357127", "target": "4516716"}}, {"type": "Feature", "geometry": {"type": "LineString", "coordinates": [[-129.71782094061962, 68.22697129685332], [-129.7144938834549, 68.22643325324808]]}, "properties": {"source": "1169207", "target": "6006537"}}, {"type": "Feature", "geometry": {"type": "LineString", "coordinates": [[-129.71782094061962, 68.22697129685332], [-129.71449840391773, 68.22574291100719]]}, "properties": {"source": "1169207", "target": "6872001"}}, {"type": "Feature", "geometry": {"type": "LineString", "coordinates": [[-129.71782094061962, 68.22697129685332], [-129.72365551802392, 68.22746772165354]]}, "properties": {"source": "1169207", "target": "7137737"}}, {"type": "Feature", "geometry": {"type": "LineString", "coordinates": [[-129.71782094061962, 68.22697129685332], [-129.7215732522082, 68.2293923509119]]}, "properties": {"source": "1169207", "target": "606464"}}, {"type": "Feature", "geometry": {"type": "LineString", "coordinates": [[-129.71782094061962, 68.22697129685332], [-129.73402345255678, 68.22551363682012]]}, "properties": {"source": "1169207", "target": "5357127"}}, {"type": "Feature", "geometry": {"type": "LineString", "coordinates": [[-129.71782094061962, 68.22697129685332], [-129.72896472417105, 68.23097474784134]]}, "properties": {"source": "1169207", "target": "1053080"}}, {"type": "Feature", "geometry": {"type": "LineString", "coordinates": [[-129.73381826219676, 68.23007783830954], [-129.7188660216243, 68.22697486540511]]}, "properties": {"source": "390824", "target": "390826"}}, {"type": "Feature", "geometry": {"type": "LineString", "coordinates": [[-129.73381826219676, 68.23007783830954], [-129.72946840255864, 68.23217653148015]]}, "properties": {"source": "390824", "target": "321872"}}, {"type": "Feature", "geometry": {"type": "LineString", "coordinates": [[-129.73381826219676, 68.23007783830954], [-129.71960877292645, 68.2274815018811]]}, "properties": {"source": "390824", "target": "4505"}}, {"type": "Feature", "geometry": {"type": "LineString", "coordinates": [[-129.73402345255678, 68.22551363682012], [-129.70944346304003, 68.22714061100521]]}, "properties": {"source": "5357127", "target": "558925"}}, {"type": "Feature", "geometry": {"type": "LineString", "coordinates": [[-129.71782094061962, 68.22697129685332], [-129.70613726721893, 68.23227932297968]]}, "properties": {"source": "1169207", "target": "6624415"}}, {"type": "Feature", "geometry": {"type": "LineString", "coordinates": [[-129.70783732846965, 68.22691189415093], [-129.71449840391773, 68.22574291100719]]}, "properties": {"source": "6183847", "target": "6872001"}}, {"type": "Feature", "geometry": {"type": "LineString", "coordinates": [[-129.70783732846965, 68.22691189415093], [-129.72365551802392, 68.22746772165354]]}, "properties": {"source": "6183847", "target": "7137737"}}, {"type": "Feature", "geometry": {"type": "LineString", "coordinates": [[-129.72538409683864, 68.22725199479157], [-129.71449840391773, 68.22574291100719]]}, "properties": {"source": "946865", "target": "6872001"}}, {"type": "Feature", "geometry": {"type": "LineString", "coordinates": [[-129.72538409683864, 68.22725199479157], [-129.72365551802392, 68.22746772165354]]}, "properties": {"source": "946865", "target": "7137737"}}, {"type": "Feature", "geometry": {"type": "LineString", "coordinates": [[-129.72538409683864, 68.22725199479157], [-129.72338675258675, 68.2273480587553]]}, "properties": {"source": "946865", "target": "798350"}}, {"type": "Feature", "geometry": {"type": "LineString", "coordinates": [[-129.72538409683864, 68.22725199479157], [-129.72435702289243, 68.22670697236723]]}, "properties": {"source": "946865", "target": "937162"}}, {"type": "Feature", "geometry": {"type": "LineString", "coordinates": [[-129.71131991652587, 68.22476020753379], [-129.70477177349474, 68.22970046424257]]}, "properties": {"source": "995600", "target": "810419"}}, {"type": "Feature", "geometry": {"type": "LineString", "coordinates": [[-129.71131991652587, 68.22476020753379], [-129.70413030437922, 68.22411087467492]]}, "properties": {"source": "995600", "target": "11408324"}}, {"type": "Feature", "geometry": {"type": "LineString", "coordinates": [[-129.71131991652587, 68.22476020753379], [-129.71218542214356, 68.22768156021323]]}, "properties": {"source": "995600", "target": "11187445"}}, {"type": "Feature", "geometry": {"type": "LineString", "coordinates": [[-129.71131991652587, 68.22476020753379], [-129.73424362053714, 68.23212713228116]]}, "properties": {"source": "995600", "target": "10178633"}}, {"type": "Feature", "geometry": {"type": "LineString", "coordinates": [[-129.71131991652587, 68.22476020753379], [-129.7101892533076, 68.22400523450159]]}, "properties": {"source": "995600", "target": "11417418"}}, {"type": "Feature", "geometry": {"type": "LineString", "coordinates": [[-129.73379353572696, 68.22298182934406], [-129.7144938834549, 68.22643325324808]]}, "properties": {"source": "5985294", "target": "6006537"}}, {"type": "Feature", "geometry": {"type": "LineString", "coordinates": [[-129.73379353572696, 68.22298182934406], [-129.7196760679692, 68.22907369097632]]}, "properties": {"source": "5985294", "target": "3824556"}}, {"type": "Feature", "geometry": {"type": "LineString", "coordinates": [[-129.73379353572696, 68.22298182934406], [-129.70826810610066, 68.2293390604745]]}, "properties": {"source": "5985294", "target": "746252"}}, {"type": "Feature", "geometry": {"type": "LineString", "coordinates": [[-129.73379353572696, 68.22298182934406], [-129.72994786388574, 68.22305780798683]]}, "properties": {"source": "5985294", "target": "524571"}}, {"type": "Feature", "geometry": {"type": "LineString", "coordinates": [[-129.70783732846965, 68.22691189415093], [-129.70613726721893, 68.23227932297968]]}, "properties": {"source": "6183847", "target": "6624415"}}, {"type": "Feature", "geometry": {"type": "LineString", "coordinates": [[-129.70413030437922, 68.22411087467492], [-129.7196760679692, 68.22907369097632]]}, "properties": {"source": "11408324", "target": "3824556"}}, {"type": "Feature", "geometry": {"type": "LineString", "coordinates": [[-129.70413030437922, 68.22411087467492], [-129.71218542214356, 68.22768156021323]]}, "properties": {"source": "11408324", "target": "11187445"}}, {"type": "Feature", "geometry": {"type": "LineString", "coordinates": [[-129.70413030437922, 68.22411087467492], [-129.70765325063016, 68.22843744431799]]}, "properties": {"source": "11408324", "target": "1235818"}}, {"type": "Feature", "geometry": {"type": "LineString", "coordinates": [[-129.7215732522082, 68.2293923509119], [-129.72596435430233, 68.22503253909349]]}, "properties": {"source": "606464", "target": "6062738"}}, {"type": "Feature", "geometry": {"type": "LineString", "coordinates": [[-129.7215732522082, 68.2293923509119], [-129.73402345255678, 68.22551363682012]]}, "properties": {"source": "606464", "target": "5357127"}}, {"type": "Feature", "geometry": {"type": "LineString", "coordinates": [[-129.7215732522082, 68.2293923509119], [-129.7115774172134, 68.22403090613619]]}, "properties": {"source": "606464", "target": "1403277"}}, {"type": "Feature", "geometry": {"type": "LineString", "coordinates": [[-129.7215732522082, 68.2293923509119], [-129.73422718019575, 68.23017978183606]]}, "properties": {"source": "606464", "target": "4516716"}}, {"type": "Feature", "geometry": {"type": "LineString", "coordinates": [[-129.7215732522082, 68.2293923509119], [-129.73180296044572, 68.22534086673039]]}, "properties": {"source": "606464", "target": "5997536"}}, {"type": "Feature", "geometry": {"type": "LineString", "coordinates": [[-129.7215732522082, 68.2293923509119], [-129.72006066922535, 68.22329940092914]]}, "properties": {"source": "606464", "target": "6034321"}}, {"type": "Feature", "geometry": {"type": "LineString", "coordinates": [[-129.7215732522082, 68.2293923509119], [-129.71306888347004, 68.22315548085425]]}, "properties": {"source": "606464", "target": "4929783"}}, {"type": "Feature", "geometry": {"type": "LineString", "coordinates": [[-129.7196760679692, 68.22907369097632], [-129.71986786033239, 68.22516748811438]]}, "properties": {"source": "3824556", "target": "10224602"}}, {"type": "Feature", "geometry": {"type": "LineString", "coordinates": [[-129.7196760679692, 68.22907369097632], [-129.71999089038877, 68.23169437898969]]}, "properties": {"source": "3824556", "target": "515772"}}, {"type": "Feature", "geometry": {"type": "LineString", "coordinates": [[-129.71406684502188, 68.22694143792557], [-129.71449840391773, 68.22574291100719]]}, "properties": {"source": "700993", "target": "6872001"}}, {"type": "Feature", "geometry": {"type": "LineString", "coordinates": [[-129.71406684502188, 68.22694143792557], [-129.72365551802392, 68.22746772165354]]}, "properties": {"source": "700993", "target": "7137737"}}, {"type": "Feature", "geometry": {"type": "LineString", "coordinates": [[-129.7215732522082, 68.2293923509119], [-129.70944346304003, 68.22714061100521]]}, "properties": {"source": "606464", "target": "558925"}}, {"type": "Feature", "geometry": {"type": "LineString", "coordinates": [[-129.71406684502188, 68.22694143792557], [-129.70613726721893, 68.23227932297968]]}, "properties": {"source": "700993", "target": "6624415"}}, {"type": "Feature", "geometry": {"type": "LineString", "coordinates": [[-129.70425846817832, 68.22734325852832], [-129.7050010144552, 68.2321708468574]]}, "properties": {"source": "1189500", "target": "269867"}}, {"type": "Feature", "geometry": {"type": "LineString", "coordinates": [[-129.7301471446561, 68.22789044501809], [-129.7196760679692, 68.22907369097632]]}, "properties": {"source": "25214039", "target": "3824556"}}, {"type": "Feature", "geometry": {"type": "LineString", "coordinates": [[-129.7301471446561, 68.22789044501809], [-129.70555738966598, 68.22972839214694]]}, "properties": {"source": "25214039", "target": "280739"}}, {"type": "Feature", "geometry": {"type": "LineString", "coordinates": [[-129.7144938834549, 68.22643325324808], [-129.73180296044572, 68.22534086673039]]}, "properties": {"source": "6006537", "target": "5997536"}}, {"type": "Feature", "geometry": {"type": "LineString", "coordinates": [[-129.71449840391773, 68.22574291100719], [-129.72365551802392, 68.22746772165354]]}, "properties": {"source": "6872001", "target": "7137737"}}, {"type": "Feature", "geometry": {"type": "LineString", "coordinates": [[-129.71449840391773, 68.22574291100719], [-129.7091043843644, 68.22611145949293]]}, "properties": {"source": "6872001", "target": "6430128"}}, {"type": "Feature", "geometry": {"type": "LineString", "coordinates": [[-129.71449840391773, 68.22574291100719], [-129.72435702289243, 68.22670697236723]]}, "properties": {"source": "6872001", "target": "937162"}}, {"type": "Feature", "geometry": {"type": "LineString", "coordinates": [[-129.71449840391773, 68.22574291100719], [-129.7260505492352, 68.22551752147803]]}, "properties": {"source": "6872001", "target": "6309873"}}, {"type": "Feature", "geometry": {"type": "LineString", "coordinates": [[-129.71449840391773, 68.22574291100719], [-129.7104902912784, 68.22927252948017]]}, "properties": {"source": "6872001", "target": "6406012"}}, {"type": "Feature", "geometry": {"type": "LineString", "coordinates": [[-129.71449840391773, 68.22574291100719], [-129.70425846817832, 68.22734325852832]]}, "properties": {"source": "6872001", "target": "1189500"}}, {"type": "Feature", "geometry": {"type": "LineString", "coordinates": [[-129.71449840391773, 68.22574291100719], [-129.72896472417105, 68.23097474784134]]}, "properties": {"source": "6872001", "target": "1053080"}}, {"type": "Feature", "geometry": {"type": "LineString", "coordinates": [[-129.7231512841515, 68.23068520385445], [-129.71449840391773, 68.22574291100719]]}, "properties": {"source": "809417", "target": "6872001"}}, {"type": "Feature", "geometry": {"type": "LineString", "coordinates": [[-129.70613726721893, 68.23227932297968], [-129.72365551802392, 68.22746772165354]]}, "properties": {"source": "6624415", "target": "7137737"}}, {"type": "Feature", "geometry": {"type": "LineString", "coordinates": [[-129.71449840391773, 68.22574291100719], [-129.70613726721893, 68.23227932297968]]}, "properties": {"source": "6872001", "target": "6624415"}}, {"type": "Feature", "geometry": {"type": "LineString", "coordinates": [[-129.7231512841515, 68.23068520385445], [-129.70613726721893, 68.23227932297968]]}, "properties": {"source": "809417", "target": "6624415"}}, {"type": "Feature", "geometry": {"type": "LineString", "coordinates": [[-129.70613726721893, 68.23227932297968], [-129.70944346304003, 68.22714061100521]]}, "properties": {"source": "6624415", "target": "558925"}}, {"type": "Feature", "geometry": {"type": "LineString", "coordinates": [[-129.7137830283465, 68.22939088344452], [-129.7101892533076, 68.22400523450159]]}, "properties": {"source": "1769793", "target": "11417418"}}, {"type": "Feature", "geometry": {"type": "LineString", "coordinates": [[-129.7137830283465, 68.22939088344452], [-129.71268041563667, 68.22260381485609]]}, "properties": {"source": "1769793", "target": "1610463"}}, {"type": "Feature", "geometry": {"type": "LineString", "coordinates": [[-129.7137830283465, 68.22939088344452], [-129.7246171164955, 68.23217329962063]]}, "properties": {"source": "1769793", "target": "20523781"}}, {"type": "Feature", "geometry": {"type": "LineString", "coordinates": [[-129.7070344404169, 68.22688793690642], [-129.7144938834549, 68.22643325324808]]}, "properties": {"source": "6746681", "target": "6006537"}}, {"type": "Feature", "geometry": {"type": "LineString", "coordinates": [[-129.7070344404169, 68.22688793690642], [-129.71449840391773, 68.22574291100719]]}, "properties": {"source": "6746681", "target": "6872001"}}, {"type": "Feature", "geometry": {"type": "LineString", "coordinates": [[-129.7070344404169, 68.22688793690642], [-129.72365551802392, 68.22746772165354]]}, "properties": {"source": "6746681", "target": "7137737"}}, {"type": "Feature", "geometry": {"type": "LineString", "coordinates": [[-129.7070344404169, 68.22688793690642], [-129.7215732522082, 68.2293923509119]]}, "properties": {"source": "6746681", "target": "606464"}}, {"type": "Feature", "geometry": {"type": "LineString", "coordinates": [[-129.7070344404169, 68.22688793690642], [-129.71406684502188, 68.22694143792557]]}, "properties": {"source": "6746681", "target": "700993"}}, {"type": "Feature", "geometry": {"type": "LineString", "coordinates": [[-129.7070344404169, 68.22688793690642], [-129.7091043843644, 68.22611145949293]]}, "properties": {"source": "6746681", "target": "6430128"}}, {"type": "Feature", "geometry": {"type": "LineString", "coordinates": [[-129.7070344404169, 68.22688793690642], [-129.732990419269, 68.22803092209733]]}, "properties": {"source": "6746681", "target": "6041588"}}, {"type": "Feature", "geometry": {"type": "LineString", "coordinates": [[-129.7070344404169, 68.22688793690642], [-129.7260505492352, 68.22551752147803]]}, "properties": {"source": "6746681", "target": "6309873"}}, {"type": "Feature", "geometry": {"type": "LineString", "coordinates": [[-129.7070344404169, 68.22688793690642], [-129.7104902912784, 68.22927252948017]]}, "properties": {"source": "6746681", "target": "6406012"}}, {"type": "Feature", "geometry": {"type": "LineString", "coordinates": [[-129.7070344404169, 68.22688793690642], [-129.72006066922535, 68.22329940092914]]}, "properties": {"source": "6746681", "target": "6034321"}}, {"type": "Feature", "geometry": {"type": "LineString", "coordinates": [[-129.70826810610066, 68.2293390604745], [-129.70477177349474, 68.22970046424257]]}, "properties": {"source": "746252", "target": "810419"}}, {"type": "Feature", "geometry": {"type": "LineString", "coordinates": [[-129.7070344404169, 68.22688793690642], [-129.70613726721893, 68.23227932297968]]}, "properties": {"source": "6746681", "target": "6624415"}}, {"type": "Feature", "geometry": {"type": "LineString", "coordinates": [[-129.7070344404169, 68.22688793690642], [-129.70944346304003, 68.22714061100521]]}, "properties": {"source": "6746681", "target": "558925"}}, {"type": "Feature", "geometry": {"type": "LineString", "coordinates": [[-129.7081570418654, 68.22959377795976], [-129.7301471446561, 68.22789044501809]]}, "properties": {"source": "2062020", "target": "25214039"}}, {"type": "Feature", "geometry": {"type": "LineString", "coordinates": [[-129.7081570418654, 68.22959377795976], [-129.70555738966598, 68.22972839214694]]}, "properties": {"source": "2062020", "target": "280739"}}, {"type": "Feature", "geometry": {"type": "LineString", "coordinates": [[-129.7081570418654, 68.22959377795976], [-129.71723380068414, 68.22667884727093]]}, "properties": {"source": "2062020", "target": "29978826"}}, {"type": "Feature", "geometry": {"type": "LineString", "coordinates": [[-129.72338675258675, 68.2273480587553], [-129.72365551802392, 68.22746772165354]]}, "properties": {"source": "798350", "target": "7137737"}}, {"type": "Feature", "geometry": {"type": "LineString", "coordinates": [[-129.72338675258675, 68.2273480587553], [-129.71406684502188, 68.22694143792557]]}, "properties": {"source": "798350", "target": "700993"}}, {"type": "Feature", "geometry": {"type": "LineString", "coordinates": [[-129.72338675258675, 68.2273480587553], [-129.7091043843644, 68.22611145949293]]}, "properties": {"source": "798350", "target": "6430128"}}, {"type": "Feature", "geometry": {"type": "LineString", "coordinates": [[-129.72338675258675, 68.2273480587553], [-129.72435702289243, 68.22670697236723]]}, "properties": {"source": "798350", "target": "937162"}}, {"type": "Feature", "geometry": {"type": "LineString", "coordinates": [[-129.71760013399324, 68.22878797914666], [-129.70564163833538, 68.2309047336789]]}, "properties": {"source": "5949778", "target": "810418"}}, {"type": "Feature", "geometry": {"type": "LineString", "coordinates": [[-129.71760013399324, 68.22878797914666], [-129.70563503027117, 68.22740441277179]]}, "properties": {"source": "5949778", "target": "7529527"}}, {"type": "Feature", "geometry": {"type": "LineString", "coordinates": [[-129.71760013399324, 68.22878797914666], [-129.71025331642696, 68.22914111909034]]}, "properties": {"source": "5949778", "target": "412772"}}, {"type": "Feature", "geometry": {"type": "LineString", "coordinates": [[-129.71760013399324, 68.22878797914666], [-129.72606088773077, 68.23229508594568]]}, "properties": {"source": "5949778", "target": "3712630"}}, {"type": "Feature", "geometry": {"type": "LineString", "coordinates": [[-129.71760013399324, 68.22878797914666], [-129.70651729482336, 68.22946072863576]]}, "properties": {"source": "5949778", "target": "829650"}}, {"type": "Feature", "geometry": {"type": "LineString", "coordinates": [[-129.72596435430233, 68.22503253909349], [-129.73422718019575, 68.23017978183606]]}, "properties": {"source": "6062738", "target": "4516716"}}, {"type": "Feature", "geometry": {"type": "LineString", "coordinates": [[-129.72338675258675, 68.2273480587553], [-129.70613726721893, 68.23227932297968]]}, "properties": {"source": "798350", "target": "6624415"}}, {"type": "Feature", "geometry": {"type": "LineString", "coordinates": [[-129.72596435430233, 68.22503253909349], [-129.70613726721893, 68.23227932297968]]}, "properties": {"source": "6062738", "target": "6624415"}}, {"type": "Feature", "geometry": {"type": "LineString", "coordinates": [[-129.72596435430233, 68.22503253909349], [-129.70944346304003, 68.22714061100521]]}, "properties": {"source": "6062738", "target": "558925"}}, {"type": "Feature", "geometry": {"type": "LineString", "coordinates": [[-129.73326699844915, 68.2228030488732], [-129.71999089038877, 68.23169437898969]]}, "properties": {"source": "6716422", "target": "515772"}}, {"type": "Feature", "geometry": {"type": "LineString", "coordinates": [[-129.73326699844915, 68.2228030488732], [-129.72018643406435, 68.22545705438776]]}, "properties": {"source": "6716422", "target": "802625"}}, {"type": "Feature", "geometry": {"type": "LineString", "coordinates": [[-129.7103451723308, 68.22749814332047], [-129.7196760679692, 68.22907369097632]]}, "properties": {"source": "2702373", "target": "3824556"}}, {"type": "Feature", "geometry": {"type": "LineString", "coordinates": [[-129.70839744522428, 68.22905253249186], [-129.7301471446561, 68.22789044501809]]}, "properties": {"source": "2140089", "target": "25214039"}}, {"type": "Feature", "geometry": {"type": "LineString", "coordinates": [[-129.71595803751717, 68.22535922314478], [-129.7231512841515, 68.23068520385445]]}, "properties": {"source": "759361", "target": "809417"}}, {"type": "Feature", "geometry": {"type": "LineString", "coordinates": [[-129.71595803751717, 68.22535922314478], [-129.71832737400274, 68.22229778643603]]}, "properties": {"source": "759361", "target": "886797"}}, {"type": "Feature", "geometry": {"type": "LineString", "coordinates": [[-129.71595803751717, 68.22535922314478], [-129.7235329380063, 68.2265656706827]]}, "properties": {"source": "759361", "target": "9187778"}}, {"type": "Feature", "geometry": {"type": "LineString", "coordinates": [[-129.71595803751717, 68.22535922314478], [-129.70711151233795, 68.23202907955914]]}, "properties": {"source": "759361", "target": "873593"}}, {"type": "Feature", "geometry": {"type": "LineString", "coordinates": [[-129.72232574179242, 68.22549961187337], [-129.7081570418654, 68.22959377795976]]}, "properties": {"source": "18693983", "target": "2062020"}}, {"type": "Feature", "geometry": {"type": "LineString", "coordinates": [[-129.72232574179242, 68.22549961187337], [-129.70849685368813, 68.2262620808064]]}, "properties": {"source": "18693983", "target": "2090216"}}, {"type": "Feature", "geometry": {"type": "LineString", "coordinates": [[-129.72232574179242, 68.22549961187337], [-129.7137830283465, 68.22939088344452]]}, "properties": {"source": "18693983", "target": "1769793"}}, {"type": "Feature", "geometry": {"type": "LineString", "coordinates": [[-129.72232574179242, 68.22549961187337], [-129.71268041563667, 68.22260381485609]]}, "properties": {"source": "18693983", "target": "1610463"}}, {"type": "Feature", "geometry": {"type": "LineString", "coordinates": [[-129.71597796777587, 68.2252303006002], [-129.7234556383518, 68.22527670029473]]}, "properties": {"source": "852258", "target": "6059582"}}, {"type": "Feature", "geometry": {"type": "LineString", "coordinates": [[-129.71597796777587, 68.2252303006002], [-129.70828757127686, 68.22844287345734]]}, "properties": {"source": "852258", "target": "8041041"}}, {"type": "Feature", "geometry": {"type": "LineString", "coordinates": [[-129.71597796777587, 68.2252303006002], [-129.70699117881048, 68.22859712981258]]}, "properties": {"source": "852258", "target": "852257"}}, {"type": "Feature", "geometry": {"type": "LineString", "coordinates": [[-129.71597796777587, 68.2252303006002], [-129.70711321072852, 68.22821538181967]]}, "properties": {"source": "852258", "target": "9814883"}}, {"type": "Feature", "geometry": {"type": "LineString", "coordinates": [[-129.73379353572696, 68.22298182934406], [-129.71225076510686, 68.22549244816207]]}, "properties": {"source": "5985294", "target": "6465695"}}, {"type": "Feature", "geometry": {"type": "LineString", "coordinates": [[-129.70711151233795, 68.23202907955914], [-129.7104738432761, 68.22230548932632]]}, "properties": {"source": "873593", "target": "9335797"}}, {"type": "Feature", "geometry": {"type": "LineString", "coordinates": [[-129.70711151233795, 68.23202907955914], [-129.71832737400274, 68.22229778643603]]}, "properties": {"source": "873593", "target": "886797"}}, {"type": "Feature", "geometry": {"type": "LineString", "coordinates": [[-129.7144938834549, 68.22643325324808], [-129.71449840391773, 68.22574291100719]]}, "properties": {"source": "6006537", "target": "6872001"}}, {"type": "Feature", "geometry": {"type": "LineString", "coordinates": [[-129.7144938834549, 68.22643325324808], [-129.72365551802392, 68.22746772165354]]}, "properties": {"source": "6006537", "target": "7137737"}}, {"type": "Feature", "geometry": {"type": "LineString", "coordinates": [[-129.7144938834549, 68.22643325324808], [-129.7196760679692, 68.22907369097632]]}, "properties": {"source": "6006537", "target": "3824556"}}, {"type": "Feature", "geometry": {"type": "LineString", "coordinates": [[-129.7144938834549, 68.22643325324808], [-129.70826810610066, 68.2293390604745]]}, "properties": {"source": "6006537", "target": "746252"}}, {"type": "Feature", "geometry": {"type": "LineString", "coordinates": [[-129.7144938834549, 68.22643325324808], [-129.70413030437922, 68.22411087467492]]}, "properties": {"source": "6006537", "target": "11408324"}}, {"type": "Feature", "geometry": {"type": "LineString", "coordinates": [[-129.7144938834549, 68.22643325324808], [-129.71218542214356, 68.22768156021323]]}, "properties": {"source": "6006537", "target": "11187445"}}, {"type": "Feature", "geometry": {"type": "LineString", "coordinates": [[-129.7144938834549, 68.22643325324808], [-129.7101892533076, 68.22400523450159]]}, "properties": {"source": "6006537", "target": "11417418"}}, {"type": "Feature", "geometry": {"type": "LineString", "coordinates": [[-129.7144938834549, 68.22643325324808], [-129.73402345255678, 68.22551363682012]]}, "properties": {"source": "6006537", "target": "5357127"}}, {"type": "Feature", "geometry": {"type": "LineString", "coordinates": [[-129.7144938834549, 68.22643325324808], [-129.73326699844915, 68.2228030488732]]}, "properties": {"source": "6006537", "target": "6716422"}}, {"type": "Feature", "geometry": {"type": "LineString", "coordinates": [[-129.7144938834549, 68.22643325324808], [-129.71225076510686, 68.22549244816207]]}, "properties": {"source": "6006537", "target": "6465695"}}, {"type": "Feature", "geometry": {"type": "LineString", "coordinates": [[-129.7144938834549, 68.22643325324808], [-129.7110601630815, 68.22486280246878]]}, "properties": {"source": "6006537", "target": "595781"}}, {"type": "Feature", "geometry": {"type": "LineString", "coordinates": [[-129.7144938834549, 68.22643325324808], [-129.70613726721893, 68.23227932297968]]}, "properties": {"source": "6006537", "target": "6624415"}}, {"type": "Feature", "geometry": {"type": "LineString", "coordinates": [[-129.7144938834549, 68.22643325324808], [-129.70944346304003, 68.22714061100521]]}, "properties": {"source": "6006537", "target": "558925"}}, {"type": "Feature", "geometry": {"type": "LineString", "coordinates": [[-129.70477177349474, 68.22970046424257], [-129.71025331642696, 68.22914111909034]]}, "properties": {"source": "810419", "target": "412772"}}, {"type": "Feature", "geometry": {"type": "LineString", "coordinates": [[-129.70477177349474, 68.22970046424257], [-129.712216014847, 68.23129969912111]]}, "properties": {"source": "810419", "target": "1421264"}}, {"type": "Feature", "geometry": {"type": "LineString", "coordinates": [[-129.70477177349474, 68.22970046424257], [-129.72954878737383, 68.22672994852903]]}, "properties": {"source": "810419", "target": "1561005"}}, {"type": "Feature", "geometry": {"type": "LineString", "coordinates": [[-129.70477177349474, 68.22970046424257], [-129.72018643406435, 68.22545705438776]]}, "properties": {"source": "810419", "target": "802625"}}, {"type": "Feature", "geometry": {"type": "LineString", "coordinates": [[-129.70477177349474, 68.22970046424257], [-129.73046021142451, 68.22777065835544]]}, "properties": {"source": "810419", "target": "8442206"}}, {"type": "Feature", "geometry": {"type": "LineString", "coordinates": [[-129.7091043843644, 68.22611145949293], [-129.72365551802392, 68.22746772165354]]}, "properties": {"source": "6430128", "target": "7137737"}}, {"type": "Feature", "geometry": {"type": "LineString", "coordinates": [[-129.7091043843644, 68.22611145949293], [-129.72596435430233, 68.22503253909349]]}, "properties": {"source": "6430128", "target": "6062738"}}, {"type": "Feature", "geometry": {"type": "LineString", "coordinates": [[-129.7091043843644, 68.22611145949293], [-129.72435702289243, 68.22670697236723]]}, "properties": {"source": "6430128", "target": "937162"}}, {"type": "Feature", "geometry": {"type": "LineString", "coordinates": [[-129.7091043843644, 68.22611145949293], [-129.7104902912784, 68.22927252948017]]}, "properties": {"source": "6430128", "target": "6406012"}}, {"type": "Feature", "geometry": {"type": "LineString", "coordinates": [[-129.70849685368813, 68.2262620808064], [-129.70555738966598, 68.22972839214694]]}, "properties": {"source": "2090216", "target": "280739"}}, {"type": "Feature", "geometry": {"type": "LineString", "coordinates": [[-129.7137830283465, 68.22939088344452], [-129.70413030437922, 68.22411087467492]]}, "properties": {"source": "1769793", "target": "11408324"}}, {"type": "Feature", "geometry": {"type": "LineString", "coordinates": [[-129.7137830283465, 68.22939088344452], [-129.71218542214356, 68.22768156021323]]}, "properties": {"source": "1769793", "target": "11187445"}}, {"type": "Feature", "geometry": {"type": "LineString", "coordinates": [[-129.7137830283465, 68.22939088344452], [-129.71334118438645, 68.22970398589521]]}, "properties": {"source": "1769793", "target": "156248"}}, {"type": "Feature", "geometry": {"type": "LineString", "coordinates": [[-129.7137830283465, 68.22939088344452], [-129.73424362053714, 68.23212713228116]]}, "properties": {"source": "1769793", "target": "10178633"}}, {"type": "Feature", "geometry": {"type": "LineString", "coordinates": [[-129.7091043843644, 68.22611145949293], [-129.70613726721893, 68.23227932297968]]}, "properties": {"source": "6430128", "target": "6624415"}}, {"type": "Feature", "geometry": {"type": "LineString", "coordinates": [[-129.70849685368813, 68.2262620808064], [-129.72717540648048, 68.22579626877635]]}, "properties": {"source": "2090216", "target": "22452257"}}]}