{"type": "FeatureCollection", "features": [{"type": "Feature", "geometry": {"type": "LineString", "coordinates": [[125.97109943124565, 69.23013544633076], [125.97035522833198, 69.23040654726069]]}, "properties": {"source": "197848", "target": "3789001"}}, {"type": "Feature", "geometry": {"type": "LineString", "coordinates": [[125.97109943124565, 69.23013544633076], [125.97179621582035, 69.22983158569184]]}, "properties": {"source": "197848", "target": "15811625"}}, {"type": "Feature", "geometry": {"type": "LineString", "coordinates": [[125.97109943124565, 69.23013544633076], [125.97205968561474, 69.2297285550242]]}, "properties": {"source": "197848", "target": "1555533"}}, {"type": "Feature", "geometry": {"type": "LineString", "coordinates": [[125.96989192046516, 69.2310424276418], [125.97035522833198, 69.23040654726069]]}, "properties": {"source": "714765", "target": "3789001"}}, {"type": "Feature", "geometry": {"type": "LineString", "coordinates": [[125.96820266929666, 69.23068295670663], [125.97219064391288, 69.22973677719051]]}, "properties": {"source": "9947556", "target": "723368"}}, {"type": "Feature", "geometry": {"type": "LineString", "coordinates": [[125.96820266929666, 69.23068295670663], [125.97136420584684, 69.22978222583305]]}, "properties": {"source": "9947556", "target": "13243263"}}, {"type": "Feature", "geometry": {"type": "LineString", "coordinates": [[125.97174534849512, 69.23065917768449], [125.97035522833198, 69.23040654726069]]}, "properties": {"source": "690981", "target": "3789001"}}, {"type": "Feature", "geometry": {"type": "LineString", "coordinates": [[125.97174534849512, 69.23065917768449], [125.96989192046516, 69.2310424276418]]}, "properties": {"source": "690981", "target": "714765"}}, {"type": "Feature", "geometry": {"type": "LineString", "coordinates": [[125.96985532717281, 69.2305385515819], [125.97219064391288, 69.22973677719051]]}, "properties": {"source": "8132561", "target": "723368"}}, {"type": "Feature", "geometry": {"type": "LineString", "coordinates": [[125.96985532717281, 69.2305385515819], [125.97228626722585, 69.23104447776848]]}, "properties": {"source": "8132561", "target": "9923756"}}, {"type": "Feature", "geometry": {"type": "LineString", "coordinates": [[125.96985532717281, 69.2305385515819], [125.96878007652361, 69.23031205065371]]}, "properties": {"source": "8132561", "target": "9587256"}}, {"type": "Feature", "geometry": {"type": "LineString", "coordinates": [[125.97066497730799, 69.23040117214487], [125.97219064391288, 69.22973677719051]]}, "properties": {"source": "395270", "target": "723368"}}, {"type": "Feature", "geometry": {"type": "LineString", "coordinates": [[125.96842105287556, 69.23060145700063], [125.97084035447904, 69.23112475226321]]}, "properties": {"source": "15811620", "target": "22141759"}}, {"type": "Feature", "geometry": {"type": "LineString", "coordinates": [[125.96842105287556, 69.23060145700063], [125.97109943124565, 69.23013544633076]]}, "properties": {"source": "15811620", "target": "197848"}}, {"type": "Feature", "geometry": {"type": "LineString", "coordinates": [[125.96842105287556, 69.23060145700063], [125.97179621582035, 69.22983158569184]]}, "properties": {"source": "15811620", "target": "15811625"}}, {"type": "Feature", "geometry": {"type": "LineString", "coordinates": [[125.96842105287556, 69.23060145700063], [125.97205968561474, 69.2297285550242]]}, "properties": {"source": "15811620", "target": "1555533"}}, {"type": "Feature", "geometry": {"type": "LineString", "coordinates": [[125.97084035447904, 69.23112475226321], [125.97136420584684, 69.22978222583305]]}, "properties": {"source": "22141759", "target": "13243263"}}, {"type": "Feature", "geometry": {"type": "LineString", "coordinates": [[125.97084035447904, 69.23112475226321], [125.97035522833198, 69.23040654726069]]}, "properties": {"source": "22141759", "target": "3789001"}}, {"type": "Feature", "geometry": {"type": "LineString", "coordinates": [[125.97084035447904, 69.23112475226321], [125.97109943124565, 69.23013544633076]]}, "properties": {"source": "22141759", "target": "197848"}}, {"type": "Feature", "geometry": {"type": "LineString", "coordinates": [[125.97084035447904, 69.23112475226321], [125.97179621582035, 69.22983158569184]]}, "properties": {"source": "22141759", "target": "15811625"}}, {"type": "Feature", "geometry": {"type": "LineString", "coordinates": [[125.97084035447904, 69.23112475226321], [125.97205968561474, 69.2297285550242]]}, "properties": {"source": "22141759", "target": "1555533"}}, {"type": "Feature", "geometry": {"type": "LineString", "coordinates": [[125.97109943124565, 69.23013544633076], [125.97136420584684, 69.22978222583305]]}, "properties": {"source": "197848", "target": "13243263"}}, {"type": "Feature", "geometry": {"type": "LineString", "coordinates": [[125.97066497730799, 69.23040117214487], [125.96870397965347, 69.23075126089836]]}, "properties": {"source": "395270", "target": "85624"}}, {"type": "Feature", "geometry": {"type": "LineString", "coordinates": [[125.96870397965347, 69.23075126089836], [125.97219064391288, 69.22973677719051]]}, "properties": {"source": "85624", "target": "723368"}}, {"type": "Feature", "geometry": {"type": "LineString", "coordinates": [[125.97202847584907, 69.23087911453553], [125.97219064391288, 69.22973677719051]]}, "properties": {"source": "6579699", "target": "723368"}}, {"type": "Feature", "geometry": {"type": "LineString", "coordinates": [[125.97202847584907, 69.23087911453553], [125.96985532717281, 69.2305385515819]]}, "properties": {"source": "6579699", "target": "8132561"}}, {"type": "Feature", "geometry": {"type": "LineString", "coordinates": [[125.97228626722585, 69.23104447776848], [125.96878007652361, 69.23031205065371]]}, "properties": {"source": "9923756", "target": "9587256"}}, {"type": "Feature", "geometry": {"type": "LineString", "coordinates": [[125.97228819801506, 69.23086582540049], [125.97205968561474, 69.2297285550242]]}, "properties": {"source": "1531123", "target": "1555533"}}, {"type": "Feature", "geometry": {"type": "LineString", "coordinates": [[125.97035925139636, 69.23067625332769], [125.97136420584684, 69.22978222583305]]}, "properties": {"source": "13451329", "target": "13243263"}}, {"type": "Feature", "geometry": {"type": "LineString", "coordinates": [[125.97035925139636, 69.23067625332769], [125.97035522833198, 69.23040654726069]]}, "properties": {"source": "13451329", "target": "3789001"}}, {"type": "Feature", "geometry": {"type": "LineString", "coordinates": [[125.97035925139636, 69.23067625332769], [125.96842105287556, 69.23060145700063]]}, "properties": {"source": "13451329", "target": "15811620"}}, {"type": "Feature", "geometry": {"type": "LineString", "coordinates": [[125.97035925139636, 69.23067625332769], [125.97084035447904, 69.23112475226321]]}, "properties": {"source": "13451329", "target": "22141759"}}, {"type": "Feature", "geometry": {"type": "LineString", "coordinates": [[125.97035925139636, 69.23067625332769], [125.97109943124565, 69.23013544633076]]}, "properties": {"source": "13451329", "target": "197848"}}, {"type": "Feature", "geometry": {"type": "LineString", "coordinates": [[125.97035925139636, 69.23067625332769], [125.96989192046516, 69.2310424276418]]}, "properties": {"source": "13451329", "target": "714765"}}, {"type": "Feature", "geometry": {"type": "LineString", "coordinates": [[125.97035925139636, 69.23067625332769], [125.96820266929666, 69.23068295670663]]}, "properties": {"source": "13451329", "target": "9947556"}}, {"type": "Feature", "geometry": {"type": "LineString", "coordinates": [[125.97035925139636, 69.23067625332769], [125.96848006257176, 69.22999373965123]]}, "properties": {"source": "13451329", "target": "8069147"}}, {"type": "Feature", "geometry": {"type": "LineString", "coordinates": [[125.97035925139636, 69.23067625332769], [125.97218978992294, 69.23013528374327]]}, "properties": {"source": "13451329", "target": "563117"}}, {"type": "Feature", "geometry": {"type": "LineString", "coordinates": [[125.97219064391288, 69.22973677719051], [125.97035522833198, 69.23040654726069]]}, "properties": {"source": "723368", "target": "3789001"}}, {"type": "Feature", "geometry": {"type": "LineString", "coordinates": [[125.97219064391288, 69.22973677719051], [125.96989192046516, 69.2310424276418]]}, "properties": {"source": "723368", "target": "714765"}}, {"type": "Feature", "geometry": {"type": "LineString", "coordinates": [[125.97219064391288, 69.22973677719051], [125.97174534849512, 69.23065917768449]]}, "properties": {"source": "723368", "target": "690981"}}, {"type": "Feature", "geometry": {"type": "LineString", "coordinates": [[125.97136420584684, 69.22978222583305], [125.97035522833198, 69.23040654726069]]}, "properties": {"source": "13243263", "target": "3789001"}}, {"type": "Feature", "geometry": {"type": "LineString", "coordinates": [[125.97136420584684, 69.22978222583305], [125.96989192046516, 69.2310424276418]]}, "properties": {"source": "13243263", "target": "714765"}}, {"type": "Feature", "geometry": {"type": "LineString", "coordinates": [[125.96842105287556, 69.23060145700063], [125.97136420584684, 69.22978222583305]]}, "properties": {"source": "15811620", "target": "13243263"}}, {"type": "Feature", "geometry": {"type": "LineString", "coordinates": [[125.96842105287556, 69.23060145700063], [125.97035522833198, 69.23040654726069]]}, "properties": {"source": "15811620", "target": "3789001"}}, {"type": "Feature", "geometry": {"type": "LineString", "coordinates": [[125.96820266929666, 69.23068295670663], [125.96989192046516, 69.2310424276418]]}, "properties": {"source": "9947556", "target": "714765"}}, {"type": "Feature", "geometry": {"type": "LineString", "coordinates": [[125.96820266929666, 69.23068295670663], [125.96848006257176, 69.22999373965123]]}, "properties": {"source": "9947556", "target": "8069147"}}, {"type": "Feature", "geometry": {"type": "LineString", "coordinates": [[125.96820266929666, 69.23068295670663], [125.97174534849512, 69.23065917768449]]}, "properties": {"source": "9947556", "target": "690981"}}, {"type": "Feature", "geometry": {"type": "LineString", "coordinates": [[125.96848006257176, 69.22999373965123], [125.97219064391288, 69.22973677719051]]}, "properties": {"source": "8069147", "target": "723368"}}, {"type": "Feature", "geometry": {"type": "LineString", "coordinates": [[125.96848006257176, 69.22999373965123], [125.97136420584684, 69.22978222583305]]}, "properties": {"source": "8069147", "target": "13243263"}}, {"type": "Feature", "geometry": {"type": "LineString", "coordinates": [[125.96848006257176, 69.22999373965123], [125.96989192046516, 69.2310424276418]]}, "properties": {"source": "8069147", "target": "714765"}}, {"type": "Feature", "geometry": {"type": "LineString", "coordinates": [[125.96848006257176, 69.22999373965123], [125.97174534849512, 69.23065917768449]]}, "properties": {"source": "8069147", "target": "690981"}}, {"type": "Feature", "geometry": {"type": "LineString", "coordinates": [[125.97179621582035, 69.22983158569184], [125.97136420584684, 69.22978222583305]]}, "properties": {"source": "15811625", "target": "13243263"}}, {"type": "Feature", "geometry": {"type": "LineString", "coordinates": [[125.97179621582035, 69.22983158569184], [125.97035522833198, 69.23040654726069]]}, "properties": {"source": "15811625", "target": "3789001"}}, {"type": "Feature", "geometry": {"type": "LineString", "coordinates": [[125.97179621582035, 69.22983158569184], [125.97205968561474, 69.2297285550242]]}, "properties": {"source": "15811625", "target": "1555533"}}]}