{"type": "FeatureCollection", "features": [{"type": "Feature", "geometry": {"type": "LineString", "coordinates": [[90.1813279132653, 69.0384617005453], [90.17932502277426, 69.04002779811111]]}, "properties": {"source": "10126924", "target": "431195"}}, {"type": "Feature", "geometry": {"type": "LineString", "coordinates": [[90.1813279132653, 69.0384617005453], [90.17287605707475, 69.04048234265585]]}, "properties": {"source": "10126924", "target": "356425"}}, {"type": "Feature", "geometry": {"type": "LineString", "coordinates": [[90.17280780625003, 69.04104975937045], [90.17932502277426, 69.04002779811111]]}, "properties": {"source": "1562040", "target": "431195"}}, {"type": "Feature", "geometry": {"type": "LineString", "coordinates": [[90.1786288576933, 69.03885790505643], [90.1869151587232, 69.04046233887772]]}, "properties": {"source": "1279628", "target": "2041713"}}, {"type": "Feature", "geometry": {"type": "LineString", "coordinates": [[90.1786288576933, 69.03885790505643], [90.17449279227719, 69.03780741539725]]}, "properties": {"source": "1279628", "target": "2041740"}}, {"type": "Feature", "geometry": {"type": "LineString", "coordinates": [[90.1786288576933, 69.03885790505643], [90.17473652023352, 69.03783019184786]]}, "properties": {"source": "1279628", "target": "1545911"}}, {"type": "Feature", "geometry": {"type": "LineString", "coordinates": [[90.17767050085655, 69.03793362849657], [90.17947504060578, 69.0414951162341]]}, "properties": {"source": "1606655", "target": "1793782"}}, {"type": "Feature", "geometry": {"type": "LineString", "coordinates": [[90.17767050085655, 69.03793362849657], [90.17399868224351, 69.04035557471079]]}, "properties": {"source": "1606655", "target": "1793819"}}, {"type": "Feature", "geometry": {"type": "LineString", "coordinates": [[90.17767050085655, 69.03793362849657], [90.18291542991994, 69.04151767212187]]}, "properties": {"source": "1606655", "target": "1606657"}}, {"type": "Feature", "geometry": {"type": "LineString", "coordinates": [[90.180193573044, 69.04207839513421], [90.17371540106035, 69.04052549781511]]}, "properties": {"source": "8661421", "target": "6993505"}}, {"type": "Feature", "geometry": {"type": "LineString", "coordinates": [[90.180193573044, 69.04207839513421], [90.18282455349538, 69.04201501302714]]}, "properties": {"source": "8661421", "target": "8544118"}}, {"type": "Feature", "geometry": {"type": "LineString", "coordinates": [[90.180193573044, 69.04207839513421], [90.1758600953413, 69.04167781782365]]}, "properties": {"source": "8661421", "target": "7113675"}}, {"type": "Feature", "geometry": {"type": "LineString", "coordinates": [[90.17399868224351, 69.04035557471079], [90.17947504060578, 69.0414951162341]]}, "properties": {"source": "1793819", "target": "1793782"}}, {"type": "Feature", "geometry": {"type": "LineString", "coordinates": [[90.17308195695017, 69.03996220252122], [90.17698739568357, 69.03818641239772]]}, "properties": {"source": "3770453", "target": "5473072"}}, {"type": "Feature", "geometry": {"type": "LineString", "coordinates": [[90.17665683514889, 69.04204959583885], [90.17932502277426, 69.04002779811111]]}, "properties": {"source": "7221887", "target": "431195"}}, {"type": "Feature", "geometry": {"type": "LineString", "coordinates": [[90.17665683514889, 69.04204959583885], [90.17287605707475, 69.04048234265585]]}, "properties": {"source": "7221887", "target": "356425"}}, {"type": "Feature", "geometry": {"type": "LineString", "coordinates": [[90.17665683514889, 69.04204959583885], [90.17925338948896, 69.04130822546077]]}, "properties": {"source": "7221887", "target": "2890354"}}, {"type": "Feature", "geometry": {"type": "LineString", "coordinates": [[90.17665683514889, 69.04204959583885], [90.18584353648828, 69.03810667036001]]}, "properties": {"source": "7221887", "target": "283123"}}, {"type": "Feature", "geometry": {"type": "LineString", "coordinates": [[90.17665683514889, 69.04204959583885], [90.17944763818878, 69.04208353926919]]}, "properties": {"source": "7221887", "target": "9273174"}}, {"type": "Feature", "geometry": {"type": "LineString", "coordinates": [[90.17665683514889, 69.04204959583885], [90.17775208790073, 69.04031354460543]]}, "properties": {"source": "7221887", "target": "1819038"}}, {"type": "Feature", "geometry": {"type": "LineString", "coordinates": [[90.18587827919441, 69.04065511134507], [90.17932502277426, 69.04002779811111]]}, "properties": {"source": "25877114", "target": "431195"}}, {"type": "Feature", "geometry": {"type": "LineString", "coordinates": [[90.17398661535412, 69.03919161973505], [90.17932502277426, 69.04002779811111]]}, "properties": {"source": "602600", "target": "431195"}}, {"type": "Feature", "geometry": {"type": "LineString", "coordinates": [[90.17398661535412, 69.03919161973505], [90.17287605707475, 69.04048234265585]]}, "properties": {"source": "602600", "target": "356425"}}, {"type": "Feature", "geometry": {"type": "LineString", "coordinates": [[90.17398661535412, 69.03919161973505], [90.17665683514889, 69.04204959583885]]}, "properties": {"source": "602600", "target": "7221887"}}, {"type": "Feature", "geometry": {"type": "LineString", "coordinates": [[90.17398661535412, 69.03919161973505], [90.17925338948896, 69.04130822546077]]}, "properties": {"source": "602600", "target": "2890354"}}, {"type": "Feature", "geometry": {"type": "LineString", "coordinates": [[90.17398661535412, 69.03919161973505], [90.17944763818878, 69.04208353926919]]}, "properties": {"source": "602600", "target": "9273174"}}, {"type": "Feature", "geometry": {"type": "LineString", "coordinates": [[90.17398661535412, 69.03919161973505], [90.17374730342823, 69.03763831995826]]}, "properties": {"source": "602600", "target": "33236378"}}, {"type": "Feature", "geometry": {"type": "LineString", "coordinates": [[90.17398661535412, 69.03919161973505], [90.1725764469229, 69.04070276982117]]}, "properties": {"source": "602600", "target": "25777967"}}, {"type": "Feature", "geometry": {"type": "LineString", "coordinates": [[90.18587827919441, 69.04065511134507], [90.17287605707475, 69.04048234265585]]}, "properties": {"source": "25877114", "target": "356425"}}, {"type": "Feature", "geometry": {"type": "LineString", "coordinates": [[90.18587827919441, 69.04065511134507], [90.17807415185047, 69.03728553606518]]}, "properties": {"source": "25877114", "target": "17332222"}}, {"type": "Feature", "geometry": {"type": "LineString", "coordinates": [[90.18587827919441, 69.04065511134507], [90.17427380771386, 69.03868316006614]]}, "properties": {"source": "25877114", "target": "31702772"}}, {"type": "Feature", "geometry": {"type": "LineString", "coordinates": [[90.18587827919441, 69.04065511134507], [90.17925338948896, 69.04130822546077]]}, "properties": {"source": "25877114", "target": "2890354"}}, {"type": "Feature", "geometry": {"type": "LineString", "coordinates": [[90.18587827919441, 69.04065511134507], [90.18333144460337, 69.03886749007518]]}, "properties": {"source": "25877114", "target": "167058"}}, {"type": "Feature", "geometry": {"type": "LineString", "coordinates": [[90.18587827919441, 69.04065511134507], [90.17947504060578, 69.0414951162341]]}, "properties": {"source": "25877114", "target": "1793782"}}, {"type": "Feature", "geometry": {"type": "LineString", "coordinates": [[90.18587827919441, 69.04065511134507], [90.17732880734263, 69.04106985103036]]}, "properties": {"source": "25877114", "target": "17332216"}}, {"type": "Feature", "geometry": {"type": "LineString", "coordinates": [[90.18587827919441, 69.04065511134507], [90.1788228143119, 69.0388233420257]]}, "properties": {"source": "25877114", "target": "13573635"}}, {"type": "Feature", "geometry": {"type": "LineString", "coordinates": [[90.18587827919441, 69.04065511134507], [90.18163118280955, 69.03963805973203]]}, "properties": {"source": "25877114", "target": "1281495"}}, {"type": "Feature", "geometry": {"type": "LineString", "coordinates": [[90.18587827919441, 69.04065511134507], [90.17300866455668, 69.03790408057895]]}, "properties": {"source": "25877114", "target": "6736145"}}, {"type": "Feature", "geometry": {"type": "LineString", "coordinates": [[90.18587827919441, 69.04065511134507], [90.18695594996564, 69.04122996978782]]}, "properties": {"source": "25877114", "target": "29249"}}, {"type": "Feature", "geometry": {"type": "LineString", "coordinates": [[90.18587827919441, 69.04065511134507], [90.1725764469229, 69.04070276982117]]}, "properties": {"source": "25877114", "target": "25777967"}}, {"type": "Feature", "geometry": {"type": "LineString", "coordinates": [[90.17427380771386, 69.03868316006614], [90.17932502277426, 69.04002779811111]]}, "properties": {"source": "31702772", "target": "431195"}}, {"type": "Feature", "geometry": {"type": "LineString", "coordinates": [[90.17427380771386, 69.03868316006614], [90.17287605707475, 69.04048234265585]]}, "properties": {"source": "31702772", "target": "356425"}}, {"type": "Feature", "geometry": {"type": "LineString", "coordinates": [[90.18333144460337, 69.03886749007518], [90.17932502277426, 69.04002779811111]]}, "properties": {"source": "167058", "target": "431195"}}, {"type": "Feature", "geometry": {"type": "LineString", "coordinates": [[90.18333144460337, 69.03886749007518], [90.17287605707475, 69.04048234265585]]}, "properties": {"source": "167058", "target": "356425"}}, {"type": "Feature", "geometry": {"type": "LineString", "coordinates": [[90.18587827919441, 69.04065511134507], [90.17398661535412, 69.03919161973505]]}, "properties": {"source": "25877114", "target": "602600"}}, {"type": "Feature", "geometry": {"type": "LineString", "coordinates": [[90.17427380771386, 69.03868316006614], [90.17398661535412, 69.03919161973505]]}, "properties": {"source": "31702772", "target": "602600"}}, {"type": "Feature", "geometry": {"type": "LineString", "coordinates": [[90.18164022144055, 69.03863381275534], [90.17775208790073, 69.04031354460543]]}, "properties": {"source": "658544", "target": "1819038"}}, {"type": "Feature", "geometry": {"type": "LineString", "coordinates": [[90.18199597049221, 69.03739033904051], [90.18584353648828, 69.03810667036001]]}, "properties": {"source": "283126", "target": "283123"}}, {"type": "Feature", "geometry": {"type": "LineString", "coordinates": [[90.18199597049221, 69.03739033904051], [90.17848773838097, 69.04069731157315]]}, "properties": {"source": "283126", "target": "283116"}}, {"type": "Feature", "geometry": {"type": "LineString", "coordinates": [[90.18199597049221, 69.03739033904051], [90.17514058366265, 69.03728428223829]]}, "properties": {"source": "283126", "target": "283111"}}, {"type": "Feature", "geometry": {"type": "LineString", "coordinates": [[90.17514058366265, 69.03728428223829], [90.18584353648828, 69.03810667036001]]}, "properties": {"source": "283111", "target": "283123"}}, {"type": "Feature", "geometry": {"type": "LineString", "coordinates": [[90.17374730342823, 69.03763831995826], [90.17932502277426, 69.04002779811111]]}, "properties": {"source": "33236378", "target": "431195"}}, {"type": "Feature", "geometry": {"type": "LineString", "coordinates": [[90.17374730342823, 69.03763831995826], [90.17287605707475, 69.04048234265585]]}, "properties": {"source": "33236378", "target": "356425"}}, {"type": "Feature", "geometry": {"type": "LineString", "coordinates": [[90.17374730342823, 69.03763831995826], [90.17665683514889, 69.04204959583885]]}, "properties": {"source": "33236378", "target": "7221887"}}, {"type": "Feature", "geometry": {"type": "LineString", "coordinates": [[90.17775208790073, 69.04031354460543], [90.18584353648828, 69.03810667036001]]}, "properties": {"source": "1819038", "target": "283123"}}, {"type": "Feature", "geometry": {"type": "LineString", "coordinates": [[90.17708782482362, 69.039602123158], [90.17932502277426, 69.04002779811111]]}, "properties": {"source": "10034925", "target": "431195"}}, {"type": "Feature", "geometry": {"type": "LineString", "coordinates": [[90.18075936411367, 69.03778085685323], [90.18584353648828, 69.03810667036001]]}, "properties": {"source": "283107", "target": "283123"}}, {"type": "Feature", "geometry": {"type": "LineString", "coordinates": [[90.18075936411367, 69.03778085685323], [90.17848773838097, 69.04069731157315]]}, "properties": {"source": "283107", "target": "283116"}}, {"type": "Feature", "geometry": {"type": "LineString", "coordinates": [[90.18075936411367, 69.03778085685323], [90.17514058366265, 69.03728428223829]]}, "properties": {"source": "283107", "target": "283111"}}, {"type": "Feature", "geometry": {"type": "LineString", "coordinates": [[90.18490414909274, 69.03811482203514], [90.18472481469718, 69.0415083642435]]}, "properties": {"source": "883174", "target": "234949"}}, {"type": "Feature", "geometry": {"type": "LineString", "coordinates": [[90.18490414909274, 69.03811482203514], [90.18584353648828, 69.03810667036001]]}, "properties": {"source": "883174", "target": "283123"}}, {"type": "Feature", "geometry": {"type": "LineString", "coordinates": [[90.18199597049221, 69.03739033904051], [90.18075936411367, 69.03778085685323]]}, "properties": {"source": "283126", "target": "283107"}}, {"type": "Feature", "geometry": {"type": "LineString", "coordinates": [[90.18490414909274, 69.03811482203514], [90.17944763818878, 69.04208353926919]]}, "properties": {"source": "883174", "target": "9273174"}}, {"type": "Feature", "geometry": {"type": "LineString", "coordinates": [[90.18490414909274, 69.03811482203514], [90.17848773838097, 69.04069731157315]]}, "properties": {"source": "883174", "target": "283116"}}, {"type": "Feature", "geometry": {"type": "LineString", "coordinates": [[90.18490414909274, 69.03811482203514], [90.1839554179075, 69.04094104699581]]}, "properties": {"source": "883174", "target": "1819582"}}, {"type": "Feature", "geometry": {"type": "LineString", "coordinates": [[90.18490414909274, 69.03811482203514], [90.18164022144055, 69.03863381275534]]}, "properties": {"source": "883174", "target": "658544"}}, {"type": "Feature", "geometry": {"type": "LineString", "coordinates": [[90.18490414909274, 69.03811482203514], [90.17775208790073, 69.04031354460543]]}, "properties": {"source": "883174", "target": "1819038"}}, {"type": "Feature", "geometry": {"type": "LineString", "coordinates": [[90.17607261961774, 69.03719713868384], [90.18391049698425, 69.03898904848691]]}, "properties": {"source": "745024", "target": "1837784"}}, {"type": "Feature", "geometry": {"type": "LineString", "coordinates": [[90.17607261961774, 69.03719713868384], [90.18472481469718, 69.0415083642435]]}, "properties": {"source": "745024", "target": "234949"}}, {"type": "Feature", "geometry": {"type": "LineString", "coordinates": [[90.17607261961774, 69.03719713868384], [90.178459741339, 69.04164337358722]]}, "properties": {"source": "745024", "target": "1837782"}}, {"type": "Feature", "geometry": {"type": "LineString", "coordinates": [[90.17607261961774, 69.03719713868384], [90.18733249343967, 69.04019126988194]]}, "properties": {"source": "745024", "target": "18710990"}}, {"type": "Feature", "geometry": {"type": "LineString", "coordinates": [[90.17607261961774, 69.03719713868384], [90.1787196695991, 69.03835857495773]]}, "properties": {"source": "745024", "target": "31828395"}}, {"type": "Feature", "geometry": {"type": "LineString", "coordinates": [[90.17607261961774, 69.03719713868384], [90.17350027007592, 69.04176625826292]]}, "properties": {"source": "745024", "target": "18282064"}}, {"type": "Feature", "geometry": {"type": "LineString", "coordinates": [[90.17607261961774, 69.03719713868384], [90.17756987149454, 69.03742573878111]]}, "properties": {"source": "745024", "target": "28384663"}}, {"type": "Feature", "geometry": {"type": "LineString", "coordinates": [[90.17607261961774, 69.03719713868384], [90.18562858842847, 69.03823695099246]]}, "properties": {"source": "745024", "target": "22044039"}}, {"type": "Feature", "geometry": {"type": "LineString", "coordinates": [[90.17607261961774, 69.03719713868384], [90.17890766027057, 69.0418875812747]]}, "properties": {"source": "745024", "target": "12050465"}}, {"type": "Feature", "geometry": {"type": "LineString", "coordinates": [[90.178459741339, 69.04164337358722], [90.1787196695991, 69.03835857495773]]}, "properties": {"source": "1837782", "target": "31828395"}}, {"type": "Feature", "geometry": {"type": "LineString", "coordinates": [[90.178459741339, 69.04164337358722], [90.17350027007592, 69.04176625826292]]}, "properties": {"source": "1837782", "target": "18282064"}}, {"type": "Feature", "geometry": {"type": "LineString", "coordinates": [[90.17427380771386, 69.03868316006614], [90.1725764469229, 69.04070276982117]]}, "properties": {"source": "31702772", "target": "25777967"}}, {"type": "Feature", "geometry": {"type": "LineString", "coordinates": [[90.17427380771386, 69.03868316006614], [90.1813279132653, 69.0384617005453]]}, "properties": {"source": "31702772", "target": "10126924"}}, {"type": "Feature", "geometry": {"type": "LineString", "coordinates": [[90.17925338948896, 69.04130822546077], [90.17287605707475, 69.04048234265585]]}, "properties": {"source": "2890354", "target": "356425"}}, {"type": "Feature", "geometry": {"type": "LineString", "coordinates": [[90.18391049698425, 69.03898904848691], [90.18472481469718, 69.0415083642435]]}, "properties": {"source": "1837784", "target": "234949"}}, {"type": "Feature", "geometry": {"type": "LineString", "coordinates": [[90.18391049698425, 69.03898904848691], [90.178459741339, 69.04164337358722]]}, "properties": {"source": "1837784", "target": "1837782"}}, {"type": "Feature", "geometry": {"type": "LineString", "coordinates": [[90.18391049698425, 69.03898904848691], [90.18733249343967, 69.04019126988194]]}, "properties": {"source": "1837784", "target": "18710990"}}, {"type": "Feature", "geometry": {"type": "LineString", "coordinates": [[90.18391049698425, 69.03898904848691], [90.1787196695991, 69.03835857495773]]}, "properties": {"source": "1837784", "target": "31828395"}}, {"type": "Feature", "geometry": {"type": "LineString", "coordinates": [[90.18391049698425, 69.03898904848691], [90.17350027007592, 69.04176625826292]]}, "properties": {"source": "1837784", "target": "18282064"}}, {"type": "Feature", "geometry": {"type": "LineString", "coordinates": [[90.18391049698425, 69.03898904848691], [90.17756987149454, 69.03742573878111]]}, "properties": {"source": "1837784", "target": "28384663"}}, {"type": "Feature", "geometry": {"type": "LineString", "coordinates": [[90.18391049698425, 69.03898904848691], [90.18562858842847, 69.03823695099246]]}, "properties": {"source": "1837784", "target": "22044039"}}, {"type": "Feature", "geometry": {"type": "LineString", "coordinates": [[90.18391049698425, 69.03898904848691], [90.17890766027057, 69.0418875812747]]}, "properties": {"source": "1837784", "target": "12050465"}}, {"type": "Feature", "geometry": {"type": "LineString", "coordinates": [[90.18391049698425, 69.03898904848691], [90.17375055911924, 69.04087558479424]]}, "properties": {"source": "1837784", "target": "16300971"}}, {"type": "Feature", "geometry": {"type": "LineString", "coordinates": [[90.18490414909274, 69.03811482203514], [90.17287605707475, 69.04048234265585]]}, "properties": {"source": "883174", "target": "356425"}}, {"type": "Feature", "geometry": {"type": "LineString", "coordinates": [[90.18490414909274, 69.03811482203514], [90.17665683514889, 69.04204959583885]]}, "properties": {"source": "883174", "target": "7221887"}}, {"type": "Feature", "geometry": {"type": "LineString", "coordinates": [[90.18164022144055, 69.03863381275534], [90.17665683514889, 69.04204959583885]]}, "properties": {"source": "658544", "target": "7221887"}}, {"type": "Feature", "geometry": {"type": "LineString", "coordinates": [[90.18164022144055, 69.03863381275534], [90.18584353648828, 69.03810667036001]]}, "properties": {"source": "658544", "target": "283123"}}, {"type": "Feature", "geometry": {"type": "LineString", "coordinates": [[90.18333144460337, 69.03886749007518], [90.17665683514889, 69.04204959583885]]}, "properties": {"source": "167058", "target": "7221887"}}, {"type": "Feature", "geometry": {"type": "LineString", "coordinates": [[90.18333144460337, 69.03886749007518], [90.17427380771386, 69.03868316006614]]}, "properties": {"source": "167058", "target": "31702772"}}, {"type": "Feature", "geometry": {"type": "LineString", "coordinates": [[90.18333144460337, 69.03886749007518], [90.17925338948896, 69.04130822546077]]}, "properties": {"source": "167058", "target": "2890354"}}, {"type": "Feature", "geometry": {"type": "LineString", "coordinates": [[90.18333144460337, 69.03886749007518], [90.1788228143119, 69.0388233420257]]}, "properties": {"source": "167058", "target": "13573635"}}, {"type": "Feature", "geometry": {"type": "LineString", "coordinates": [[90.18333144460337, 69.03886749007518], [90.17944763818878, 69.04208353926919]]}, "properties": {"source": "167058", "target": "9273174"}}, {"type": "Feature", "geometry": {"type": "LineString", "coordinates": [[90.18333144460337, 69.03886749007518], [90.18163118280955, 69.03963805973203]]}, "properties": {"source": "167058", "target": "1281495"}}, {"type": "Feature", "geometry": {"type": "LineString", "coordinates": [[90.18472481469718, 69.0415083642435], [90.17665683514889, 69.04204959583885]]}, "properties": {"source": "234949", "target": "7221887"}}, {"type": "Feature", "geometry": {"type": "LineString", "coordinates": [[90.18472481469718, 69.0415083642435], [90.1839554179075, 69.04094104699581]]}, "properties": {"source": "234949", "target": "1819582"}}, {"type": "Feature", "geometry": {"type": "LineString", "coordinates": [[90.18472481469718, 69.0415083642435], [90.18164022144055, 69.03863381275534]]}, "properties": {"source": "234949", "target": "658544"}}, {"type": "Feature", "geometry": {"type": "LineString", "coordinates": [[90.18472481469718, 69.0415083642435], [90.17756987149454, 69.03742573878111]]}, "properties": {"source": "234949", "target": "28384663"}}, {"type": "Feature", "geometry": {"type": "LineString", "coordinates": [[90.18472481469718, 69.0415083642435], [90.17775208790073, 69.04031354460543]]}, "properties": {"source": "234949", "target": "1819038"}}, {"type": "Feature", "geometry": {"type": "LineString", "coordinates": [[90.18742930015378, 69.0374733859139], [90.18391049698425, 69.03898904848691]]}, "properties": {"source": "1075297", "target": "1837784"}}, {"type": "Feature", "geometry": {"type": "LineString", "coordinates": [[90.18742930015378, 69.0374733859139], [90.17607261961774, 69.03719713868384]]}, "properties": {"source": "1075297", "target": "745024"}}, {"type": "Feature", "geometry": {"type": "LineString", "coordinates": [[90.18461718357253, 69.03857720327224], [90.17698739568357, 69.03818641239772]]}, "properties": {"source": "16109731", "target": "5473072"}}, {"type": "Feature", "geometry": {"type": "LineString", "coordinates": [[90.18333144460337, 69.03886749007518], [90.17398661535412, 69.03919161973505]]}, "properties": {"source": "167058", "target": "602600"}}, {"type": "Feature", "geometry": {"type": "LineString", "coordinates": [[90.18461718357253, 69.03857720327224], [90.17308195695017, 69.03996220252122]]}, "properties": {"source": "16109731", "target": "3770453"}}, {"type": "Feature", "geometry": {"type": "LineString", "coordinates": [[90.17585278358877, 69.04189912150034], [90.17374730342823, 69.03763831995826]]}, "properties": {"source": "711718", "target": "33236378"}}, {"type": "Feature", "geometry": {"type": "LineString", "coordinates": [[90.1869151587232, 69.04046233887772], [90.17932502277426, 69.04002779811111]]}, "properties": {"source": "2041713", "target": "431195"}}, {"type": "Feature", "geometry": {"type": "LineString", "coordinates": [[90.1869151587232, 69.04046233887772], [90.17449279227719, 69.03780741539725]]}, "properties": {"source": "2041713", "target": "2041740"}}, {"type": "Feature", "geometry": {"type": "LineString", "coordinates": [[90.1869151587232, 69.04046233887772], [90.17371540106035, 69.04052549781511]]}, "properties": {"source": "2041713", "target": "6993505"}}, {"type": "Feature", "geometry": {"type": "LineString", "coordinates": [[90.1869151587232, 69.04046233887772], [90.17473652023352, 69.03783019184786]]}, "properties": {"source": "2041713", "target": "1545911"}}, {"type": "Feature", "geometry": {"type": "LineString", "coordinates": [[90.1869151587232, 69.04046233887772], [90.17280780625003, 69.04104975937045]]}, "properties": {"source": "2041713", "target": "1562040"}}, {"type": "Feature", "geometry": {"type": "LineString", "coordinates": [[90.18163118280955, 69.03963805973203], [90.17932502277426, 69.04002779811111]]}, "properties": {"source": "1281495", "target": "431195"}}, {"type": "Feature", "geometry": {"type": "LineString", "coordinates": [[90.18163118280955, 69.03963805973203], [90.17287605707475, 69.04048234265585]]}, "properties": {"source": "1281495", "target": "356425"}}, {"type": "Feature", "geometry": {"type": "LineString", "coordinates": [[90.18163118280955, 69.03963805973203], [90.17427380771386, 69.03868316006614]]}, "properties": {"source": "1281495", "target": "31702772"}}, {"type": "Feature", "geometry": {"type": "LineString", "coordinates": [[90.17449279227719, 69.03780741539725], [90.17932502277426, 69.04002779811111]]}, "properties": {"source": "2041740", "target": "431195"}}, {"type": "Feature", "geometry": {"type": "LineString", "coordinates": [[90.17449279227719, 69.03780741539725], [90.17371540106035, 69.04052549781511]]}, "properties": {"source": "2041740", "target": "6993505"}}, {"type": "Feature", "geometry": {"type": "LineString", "coordinates": [[90.17449279227719, 69.03780741539725], [90.17473652023352, 69.03783019184786]]}, "properties": {"source": "2041740", "target": "1545911"}}, {"type": "Feature", "geometry": {"type": "LineString", "coordinates": [[90.17449279227719, 69.03780741539725], [90.17280780625003, 69.04104975937045]]}, "properties": {"source": "2041740", "target": "1562040"}}, {"type": "Feature", "geometry": {"type": "LineString", "coordinates": [[90.17427380771386, 69.03868316006614], [90.17925338948896, 69.04130822546077]]}, "properties": {"source": "31702772", "target": "2890354"}}, {"type": "Feature", "geometry": {"type": "LineString", "coordinates": [[90.17427380771386, 69.03868316006614], [90.18695594996564, 69.04122996978782]]}, "properties": {"source": "31702772", "target": "29249"}}, {"type": "Feature", "geometry": {"type": "LineString", "coordinates": [[90.18163118280955, 69.03963805973203], [90.17398661535412, 69.03919161973505]]}, "properties": {"source": "1281495", "target": "602600"}}, {"type": "Feature", "geometry": {"type": "LineString", "coordinates": [[90.178459741339, 69.04164337358722], [90.17756987149454, 69.03742573878111]]}, "properties": {"source": "1837782", "target": "28384663"}}, {"type": "Feature", "geometry": {"type": "LineString", "coordinates": [[90.178459741339, 69.04164337358722], [90.18562858842847, 69.03823695099246]]}, "properties": {"source": "1837782", "target": "22044039"}}, {"type": "Feature", "geometry": {"type": "LineString", "coordinates": [[90.17732880734263, 69.04106985103036], [90.17932502277426, 69.04002779811111]]}, "properties": {"source": "17332216", "target": "431195"}}, {"type": "Feature", "geometry": {"type": "LineString", "coordinates": [[90.17732880734263, 69.04106985103036], [90.17287605707475, 69.04048234265585]]}, "properties": {"source": "17332216", "target": "356425"}}, {"type": "Feature", "geometry": {"type": "LineString", "coordinates": [[90.17732880734263, 69.04106985103036], [90.17665683514889, 69.04204959583885]]}, "properties": {"source": "17332216", "target": "7221887"}}, {"type": "Feature", "geometry": {"type": "LineString", "coordinates": [[90.17732880734263, 69.04106985103036], [90.17427380771386, 69.03868316006614]]}, "properties": {"source": "17332216", "target": "31702772"}}, {"type": "Feature", "geometry": {"type": "LineString", "coordinates": [[90.17732880734263, 69.04106985103036], [90.17925338948896, 69.04130822546077]]}, "properties": {"source": "17332216", "target": "2890354"}}, {"type": "Feature", "geometry": {"type": "LineString", "coordinates": [[90.17732880734263, 69.04106985103036], [90.17944763818878, 69.04208353926919]]}, "properties": {"source": "17332216", "target": "9273174"}}, {"type": "Feature", "geometry": {"type": "LineString", "coordinates": [[90.1788228143119, 69.0388233420257], [90.17932502277426, 69.04002779811111]]}, "properties": {"source": "13573635", "target": "431195"}}, {"type": "Feature", "geometry": {"type": "LineString", "coordinates": [[90.1788228143119, 69.0388233420257], [90.17287605707475, 69.04048234265585]]}, "properties": {"source": "13573635", "target": "356425"}}, {"type": "Feature", "geometry": {"type": "LineString", "coordinates": [[90.1788228143119, 69.0388233420257], [90.17427380771386, 69.03868316006614]]}, "properties": {"source": "13573635", "target": "31702772"}}, {"type": "Feature", "geometry": {"type": "LineString", "coordinates": [[90.1788228143119, 69.0388233420257], [90.17925338948896, 69.04130822546077]]}, "properties": {"source": "13573635", "target": "2890354"}}, {"type": "Feature", "geometry": {"type": "LineString", "coordinates": [[90.17807415185047, 69.03728553606518], [90.1813279132653, 69.0384617005453]]}, "properties": {"source": "17332222", "target": "10126924"}}, {"type": "Feature", "geometry": {"type": "LineString", "coordinates": [[90.17807415185047, 69.03728553606518], [90.18190982470719, 69.03928065980281]]}, "properties": {"source": "17332222", "target": "13577823"}}, {"type": "Feature", "geometry": {"type": "LineString", "coordinates": [[90.17732880734263, 69.04106985103036], [90.17398661535412, 69.03919161973505]]}, "properties": {"source": "17332216", "target": "602600"}}, {"type": "Feature", "geometry": {"type": "LineString", "coordinates": [[90.1788228143119, 69.0388233420257], [90.17398661535412, 69.03919161973505]]}, "properties": {"source": "13573635", "target": "602600"}}, {"type": "Feature", "geometry": {"type": "LineString", "coordinates": [[90.17399868224351, 69.04035557471079], [90.18291542991994, 69.04151767212187]]}, "properties": {"source": "1793819", "target": "1606657"}}, {"type": "Feature", "geometry": {"type": "LineString", "coordinates": [[90.17761899326695, 69.0418469609784], [90.1869151587232, 69.04046233887772]]}, "properties": {"source": "816763", "target": "2041713"}}, {"type": "Feature", "geometry": {"type": "LineString", "coordinates": [[90.17761899326695, 69.0418469609784], [90.17449279227719, 69.03780741539725]]}, "properties": {"source": "816763", "target": "2041740"}}, {"type": "Feature", "geometry": {"type": "LineString", "coordinates": [[90.17761899326695, 69.0418469609784], [90.17473652023352, 69.03783019184786]]}, "properties": {"source": "816763", "target": "1545911"}}, {"type": "Feature", "geometry": {"type": "LineString", "coordinates": [[90.17347578455724, 69.03910483313507], [90.17932502277426, 69.04002779811111]]}, "properties": {"source": "1689350", "target": "431195"}}, {"type": "Feature", "geometry": {"type": "LineString", "coordinates": [[90.17347578455724, 69.03910483313507], [90.17287605707475, 69.04048234265585]]}, "properties": {"source": "1689350", "target": "356425"}}, {"type": "Feature", "geometry": {"type": "LineString", "coordinates": [[90.17347578455724, 69.03910483313507], [90.17807415185047, 69.03728553606518]]}, "properties": {"source": "1689350", "target": "17332222"}}, {"type": "Feature", "geometry": {"type": "LineString", "coordinates": [[90.17822342736122, 69.04059211149041], [90.18461718357253, 69.03857720327224]]}, "properties": {"source": "28436767", "target": "16109731"}}, {"type": "Feature", "geometry": {"type": "LineString", "coordinates": [[90.18282455349538, 69.04201501302714], [90.17371540106035, 69.04052549781511]]}, "properties": {"source": "8544118", "target": "6993505"}}, {"type": "Feature", "geometry": {"type": "LineString", "coordinates": [[90.18282455349538, 69.04201501302714], [90.1758600953413, 69.04167781782365]]}, "properties": {"source": "8544118", "target": "7113675"}}, {"type": "Feature", "geometry": {"type": "LineString", "coordinates": [[90.18240684663891, 69.04193250390003], [90.18733249343967, 69.04019126988194]]}, "properties": {"source": "20889457", "target": "18710990"}}, {"type": "Feature", "geometry": {"type": "LineString", "coordinates": [[90.18240684663891, 69.04193250390003], [90.1787196695991, 69.03835857495773]]}, "properties": {"source": "20889457", "target": "31828395"}}, {"type": "Feature", "geometry": {"type": "LineString", "coordinates": [[90.17813905022928, 69.03996867222904], [90.18361946692028, 69.04020000035024]]}, "properties": {"source": "1801798", "target": "1801796"}}, {"type": "Feature", "geometry": {"type": "LineString", "coordinates": [[90.17708782482362, 69.039602123158], [90.17287605707475, 69.04048234265585]]}, "properties": {"source": "10034925", "target": "356425"}}, {"type": "Feature", "geometry": {"type": "LineString", "coordinates": [[90.17708782482362, 69.039602123158], [90.17807415185047, 69.03728553606518]]}, "properties": {"source": "10034925", "target": "17332222"}}, {"type": "Feature", "geometry": {"type": "LineString", "coordinates": [[90.17822342736122, 69.04059211149041], [90.17308195695017, 69.03996220252122]]}, "properties": {"source": "28436767", "target": "3770453"}}, {"type": "Feature", "geometry": {"type": "LineString", "coordinates": [[90.17708782482362, 69.039602123158], [90.18587827919441, 69.04065511134507]]}, "properties": {"source": "10034925", "target": "25877114"}}, {"type": "Feature", "geometry": {"type": "LineString", "coordinates": [[90.17708782482362, 69.039602123158], [90.17427380771386, 69.03868316006614]]}, "properties": {"source": "10034925", "target": "31702772"}}, {"type": "Feature", "geometry": {"type": "LineString", "coordinates": [[90.17300866455668, 69.03790408057895], [90.17932502277426, 69.04002779811111]]}, "properties": {"source": "6736145", "target": "431195"}}, {"type": "Feature", "geometry": {"type": "LineString", "coordinates": [[90.17300866455668, 69.03790408057895], [90.17287605707475, 69.04048234265585]]}, "properties": {"source": "6736145", "target": "356425"}}, {"type": "Feature", "geometry": {"type": "LineString", "coordinates": [[90.17300866455668, 69.03790408057895], [90.17925338948896, 69.04130822546077]]}, "properties": {"source": "6736145", "target": "2890354"}}, {"type": "Feature", "geometry": {"type": "LineString", "coordinates": [[90.17300866455668, 69.03790408057895], [90.17374730342823, 69.03763831995826]]}, "properties": {"source": "6736145", "target": "33236378"}}, {"type": "Feature", "geometry": {"type": "LineString", "coordinates": [[90.18695594996564, 69.04122996978782], [90.17932502277426, 69.04002779811111]]}, "properties": {"source": "29249", "target": "431195"}}, {"type": "Feature", "geometry": {"type": "LineString", "coordinates": [[90.18695594996564, 69.04122996978782], [90.17287605707475, 69.04048234265585]]}, "properties": {"source": "29249", "target": "356425"}}, {"type": "Feature", "geometry": {"type": "LineString", "coordinates": [[90.1725764469229, 69.04070276982117], [90.17287605707475, 69.04048234265585]]}, "properties": {"source": "25777967", "target": "356425"}}, {"type": "Feature", "geometry": {"type": "LineString", "coordinates": [[90.18046323357515, 69.04170224504136], [90.17665683514889, 69.04204959583885]]}, "properties": {"source": "6955233", "target": "7221887"}}, {"type": "Feature", "geometry": {"type": "LineString", "coordinates": [[90.18046323357515, 69.04170224504136], [90.18490414909274, 69.03811482203514]]}, "properties": {"source": "6955233", "target": "883174"}}, {"type": "Feature", "geometry": {"type": "LineString", "coordinates": [[90.18046323357515, 69.04170224504136], [90.17944763818878, 69.04208353926919]]}, "properties": {"source": "6955233", "target": "9273174"}}, {"type": "Feature", "geometry": {"type": "LineString", "coordinates": [[90.18046323357515, 69.04170224504136], [90.17585278358877, 69.04189912150034]]}, "properties": {"source": "6955233", "target": "711718"}}, {"type": "Feature", "geometry": {"type": "LineString", "coordinates": [[90.17371540106035, 69.04052549781511], [90.17932502277426, 69.04002779811111]]}, "properties": {"source": "6993505", "target": "431195"}}, {"type": "Feature", "geometry": {"type": "LineString", "coordinates": [[90.17371540106035, 69.04052549781511], [90.17473652023352, 69.03783019184786]]}, "properties": {"source": "6993505", "target": "1545911"}}, {"type": "Feature", "geometry": {"type": "LineString", "coordinates": [[90.18695594996564, 69.04122996978782], [90.17398661535412, 69.03919161973505]]}, "properties": {"source": "29249", "target": "602600"}}, {"type": "Feature", "geometry": {"type": "LineString", "coordinates": [[90.17932502277426, 69.04002779811111], [90.1725764469229, 69.04070276982117]]}, "properties": {"source": "431195", "target": "25777967"}}, {"type": "Feature", "geometry": {"type": "LineString", "coordinates": [[90.17932502277426, 69.04002779811111], [90.18124266358507, 69.03874431212373]]}, "properties": {"source": "431195", "target": "16122"}}, {"type": "Feature", "geometry": {"type": "LineString", "coordinates": [[90.17287605707475, 69.04048234265585], [90.18124266358507, 69.03874431212373]]}, "properties": {"source": "356425", "target": "16122"}}, {"type": "Feature", "geometry": {"type": "LineString", "coordinates": [[90.17807415185047, 69.03728553606518], [90.17932502277426, 69.04002779811111]]}, "properties": {"source": "17332222", "target": "431195"}}, {"type": "Feature", "geometry": {"type": "LineString", "coordinates": [[90.17807415185047, 69.03728553606518], [90.17287605707475, 69.04048234265585]]}, "properties": {"source": "17332222", "target": "356425"}}, {"type": "Feature", "geometry": {"type": "LineString", "coordinates": [[90.17807415185047, 69.03728553606518], [90.17665683514889, 69.04204959583885]]}, "properties": {"source": "17332222", "target": "7221887"}}, {"type": "Feature", "geometry": {"type": "LineString", "coordinates": [[90.17807415185047, 69.03728553606518], [90.17427380771386, 69.03868316006614]]}, "properties": {"source": "17332222", "target": "31702772"}}, {"type": "Feature", "geometry": {"type": "LineString", "coordinates": [[90.17807415185047, 69.03728553606518], [90.17925338948896, 69.04130822546077]]}, "properties": {"source": "17332222", "target": "2890354"}}, {"type": "Feature", "geometry": {"type": "LineString", "coordinates": [[90.17807415185047, 69.03728553606518], [90.18333144460337, 69.03886749007518]]}, "properties": {"source": "17332222", "target": "167058"}}, {"type": "Feature", "geometry": {"type": "LineString", "coordinates": [[90.17807415185047, 69.03728553606518], [90.17732880734263, 69.04106985103036]]}, "properties": {"source": "17332222", "target": "17332216"}}, {"type": "Feature", "geometry": {"type": "LineString", "coordinates": [[90.17807415185047, 69.03728553606518], [90.1788228143119, 69.0388233420257]]}, "properties": {"source": "17332222", "target": "13573635"}}, {"type": "Feature", "geometry": {"type": "LineString", "coordinates": [[90.17807415185047, 69.03728553606518], [90.17944763818878, 69.04208353926919]]}, "properties": {"source": "17332222", "target": "9273174"}}, {"type": "Feature", "geometry": {"type": "LineString", "coordinates": [[90.17807415185047, 69.03728553606518], [90.18163118280955, 69.03963805973203]]}, "properties": {"source": "17332222", "target": "1281495"}}, {"type": "Feature", "geometry": {"type": "LineString", "coordinates": [[90.17612620457709, 69.03891000508978], [90.18490414909274, 69.03811482203514]]}, "properties": {"source": "283110", "target": "883174"}}, {"type": "Feature", "geometry": {"type": "LineString", "coordinates": [[90.17612620457709, 69.03891000508978], [90.18584353648828, 69.03810667036001]]}, "properties": {"source": "283110", "target": "283123"}}, {"type": "Feature", "geometry": {"type": "LineString", "coordinates": [[90.17807415185047, 69.03728553606518], [90.17398661535412, 69.03919161973505]]}, "properties": {"source": "17332222", "target": "602600"}}, {"type": "Feature", "geometry": {"type": "LineString", "coordinates": [[90.17371540106035, 69.04052549781511], [90.1758600953413, 69.04167781782365]]}, "properties": {"source": "6993505", "target": "7113675"}}, {"type": "Feature", "geometry": {"type": "LineString", "coordinates": [[90.17848773838097, 69.04069731157315], [90.18584353648828, 69.03810667036001]]}, "properties": {"source": "283116", "target": "283123"}}, {"type": "Feature", "geometry": {"type": "LineString", "coordinates": [[90.17848773838097, 69.04069731157315], [90.17514058366265, 69.03728428223829]]}, "properties": {"source": "283116", "target": "283111"}}, {"type": "Feature", "geometry": {"type": "LineString", "coordinates": [[90.17473652023352, 69.03783019184786], [90.17932502277426, 69.04002779811111]]}, "properties": {"source": "1545911", "target": "431195"}}, {"type": "Feature", "geometry": {"type": "LineString", "coordinates": [[90.17473652023352, 69.03783019184786], [90.17280780625003, 69.04104975937045]]}, "properties": {"source": "1545911", "target": "1562040"}}, {"type": "Feature", "geometry": {"type": "LineString", "coordinates": [[90.17529626747552, 69.03725414968244], [90.18584353648828, 69.03810667036001]]}, "properties": {"source": "283249", "target": "283123"}}, {"type": "Feature", "geometry": {"type": "LineString", "coordinates": [[90.17529626747552, 69.03725414968244], [90.17848773838097, 69.04069731157315]]}, "properties": {"source": "283249", "target": "283116"}}, {"type": "Feature", "geometry": {"type": "LineString", "coordinates": [[90.17529626747552, 69.03725414968244], [90.18199597049221, 69.03739033904051]]}, "properties": {"source": "283249", "target": "283126"}}, {"type": "Feature", "geometry": {"type": "LineString", "coordinates": [[90.17529626747552, 69.03725414968244], [90.17514058366265, 69.03728428223829]]}, "properties": {"source": "283249", "target": "283111"}}, {"type": "Feature", "geometry": {"type": "LineString", "coordinates": [[90.1839554179075, 69.04094104699581], [90.17665683514889, 69.04204959583885]]}, "properties": {"source": "1819582", "target": "7221887"}}, {"type": "Feature", "geometry": {"type": "LineString", "coordinates": [[90.1839554179075, 69.04094104699581], [90.18584353648828, 69.03810667036001]]}, "properties": {"source": "1819582", "target": "283123"}}, {"type": "Feature", "geometry": {"type": "LineString", "coordinates": [[90.1839554179075, 69.04094104699581], [90.18164022144055, 69.03863381275534]]}, "properties": {"source": "1819582", "target": "658544"}}, {"type": "Feature", "geometry": {"type": "LineString", "coordinates": [[90.1839554179075, 69.04094104699581], [90.17775208790073, 69.04031354460543]]}, "properties": {"source": "1819582", "target": "1819038"}}, {"type": "Feature", "geometry": {"type": "LineString", "coordinates": [[90.18742930015378, 69.0374733859139], [90.18472481469718, 69.0415083642435]]}, "properties": {"source": "1075297", "target": "234949"}}, {"type": "Feature", "geometry": {"type": "LineString", "coordinates": [[90.18742930015378, 69.0374733859139], [90.178459741339, 69.04164337358722]]}, "properties": {"source": "1075297", "target": "1837782"}}, {"type": "Feature", "geometry": {"type": "LineString", "coordinates": [[90.17529626747552, 69.03725414968244], [90.18075936411367, 69.03778085685323]]}, "properties": {"source": "283249", "target": "283107"}}, {"type": "Feature", "geometry": {"type": "LineString", "coordinates": [[90.17612620457709, 69.03891000508978], [90.17848773838097, 69.04069731157315]]}, "properties": {"source": "283110", "target": "283116"}}, {"type": "Feature", "geometry": {"type": "LineString", "coordinates": [[90.17612620457709, 69.03891000508978], [90.17529626747552, 69.03725414968244]]}, "properties": {"source": "283110", "target": "283249"}}, {"type": "Feature", "geometry": {"type": "LineString", "coordinates": [[90.17612620457709, 69.03891000508978], [90.18199597049221, 69.03739033904051]]}, "properties": {"source": "283110", "target": "283126"}}, {"type": "Feature", "geometry": {"type": "LineString", "coordinates": [[90.17612620457709, 69.03891000508978], [90.17514058366265, 69.03728428223829]]}, "properties": {"source": "283110", "target": "283111"}}, {"type": "Feature", "geometry": {"type": "LineString", "coordinates": [[90.18361946692028, 69.04020000035024], [90.17807415185047, 69.03728553606518]]}, "properties": {"source": "1801796", "target": "17332222"}}, {"type": "Feature", "geometry": {"type": "LineString", "coordinates": [[90.18361946692028, 69.04020000035024], [90.18461718357253, 69.03857720327224]]}, "properties": {"source": "1801796", "target": "16109731"}}, {"type": "Feature", "geometry": {"type": "LineString", "coordinates": [[90.18361946692028, 69.04020000035024], [90.17822342736122, 69.04059211149041]]}, "properties": {"source": "1801796", "target": "28436767"}}, {"type": "Feature", "geometry": {"type": "LineString", "coordinates": [[90.18361946692028, 69.04020000035024], [90.17698739568357, 69.03818641239772]]}, "properties": {"source": "1801796", "target": "5473072"}}, {"type": "Feature", "geometry": {"type": "LineString", "coordinates": [[90.18361946692028, 69.04020000035024], [90.18190982470719, 69.03928065980281]]}, "properties": {"source": "1801796", "target": "13577823"}}, {"type": "Feature", "geometry": {"type": "LineString", "coordinates": [[90.17585278358877, 69.04189912150034], [90.17932502277426, 69.04002779811111]]}, "properties": {"source": "711718", "target": "431195"}}, {"type": "Feature", "geometry": {"type": "LineString", "coordinates": [[90.17585278358877, 69.04189912150034], [90.17287605707475, 69.04048234265585]]}, "properties": {"source": "711718", "target": "356425"}}, {"type": "Feature", "geometry": {"type": "LineString", "coordinates": [[90.17585278358877, 69.04189912150034], [90.17665683514889, 69.04204959583885]]}, "properties": {"source": "711718", "target": "7221887"}}, {"type": "Feature", "geometry": {"type": "LineString", "coordinates": [[90.18733249343967, 69.04019126988194], [90.1787196695991, 69.03835857495773]]}, "properties": {"source": "18710990", "target": "31828395"}}, {"type": "Feature", "geometry": {"type": "LineString", "coordinates": [[90.17612620457709, 69.03891000508978], [90.18075936411367, 69.03778085685323]]}, "properties": {"source": "283110", "target": "283107"}}, {"type": "Feature", "geometry": {"type": "LineString", "coordinates": [[90.18361946692028, 69.04020000035024], [90.17308195695017, 69.03996220252122]]}, "properties": {"source": "1801796", "target": "3770453"}}, {"type": "Feature", "geometry": {"type": "LineString", "coordinates": [[90.1788228143119, 69.0388233420257], [90.17341005225279, 69.04166323845106]]}, "properties": {"source": "13573635", "target": "2164871"}}, {"type": "Feature", "geometry": {"type": "LineString", "coordinates": [[90.18733249343967, 69.04019126988194], [90.17350027007592, 69.04176625826292]]}, "properties": {"source": "18710990", "target": "18282064"}}, {"type": "Feature", "geometry": {"type": "LineString", "coordinates": [[90.18733249343967, 69.04019126988194], [90.18562858842847, 69.03823695099246]]}, "properties": {"source": "18710990", "target": "22044039"}}, {"type": "Feature", "geometry": {"type": "LineString", "coordinates": [[90.1787196695991, 69.03835857495773], [90.17350027007592, 69.04176625826292]]}, "properties": {"source": "31828395", "target": "18282064"}}, {"type": "Feature", "geometry": {"type": "LineString", "coordinates": [[90.1787196695991, 69.03835857495773], [90.18562858842847, 69.03823695099246]]}, "properties": {"source": "31828395", "target": "22044039"}}, {"type": "Feature", "geometry": {"type": "LineString", "coordinates": [[90.17944763818878, 69.04208353926919], [90.17932502277426, 69.04002779811111]]}, "properties": {"source": "9273174", "target": "431195"}}, {"type": "Feature", "geometry": {"type": "LineString", "coordinates": [[90.17639198315447, 69.04174186466108], [90.18391049698425, 69.03898904848691]]}, "properties": {"source": "464731", "target": "1837784"}}, {"type": "Feature", "geometry": {"type": "LineString", "coordinates": [[90.17639198315447, 69.04174186466108], [90.17607261961774, 69.03719713868384]]}, "properties": {"source": "464731", "target": "745024"}}, {"type": "Feature", "geometry": {"type": "LineString", "coordinates": [[90.17639198315447, 69.04174186466108], [90.18472481469718, 69.0415083642435]]}, "properties": {"source": "464731", "target": "234949"}}, {"type": "Feature", "geometry": {"type": "LineString", "coordinates": [[90.17639198315447, 69.04174186466108], [90.18742930015378, 69.0374733859139]]}, "properties": {"source": "464731", "target": "1075297"}}, {"type": "Feature", "geometry": {"type": "LineString", "coordinates": [[90.17639198315447, 69.04174186466108], [90.178459741339, 69.04164337358722]]}, "properties": {"source": "464731", "target": "1837782"}}, {"type": "Feature", "geometry": {"type": "LineString", "coordinates": [[90.17639198315447, 69.04174186466108], [90.18733249343967, 69.04019126988194]]}, "properties": {"source": "464731", "target": "18710990"}}, {"type": "Feature", "geometry": {"type": "LineString", "coordinates": [[90.17639198315447, 69.04174186466108], [90.1787196695991, 69.03835857495773]]}, "properties": {"source": "464731", "target": "31828395"}}, {"type": "Feature", "geometry": {"type": "LineString", "coordinates": [[90.17639198315447, 69.04174186466108], [90.17756987149454, 69.03742573878111]]}, "properties": {"source": "464731", "target": "28384663"}}, {"type": "Feature", "geometry": {"type": "LineString", "coordinates": [[90.17612620457709, 69.03891000508978], [90.17925338948896, 69.04130822546077]]}, "properties": {"source": "283110", "target": "2890354"}}, {"type": "Feature", "geometry": {"type": "LineString", "coordinates": [[90.17585278358877, 69.04189912150034], [90.17925338948896, 69.04130822546077]]}, "properties": {"source": "711718", "target": "2890354"}}, {"type": "Feature", "geometry": {"type": "LineString", "coordinates": [[90.17585278358877, 69.04189912150034], [90.17944763818878, 69.04208353926919]]}, "properties": {"source": "711718", "target": "9273174"}}, {"type": "Feature", "geometry": {"type": "LineString", "coordinates": [[90.18742930015378, 69.0374733859139], [90.18733249343967, 69.04019126988194]]}, "properties": {"source": "1075297", "target": "18710990"}}, {"type": "Feature", "geometry": {"type": "LineString", "coordinates": [[90.18742930015378, 69.0374733859139], [90.1787196695991, 69.03835857495773]]}, "properties": {"source": "1075297", "target": "31828395"}}, {"type": "Feature", "geometry": {"type": "LineString", "coordinates": [[90.18742930015378, 69.0374733859139], [90.17350027007592, 69.04176625826292]]}, "properties": {"source": "1075297", "target": "18282064"}}, {"type": "Feature", "geometry": {"type": "LineString", "coordinates": [[90.18742930015378, 69.0374733859139], [90.17756987149454, 69.03742573878111]]}, "properties": {"source": "1075297", "target": "28384663"}}, {"type": "Feature", "geometry": {"type": "LineString", "coordinates": [[90.18742930015378, 69.0374733859139], [90.17890766027057, 69.0418875812747]]}, "properties": {"source": "1075297", "target": "12050465"}}, {"type": "Feature", "geometry": {"type": "LineString", "coordinates": [[90.17947504060578, 69.0414951162341], [90.17932502277426, 69.04002779811111]]}, "properties": {"source": "1793782", "target": "431195"}}, {"type": "Feature", "geometry": {"type": "LineString", "coordinates": [[90.17947504060578, 69.0414951162341], [90.17287605707475, 69.04048234265585]]}, "properties": {"source": "1793782", "target": "356425"}}, {"type": "Feature", "geometry": {"type": "LineString", "coordinates": [[90.17947504060578, 69.0414951162341], [90.17427380771386, 69.03868316006614]]}, "properties": {"source": "1793782", "target": "31702772"}}, {"type": "Feature", "geometry": {"type": "LineString", "coordinates": [[90.17947504060578, 69.0414951162341], [90.17925338948896, 69.04130822546077]]}, "properties": {"source": "1793782", "target": "2890354"}}, {"type": "Feature", "geometry": {"type": "LineString", "coordinates": [[90.17947504060578, 69.0414951162341], [90.18291542991994, 69.04151767212187]]}, "properties": {"source": "1793782", "target": "1606657"}}, {"type": "Feature", "geometry": {"type": "LineString", "coordinates": [[90.17947504060578, 69.0414951162341], [90.18315441296278, 69.03967037052578]]}, "properties": {"source": "1793782", "target": "17794990"}}, {"type": "Feature", "geometry": {"type": "LineString", "coordinates": [[90.178459741339, 69.04164337358722], [90.18472481469718, 69.0415083642435]]}, "properties": {"source": "1837782", "target": "234949"}}, {"type": "Feature", "geometry": {"type": "LineString", "coordinates": [[90.178459741339, 69.04164337358722], [90.18733249343967, 69.04019126988194]]}, "properties": {"source": "1837782", "target": "18710990"}}, {"type": "Feature", "geometry": {"type": "LineString", "coordinates": [[90.17932502277426, 69.04002779811111], [90.17287605707475, 69.04048234265585]]}, "properties": {"source": "431195", "target": "356425"}}, {"type": "Feature", "geometry": {"type": "LineString", "coordinates": [[90.17932502277426, 69.04002779811111], [90.17925338948896, 69.04130822546077]]}, "properties": {"source": "431195", "target": "2890354"}}, {"type": "Feature", "geometry": {"type": "LineString", "coordinates": [[90.17947504060578, 69.0414951162341], [90.17398661535412, 69.03919161973505]]}, "properties": {"source": "1793782", "target": "602600"}}]}