{"type": "FeatureCollection", "features": [{"type": "Feature", "geometry": {"type": "LineString", "coordinates": [[-176.43185627636245, 68.80234845027977], [-176.42173753695891, 68.80422932025104]]}, "properties": {"source": "11691005", "target": "7326747"}}, {"type": "Feature", "geometry": {"type": "LineString", "coordinates": [[-176.43185627636245, 68.80234845027977], [-176.43699440561565, 68.80019517665505]]}, "properties": {"source": "11691005", "target": "6050104"}}, {"type": "Feature", "geometry": {"type": "LineString", "coordinates": [[-176.43185627636245, 68.80234845027977], [-176.4363994053317, 68.80635490204287]]}, "properties": {"source": "11691005", "target": "6829077"}}, {"type": "Feature", "geometry": {"type": "LineString", "coordinates": [[-176.43185627636245, 68.80234845027977], [-176.42177048271253, 68.80427763063432]]}, "properties": {"source": "11691005", "target": "6050103"}}, {"type": "Feature", "geometry": {"type": "LineString", "coordinates": [[-176.4315664965217, 68.80405295884759], [-176.43366840985547, 68.80043528570883]]}, "properties": {"source": "31171074", "target": "30804679"}}, {"type": "Feature", "geometry": {"type": "LineString", "coordinates": [[-176.4315664965217, 68.80405295884759], [-176.4354920776811, 68.8060716335988]]}, "properties": {"source": "31171074", "target": "539970"}}, {"type": "Feature", "geometry": {"type": "LineString", "coordinates": [[-176.4315664965217, 68.80405295884759], [-176.41539124068169, 68.80002863639808]]}, "properties": {"source": "31171074", "target": "35542307"}}, {"type": "Feature", "geometry": {"type": "LineString", "coordinates": [[-176.4159914763319, 68.80592714980659], [-176.41983584513852, 68.80559461333036]]}, "properties": {"source": "15797415", "target": "2009482"}}, {"type": "Feature", "geometry": {"type": "LineString", "coordinates": [[-176.4159914763319, 68.80592714980659], [-176.42053400501217, 68.80171186191097]]}, "properties": {"source": "15797415", "target": "13642749"}}, {"type": "Feature", "geometry": {"type": "LineString", "coordinates": [[-176.4159914763319, 68.80592714980659], [-176.4325117675011, 68.80266386969123]]}, "properties": {"source": "15797415", "target": "7756287"}}, {"type": "Feature", "geometry": {"type": "LineString", "coordinates": [[-176.4354920776811, 68.8060716335988], [-176.43366840985547, 68.80043528570883]]}, "properties": {"source": "539970", "target": "30804679"}}, {"type": "Feature", "geometry": {"type": "LineString", "coordinates": [[-176.42398046592058, 68.80002017085468], [-176.43185627636245, 68.80234845027977]]}, "properties": {"source": "13152937", "target": "11691005"}}, {"type": "Feature", "geometry": {"type": "LineString", "coordinates": [[-176.42398046592058, 68.80002017085468], [-176.43078626101635, 68.80266231807028]]}, "properties": {"source": "13152937", "target": "11691003"}}, {"type": "Feature", "geometry": {"type": "LineString", "coordinates": [[-176.42398046592058, 68.80002017085468], [-176.42173753695891, 68.80422932025104]]}, "properties": {"source": "13152937", "target": "7326747"}}, {"type": "Feature", "geometry": {"type": "LineString", "coordinates": [[-176.42398046592058, 68.80002017085468], [-176.43699440561565, 68.80019517665505]]}, "properties": {"source": "13152937", "target": "6050104"}}, {"type": "Feature", "geometry": {"type": "LineString", "coordinates": [[-176.42398046592058, 68.80002017085468], [-176.4363994053317, 68.80635490204287]]}, "properties": {"source": "13152937", "target": "6829077"}}, {"type": "Feature", "geometry": {"type": "LineString", "coordinates": [[-176.42551084100594, 68.80601069077125], [-176.4265064920449, 68.80099881133972]]}, "properties": {"source": "2431468", "target": "2280601"}}, {"type": "Feature", "geometry": {"type": "LineString", "coordinates": [[-176.43366840985547, 68.80043528570883], [-176.42137315920434, 68.80371375166669]]}, "properties": {"source": "30804679", "target": "26263488"}}, {"type": "Feature", "geometry": {"type": "LineString", "coordinates": [[-176.43114083995692, 68.79979680069678], [-176.4364865855079, 68.80753578699967]]}, "properties": {"source": "30106370", "target": "25976005"}}, {"type": "Feature", "geometry": {"type": "LineString", "coordinates": [[-176.43625511241274, 68.80451645327261], [-176.41983584513852, 68.80559461333036]]}, "properties": {"source": "3599486", "target": "2009482"}}, {"type": "Feature", "geometry": {"type": "LineString", "coordinates": [[-176.43625511241274, 68.80451645327261], [-176.43185627636245, 68.80234845027977]]}, "properties": {"source": "3599486", "target": "11691005"}}, {"type": "Feature", "geometry": {"type": "LineString", "coordinates": [[-176.43625511241274, 68.80451645327261], [-176.4159914763319, 68.80592714980659]]}, "properties": {"source": "3599486", "target": "15797415"}}, {"type": "Feature", "geometry": {"type": "LineString", "coordinates": [[-176.43625511241274, 68.80451645327261], [-176.42053400501217, 68.80171186191097]]}, "properties": {"source": "3599486", "target": "13642749"}}, {"type": "Feature", "geometry": {"type": "LineString", "coordinates": [[-176.43625511241274, 68.80451645327261], [-176.42398046592058, 68.80002017085468]]}, "properties": {"source": "3599486", "target": "13152937"}}, {"type": "Feature", "geometry": {"type": "LineString", "coordinates": [[-176.43625511241274, 68.80451645327261], [-176.43078626101635, 68.80266231807028]]}, "properties": {"source": "3599486", "target": "11691003"}}, {"type": "Feature", "geometry": {"type": "LineString", "coordinates": [[-176.43625511241274, 68.80451645327261], [-176.42173753695891, 68.80422932025104]]}, "properties": {"source": "3599486", "target": "7326747"}}, {"type": "Feature", "geometry": {"type": "LineString", "coordinates": [[-176.43625511241274, 68.80451645327261], [-176.43699440561565, 68.80019517665505]]}, "properties": {"source": "3599486", "target": "6050104"}}, {"type": "Feature", "geometry": {"type": "LineString", "coordinates": [[-176.43625511241274, 68.80451645327261], [-176.4363994053317, 68.80635490204287]]}, "properties": {"source": "3599486", "target": "6829077"}}, {"type": "Feature", "geometry": {"type": "LineString", "coordinates": [[-176.43625511241274, 68.80451645327261], [-176.4325117675011, 68.80266386969123]]}, "properties": {"source": "3599486", "target": "7756287"}}, {"type": "Feature", "geometry": {"type": "LineString", "coordinates": [[-176.43625511241274, 68.80451645327261], [-176.42177048271253, 68.80427763063432]]}, "properties": {"source": "3599486", "target": "6050103"}}, {"type": "Feature", "geometry": {"type": "LineString", "coordinates": [[-176.43625511241274, 68.80451645327261], [-176.42377601907936, 68.80118214133165]]}, "properties": {"source": "3599486", "target": "8521118"}}, {"type": "Feature", "geometry": {"type": "LineString", "coordinates": [[-176.42192080422552, 68.80415069862201], [-176.4346991477359, 68.80290717428136]]}, "properties": {"source": "30370279", "target": "31678208"}}, {"type": "Feature", "geometry": {"type": "LineString", "coordinates": [[-176.42343074748715, 68.80303049185869], [-176.43686293962614, 68.79985664425453]]}, "properties": {"source": "26795483", "target": "2181092"}}, {"type": "Feature", "geometry": {"type": "LineString", "coordinates": [[-176.42343074748715, 68.80303049185869], [-176.42983306871272, 68.80445293895141]]}, "properties": {"source": "26795483", "target": "4247407"}}, {"type": "Feature", "geometry": {"type": "LineString", "coordinates": [[-176.42343074748715, 68.80303049185869], [-176.425199579855, 68.80251194487334]]}, "properties": {"source": "26795483", "target": "23411562"}}, {"type": "Feature", "geometry": {"type": "LineString", "coordinates": [[-176.43232104929302, 68.80738547184268], [-176.42551084100594, 68.80601069077125]]}, "properties": {"source": "17692079", "target": "2431468"}}, {"type": "Feature", "geometry": {"type": "LineString", "coordinates": [[-176.43232104929302, 68.80738547184268], [-176.42020965766088, 68.80563430601646]]}, "properties": {"source": "17692079", "target": "11261466"}}, {"type": "Feature", "geometry": {"type": "LineString", "coordinates": [[-176.4315542581274, 68.80736329879232], [-176.43558380418463, 68.80145782173167]]}, "properties": {"source": "22330323", "target": "16099212"}}, {"type": "Feature", "geometry": {"type": "LineString", "coordinates": [[-176.4315542581274, 68.80736329879232], [-176.42829877805062, 68.80106647969515]]}, "properties": {"source": "22330323", "target": "6979475"}}, {"type": "Feature", "geometry": {"type": "LineString", "coordinates": [[-176.42377601907936, 68.80118214133165], [-176.4159914763319, 68.80592714980659]]}, "properties": {"source": "8521118", "target": "15797415"}}, {"type": "Feature", "geometry": {"type": "LineString", "coordinates": [[-176.42377601907936, 68.80118214133165], [-176.42053400501217, 68.80171186191097]]}, "properties": {"source": "8521118", "target": "13642749"}}, {"type": "Feature", "geometry": {"type": "LineString", "coordinates": [[-176.42377601907936, 68.80118214133165], [-176.4325117675011, 68.80266386969123]]}, "properties": {"source": "8521118", "target": "7756287"}}, {"type": "Feature", "geometry": {"type": "LineString", "coordinates": [[-176.42983306871272, 68.80445293895141], [-176.425199579855, 68.80251194487334]]}, "properties": {"source": "4247407", "target": "23411562"}}, {"type": "Feature", "geometry": {"type": "LineString", "coordinates": [[-176.42983306871272, 68.80445293895141], [-176.43668973728356, 68.80084729380695]]}, "properties": {"source": "4247407", "target": "644417"}}, {"type": "Feature", "geometry": {"type": "LineString", "coordinates": [[-176.41822316736867, 68.80231637011744], [-176.4315664965217, 68.80405295884759]]}, "properties": {"source": "6515205", "target": "31171074"}}, {"type": "Feature", "geometry": {"type": "LineString", "coordinates": [[-176.41822316736867, 68.80231637011744], [-176.4354920776811, 68.8060716335988]]}, "properties": {"source": "6515205", "target": "539970"}}, {"type": "Feature", "geometry": {"type": "LineString", "coordinates": [[-176.43558380418463, 68.80145782173167], [-176.4159914763319, 68.80592714980659]]}, "properties": {"source": "16099212", "target": "15797415"}}, {"type": "Feature", "geometry": {"type": "LineString", "coordinates": [[-176.43558380418463, 68.80145782173167], [-176.42053400501217, 68.80171186191097]]}, "properties": {"source": "16099212", "target": "13642749"}}, {"type": "Feature", "geometry": {"type": "LineString", "coordinates": [[-176.42109474523332, 68.80620162369183], [-176.43473891827549, 68.80430011850643]]}, "properties": {"source": "2846618", "target": "2100671"}}, {"type": "Feature", "geometry": {"type": "LineString", "coordinates": [[-176.42109474523332, 68.80620162369183], [-176.41902583625063, 68.8065120667307]]}, "properties": {"source": "2846618", "target": "30184877"}}, {"type": "Feature", "geometry": {"type": "LineString", "coordinates": [[-176.42109474523332, 68.80620162369183], [-176.42824454883137, 68.80540315164484]]}, "properties": {"source": "2846618", "target": "2100670"}}, {"type": "Feature", "geometry": {"type": "LineString", "coordinates": [[-176.42109474523332, 68.80620162369183], [-176.42126673885642, 68.80543082625013]]}, "properties": {"source": "2846618", "target": "1771521"}}, {"type": "Feature", "geometry": {"type": "LineString", "coordinates": [[-176.42109474523332, 68.80620162369183], [-176.41910725231176, 68.8012653489686]]}, "properties": {"source": "2846618", "target": "2846619"}}, {"type": "Feature", "geometry": {"type": "LineString", "coordinates": [[-176.42109474523332, 68.80620162369183], [-176.43512005553856, 68.8064421522653]]}, "properties": {"source": "2846618", "target": "21027629"}}, {"type": "Feature", "geometry": {"type": "LineString", "coordinates": [[-176.42109474523332, 68.80620162369183], [-176.4235968273514, 68.80724315494976]]}, "properties": {"source": "2846618", "target": "2100669"}}, {"type": "Feature", "geometry": {"type": "LineString", "coordinates": [[-176.42109474523332, 68.80620162369183], [-176.41940314630523, 68.80596206060895]]}, "properties": {"source": "2846618", "target": "2868865"}}, {"type": "Feature", "geometry": {"type": "LineString", "coordinates": [[-176.42109474523332, 68.80620162369183], [-176.4231888543105, 68.80155301745557]]}, "properties": {"source": "2846618", "target": "18690091"}}, {"type": "Feature", "geometry": {"type": "LineString", "coordinates": [[-176.42109474523332, 68.80620162369183], [-176.43752774050296, 68.80737466284359]]}, "properties": {"source": "2846618", "target": "1605170"}}, {"type": "Feature", "geometry": {"type": "LineString", "coordinates": [[-176.42109474523332, 68.80620162369183], [-176.43086616801332, 68.80075625879937]]}, "properties": {"source": "2846618", "target": "1724910"}}, {"type": "Feature", "geometry": {"type": "LineString", "coordinates": [[-176.42109474523332, 68.80620162369183], [-176.4265064920449, 68.80099881133972]]}, "properties": {"source": "2846618", "target": "2280601"}}, {"type": "Feature", "geometry": {"type": "LineString", "coordinates": [[-176.42109474523332, 68.80620162369183], [-176.43286610514542, 68.8062195401217]]}, "properties": {"source": "2846618", "target": "26889205"}}, {"type": "Feature", "geometry": {"type": "LineString", "coordinates": [[-176.43678088321823, 68.80538699963282], [-176.4346991477359, 68.80290717428136]]}, "properties": {"source": "33830189", "target": "31678208"}}, {"type": "Feature", "geometry": {"type": "LineString", "coordinates": [[-176.43678088321823, 68.80538699963282], [-176.42106856611892, 68.80181697084925]]}, "properties": {"source": "33830189", "target": "31304666"}}, {"type": "Feature", "geometry": {"type": "LineString", "coordinates": [[-176.43678088321823, 68.80538699963282], [-176.4307845044384, 68.80348187628465]]}, "properties": {"source": "33830189", "target": "31441415"}}, {"type": "Feature", "geometry": {"type": "LineString", "coordinates": [[-176.42398046592058, 68.80002017085468], [-176.43650261053605, 68.80697401626998]]}, "properties": {"source": "13152937", "target": "12142637"}}, {"type": "Feature", "geometry": {"type": "LineString", "coordinates": [[-176.43078626101635, 68.80266231807028], [-176.43185627636245, 68.80234845027977]]}, "properties": {"source": "11691003", "target": "11691005"}}, {"type": "Feature", "geometry": {"type": "LineString", "coordinates": [[-176.43078626101635, 68.80266231807028], [-176.42173753695891, 68.80422932025104]]}, "properties": {"source": "11691003", "target": "7326747"}}, {"type": "Feature", "geometry": {"type": "LineString", "coordinates": [[-176.43078626101635, 68.80266231807028], [-176.43699440561565, 68.80019517665505]]}, "properties": {"source": "11691003", "target": "6050104"}}, {"type": "Feature", "geometry": {"type": "LineString", "coordinates": [[-176.43078626101635, 68.80266231807028], [-176.4363994053317, 68.80635490204287]]}, "properties": {"source": "11691003", "target": "6829077"}}, {"type": "Feature", "geometry": {"type": "LineString", "coordinates": [[-176.43078626101635, 68.80266231807028], [-176.43650261053605, 68.80697401626998]]}, "properties": {"source": "11691003", "target": "12142637"}}, {"type": "Feature", "geometry": {"type": "LineString", "coordinates": [[-176.4270130635027, 68.80341708034959], [-176.4307845044384, 68.80348187628465]]}, "properties": {"source": "29734955", "target": "31441415"}}, {"type": "Feature", "geometry": {"type": "LineString", "coordinates": [[-176.4270130635027, 68.80341708034959], [-176.4205734994797, 68.80556219715695]]}, "properties": {"source": "29734955", "target": "32324324"}}, {"type": "Feature", "geometry": {"type": "LineString", "coordinates": [[-176.4270130635027, 68.80341708034959], [-176.43278618052625, 68.80362815022931]]}, "properties": {"source": "29734955", "target": "31441414"}}, {"type": "Feature", "geometry": {"type": "LineString", "coordinates": [[-176.4231888543105, 68.80155301745557], [-176.43512005553856, 68.8064421522653]]}, "properties": {"source": "18690091", "target": "21027629"}}, {"type": "Feature", "geometry": {"type": "LineString", "coordinates": [[-176.42020965766088, 68.80563430601646], [-176.42335400362145, 68.8020051361691]]}, "properties": {"source": "11261466", "target": "7997715"}}, {"type": "Feature", "geometry": {"type": "LineString", "coordinates": [[-176.42020965766088, 68.80563430601646], [-176.43196600769377, 68.80020059693842]]}, "properties": {"source": "11261466", "target": "528399"}}, {"type": "Feature", "geometry": {"type": "LineString", "coordinates": [[-176.42173753695891, 68.80422932025104], [-176.43699440561565, 68.80019517665505]]}, "properties": {"source": "7326747", "target": "6050104"}}, {"type": "Feature", "geometry": {"type": "LineString", "coordinates": [[-176.42173753695891, 68.80422932025104], [-176.4363994053317, 68.80635490204287]]}, "properties": {"source": "7326747", "target": "6829077"}}, {"type": "Feature", "geometry": {"type": "LineString", "coordinates": [[-176.42173753695891, 68.80422932025104], [-176.42177048271253, 68.80427763063432]]}, "properties": {"source": "7326747", "target": "6050103"}}, {"type": "Feature", "geometry": {"type": "LineString", "coordinates": [[-176.43699440561565, 68.80019517665505], [-176.4363994053317, 68.80635490204287]]}, "properties": {"source": "6050104", "target": "6829077"}}, {"type": "Feature", "geometry": {"type": "LineString", "coordinates": [[-176.42836605964982, 68.80468815010201], [-176.43668973728356, 68.80084729380695]]}, "properties": {"source": "4955435", "target": "644417"}}, {"type": "Feature", "geometry": {"type": "LineString", "coordinates": [[-176.4235968273514, 68.80724315494976], [-176.43086616801332, 68.80075625879937]]}, "properties": {"source": "2100669", "target": "1724910"}}, {"type": "Feature", "geometry": {"type": "LineString", "coordinates": [[-176.41511645585467, 68.805458602165], [-176.42106856611892, 68.80181697084925]]}, "properties": {"source": "30041764", "target": "31304666"}}, {"type": "Feature", "geometry": {"type": "LineString", "coordinates": [[-176.41511645585467, 68.805458602165], [-176.4307845044384, 68.80348187628465]]}, "properties": {"source": "30041764", "target": "31441415"}}, {"type": "Feature", "geometry": {"type": "LineString", "coordinates": [[-176.41511645585467, 68.805458602165], [-176.4205734994797, 68.80556219715695]]}, "properties": {"source": "30041764", "target": "32324324"}}, {"type": "Feature", "geometry": {"type": "LineString", "coordinates": [[-176.41511645585467, 68.805458602165], [-176.4261113446539, 68.80763913896666]]}, "properties": {"source": "30041764", "target": "33388619"}}, {"type": "Feature", "geometry": {"type": "LineString", "coordinates": [[-176.41511645585467, 68.805458602165], [-176.43278618052625, 68.80362815022931]]}, "properties": {"source": "30041764", "target": "31441414"}}, {"type": "Feature", "geometry": {"type": "LineString", "coordinates": [[-176.41511645585467, 68.805458602165], [-176.41530051405874, 68.80340166737636]]}, "properties": {"source": "30041764", "target": "31179964"}}, {"type": "Feature", "geometry": {"type": "LineString", "coordinates": [[-176.41511645585467, 68.805458602165], [-176.42192080422552, 68.80415069862201]]}, "properties": {"source": "30041764", "target": "30370279"}}, {"type": "Feature", "geometry": {"type": "LineString", "coordinates": [[-176.41511645585467, 68.805458602165], [-176.41562514317764, 68.80571139534524]]}, "properties": {"source": "30041764", "target": "35650811"}}, {"type": "Feature", "geometry": {"type": "LineString", "coordinates": [[-176.41511645585467, 68.805458602165], [-176.4270130635027, 68.80341708034959]]}, "properties": {"source": "30041764", "target": "29734955"}}, {"type": "Feature", "geometry": {"type": "LineString", "coordinates": [[-176.42422990010078, 68.80203477625267], [-176.4265385915985, 68.8048126274127]]}, "properties": {"source": "30739117", "target": "31562736"}}, {"type": "Feature", "geometry": {"type": "LineString", "coordinates": [[-176.42422990010078, 68.80203477625267], [-176.43374848701325, 68.80756935709033]]}, "properties": {"source": "30739117", "target": "30804653"}}, {"type": "Feature", "geometry": {"type": "LineString", "coordinates": [[-176.42422990010078, 68.80203477625267], [-176.43366840985547, 68.80043528570883]]}, "properties": {"source": "30739117", "target": "30804679"}}, {"type": "Feature", "geometry": {"type": "LineString", "coordinates": [[-176.42422990010078, 68.80203477625267], [-176.41985362723176, 68.80665537916232]]}, "properties": {"source": "30739117", "target": "10293463"}}, {"type": "Feature", "geometry": {"type": "LineString", "coordinates": [[-176.42422990010078, 68.80203477625267], [-176.4315664965217, 68.80405295884759]]}, "properties": {"source": "30739117", "target": "31171074"}}, {"type": "Feature", "geometry": {"type": "LineString", "coordinates": [[-176.42824454883137, 68.80540315164484], [-176.4235968273514, 68.80724315494976]]}, "properties": {"source": "2100670", "target": "2100669"}}, {"type": "Feature", "geometry": {"type": "LineString", "coordinates": [[-176.42824454883137, 68.80540315164484], [-176.41940314630523, 68.80596206060895]]}, "properties": {"source": "2100670", "target": "2868865"}}, {"type": "Feature", "geometry": {"type": "LineString", "coordinates": [[-176.42824454883137, 68.80540315164484], [-176.43086616801332, 68.80075625879937]]}, "properties": {"source": "2100670", "target": "1724910"}}, {"type": "Feature", "geometry": {"type": "LineString", "coordinates": [[-176.42824454883137, 68.80540315164484], [-176.42110000154943, 68.80579017152812]]}, "properties": {"source": "2100670", "target": "3464089"}}, {"type": "Feature", "geometry": {"type": "LineString", "coordinates": [[-176.42126673885642, 68.80543082625013], [-176.41983584513852, 68.80559461333036]]}, "properties": {"source": "1771521", "target": "2009482"}}, {"type": "Feature", "geometry": {"type": "LineString", "coordinates": [[-176.42126673885642, 68.80543082625013], [-176.41910725231176, 68.8012653489686]]}, "properties": {"source": "1771521", "target": "2846619"}}, {"type": "Feature", "geometry": {"type": "LineString", "coordinates": [[-176.42126673885642, 68.80543082625013], [-176.4235968273514, 68.80724315494976]]}, "properties": {"source": "1771521", "target": "2100669"}}, {"type": "Feature", "geometry": {"type": "LineString", "coordinates": [[-176.42126673885642, 68.80543082625013], [-176.41940314630523, 68.80596206060895]]}, "properties": {"source": "1771521", "target": "2868865"}}, {"type": "Feature", "geometry": {"type": "LineString", "coordinates": [[-176.42126673885642, 68.80543082625013], [-176.43086616801332, 68.80075625879937]]}, "properties": {"source": "1771521", "target": "1724910"}}, {"type": "Feature", "geometry": {"type": "LineString", "coordinates": [[-176.41910725231176, 68.8012653489686], [-176.4235968273514, 68.80724315494976]]}, "properties": {"source": "2846619", "target": "2100669"}}, {"type": "Feature", "geometry": {"type": "LineString", "coordinates": [[-176.43512005553856, 68.8064421522653], [-176.43015096845903, 68.80738288648706]]}, "properties": {"source": "21027629", "target": "33153363"}}, {"type": "Feature", "geometry": {"type": "LineString", "coordinates": [[-176.42836605964982, 68.80468815010201], [-176.43374848701325, 68.80756935709033]]}, "properties": {"source": "4955435", "target": "30804653"}}, {"type": "Feature", "geometry": {"type": "LineString", "coordinates": [[-176.42836605964982, 68.80468815010201], [-176.43366840985547, 68.80043528570883]]}, "properties": {"source": "4955435", "target": "30804679"}}, {"type": "Feature", "geometry": {"type": "LineString", "coordinates": [[-176.42836605964982, 68.80468815010201], [-176.43686293962614, 68.79985664425453]]}, "properties": {"source": "4955435", "target": "2181092"}}, {"type": "Feature", "geometry": {"type": "LineString", "coordinates": [[-176.42836605964982, 68.80468815010201], [-176.42983306871272, 68.80445293895141]]}, "properties": {"source": "4955435", "target": "4247407"}}, {"type": "Feature", "geometry": {"type": "LineString", "coordinates": [[-176.42836605964982, 68.80468815010201], [-176.425199579855, 68.80251194487334]]}, "properties": {"source": "4955435", "target": "23411562"}}, {"type": "Feature", "geometry": {"type": "LineString", "coordinates": [[-176.41850430559523, 68.80243265031001], [-176.43278618052625, 68.80362815022931]]}, "properties": {"source": "35394626", "target": "31441414"}}, {"type": "Feature", "geometry": {"type": "LineString", "coordinates": [[-176.41850430559523, 68.80243265031001], [-176.41562514317764, 68.80571139534524]]}, "properties": {"source": "35394626", "target": "35650811"}}, {"type": "Feature", "geometry": {"type": "LineString", "coordinates": [[-176.4292462647533, 68.80638353075025], [-176.41983584513852, 68.80559461333036]]}, "properties": {"source": "2431467", "target": "2009482"}}, {"type": "Feature", "geometry": {"type": "LineString", "coordinates": [[-176.4292462647533, 68.80638353075025], [-176.42551084100594, 68.80601069077125]]}, "properties": {"source": "2431467", "target": "2431468"}}, {"type": "Feature", "geometry": {"type": "LineString", "coordinates": [[-176.4292462647533, 68.80638353075025], [-176.43473891827549, 68.80430011850643]]}, "properties": {"source": "2431467", "target": "2100671"}}, {"type": "Feature", "geometry": {"type": "LineString", "coordinates": [[-176.4292462647533, 68.80638353075025], [-176.42824454883137, 68.80540315164484]]}, "properties": {"source": "2431467", "target": "2100670"}}, {"type": "Feature", "geometry": {"type": "LineString", "coordinates": [[-176.4292462647533, 68.80638353075025], [-176.42126673885642, 68.80543082625013]]}, "properties": {"source": "2431467", "target": "1771521"}}, {"type": "Feature", "geometry": {"type": "LineString", "coordinates": [[-176.4292462647533, 68.80638353075025], [-176.4235968273514, 68.80724315494976]]}, "properties": {"source": "2431467", "target": "2100669"}}, {"type": "Feature", "geometry": {"type": "LineString", "coordinates": [[-176.4292462647533, 68.80638353075025], [-176.43752774050296, 68.80737466284359]]}, "properties": {"source": "2431467", "target": "1605170"}}, {"type": "Feature", "geometry": {"type": "LineString", "coordinates": [[-176.4292462647533, 68.80638353075025], [-176.4265064920449, 68.80099881133972]]}, "properties": {"source": "2431467", "target": "2280601"}}, {"type": "Feature", "geometry": {"type": "LineString", "coordinates": [[-176.41985362723176, 68.80665537916232], [-176.43374848701325, 68.80756935709033]]}, "properties": {"source": "10293463", "target": "30804653"}}, {"type": "Feature", "geometry": {"type": "LineString", "coordinates": [[-176.41985362723176, 68.80665537916232], [-176.43366840985547, 68.80043528570883]]}, "properties": {"source": "10293463", "target": "30804679"}}, {"type": "Feature", "geometry": {"type": "LineString", "coordinates": [[-176.41985362723176, 68.80665537916232], [-176.4315664965217, 68.80405295884759]]}, "properties": {"source": "10293463", "target": "31171074"}}, {"type": "Feature", "geometry": {"type": "LineString", "coordinates": [[-176.41985362723176, 68.80665537916232], [-176.4354920776811, 68.8060716335988]]}, "properties": {"source": "10293463", "target": "539970"}}, {"type": "Feature", "geometry": {"type": "LineString", "coordinates": [[-176.41985362723176, 68.80665537916232], [-176.41806266882423, 68.80196185006324]]}, "properties": {"source": "10293463", "target": "29844797"}}, {"type": "Feature", "geometry": {"type": "LineString", "coordinates": [[-176.41985362723176, 68.80665537916232], [-176.4245370448276, 68.807648249826]]}, "properties": {"source": "10293463", "target": "22779158"}}, {"type": "Feature", "geometry": {"type": "LineString", "coordinates": [[-176.41935196696244, 68.80003639055195], [-176.43405318198703, 68.80677793324244]]}, "properties": {"source": "32611462", "target": "34503674"}}, {"type": "Feature", "geometry": {"type": "LineString", "coordinates": [[-176.41968140601736, 68.8054559706961], [-176.42786868048535, 68.80458289108145]]}, "properties": {"source": "7849891", "target": "1328373"}}, {"type": "Feature", "geometry": {"type": "LineString", "coordinates": [[-176.41968140601736, 68.8054559706961], [-176.42335400362145, 68.8020051361691]]}, "properties": {"source": "7849891", "target": "7997715"}}, {"type": "Feature", "geometry": {"type": "LineString", "coordinates": [[-176.41968140601736, 68.8054559706961], [-176.43708575536994, 68.80379450446569]]}, "properties": {"source": "7849891", "target": "5501352"}}, {"type": "Feature", "geometry": {"type": "LineString", "coordinates": [[-176.4335946846458, 68.80214673699686], [-176.41983584513852, 68.80559461333036]]}, "properties": {"source": "15768395", "target": "2009482"}}, {"type": "Feature", "geometry": {"type": "LineString", "coordinates": [[-176.4335946846458, 68.80214673699686], [-176.41582295419718, 68.80281130204187]]}, "properties": {"source": "15768395", "target": "16279815"}}, {"type": "Feature", "geometry": {"type": "LineString", "coordinates": [[-176.4335946846458, 68.80214673699686], [-176.4356256428635, 68.80043761217249]]}, "properties": {"source": "15768395", "target": "15739382"}}, {"type": "Feature", "geometry": {"type": "LineString", "coordinates": [[-176.41523560580228, 68.80529623144284], [-176.43686293962614, 68.79985664425453]]}, "properties": {"source": "637926", "target": "2181092"}}, {"type": "Feature", "geometry": {"type": "LineString", "coordinates": [[-176.41523560580228, 68.80529623144284], [-176.43668973728356, 68.80084729380695]]}, "properties": {"source": "637926", "target": "644417"}}, {"type": "Feature", "geometry": {"type": "LineString", "coordinates": [[-176.41582295419718, 68.80281130204187], [-176.41983584513852, 68.80559461333036]]}, "properties": {"source": "16279815", "target": "2009482"}}, {"type": "Feature", "geometry": {"type": "LineString", "coordinates": [[-176.41582295419718, 68.80281130204187], [-176.4356256428635, 68.80043761217249]]}, "properties": {"source": "16279815", "target": "15739382"}}, {"type": "Feature", "geometry": {"type": "LineString", "coordinates": [[-176.4337233362014, 68.80255315873521], [-176.43512005553856, 68.8064421522653]]}, "properties": {"source": "21200705", "target": "21027629"}}, {"type": "Feature", "geometry": {"type": "LineString", "coordinates": [[-176.4337233362014, 68.80255315873521], [-176.4231888543105, 68.80155301745557]]}, "properties": {"source": "21200705", "target": "18690091"}}, {"type": "Feature", "geometry": {"type": "LineString", "coordinates": [[-176.4337233362014, 68.80255315873521], [-176.43686293962614, 68.79985664425453]]}, "properties": {"source": "21200705", "target": "2181092"}}, {"type": "Feature", "geometry": {"type": "LineString", "coordinates": [[-176.41604836350197, 68.80671688578687], [-176.43044775499806, 68.80058115719254]]}, "properties": {"source": "2144901", "target": "2167592"}}, {"type": "Feature", "geometry": {"type": "LineString", "coordinates": [[-176.41523560580228, 68.80529623144284], [-176.42836605964982, 68.80468815010201]]}, "properties": {"source": "637926", "target": "4955435"}}, {"type": "Feature", "geometry": {"type": "LineString", "coordinates": [[-176.4205734994797, 68.80556219715695], [-176.4307845044384, 68.80348187628465]]}, "properties": {"source": "32324324", "target": "31441415"}}, {"type": "Feature", "geometry": {"type": "LineString", "coordinates": [[-176.4205734994797, 68.80556219715695], [-176.43015096845903, 68.80738288648706]]}, "properties": {"source": "32324324", "target": "33153363"}}, {"type": "Feature", "geometry": {"type": "LineString", "coordinates": [[-176.4205734994797, 68.80556219715695], [-176.43278618052625, 68.80362815022931]]}, "properties": {"source": "32324324", "target": "31441414"}}, {"type": "Feature", "geometry": {"type": "LineString", "coordinates": [[-176.43678088321823, 68.80538699963282], [-176.43015096845903, 68.80738288648706]]}, "properties": {"source": "33830189", "target": "33153363"}}, {"type": "Feature", "geometry": {"type": "LineString", "coordinates": [[-176.43678088321823, 68.80538699963282], [-176.4205734994797, 68.80556219715695]]}, "properties": {"source": "33830189", "target": "32324324"}}, {"type": "Feature", "geometry": {"type": "LineString", "coordinates": [[-176.43678088321823, 68.80538699963282], [-176.4261113446539, 68.80763913896666]]}, "properties": {"source": "33830189", "target": "33388619"}}, {"type": "Feature", "geometry": {"type": "LineString", "coordinates": [[-176.43678088321823, 68.80538699963282], [-176.43299342797656, 68.80425525377555]]}, "properties": {"source": "33830189", "target": "30237283"}}, {"type": "Feature", "geometry": {"type": "LineString", "coordinates": [[-176.43678088321823, 68.80538699963282], [-176.43278618052625, 68.80362815022931]]}, "properties": {"source": "33830189", "target": "31441414"}}, {"type": "Feature", "geometry": {"type": "LineString", "coordinates": [[-176.43678088321823, 68.80538699963282], [-176.41530051405874, 68.80340166737636]]}, "properties": {"source": "33830189", "target": "31179964"}}, {"type": "Feature", "geometry": {"type": "LineString", "coordinates": [[-176.43678088321823, 68.80538699963282], [-176.42967672687124, 68.80002553058586]]}, "properties": {"source": "33830189", "target": "29491527"}}, {"type": "Feature", "geometry": {"type": "LineString", "coordinates": [[-176.43678088321823, 68.80538699963282], [-176.41562514317764, 68.80571139534524]]}, "properties": {"source": "33830189", "target": "35650811"}}, {"type": "Feature", "geometry": {"type": "LineString", "coordinates": [[-176.43678088321823, 68.80538699963282], [-176.41902583625063, 68.8065120667307]]}, "properties": {"source": "33830189", "target": "30184877"}}, {"type": "Feature", "geometry": {"type": "LineString", "coordinates": [[-176.43678088321823, 68.80538699963282], [-176.43512005553856, 68.8064421522653]]}, "properties": {"source": "33830189", "target": "21027629"}}, {"type": "Feature", "geometry": {"type": "LineString", "coordinates": [[-176.43678088321823, 68.80538699963282], [-176.41900728131387, 68.80114812290421]]}, "properties": {"source": "33830189", "target": "30279209"}}, {"type": "Feature", "geometry": {"type": "LineString", "coordinates": [[-176.43678088321823, 68.80538699963282], [-176.43553014231378, 68.80218408865352]]}, "properties": {"source": "33830189", "target": "4387607"}}, {"type": "Feature", "geometry": {"type": "LineString", "coordinates": [[-176.43678088321823, 68.80538699963282], [-176.42141241710416, 68.80299562080026]]}, "properties": {"source": "33830189", "target": "8688161"}}, {"type": "Feature", "geometry": {"type": "LineString", "coordinates": [[-176.4379922392184, 68.80110033996547], [-176.41604836350197, 68.80671688578687]]}, "properties": {"source": "25730186", "target": "2144901"}}, {"type": "Feature", "geometry": {"type": "LineString", "coordinates": [[-176.4379922392184, 68.80110033996547], [-176.43044775499806, 68.80058115719254]]}, "properties": {"source": "25730186", "target": "2167592"}}, {"type": "Feature", "geometry": {"type": "LineString", "coordinates": [[-176.431942873434, 68.80550162188277], [-176.4307845044384, 68.80348187628465]]}, "properties": {"source": "31341946", "target": "31441415"}}, {"type": "Feature", "geometry": {"type": "LineString", "coordinates": [[-176.431942873434, 68.80550162188277], [-176.4205734994797, 68.80556219715695]]}, "properties": {"source": "31341946", "target": "32324324"}}, {"type": "Feature", "geometry": {"type": "LineString", "coordinates": [[-176.431942873434, 68.80550162188277], [-176.4261113446539, 68.80763913896666]]}, "properties": {"source": "31341946", "target": "33388619"}}, {"type": "Feature", "geometry": {"type": "LineString", "coordinates": [[-176.431942873434, 68.80550162188277], [-176.43278618052625, 68.80362815022931]]}, "properties": {"source": "31341946", "target": "31441414"}}, {"type": "Feature", "geometry": {"type": "LineString", "coordinates": [[-176.431942873434, 68.80550162188277], [-176.41530051405874, 68.80340166737636]]}, "properties": {"source": "31341946", "target": "31179964"}}, {"type": "Feature", "geometry": {"type": "LineString", "coordinates": [[-176.431942873434, 68.80550162188277], [-176.41935196696244, 68.80003639055195]]}, "properties": {"source": "31341946", "target": "32611462"}}, {"type": "Feature", "geometry": {"type": "LineString", "coordinates": [[-176.42786868048535, 68.80458289108145], [-176.42551084100594, 68.80601069077125]]}, "properties": {"source": "1328373", "target": "2431468"}}, {"type": "Feature", "geometry": {"type": "LineString", "coordinates": [[-176.42786868048535, 68.80458289108145], [-176.42020965766088, 68.80563430601646]]}, "properties": {"source": "1328373", "target": "11261466"}}, {"type": "Feature", "geometry": {"type": "LineString", "coordinates": [[-176.42786868048535, 68.80458289108145], [-176.43232104929302, 68.80738547184268]]}, "properties": {"source": "1328373", "target": "17692079"}}, {"type": "Feature", "geometry": {"type": "LineString", "coordinates": [[-176.42786868048535, 68.80458289108145], [-176.42335400362145, 68.8020051361691]]}, "properties": {"source": "1328373", "target": "7997715"}}, {"type": "Feature", "geometry": {"type": "LineString", "coordinates": [[-176.43752774050296, 68.80737466284359], [-176.41983584513852, 68.80559461333036]]}, "properties": {"source": "1605170", "target": "2009482"}}, {"type": "Feature", "geometry": {"type": "LineString", "coordinates": [[-176.43752774050296, 68.80737466284359], [-176.42126673885642, 68.80543082625013]]}, "properties": {"source": "1605170", "target": "1771521"}}, {"type": "Feature", "geometry": {"type": "LineString", "coordinates": [[-176.43752774050296, 68.80737466284359], [-176.41940314630523, 68.80596206060895]]}, "properties": {"source": "1605170", "target": "2868865"}}, {"type": "Feature", "geometry": {"type": "LineString", "coordinates": [[-176.43752774050296, 68.80737466284359], [-176.4265064920449, 68.80099881133972]]}, "properties": {"source": "1605170", "target": "2280601"}}, {"type": "Feature", "geometry": {"type": "LineString", "coordinates": [[-176.43650261053605, 68.80697401626998], [-176.43185627636245, 68.80234845027977]]}, "properties": {"source": "12142637", "target": "11691005"}}, {"type": "Feature", "geometry": {"type": "LineString", "coordinates": [[-176.42110000154943, 68.80579017152812], [-176.41940314630523, 68.80596206060895]]}, "properties": {"source": "3464089", "target": "2868865"}}, {"type": "Feature", "geometry": {"type": "LineString", "coordinates": [[-176.43243182869887, 68.80467747391745], [-176.4343528679179, 68.79989036253718]]}, "properties": {"source": "24804487", "target": "22293533"}}, {"type": "Feature", "geometry": {"type": "LineString", "coordinates": [[-176.4280605408495, 68.80717485681492], [-176.4261113446539, 68.80763913896666]]}, "properties": {"source": "34927958", "target": "33388619"}}, {"type": "Feature", "geometry": {"type": "LineString", "coordinates": [[-176.4280605408495, 68.80717485681492], [-176.41935196696244, 68.80003639055195]]}, "properties": {"source": "34927958", "target": "32611462"}}, {"type": "Feature", "geometry": {"type": "LineString", "coordinates": [[-176.41697052151056, 68.80684892007255], [-176.42967672687124, 68.80002553058586]]}, "properties": {"source": "27276089", "target": "29491527"}}, {"type": "Feature", "geometry": {"type": "LineString", "coordinates": [[-176.4364211019863, 68.80457980026017], [-176.43044775499806, 68.80058115719254]]}, "properties": {"source": "2014358", "target": "2167592"}}, {"type": "Feature", "geometry": {"type": "LineString", "coordinates": [[-176.43286610514542, 68.8062195401217], [-176.41910725231176, 68.8012653489686]]}, "properties": {"source": "26889205", "target": "2846619"}}, {"type": "Feature", "geometry": {"type": "LineString", "coordinates": [[-176.4245370448276, 68.807648249826], [-176.42137315920434, 68.80371375166669]]}, "properties": {"source": "22779158", "target": "26263488"}}, {"type": "Feature", "geometry": {"type": "LineString", "coordinates": [[-176.4230107635669, 68.80085616584392], [-176.43243182869887, 68.80467747391745]]}, "properties": {"source": "20734696", "target": "24804487"}}, {"type": "Feature", "geometry": {"type": "LineString", "coordinates": [[-176.4215490529687, 68.80734331878469], [-176.4315542581274, 68.80736329879232]]}, "properties": {"source": "2762880", "target": "22330323"}}, {"type": "Feature", "geometry": {"type": "LineString", "coordinates": [[-176.4280794237825, 68.80421920777326], [-176.42020965766088, 68.80563430601646]]}, "properties": {"source": "2045186", "target": "11261466"}}, {"type": "Feature", "geometry": {"type": "LineString", "coordinates": [[-176.42149104113466, 68.80309486387665], [-176.43708575536994, 68.80379450446569]]}, "properties": {"source": "905402", "target": "5501352"}}, {"type": "Feature", "geometry": {"type": "LineString", "coordinates": [[-176.41960200417134, 68.80295469307933], [-176.4343528679179, 68.79989036253718]]}, "properties": {"source": "21841461", "target": "22293533"}}, {"type": "Feature", "geometry": {"type": "LineString", "coordinates": [[-176.4286460815595, 68.80637845886758], [-176.42141241710416, 68.80299562080026]]}, "properties": {"source": "9112944", "target": "8688161"}}, {"type": "Feature", "geometry": {"type": "LineString", "coordinates": [[-176.41604836350197, 68.80671688578687], [-176.4364211019863, 68.80457980026017]]}, "properties": {"source": "2144901", "target": "2014358"}}, {"type": "Feature", "geometry": {"type": "LineString", "coordinates": [[-176.41806266882423, 68.80196185006324], [-176.43374848701325, 68.80756935709033]]}, "properties": {"source": "29844797", "target": "30804653"}}, {"type": "Feature", "geometry": {"type": "LineString", "coordinates": [[-176.41806266882423, 68.80196185006324], [-176.43366840985547, 68.80043528570883]]}, "properties": {"source": "29844797", "target": "30804679"}}, {"type": "Feature", "geometry": {"type": "LineString", "coordinates": [[-176.41806266882423, 68.80196185006324], [-176.4354920776811, 68.8060716335988]]}, "properties": {"source": "29844797", "target": "539970"}}, {"type": "Feature", "geometry": {"type": "LineString", "coordinates": [[-176.4325117675011, 68.80266386969123], [-176.42053400501217, 68.80171186191097]]}, "properties": {"source": "7756287", "target": "13642749"}}, {"type": "Feature", "geometry": {"type": "LineString", "coordinates": [[-176.4327951954946, 68.80043817225183], [-176.4159914763319, 68.80592714980659]]}, "properties": {"source": "17288765", "target": "15797415"}}, {"type": "Feature", "geometry": {"type": "LineString", "coordinates": [[-176.4327951954946, 68.80043817225183], [-176.42053400501217, 68.80171186191097]]}, "properties": {"source": "17288765", "target": "13642749"}}, {"type": "Feature", "geometry": {"type": "LineString", "coordinates": [[-176.4327951954946, 68.80043817225183], [-176.4315542581274, 68.80736329879232]]}, "properties": {"source": "17288765", "target": "22330323"}}, {"type": "Feature", "geometry": {"type": "LineString", "coordinates": [[-176.4327951954946, 68.80043817225183], [-176.43558380418463, 68.80145782173167]]}, "properties": {"source": "17288765", "target": "16099212"}}, {"type": "Feature", "geometry": {"type": "LineString", "coordinates": [[-176.43553014231378, 68.80218408865352], [-176.43015096845903, 68.80738288648706]]}, "properties": {"source": "4387607", "target": "33153363"}}, {"type": "Feature", "geometry": {"type": "LineString", "coordinates": [[-176.43553014231378, 68.80218408865352], [-176.42141241710416, 68.80299562080026]]}, "properties": {"source": "4387607", "target": "8688161"}}, {"type": "Feature", "geometry": {"type": "LineString", "coordinates": [[-176.43686293962614, 68.79985664425453], [-176.425199579855, 68.80251194487334]]}, "properties": {"source": "2181092", "target": "23411562"}}, {"type": "Feature", "geometry": {"type": "LineString", "coordinates": [[-176.43384669634872, 68.80392802373598], [-176.43366840985547, 68.80043528570883]]}, "properties": {"source": "32021588", "target": "30804679"}}, {"type": "Feature", "geometry": {"type": "LineString", "coordinates": [[-176.4340402683899, 68.80093582179012], [-176.43114083995692, 68.79979680069678]]}, "properties": {"source": "2894640", "target": "30106370"}}, {"type": "Feature", "geometry": {"type": "LineString", "coordinates": [[-176.4340402683899, 68.80093582179012], [-176.4364865855079, 68.80753578699967]]}, "properties": {"source": "2894640", "target": "25976005"}}, {"type": "Feature", "geometry": {"type": "LineString", "coordinates": [[-176.42177048271253, 68.80427763063432], [-176.4363994053317, 68.80635490204287]]}, "properties": {"source": "6050103", "target": "6829077"}}, {"type": "Feature", "geometry": {"type": "LineString", "coordinates": [[-176.42343074748715, 68.80303049185869], [-176.42836605964982, 68.80468815010201]]}, "properties": {"source": "26795483", "target": "4955435"}}, {"type": "Feature", "geometry": {"type": "LineString", "coordinates": [[-176.41970660432688, 68.80232669226484], [-176.41910725231176, 68.8012653489686]]}, "properties": {"source": "31128836", "target": "2846619"}}, {"type": "Feature", "geometry": {"type": "LineString", "coordinates": [[-176.41970660432688, 68.80232669226484], [-176.43512005553856, 68.8064421522653]]}, "properties": {"source": "31128836", "target": "21027629"}}, {"type": "Feature", "geometry": {"type": "LineString", "coordinates": [[-176.41970660432688, 68.80232669226484], [-176.41900728131387, 68.80114812290421]]}, "properties": {"source": "31128836", "target": "30279209"}}, {"type": "Feature", "geometry": {"type": "LineString", "coordinates": [[-176.41970660432688, 68.80232669226484], [-176.4231888543105, 68.80155301745557]]}, "properties": {"source": "31128836", "target": "18690091"}}, {"type": "Feature", "geometry": {"type": "LineString", "coordinates": [[-176.4307845044384, 68.80348187628465], [-176.43015096845903, 68.80738288648706]]}, "properties": {"source": "31441415", "target": "33153363"}}, {"type": "Feature", "geometry": {"type": "LineString", "coordinates": [[-176.4307845044384, 68.80348187628465], [-176.43114083995692, 68.79979680069678]]}, "properties": {"source": "31441415", "target": "30106370"}}, {"type": "Feature", "geometry": {"type": "LineString", "coordinates": [[-176.4307845044384, 68.80348187628465], [-176.41562514317764, 68.80571139534524]]}, "properties": {"source": "31441415", "target": "35650811"}}, {"type": "Feature", "geometry": {"type": "LineString", "coordinates": [[-176.4307845044384, 68.80348187628465], [-176.41900728131387, 68.80114812290421]]}, "properties": {"source": "31441415", "target": "30279209"}}, {"type": "Feature", "geometry": {"type": "LineString", "coordinates": [[-176.43015096845903, 68.80738288648706], [-176.43114083995692, 68.79979680069678]]}, "properties": {"source": "33153363", "target": "30106370"}}, {"type": "Feature", "geometry": {"type": "LineString", "coordinates": [[-176.43015096845903, 68.80738288648706], [-176.42141241710416, 68.80299562080026]]}, "properties": {"source": "33153363", "target": "8688161"}}, {"type": "Feature", "geometry": {"type": "LineString", "coordinates": [[-176.42109474523332, 68.80620162369183], [-176.4346991477359, 68.80290717428136]]}, "properties": {"source": "2846618", "target": "31678208"}}, {"type": "Feature", "geometry": {"type": "LineString", "coordinates": [[-176.42109474523332, 68.80620162369183], [-176.42106856611892, 68.80181697084925]]}, "properties": {"source": "2846618", "target": "31304666"}}, {"type": "Feature", "geometry": {"type": "LineString", "coordinates": [[-176.42109474523332, 68.80620162369183], [-176.41970660432688, 68.80232669226484]]}, "properties": {"source": "2846618", "target": "31128836"}}, {"type": "Feature", "geometry": {"type": "LineString", "coordinates": [[-176.42109474523332, 68.80620162369183], [-176.43015096845903, 68.80738288648706]]}, "properties": {"source": "2846618", "target": "33153363"}}, {"type": "Feature", "geometry": {"type": "LineString", "coordinates": [[-176.42109474523332, 68.80620162369183], [-176.41983584513852, 68.80559461333036]]}, "properties": {"source": "2846618", "target": "2009482"}}, {"type": "Feature", "geometry": {"type": "LineString", "coordinates": [[-176.42109474523332, 68.80620162369183], [-176.42551084100594, 68.80601069077125]]}, "properties": {"source": "2846618", "target": "2431468"}}, {"type": "Feature", "geometry": {"type": "LineString", "coordinates": [[-176.42192080422552, 68.80415069862201], [-176.42106856611892, 68.80181697084925]]}, "properties": {"source": "30370279", "target": "31304666"}}, {"type": "Feature", "geometry": {"type": "LineString", "coordinates": [[-176.42192080422552, 68.80415069862201], [-176.4307845044384, 68.80348187628465]]}, "properties": {"source": "30370279", "target": "31441415"}}, {"type": "Feature", "geometry": {"type": "LineString", "coordinates": [[-176.42192080422552, 68.80415069862201], [-176.43678088321823, 68.80538699963282]]}, "properties": {"source": "30370279", "target": "33830189"}}, {"type": "Feature", "geometry": {"type": "LineString", "coordinates": [[-176.42192080422552, 68.80415069862201], [-176.4205734994797, 68.80556219715695]]}, "properties": {"source": "30370279", "target": "32324324"}}, {"type": "Feature", "geometry": {"type": "LineString", "coordinates": [[-176.42192080422552, 68.80415069862201], [-176.4261113446539, 68.80763913896666]]}, "properties": {"source": "30370279", "target": "33388619"}}, {"type": "Feature", "geometry": {"type": "LineString", "coordinates": [[-176.42192080422552, 68.80415069862201], [-176.43278618052625, 68.80362815022931]]}, "properties": {"source": "30370279", "target": "31441414"}}, {"type": "Feature", "geometry": {"type": "LineString", "coordinates": [[-176.42192080422552, 68.80415069862201], [-176.41530051405874, 68.80340166737636]]}, "properties": {"source": "30370279", "target": "31179964"}}, {"type": "Feature", "geometry": {"type": "LineString", "coordinates": [[-176.42192080422552, 68.80415069862201], [-176.41562514317764, 68.80571139534524]]}, "properties": {"source": "30370279", "target": "35650811"}}, {"type": "Feature", "geometry": {"type": "LineString", "coordinates": [[-176.42192080422552, 68.80415069862201], [-176.4343528679179, 68.79989036253718]]}, "properties": {"source": "30370279", "target": "22293533"}}, {"type": "Feature", "geometry": {"type": "LineString", "coordinates": [[-176.42192080422552, 68.80415069862201], [-176.4270130635027, 68.80341708034959]]}, "properties": {"source": "30370279", "target": "29734955"}}, {"type": "Feature", "geometry": {"type": "LineString", "coordinates": [[-176.4150186451868, 68.80001091255028], [-176.4346991477359, 68.80290717428136]]}, "properties": {"source": "29491384", "target": "31678208"}}, {"type": "Feature", "geometry": {"type": "LineString", "coordinates": [[-176.4150186451868, 68.80001091255028], [-176.42106856611892, 68.80181697084925]]}, "properties": {"source": "29491384", "target": "31304666"}}, {"type": "Feature", "geometry": {"type": "LineString", "coordinates": [[-176.4150186451868, 68.80001091255028], [-176.43299342797656, 68.80425525377555]]}, "properties": {"source": "29491384", "target": "30237283"}}, {"type": "Feature", "geometry": {"type": "LineString", "coordinates": [[-176.4150186451868, 68.80001091255028], [-176.42967672687124, 68.80002553058586]]}, "properties": {"source": "29491384", "target": "29491527"}}, {"type": "Feature", "geometry": {"type": "LineString", "coordinates": [[-176.4150186451868, 68.80001091255028], [-176.43374848701325, 68.80756935709033]]}, "properties": {"source": "29491384", "target": "30804653"}}, {"type": "Feature", "geometry": {"type": "LineString", "coordinates": [[-176.41562514317764, 68.80571139534524], [-176.43015096845903, 68.80738288648706]]}, "properties": {"source": "35650811", "target": "33153363"}}, {"type": "Feature", "geometry": {"type": "LineString", "coordinates": [[-176.4150186451868, 68.80001091255028], [-176.43114083995692, 68.79979680069678]]}, "properties": {"source": "29491384", "target": "30106370"}}, {"type": "Feature", "geometry": {"type": "LineString", "coordinates": [[-176.4150186451868, 68.80001091255028], [-176.4269948533703, 68.80657484695703]]}, "properties": {"source": "29491384", "target": "31308087"}}, {"type": "Feature", "geometry": {"type": "LineString", "coordinates": [[-176.4150186451868, 68.80001091255028], [-176.4379922392184, 68.80110033996547]]}, "properties": {"source": "29491384", "target": "25730186"}}, {"type": "Feature", "geometry": {"type": "LineString", "coordinates": [[-176.4150186451868, 68.80001091255028], [-176.4340402683899, 68.80093582179012]]}, "properties": {"source": "29491384", "target": "2894640"}}, {"type": "Feature", "geometry": {"type": "LineString", "coordinates": [[-176.4150186451868, 68.80001091255028], [-176.4364865855079, 68.80753578699967]]}, "properties": {"source": "29491384", "target": "25976005"}}, {"type": "Feature", "geometry": {"type": "LineString", "coordinates": [[-176.4150186451868, 68.80001091255028], [-176.41697052151056, 68.80684892007255]]}, "properties": {"source": "29491384", "target": "27276089"}}, {"type": "Feature", "geometry": {"type": "LineString", "coordinates": [[-176.4269948533703, 68.80657484695703], [-176.4346991477359, 68.80290717428136]]}, "properties": {"source": "31308087", "target": "31678208"}}, {"type": "Feature", "geometry": {"type": "LineString", "coordinates": [[-176.4269948533703, 68.80657484695703], [-176.42106856611892, 68.80181697084925]]}, "properties": {"source": "31308087", "target": "31304666"}}, {"type": "Feature", "geometry": {"type": "LineString", "coordinates": [[-176.4269948533703, 68.80657484695703], [-176.42967672687124, 68.80002553058586]]}, "properties": {"source": "31308087", "target": "29491527"}}, {"type": "Feature", "geometry": {"type": "LineString", "coordinates": [[-176.4269948533703, 68.80657484695703], [-176.43374848701325, 68.80756935709033]]}, "properties": {"source": "31308087", "target": "30804653"}}, {"type": "Feature", "geometry": {"type": "LineString", "coordinates": [[-176.4269948533703, 68.80657484695703], [-176.43366840985547, 68.80043528570883]]}, "properties": {"source": "31308087", "target": "30804679"}}, {"type": "Feature", "geometry": {"type": "LineString", "coordinates": [[-176.4269948533703, 68.80657484695703], [-176.43114083995692, 68.79979680069678]]}, "properties": {"source": "31308087", "target": "30106370"}}, {"type": "Feature", "geometry": {"type": "LineString", "coordinates": [[-176.4269948533703, 68.80657484695703], [-176.43384669634872, 68.80392802373598]]}, "properties": {"source": "31308087", "target": "32021588"}}, {"type": "Feature", "geometry": {"type": "LineString", "coordinates": [[-176.43473891827549, 68.80430011850643], [-176.41983584513852, 68.80559461333036]]}, "properties": {"source": "2100671", "target": "2009482"}}, {"type": "Feature", "geometry": {"type": "LineString", "coordinates": [[-176.43473891827549, 68.80430011850643], [-176.42824454883137, 68.80540315164484]]}, "properties": {"source": "2100671", "target": "2100670"}}, {"type": "Feature", "geometry": {"type": "LineString", "coordinates": [[-176.4269948533703, 68.80657484695703], [-176.42836605964982, 68.80468815010201]]}, "properties": {"source": "31308087", "target": "4955435"}}, {"type": "Feature", "geometry": {"type": "LineString", "coordinates": [[-176.42422990010078, 68.80203477625267], [-176.4354920776811, 68.8060716335988]]}, "properties": {"source": "30739117", "target": "539970"}}, {"type": "Feature", "geometry": {"type": "LineString", "coordinates": [[-176.42422990010078, 68.80203477625267], [-176.41806266882423, 68.80196185006324]]}, "properties": {"source": "30739117", "target": "29844797"}}, {"type": "Feature", "geometry": {"type": "LineString", "coordinates": [[-176.42422990010078, 68.80203477625267], [-176.41822316736867, 68.80231637011744]]}, "properties": {"source": "30739117", "target": "6515205"}}, {"type": "Feature", "geometry": {"type": "LineString", "coordinates": [[-176.42422990010078, 68.80203477625267], [-176.42137315920434, 68.80371375166669]]}, "properties": {"source": "30739117", "target": "26263488"}}, {"type": "Feature", "geometry": {"type": "LineString", "coordinates": [[-176.4343528679179, 68.79989036253718], [-176.4307845044384, 68.80348187628465]]}, "properties": {"source": "22293533", "target": "31441415"}}, {"type": "Feature", "geometry": {"type": "LineString", "coordinates": [[-176.4343528679179, 68.79989036253718], [-176.4205734994797, 68.80556219715695]]}, "properties": {"source": "22293533", "target": "32324324"}}, {"type": "Feature", "geometry": {"type": "LineString", "coordinates": [[-176.4343528679179, 68.79989036253718], [-176.43278618052625, 68.80362815022931]]}, "properties": {"source": "22293533", "target": "31441414"}}, {"type": "Feature", "geometry": {"type": "LineString", "coordinates": [[-176.4343528679179, 68.79989036253718], [-176.41562514317764, 68.80571139534524]]}, "properties": {"source": "22293533", "target": "35650811"}}, {"type": "Feature", "geometry": {"type": "LineString", "coordinates": [[-176.41900728131387, 68.80114812290421], [-176.43015096845903, 68.80738288648706]]}, "properties": {"source": "30279209", "target": "33153363"}}, {"type": "Feature", "geometry": {"type": "LineString", "coordinates": [[-176.41940314630523, 68.80596206060895], [-176.4235968273514, 68.80724315494976]]}, "properties": {"source": "2868865", "target": "2100669"}}, {"type": "Feature", "geometry": {"type": "LineString", "coordinates": [[-176.41850430559523, 68.80243265031001], [-176.4346991477359, 68.80290717428136]]}, "properties": {"source": "35394626", "target": "31678208"}}, {"type": "Feature", "geometry": {"type": "LineString", "coordinates": [[-176.41850430559523, 68.80243265031001], [-176.4307845044384, 68.80348187628465]]}, "properties": {"source": "35394626", "target": "31441415"}}, {"type": "Feature", "geometry": {"type": "LineString", "coordinates": [[-176.41850430559523, 68.80243265031001], [-176.43015096845903, 68.80738288648706]]}, "properties": {"source": "35394626", "target": "33153363"}}, {"type": "Feature", "geometry": {"type": "LineString", "coordinates": [[-176.41850430559523, 68.80243265031001], [-176.43678088321823, 68.80538699963282]]}, "properties": {"source": "35394626", "target": "33830189"}}, {"type": "Feature", "geometry": {"type": "LineString", "coordinates": [[-176.41850430559523, 68.80243265031001], [-176.4205734994797, 68.80556219715695]]}, "properties": {"source": "35394626", "target": "32324324"}}, {"type": "Feature", "geometry": {"type": "LineString", "coordinates": [[-176.41850430559523, 68.80243265031001], [-176.4261113446539, 68.80763913896666]]}, "properties": {"source": "35394626", "target": "33388619"}}, {"type": "Feature", "geometry": {"type": "LineString", "coordinates": [[-176.41983584513852, 68.80559461333036], [-176.41940314630523, 68.80596206060895]]}, "properties": {"source": "2009482", "target": "2868865"}}, {"type": "Feature", "geometry": {"type": "LineString", "coordinates": [[-176.41983584513852, 68.80559461333036], [-176.42053400501217, 68.80171186191097]]}, "properties": {"source": "2009482", "target": "13642749"}}, {"type": "Feature", "geometry": {"type": "LineString", "coordinates": [[-176.41983584513852, 68.80559461333036], [-176.4325117675011, 68.80266386969123]]}, "properties": {"source": "2009482", "target": "7756287"}}, {"type": "Feature", "geometry": {"type": "LineString", "coordinates": [[-176.41983584513852, 68.80559461333036], [-176.43086616801332, 68.80075625879937]]}, "properties": {"source": "2009482", "target": "1724910"}}, {"type": "Feature", "geometry": {"type": "LineString", "coordinates": [[-176.41983584513852, 68.80559461333036], [-176.4356256428635, 68.80043761217249]]}, "properties": {"source": "2009482", "target": "15739382"}}, {"type": "Feature", "geometry": {"type": "LineString", "coordinates": [[-176.4265385915985, 68.8048126274127], [-176.4346991477359, 68.80290717428136]]}, "properties": {"source": "31562736", "target": "31678208"}}, {"type": "Feature", "geometry": {"type": "LineString", "coordinates": [[-176.4265385915985, 68.8048126274127], [-176.42106856611892, 68.80181697084925]]}, "properties": {"source": "31562736", "target": "31304666"}}, {"type": "Feature", "geometry": {"type": "LineString", "coordinates": [[-176.4265385915985, 68.8048126274127], [-176.43299342797656, 68.80425525377555]]}, "properties": {"source": "31562736", "target": "30237283"}}, {"type": "Feature", "geometry": {"type": "LineString", "coordinates": [[-176.4265385915985, 68.8048126274127], [-176.42967672687124, 68.80002553058586]]}, "properties": {"source": "31562736", "target": "29491527"}}, {"type": "Feature", "geometry": {"type": "LineString", "coordinates": [[-176.4265385915985, 68.8048126274127], [-176.43374848701325, 68.80756935709033]]}, "properties": {"source": "31562736", "target": "30804653"}}, {"type": "Feature", "geometry": {"type": "LineString", "coordinates": [[-176.4265385915985, 68.8048126274127], [-176.43366840985547, 68.80043528570883]]}, "properties": {"source": "31562736", "target": "30804679"}}, {"type": "Feature", "geometry": {"type": "LineString", "coordinates": [[-176.4265385915985, 68.8048126274127], [-176.43114083995692, 68.79979680069678]]}, "properties": {"source": "31562736", "target": "30106370"}}, {"type": "Feature", "geometry": {"type": "LineString", "coordinates": [[-176.4265385915985, 68.8048126274127], [-176.4269948533703, 68.80657484695703]]}, "properties": {"source": "31562736", "target": "31308087"}}, {"type": "Feature", "geometry": {"type": "LineString", "coordinates": [[-176.4265385915985, 68.8048126274127], [-176.41985362723176, 68.80665537916232]]}, "properties": {"source": "31562736", "target": "10293463"}}, {"type": "Feature", "geometry": {"type": "LineString", "coordinates": [[-176.4265385915985, 68.8048126274127], [-176.4315664965217, 68.80405295884759]]}, "properties": {"source": "31562736", "target": "31171074"}}, {"type": "Feature", "geometry": {"type": "LineString", "coordinates": [[-176.4265385915985, 68.8048126274127], [-176.42836605964982, 68.80468815010201]]}, "properties": {"source": "31562736", "target": "4955435"}}, {"type": "Feature", "geometry": {"type": "LineString", "coordinates": [[-176.43699440561565, 68.80019517665505], [-176.42177048271253, 68.80427763063432]]}, "properties": {"source": "6050104", "target": "6050103"}}, {"type": "Feature", "geometry": {"type": "LineString", "coordinates": [[-176.4233353033143, 68.80073959953498], [-176.41983584513852, 68.80559461333036]]}, "properties": {"source": "13533763", "target": "2009482"}}, {"type": "Feature", "geometry": {"type": "LineString", "coordinates": [[-176.4233353033143, 68.80073959953498], [-176.4159914763319, 68.80592714980659]]}, "properties": {"source": "13533763", "target": "15797415"}}, {"type": "Feature", "geometry": {"type": "LineString", "coordinates": [[-176.4233353033143, 68.80073959953498], [-176.42053400501217, 68.80171186191097]]}, "properties": {"source": "13533763", "target": "13642749"}}, {"type": "Feature", "geometry": {"type": "LineString", "coordinates": [[-176.4233353033143, 68.80073959953498], [-176.4325117675011, 68.80266386969123]]}, "properties": {"source": "13533763", "target": "7756287"}}, {"type": "Feature", "geometry": {"type": "LineString", "coordinates": [[-176.43625032863955, 68.80044286353726], [-176.42551084100594, 68.80601069077125]]}, "properties": {"source": "1578628", "target": "2431468"}}, {"type": "Feature", "geometry": {"type": "LineString", "coordinates": [[-176.43625032863955, 68.80044286353726], [-176.42020965766088, 68.80563430601646]]}, "properties": {"source": "1578628", "target": "11261466"}}, {"type": "Feature", "geometry": {"type": "LineString", "coordinates": [[-176.43625032863955, 68.80044286353726], [-176.42786868048535, 68.80458289108145]]}, "properties": {"source": "1578628", "target": "1328373"}}, {"type": "Feature", "geometry": {"type": "LineString", "coordinates": [[-176.43625032863955, 68.80044286353726], [-176.43232104929302, 68.80738547184268]]}, "properties": {"source": "1578628", "target": "17692079"}}, {"type": "Feature", "geometry": {"type": "LineString", "coordinates": [[-176.43625032863955, 68.80044286353726], [-176.42335400362145, 68.8020051361691]]}, "properties": {"source": "1578628", "target": "7997715"}}, {"type": "Feature", "geometry": {"type": "LineString", "coordinates": [[-176.43625032863955, 68.80044286353726], [-176.43401640477478, 68.80228212696133]]}, "properties": {"source": "1578628", "target": "851158"}}, {"type": "Feature", "geometry": {"type": "LineString", "coordinates": [[-176.4379922392184, 68.80110033996547], [-176.43299342797656, 68.80425525377555]]}, "properties": {"source": "25730186", "target": "30237283"}}, {"type": "Feature", "geometry": {"type": "LineString", "coordinates": [[-176.4379922392184, 68.80110033996547], [-176.42967672687124, 68.80002553058586]]}, "properties": {"source": "25730186", "target": "29491527"}}, {"type": "Feature", "geometry": {"type": "LineString", "coordinates": [[-176.4379922392184, 68.80110033996547], [-176.43114083995692, 68.79979680069678]]}, "properties": {"source": "25730186", "target": "30106370"}}, {"type": "Feature", "geometry": {"type": "LineString", "coordinates": [[-176.4233353033143, 68.80073959953498], [-176.43625511241274, 68.80451645327261]]}, "properties": {"source": "13533763", "target": "3599486"}}, {"type": "Feature", "geometry": {"type": "LineString", "coordinates": [[-176.4233353033143, 68.80073959953498], [-176.4327951954946, 68.80043817225183]]}, "properties": {"source": "13533763", "target": "17288765"}}, {"type": "Feature", "geometry": {"type": "LineString", "coordinates": [[-176.43473891827549, 68.80430011850643], [-176.42126673885642, 68.80543082625013]]}, "properties": {"source": "2100671", "target": "1771521"}}, {"type": "Feature", "geometry": {"type": "LineString", "coordinates": [[-176.43473891827549, 68.80430011850643], [-176.41910725231176, 68.8012653489686]]}, "properties": {"source": "2100671", "target": "2846619"}}, {"type": "Feature", "geometry": {"type": "LineString", "coordinates": [[-176.43473891827549, 68.80430011850643], [-176.4235968273514, 68.80724315494976]]}, "properties": {"source": "2100671", "target": "2100669"}}, {"type": "Feature", "geometry": {"type": "LineString", "coordinates": [[-176.43473891827549, 68.80430011850643], [-176.41940314630523, 68.80596206060895]]}, "properties": {"source": "2100671", "target": "2868865"}}, {"type": "Feature", "geometry": {"type": "LineString", "coordinates": [[-176.43473891827549, 68.80430011850643], [-176.43086616801332, 68.80075625879937]]}, "properties": {"source": "2100671", "target": "1724910"}}, {"type": "Feature", "geometry": {"type": "LineString", "coordinates": [[-176.43473891827549, 68.80430011850643], [-176.4265064920449, 68.80099881133972]]}, "properties": {"source": "2100671", "target": "2280601"}}, {"type": "Feature", "geometry": {"type": "LineString", "coordinates": [[-176.43473891827549, 68.80430011850643], [-176.42110000154943, 68.80579017152812]]}, "properties": {"source": "2100671", "target": "3464089"}}, {"type": "Feature", "geometry": {"type": "LineString", "coordinates": [[-176.41902583625063, 68.8065120667307], [-176.42106856611892, 68.80181697084925]]}, "properties": {"source": "30184877", "target": "31304666"}}, {"type": "Feature", "geometry": {"type": "LineString", "coordinates": [[-176.41902583625063, 68.8065120667307], [-176.43015096845903, 68.80738288648706]]}, "properties": {"source": "30184877", "target": "33153363"}}, {"type": "Feature", "geometry": {"type": "LineString", "coordinates": [[-176.41902583625063, 68.8065120667307], [-176.41910725231176, 68.8012653489686]]}, "properties": {"source": "30184877", "target": "2846619"}}, {"type": "Feature", "geometry": {"type": "LineString", "coordinates": [[-176.41902583625063, 68.8065120667307], [-176.43512005553856, 68.8064421522653]]}, "properties": {"source": "30184877", "target": "21027629"}}, {"type": "Feature", "geometry": {"type": "LineString", "coordinates": [[-176.41902583625063, 68.8065120667307], [-176.4231888543105, 68.80155301745557]]}, "properties": {"source": "30184877", "target": "18690091"}}, {"type": "Feature", "geometry": {"type": "LineString", "coordinates": [[-176.41902583625063, 68.8065120667307], [-176.43553014231378, 68.80218408865352]]}, "properties": {"source": "30184877", "target": "4387607"}}, {"type": "Feature", "geometry": {"type": "LineString", "coordinates": [[-176.42824454883137, 68.80540315164484], [-176.41983584513852, 68.80559461333036]]}, "properties": {"source": "2100670", "target": "2009482"}}, {"type": "Feature", "geometry": {"type": "LineString", "coordinates": [[-176.42824454883137, 68.80540315164484], [-176.42126673885642, 68.80543082625013]]}, "properties": {"source": "2100670", "target": "1771521"}}, {"type": "Feature", "geometry": {"type": "LineString", "coordinates": [[-176.42824454883137, 68.80540315164484], [-176.41910725231176, 68.8012653489686]]}, "properties": {"source": "2100670", "target": "2846619"}}, {"type": "Feature", "geometry": {"type": "LineString", "coordinates": [[-176.43278618052625, 68.80362815022931], [-176.4307845044384, 68.80348187628465]]}, "properties": {"source": "31441414", "target": "31441415"}}, {"type": "Feature", "geometry": {"type": "LineString", "coordinates": [[-176.43278618052625, 68.80362815022931], [-176.43015096845903, 68.80738288648706]]}, "properties": {"source": "31441414", "target": "33153363"}}, {"type": "Feature", "geometry": {"type": "LineString", "coordinates": [[-176.43278618052625, 68.80362815022931], [-176.41562514317764, 68.80571139534524]]}, "properties": {"source": "31441414", "target": "35650811"}}, {"type": "Feature", "geometry": {"type": "LineString", "coordinates": [[-176.43278618052625, 68.80362815022931], [-176.41900728131387, 68.80114812290421]]}, "properties": {"source": "31441414", "target": "30279209"}}, {"type": "Feature", "geometry": {"type": "LineString", "coordinates": [[-176.41530051405874, 68.80340166737636], [-176.4346991477359, 68.80290717428136]]}, "properties": {"source": "31179964", "target": "31678208"}}, {"type": "Feature", "geometry": {"type": "LineString", "coordinates": [[-176.41530051405874, 68.80340166737636], [-176.42106856611892, 68.80181697084925]]}, "properties": {"source": "31179964", "target": "31304666"}}, {"type": "Feature", "geometry": {"type": "LineString", "coordinates": [[-176.41530051405874, 68.80340166737636], [-176.4307845044384, 68.80348187628465]]}, "properties": {"source": "31179964", "target": "31441415"}}, {"type": "Feature", "geometry": {"type": "LineString", "coordinates": [[-176.41530051405874, 68.80340166737636], [-176.43015096845903, 68.80738288648706]]}, "properties": {"source": "31179964", "target": "33153363"}}, {"type": "Feature", "geometry": {"type": "LineString", "coordinates": [[-176.41530051405874, 68.80340166737636], [-176.4205734994797, 68.80556219715695]]}, "properties": {"source": "31179964", "target": "32324324"}}, {"type": "Feature", "geometry": {"type": "LineString", "coordinates": [[-176.41530051405874, 68.80340166737636], [-176.43278618052625, 68.80362815022931]]}, "properties": {"source": "31179964", "target": "31441414"}}, {"type": "Feature", "geometry": {"type": "LineString", "coordinates": [[-176.41530051405874, 68.80340166737636], [-176.41562514317764, 68.80571139534524]]}, "properties": {"source": "31179964", "target": "35650811"}}, {"type": "Feature", "geometry": {"type": "LineString", "coordinates": [[-176.41530051405874, 68.80340166737636], [-176.4343528679179, 68.79989036253718]]}, "properties": {"source": "31179964", "target": "22293533"}}, {"type": "Feature", "geometry": {"type": "LineString", "coordinates": [[-176.41530051405874, 68.80340166737636], [-176.41900728131387, 68.80114812290421]]}, "properties": {"source": "31179964", "target": "30279209"}}, {"type": "Feature", "geometry": {"type": "LineString", "coordinates": [[-176.41530051405874, 68.80340166737636], [-176.4270130635027, 68.80341708034959]]}, "properties": {"source": "31179964", "target": "29734955"}}, {"type": "Feature", "geometry": {"type": "LineString", "coordinates": [[-176.42967672687124, 68.80002553058586], [-176.4307845044384, 68.80348187628465]]}, "properties": {"source": "29491527", "target": "31441415"}}, {"type": "Feature", "geometry": {"type": "LineString", "coordinates": [[-176.42967672687124, 68.80002553058586], [-176.43015096845903, 68.80738288648706]]}, "properties": {"source": "29491527", "target": "33153363"}}, {"type": "Feature", "geometry": {"type": "LineString", "coordinates": [[-176.4346991477359, 68.80290717428136], [-176.42106856611892, 68.80181697084925]]}, "properties": {"source": "31678208", "target": "31304666"}}, {"type": "Feature", "geometry": {"type": "LineString", "coordinates": [[-176.4346991477359, 68.80290717428136], [-176.4307845044384, 68.80348187628465]]}, "properties": {"source": "31678208", "target": "31441415"}}, {"type": "Feature", "geometry": {"type": "LineString", "coordinates": [[-176.4346991477359, 68.80290717428136], [-176.43015096845903, 68.80738288648706]]}, "properties": {"source": "31678208", "target": "33153363"}}, {"type": "Feature", "geometry": {"type": "LineString", "coordinates": [[-176.4346991477359, 68.80290717428136], [-176.4205734994797, 68.80556219715695]]}, "properties": {"source": "31678208", "target": "32324324"}}, {"type": "Feature", "geometry": {"type": "LineString", "coordinates": [[-176.4346991477359, 68.80290717428136], [-176.43278618052625, 68.80362815022931]]}, "properties": {"source": "31678208", "target": "31441414"}}, {"type": "Feature", "geometry": {"type": "LineString", "coordinates": [[-176.4346991477359, 68.80290717428136], [-176.42967672687124, 68.80002553058586]]}, "properties": {"source": "31678208", "target": "29491527"}}, {"type": "Feature", "geometry": {"type": "LineString", "coordinates": [[-176.4346991477359, 68.80290717428136], [-176.43374848701325, 68.80756935709033]]}, "properties": {"source": "31678208", "target": "30804653"}}, {"type": "Feature", "geometry": {"type": "LineString", "coordinates": [[-176.4346991477359, 68.80290717428136], [-176.43366840985547, 68.80043528570883]]}, "properties": {"source": "31678208", "target": "30804679"}}, {"type": "Feature", "geometry": {"type": "LineString", "coordinates": [[-176.4346991477359, 68.80290717428136], [-176.43114083995692, 68.79979680069678]]}, "properties": {"source": "31678208", "target": "30106370"}}, {"type": "Feature", "geometry": {"type": "LineString", "coordinates": [[-176.4346991477359, 68.80290717428136], [-176.41562514317764, 68.80571139534524]]}, "properties": {"source": "31678208", "target": "35650811"}}, {"type": "Feature", "geometry": {"type": "LineString", "coordinates": [[-176.4346991477359, 68.80290717428136], [-176.41902583625063, 68.8065120667307]]}, "properties": {"source": "31678208", "target": "30184877"}}, {"type": "Feature", "geometry": {"type": "LineString", "coordinates": [[-176.4346991477359, 68.80290717428136], [-176.41910725231176, 68.8012653489686]]}, "properties": {"source": "31678208", "target": "2846619"}}, {"type": "Feature", "geometry": {"type": "LineString", "coordinates": [[-176.4346991477359, 68.80290717428136], [-176.43512005553856, 68.8064421522653]]}, "properties": {"source": "31678208", "target": "21027629"}}, {"type": "Feature", "geometry": {"type": "LineString", "coordinates": [[-176.4346991477359, 68.80290717428136], [-176.41900728131387, 68.80114812290421]]}, "properties": {"source": "31678208", "target": "30279209"}}, {"type": "Feature", "geometry": {"type": "LineString", "coordinates": [[-176.4346991477359, 68.80290717428136], [-176.4231888543105, 68.80155301745557]]}, "properties": {"source": "31678208", "target": "18690091"}}, {"type": "Feature", "geometry": {"type": "LineString", "coordinates": [[-176.4346991477359, 68.80290717428136], [-176.43553014231378, 68.80218408865352]]}, "properties": {"source": "31678208", "target": "4387607"}}, {"type": "Feature", "geometry": {"type": "LineString", "coordinates": [[-176.42967672687124, 68.80002553058586], [-176.43114083995692, 68.79979680069678]]}, "properties": {"source": "29491527", "target": "30106370"}}, {"type": "Feature", "geometry": {"type": "LineString", "coordinates": [[-176.42967672687124, 68.80002553058586], [-176.4340402683899, 68.80093582179012]]}, "properties": {"source": "29491527", "target": "2894640"}}, {"type": "Feature", "geometry": {"type": "LineString", "coordinates": [[-176.42967672687124, 68.80002553058586], [-176.4364865855079, 68.80753578699967]]}, "properties": {"source": "29491527", "target": "25976005"}}, {"type": "Feature", "geometry": {"type": "LineString", "coordinates": [[-176.43374848701325, 68.80756935709033], [-176.43366840985547, 68.80043528570883]]}, "properties": {"source": "30804653", "target": "30804679"}}, {"type": "Feature", "geometry": {"type": "LineString", "coordinates": [[-176.43374848701325, 68.80756935709033], [-176.4315664965217, 68.80405295884759]]}, "properties": {"source": "30804653", "target": "31171074"}}, {"type": "Feature", "geometry": {"type": "LineString", "coordinates": [[-176.43374848701325, 68.80756935709033], [-176.4354920776811, 68.8060716335988]]}, "properties": {"source": "30804653", "target": "539970"}}, {"type": "Feature", "geometry": {"type": "LineString", "coordinates": [[-176.43374848701325, 68.80756935709033], [-176.43384669634872, 68.80392802373598]]}, "properties": {"source": "30804653", "target": "32021588"}}, {"type": "Feature", "geometry": {"type": "LineString", "coordinates": [[-176.43374848701325, 68.80756935709033], [-176.42137315920434, 68.80371375166669]]}, "properties": {"source": "30804653", "target": "26263488"}}, {"type": "Feature", "geometry": {"type": "LineString", "coordinates": [[-176.42551084100594, 68.80601069077125], [-176.41983584513852, 68.80559461333036]]}, "properties": {"source": "2431468", "target": "2009482"}}, {"type": "Feature", "geometry": {"type": "LineString", "coordinates": [[-176.42551084100594, 68.80601069077125], [-176.43473891827549, 68.80430011850643]]}, "properties": {"source": "2431468", "target": "2100671"}}, {"type": "Feature", "geometry": {"type": "LineString", "coordinates": [[-176.42551084100594, 68.80601069077125], [-176.42824454883137, 68.80540315164484]]}, "properties": {"source": "2431468", "target": "2100670"}}, {"type": "Feature", "geometry": {"type": "LineString", "coordinates": [[-176.42551084100594, 68.80601069077125], [-176.42126673885642, 68.80543082625013]]}, "properties": {"source": "2431468", "target": "1771521"}}, {"type": "Feature", "geometry": {"type": "LineString", "coordinates": [[-176.42551084100594, 68.80601069077125], [-176.41910725231176, 68.8012653489686]]}, "properties": {"source": "2431468", "target": "2846619"}}, {"type": "Feature", "geometry": {"type": "LineString", "coordinates": [[-176.42551084100594, 68.80601069077125], [-176.4235968273514, 68.80724315494976]]}, "properties": {"source": "2431468", "target": "2100669"}}, {"type": "Feature", "geometry": {"type": "LineString", "coordinates": [[-176.42551084100594, 68.80601069077125], [-176.41940314630523, 68.80596206060895]]}, "properties": {"source": "2431468", "target": "2868865"}}, {"type": "Feature", "geometry": {"type": "LineString", "coordinates": [[-176.42551084100594, 68.80601069077125], [-176.42020965766088, 68.80563430601646]]}, "properties": {"source": "2431468", "target": "11261466"}}, {"type": "Feature", "geometry": {"type": "LineString", "coordinates": [[-176.41970660432688, 68.80232669226484], [-176.4307845044384, 68.80348187628465]]}, "properties": {"source": "31128836", "target": "31441415"}}, {"type": "Feature", "geometry": {"type": "LineString", "coordinates": [[-176.41970660432688, 68.80232669226484], [-176.43015096845903, 68.80738288648706]]}, "properties": {"source": "31128836", "target": "33153363"}}, {"type": "Feature", "geometry": {"type": "LineString", "coordinates": [[-176.41970660432688, 68.80232669226484], [-176.43678088321823, 68.80538699963282]]}, "properties": {"source": "31128836", "target": "33830189"}}, {"type": "Feature", "geometry": {"type": "LineString", "coordinates": [[-176.41970660432688, 68.80232669226484], [-176.4205734994797, 68.80556219715695]]}, "properties": {"source": "31128836", "target": "32324324"}}, {"type": "Feature", "geometry": {"type": "LineString", "coordinates": [[-176.41970660432688, 68.80232669226484], [-176.4265385915985, 68.8048126274127]]}, "properties": {"source": "31128836", "target": "31562736"}}, {"type": "Feature", "geometry": {"type": "LineString", "coordinates": [[-176.41970660432688, 68.80232669226484], [-176.43299342797656, 68.80425525377555]]}, "properties": {"source": "31128836", "target": "30237283"}}, {"type": "Feature", "geometry": {"type": "LineString", "coordinates": [[-176.41970660432688, 68.80232669226484], [-176.43278618052625, 68.80362815022931]]}, "properties": {"source": "31128836", "target": "31441414"}}, {"type": "Feature", "geometry": {"type": "LineString", "coordinates": [[-176.41970660432688, 68.80232669226484], [-176.41530051405874, 68.80340166737636]]}, "properties": {"source": "31128836", "target": "31179964"}}, {"type": "Feature", "geometry": {"type": "LineString", "coordinates": [[-176.41970660432688, 68.80232669226484], [-176.42967672687124, 68.80002553058586]]}, "properties": {"source": "31128836", "target": "29491527"}}, {"type": "Feature", "geometry": {"type": "LineString", "coordinates": [[-176.41970660432688, 68.80232669226484], [-176.43374848701325, 68.80756935709033]]}, "properties": {"source": "31128836", "target": "30804653"}}, {"type": "Feature", "geometry": {"type": "LineString", "coordinates": [[-176.41970660432688, 68.80232669226484], [-176.43366840985547, 68.80043528570883]]}, "properties": {"source": "31128836", "target": "30804679"}}, {"type": "Feature", "geometry": {"type": "LineString", "coordinates": [[-176.41970660432688, 68.80232669226484], [-176.43114083995692, 68.79979680069678]]}, "properties": {"source": "31128836", "target": "30106370"}}, {"type": "Feature", "geometry": {"type": "LineString", "coordinates": [[-176.41970660432688, 68.80232669226484], [-176.42192080422552, 68.80415069862201]]}, "properties": {"source": "31128836", "target": "30370279"}}, {"type": "Feature", "geometry": {"type": "LineString", "coordinates": [[-176.41970660432688, 68.80232669226484], [-176.4150186451868, 68.80001091255028]]}, "properties": {"source": "31128836", "target": "29491384"}}, {"type": "Feature", "geometry": {"type": "LineString", "coordinates": [[-176.41970660432688, 68.80232669226484], [-176.4269948533703, 68.80657484695703]]}, "properties": {"source": "31128836", "target": "31308087"}}, {"type": "Feature", "geometry": {"type": "LineString", "coordinates": [[-176.41970660432688, 68.80232669226484], [-176.41902583625063, 68.8065120667307]]}, "properties": {"source": "31128836", "target": "30184877"}}, {"type": "Feature", "geometry": {"type": "LineString", "coordinates": [[-176.4265385915985, 68.8048126274127], [-176.4354920776811, 68.8060716335988]]}, "properties": {"source": "31562736", "target": "539970"}}, {"type": "Feature", "geometry": {"type": "LineString", "coordinates": [[-176.4265385915985, 68.8048126274127], [-176.41806266882423, 68.80196185006324]]}, "properties": {"source": "31562736", "target": "29844797"}}, {"type": "Feature", "geometry": {"type": "LineString", "coordinates": [[-176.4265385915985, 68.8048126274127], [-176.43384669634872, 68.80392802373598]]}, "properties": {"source": "31562736", "target": "32021588"}}, {"type": "Feature", "geometry": {"type": "LineString", "coordinates": [[-176.4265385915985, 68.8048126274127], [-176.41822316736867, 68.80231637011744]]}, "properties": {"source": "31562736", "target": "6515205"}}, {"type": "Feature", "geometry": {"type": "LineString", "coordinates": [[-176.43299342797656, 68.80425525377555], [-176.4346991477359, 68.80290717428136]]}, "properties": {"source": "30237283", "target": "31678208"}}, {"type": "Feature", "geometry": {"type": "LineString", "coordinates": [[-176.43299342797656, 68.80425525377555], [-176.42106856611892, 68.80181697084925]]}, "properties": {"source": "30237283", "target": "31304666"}}, {"type": "Feature", "geometry": {"type": "LineString", "coordinates": [[-176.43299342797656, 68.80425525377555], [-176.4307845044384, 68.80348187628465]]}, "properties": {"source": "30237283", "target": "31441415"}}, {"type": "Feature", "geometry": {"type": "LineString", "coordinates": [[-176.43299342797656, 68.80425525377555], [-176.43015096845903, 68.80738288648706]]}, "properties": {"source": "30237283", "target": "33153363"}}, {"type": "Feature", "geometry": {"type": "LineString", "coordinates": [[-176.43299342797656, 68.80425525377555], [-176.4205734994797, 68.80556219715695]]}, "properties": {"source": "30237283", "target": "32324324"}}, {"type": "Feature", "geometry": {"type": "LineString", "coordinates": [[-176.43299342797656, 68.80425525377555], [-176.42967672687124, 68.80002553058586]]}, "properties": {"source": "30237283", "target": "29491527"}}, {"type": "Feature", "geometry": {"type": "LineString", "coordinates": [[-176.43299342797656, 68.80425525377555], [-176.43114083995692, 68.79979680069678]]}, "properties": {"source": "30237283", "target": "30106370"}}, {"type": "Feature", "geometry": {"type": "LineString", "coordinates": [[-176.43299342797656, 68.80425525377555], [-176.4269948533703, 68.80657484695703]]}, "properties": {"source": "30237283", "target": "31308087"}}, {"type": "Feature", "geometry": {"type": "LineString", "coordinates": [[-176.43299342797656, 68.80425525377555], [-176.41902583625063, 68.8065120667307]]}, "properties": {"source": "30237283", "target": "30184877"}}, {"type": "Feature", "geometry": {"type": "LineString", "coordinates": [[-176.43299342797656, 68.80425525377555], [-176.43512005553856, 68.8064421522653]]}, "properties": {"source": "30237283", "target": "21027629"}}, {"type": "Feature", "geometry": {"type": "LineString", "coordinates": [[-176.43299342797656, 68.80425525377555], [-176.4340402683899, 68.80093582179012]]}, "properties": {"source": "30237283", "target": "2894640"}}, {"type": "Feature", "geometry": {"type": "LineString", "coordinates": [[-176.43299342797656, 68.80425525377555], [-176.4364865855079, 68.80753578699967]]}, "properties": {"source": "30237283", "target": "25976005"}}, {"type": "Feature", "geometry": {"type": "LineString", "coordinates": [[-176.4346991477359, 68.80290717428136], [-176.43384669634872, 68.80392802373598]]}, "properties": {"source": "31678208", "target": "32021588"}}, {"type": "Feature", "geometry": {"type": "LineString", "coordinates": [[-176.42106856611892, 68.80181697084925], [-176.4307845044384, 68.80348187628465]]}, "properties": {"source": "31304666", "target": "31441415"}}, {"type": "Feature", "geometry": {"type": "LineString", "coordinates": [[-176.42106856611892, 68.80181697084925], [-176.43015096845903, 68.80738288648706]]}, "properties": {"source": "31304666", "target": "33153363"}}, {"type": "Feature", "geometry": {"type": "LineString", "coordinates": [[-176.42106856611892, 68.80181697084925], [-176.4205734994797, 68.80556219715695]]}, "properties": {"source": "31304666", "target": "32324324"}}, {"type": "Feature", "geometry": {"type": "LineString", "coordinates": [[-176.42106856611892, 68.80181697084925], [-176.43278618052625, 68.80362815022931]]}, "properties": {"source": "31304666", "target": "31441414"}}, {"type": "Feature", "geometry": {"type": "LineString", "coordinates": [[-176.42106856611892, 68.80181697084925], [-176.42967672687124, 68.80002553058586]]}, "properties": {"source": "31304666", "target": "29491527"}}, {"type": "Feature", "geometry": {"type": "LineString", "coordinates": [[-176.42106856611892, 68.80181697084925], [-176.43374848701325, 68.80756935709033]]}, "properties": {"source": "31304666", "target": "30804653"}}, {"type": "Feature", "geometry": {"type": "LineString", "coordinates": [[-176.42106856611892, 68.80181697084925], [-176.43366840985547, 68.80043528570883]]}, "properties": {"source": "31304666", "target": "30804679"}}, {"type": "Feature", "geometry": {"type": "LineString", "coordinates": [[-176.42106856611892, 68.80181697084925], [-176.43114083995692, 68.79979680069678]]}, "properties": {"source": "31304666", "target": "30106370"}}, {"type": "Feature", "geometry": {"type": "LineString", "coordinates": [[-176.42106856611892, 68.80181697084925], [-176.41562514317764, 68.80571139534524]]}, "properties": {"source": "31304666", "target": "35650811"}}, {"type": "Feature", "geometry": {"type": "LineString", "coordinates": [[-176.42106856611892, 68.80181697084925], [-176.41910725231176, 68.8012653489686]]}, "properties": {"source": "31304666", "target": "2846619"}}, {"type": "Feature", "geometry": {"type": "LineString", "coordinates": [[-176.42106856611892, 68.80181697084925], [-176.43512005553856, 68.8064421522653]]}, "properties": {"source": "31304666", "target": "21027629"}}, {"type": "Feature", "geometry": {"type": "LineString", "coordinates": [[-176.42106856611892, 68.80181697084925], [-176.41900728131387, 68.80114812290421]]}, "properties": {"source": "31304666", "target": "30279209"}}, {"type": "Feature", "geometry": {"type": "LineString", "coordinates": [[-176.42106856611892, 68.80181697084925], [-176.4231888543105, 68.80155301745557]]}, "properties": {"source": "31304666", "target": "18690091"}}, {"type": "Feature", "geometry": {"type": "LineString", "coordinates": [[-176.41970660432688, 68.80232669226484], [-176.4346991477359, 68.80290717428136]]}, "properties": {"source": "31128836", "target": "31678208"}}, {"type": "Feature", "geometry": {"type": "LineString", "coordinates": [[-176.41970660432688, 68.80232669226484], [-176.42106856611892, 68.80181697084925]]}, "properties": {"source": "31128836", "target": "31304666"}}, {"type": "Feature", "geometry": {"type": "LineString", "coordinates": [[-176.4205734994797, 68.80556219715695], [-176.43114083995692, 68.79979680069678]]}, "properties": {"source": "32324324", "target": "30106370"}}, {"type": "Feature", "geometry": {"type": "LineString", "coordinates": [[-176.4205734994797, 68.80556219715695], [-176.41562514317764, 68.80571139534524]]}, "properties": {"source": "32324324", "target": "35650811"}}, {"type": "Feature", "geometry": {"type": "LineString", "coordinates": [[-176.4205734994797, 68.80556219715695], [-176.41900728131387, 68.80114812290421]]}, "properties": {"source": "32324324", "target": "30279209"}}, {"type": "Feature", "geometry": {"type": "LineString", "coordinates": [[-176.4261113446539, 68.80763913896666], [-176.4346991477359, 68.80290717428136]]}, "properties": {"source": "33388619", "target": "31678208"}}, {"type": "Feature", "geometry": {"type": "LineString", "coordinates": [[-176.4261113446539, 68.80763913896666], [-176.42106856611892, 68.80181697084925]]}, "properties": {"source": "33388619", "target": "31304666"}}, {"type": "Feature", "geometry": {"type": "LineString", "coordinates": [[-176.4261113446539, 68.80763913896666], [-176.4307845044384, 68.80348187628465]]}, "properties": {"source": "33388619", "target": "31441415"}}, {"type": "Feature", "geometry": {"type": "LineString", "coordinates": [[-176.4261113446539, 68.80763913896666], [-176.43015096845903, 68.80738288648706]]}, "properties": {"source": "33388619", "target": "33153363"}}, {"type": "Feature", "geometry": {"type": "LineString", "coordinates": [[-176.4261113446539, 68.80763913896666], [-176.4205734994797, 68.80556219715695]]}, "properties": {"source": "33388619", "target": "32324324"}}, {"type": "Feature", "geometry": {"type": "LineString", "coordinates": [[-176.4261113446539, 68.80763913896666], [-176.43278618052625, 68.80362815022931]]}, "properties": {"source": "33388619", "target": "31441414"}}, {"type": "Feature", "geometry": {"type": "LineString", "coordinates": [[-176.4261113446539, 68.80763913896666], [-176.41530051405874, 68.80340166737636]]}, "properties": {"source": "33388619", "target": "31179964"}}, {"type": "Feature", "geometry": {"type": "LineString", "coordinates": [[-176.4261113446539, 68.80763913896666], [-176.41562514317764, 68.80571139534524]]}, "properties": {"source": "33388619", "target": "35650811"}}, {"type": "Feature", "geometry": {"type": "LineString", "coordinates": [[-176.4261113446539, 68.80763913896666], [-176.4343528679179, 68.79989036253718]]}, "properties": {"source": "33388619", "target": "22293533"}}, {"type": "Feature", "geometry": {"type": "LineString", "coordinates": [[-176.4261113446539, 68.80763913896666], [-176.4270130635027, 68.80341708034959]]}, "properties": {"source": "33388619", "target": "29734955"}}, {"type": "Feature", "geometry": {"type": "LineString", "coordinates": [[-176.4261113446539, 68.80763913896666], [-176.41935196696244, 68.80003639055195]]}, "properties": {"source": "33388619", "target": "32611462"}}, {"type": "Feature", "geometry": {"type": "LineString", "coordinates": [[-176.4261113446539, 68.80763913896666], [-176.43405318198703, 68.80677793324244]]}, "properties": {"source": "33388619", "target": "34503674"}}, {"type": "Feature", "geometry": {"type": "LineString", "coordinates": [[-176.41983584513852, 68.80559461333036], [-176.4235968273514, 68.80724315494976]]}, "properties": {"source": "2009482", "target": "2100669"}}]}