{"type": "FeatureCollection", "features": [{"type": "Feature", "geometry": {"type": "LineString", "coordinates": [[44.158817642413425, 69.23038285319782], [44.15267895177428, 69.23182230035417]]}, "properties": {"source": "2664547", "target": "3248441"}}, {"type": "Feature", "geometry": {"type": "LineString", "coordinates": [[44.158817642413425, 69.23038285319782], [44.15334509579361, 69.23162047798539]]}, "properties": {"source": "2664547", "target": "18043620"}}, {"type": "Feature", "geometry": {"type": "LineString", "coordinates": [[44.157651233330114, 69.2297699277133], [44.15556372901514, 69.23075021185159]]}, "properties": {"source": "25884301", "target": "2336689"}}, {"type": "Feature", "geometry": {"type": "LineString", "coordinates": [[44.157651233330114, 69.2297699277133], [44.158817642413425, 69.23038285319782]]}, "properties": {"source": "25884301", "target": "2664547"}}, {"type": "Feature", "geometry": {"type": "LineString", "coordinates": [[44.157651233330114, 69.2297699277133], [44.15824401695855, 69.23203445291722]]}, "properties": {"source": "25884301", "target": "2994654"}}, {"type": "Feature", "geometry": {"type": "LineString", "coordinates": [[44.157651233330114, 69.2297699277133], [44.15529179733193, 69.23130454650399]]}, "properties": {"source": "25884301", "target": "24807610"}}, {"type": "Feature", "geometry": {"type": "LineString", "coordinates": [[44.157651233330114, 69.2297699277133], [44.15978321287136, 69.23038785770876]]}, "properties": {"source": "25884301", "target": "10437994"}}, {"type": "Feature", "geometry": {"type": "LineString", "coordinates": [[44.157651233330114, 69.2297699277133], [44.160898334702836, 69.23016938497824]]}, "properties": {"source": "25884301", "target": "230214"}}, {"type": "Feature", "geometry": {"type": "LineString", "coordinates": [[44.157651233330114, 69.2297699277133], [44.1579164329614, 69.23053024592548]]}, "properties": {"source": "25884301", "target": "10205444"}}, {"type": "Feature", "geometry": {"type": "LineString", "coordinates": [[44.157651233330114, 69.2297699277133], [44.15267895177428, 69.23182230035417]]}, "properties": {"source": "25884301", "target": "3248441"}}, {"type": "Feature", "geometry": {"type": "LineString", "coordinates": [[44.157651233330114, 69.2297699277133], [44.15999928519466, 69.2316507713897]]}, "properties": {"source": "25884301", "target": "10770804"}}, {"type": "Feature", "geometry": {"type": "LineString", "coordinates": [[44.157651233330114, 69.2297699277133], [44.154438235810574, 69.2297056657383]]}, "properties": {"source": "25884301", "target": "10086679"}}, {"type": "Feature", "geometry": {"type": "LineString", "coordinates": [[44.15921857813305, 69.23002515028443], [44.15556372901514, 69.23075021185159]]}, "properties": {"source": "15720358", "target": "2336689"}}, {"type": "Feature", "geometry": {"type": "LineString", "coordinates": [[44.158455190731985, 69.23029258570656], [44.155944993847754, 69.23042895645236]]}, "properties": {"source": "11464759", "target": "16001929"}}, {"type": "Feature", "geometry": {"type": "LineString", "coordinates": [[44.158455190731985, 69.23029258570656], [44.160898334702836, 69.23016938497824]]}, "properties": {"source": "11464759", "target": "230214"}}, {"type": "Feature", "geometry": {"type": "LineString", "coordinates": [[44.158455190731985, 69.23029258570656], [44.1530027812253, 69.2301347668807]]}, "properties": {"source": "11464759", "target": "13732554"}}, {"type": "Feature", "geometry": {"type": "LineString", "coordinates": [[44.16063281106287, 69.23065041899966], [44.15556372901514, 69.23075021185159]]}, "properties": {"source": "1015371", "target": "2336689"}}, {"type": "Feature", "geometry": {"type": "LineString", "coordinates": [[44.16063281106287, 69.23065041899966], [44.158770415043506, 69.23164754158742]]}, "properties": {"source": "1015371", "target": "2331842"}}, {"type": "Feature", "geometry": {"type": "LineString", "coordinates": [[44.16063281106287, 69.23065041899966], [44.15921857813305, 69.23002515028443]]}, "properties": {"source": "1015371", "target": "15720358"}}, {"type": "Feature", "geometry": {"type": "LineString", "coordinates": [[44.16063281106287, 69.23065041899966], [44.1530027812253, 69.2301347668807]]}, "properties": {"source": "1015371", "target": "13732554"}}, {"type": "Feature", "geometry": {"type": "LineString", "coordinates": [[44.16063281106287, 69.23065041899966], [44.15743551973526, 69.23196003731556]]}, "properties": {"source": "1015371", "target": "15699096"}}, {"type": "Feature", "geometry": {"type": "LineString", "coordinates": [[44.1579164329614, 69.23053024592548], [44.15978321287136, 69.23038785770876]]}, "properties": {"source": "10205444", "target": "10437994"}}, {"type": "Feature", "geometry": {"type": "LineString", "coordinates": [[44.15743551973526, 69.23196003731556], [44.15921857813305, 69.23002515028443]]}, "properties": {"source": "15699096", "target": "15720358"}}, {"type": "Feature", "geometry": {"type": "LineString", "coordinates": [[44.15743551973526, 69.23196003731556], [44.1530027812253, 69.2301347668807]]}, "properties": {"source": "15699096", "target": "13732554"}}, {"type": "Feature", "geometry": {"type": "LineString", "coordinates": [[44.15923469392956, 69.23109231883063], [44.15556372901514, 69.23075021185159]]}, "properties": {"source": "360685", "target": "2336689"}}, {"type": "Feature", "geometry": {"type": "LineString", "coordinates": [[44.15923469392956, 69.23109231883063], [44.15824401695855, 69.23203445291722]]}, "properties": {"source": "360685", "target": "2994654"}}, {"type": "Feature", "geometry": {"type": "LineString", "coordinates": [[44.158817642413425, 69.23038285319782], [44.15556372901514, 69.23075021185159]]}, "properties": {"source": "2664547", "target": "2336689"}}, {"type": "Feature", "geometry": {"type": "LineString", "coordinates": [[44.158817642413425, 69.23038285319782], [44.15824401695855, 69.23203445291722]]}, "properties": {"source": "2664547", "target": "2994654"}}, {"type": "Feature", "geometry": {"type": "LineString", "coordinates": [[44.158817642413425, 69.23038285319782], [44.15923469392956, 69.23109231883063]]}, "properties": {"source": "2664547", "target": "360685"}}, {"type": "Feature", "geometry": {"type": "LineString", "coordinates": [[44.16009051405507, 69.23067270782246], [44.158817642413425, 69.23038285319782]]}, "properties": {"source": "184788", "target": "2664547"}}, {"type": "Feature", "geometry": {"type": "LineString", "coordinates": [[44.16009051405507, 69.23067270782246], [44.160898334702836, 69.23016938497824]]}, "properties": {"source": "184788", "target": "230214"}}, {"type": "Feature", "geometry": {"type": "LineString", "coordinates": [[44.16009051405507, 69.23067270782246], [44.15376620514502, 69.23008344636949]]}, "properties": {"source": "184788", "target": "230217"}}, {"type": "Feature", "geometry": {"type": "LineString", "coordinates": [[44.15999928519466, 69.2316507713897], [44.15340376135097, 69.23084800879315]]}, "properties": {"source": "10770804", "target": "20447813"}}, {"type": "Feature", "geometry": {"type": "LineString", "coordinates": [[44.15499460598318, 69.23075099090423], [44.157651233330114, 69.2297699277133]]}, "properties": {"source": "1226406", "target": "25884301"}}, {"type": "Feature", "geometry": {"type": "LineString", "coordinates": [[44.15499460598318, 69.23075099090423], [44.15551394512943, 69.23228639477855]]}, "properties": {"source": "1226406", "target": "17553628"}}, {"type": "Feature", "geometry": {"type": "LineString", "coordinates": [[44.15499460598318, 69.23075099090423], [44.15340376135097, 69.23084800879315]]}, "properties": {"source": "1226406", "target": "20447813"}}, {"type": "Feature", "geometry": {"type": "LineString", "coordinates": [[44.155530763220554, 69.23239420432103], [44.15921857813305, 69.23002515028443]]}, "properties": {"source": "1552810", "target": "15720358"}}, {"type": "Feature", "geometry": {"type": "LineString", "coordinates": [[44.155530763220554, 69.23239420432103], [44.155944993847754, 69.23042895645236]]}, "properties": {"source": "1552810", "target": "16001929"}}, {"type": "Feature", "geometry": {"type": "LineString", "coordinates": [[44.155530763220554, 69.23239420432103], [44.15551394512943, 69.23228639477855]]}, "properties": {"source": "1552810", "target": "17553628"}}, {"type": "Feature", "geometry": {"type": "LineString", "coordinates": [[44.155530763220554, 69.23239420432103], [44.153560918419714, 69.23217576438611]]}, "properties": {"source": "1552810", "target": "1744665"}}, {"type": "Feature", "geometry": {"type": "LineString", "coordinates": [[44.153429628432775, 69.23190369944365], [44.158770415043506, 69.23164754158742]]}, "properties": {"source": "2750672", "target": "2331842"}}, {"type": "Feature", "geometry": {"type": "LineString", "coordinates": [[44.153429628432775, 69.23190369944365], [44.15824401695855, 69.23203445291722]]}, "properties": {"source": "2750672", "target": "2994654"}}, {"type": "Feature", "geometry": {"type": "LineString", "coordinates": [[44.1545319905284, 69.23008784223853], [44.15556372901514, 69.23075021185159]]}, "properties": {"source": "33463724", "target": "2336689"}}, {"type": "Feature", "geometry": {"type": "LineString", "coordinates": [[44.1545319905284, 69.23008784223853], [44.158770415043506, 69.23164754158742]]}, "properties": {"source": "33463724", "target": "2331842"}}, {"type": "Feature", "geometry": {"type": "LineString", "coordinates": [[44.1545319905284, 69.23008784223853], [44.158817642413425, 69.23038285319782]]}, "properties": {"source": "33463724", "target": "2664547"}}, {"type": "Feature", "geometry": {"type": "LineString", "coordinates": [[44.15978321287136, 69.23038785770876], [44.15556372901514, 69.23075021185159]]}, "properties": {"source": "10437994", "target": "2336689"}}, {"type": "Feature", "geometry": {"type": "LineString", "coordinates": [[44.15978321287136, 69.23038785770876], [44.15921857813305, 69.23002515028443]]}, "properties": {"source": "10437994", "target": "15720358"}}, {"type": "Feature", "geometry": {"type": "LineString", "coordinates": [[44.15978321287136, 69.23038785770876], [44.15340376135097, 69.23084800879315]]}, "properties": {"source": "10437994", "target": "20447813"}}, {"type": "Feature", "geometry": {"type": "LineString", "coordinates": [[44.155944993847754, 69.23042895645236], [44.15921857813305, 69.23002515028443]]}, "properties": {"source": "16001929", "target": "15720358"}}, {"type": "Feature", "geometry": {"type": "LineString", "coordinates": [[44.155944993847754, 69.23042895645236], [44.15978321287136, 69.23038785770876]]}, "properties": {"source": "16001929", "target": "10437994"}}, {"type": "Feature", "geometry": {"type": "LineString", "coordinates": [[44.155944993847754, 69.23042895645236], [44.15551394512943, 69.23228639477855]]}, "properties": {"source": "16001929", "target": "17553628"}}, {"type": "Feature", "geometry": {"type": "LineString", "coordinates": [[44.155944993847754, 69.23042895645236], [44.1530027812253, 69.2301347668807]]}, "properties": {"source": "16001929", "target": "13732554"}}, {"type": "Feature", "geometry": {"type": "LineString", "coordinates": [[44.155944993847754, 69.23042895645236], [44.16063281106287, 69.23065041899966]]}, "properties": {"source": "16001929", "target": "1015371"}}, {"type": "Feature", "geometry": {"type": "LineString", "coordinates": [[44.155944993847754, 69.23042895645236], [44.15743551973526, 69.23196003731556]]}, "properties": {"source": "16001929", "target": "15699096"}}, {"type": "Feature", "geometry": {"type": "LineString", "coordinates": [[44.160898334702836, 69.23016938497824], [44.15556372901514, 69.23075021185159]]}, "properties": {"source": "230214", "target": "2336689"}}, {"type": "Feature", "geometry": {"type": "LineString", "coordinates": [[44.160898334702836, 69.23016938497824], [44.158817642413425, 69.23038285319782]]}, "properties": {"source": "230214", "target": "2664547"}}, {"type": "Feature", "geometry": {"type": "LineString", "coordinates": [[44.160898334702836, 69.23016938497824], [44.15824401695855, 69.23203445291722]]}, "properties": {"source": "230214", "target": "2994654"}}, {"type": "Feature", "geometry": {"type": "LineString", "coordinates": [[44.160898334702836, 69.23016938497824], [44.15340376135097, 69.23084800879315]]}, "properties": {"source": "230214", "target": "20447813"}}, {"type": "Feature", "geometry": {"type": "LineString", "coordinates": [[44.158455190731985, 69.23029258570656], [44.15556372901514, 69.23075021185159]]}, "properties": {"source": "11464759", "target": "2336689"}}, {"type": "Feature", "geometry": {"type": "LineString", "coordinates": [[44.158455190731985, 69.23029258570656], [44.158817642413425, 69.23038285319782]]}, "properties": {"source": "11464759", "target": "2664547"}}, {"type": "Feature", "geometry": {"type": "LineString", "coordinates": [[44.158455190731985, 69.23029258570656], [44.15921857813305, 69.23002515028443]]}, "properties": {"source": "11464759", "target": "15720358"}}, {"type": "Feature", "geometry": {"type": "LineString", "coordinates": [[44.153429628432775, 69.23190369944365], [44.15923469392956, 69.23109231883063]]}, "properties": {"source": "2750672", "target": "360685"}}, {"type": "Feature", "geometry": {"type": "LineString", "coordinates": [[44.154438235810574, 69.2297056657383], [44.1579164329614, 69.23053024592548]]}, "properties": {"source": "10086679", "target": "10205444"}}, {"type": "Feature", "geometry": {"type": "LineString", "coordinates": [[44.15545529092407, 69.23067059770256], [44.1579164329614, 69.23053024592548]]}, "properties": {"source": "10340071", "target": "10205444"}}, {"type": "Feature", "geometry": {"type": "LineString", "coordinates": [[44.15545529092407, 69.23067059770256], [44.154438235810574, 69.2297056657383]]}, "properties": {"source": "10340071", "target": "10086679"}}, {"type": "Feature", "geometry": {"type": "LineString", "coordinates": [[44.15545529092407, 69.23067059770256], [44.159077815425604, 69.23233028194693]]}, "properties": {"source": "10340071", "target": "10225671"}}, {"type": "Feature", "geometry": {"type": "LineString", "coordinates": [[44.16025878947761, 69.23020778311115], [44.158770415043506, 69.23164754158742]]}, "properties": {"source": "31701716", "target": "2331842"}}, {"type": "Feature", "geometry": {"type": "LineString", "coordinates": [[44.16025878947761, 69.23020778311115], [44.15923469392956, 69.23109231883063]]}, "properties": {"source": "31701716", "target": "360685"}}, {"type": "Feature", "geometry": {"type": "LineString", "coordinates": [[44.153560918419714, 69.23217576438611], [44.15921857813305, 69.23002515028443]]}, "properties": {"source": "1744665", "target": "15720358"}}, {"type": "Feature", "geometry": {"type": "LineString", "coordinates": [[44.153560918419714, 69.23217576438611], [44.15551394512943, 69.23228639477855]]}, "properties": {"source": "1744665", "target": "17553628"}}, {"type": "Feature", "geometry": {"type": "LineString", "coordinates": [[44.159381625175854, 69.23245514042208], [44.15978321287136, 69.23038785770876]]}, "properties": {"source": "914213", "target": "10437994"}}, {"type": "Feature", "geometry": {"type": "LineString", "coordinates": [[44.159077815425604, 69.23233028194693], [44.154438235810574, 69.2297056657383]]}, "properties": {"source": "10225671", "target": "10086679"}}, {"type": "Feature", "geometry": {"type": "LineString", "coordinates": [[44.15325678789654, 69.2307280423073], [44.15743551973526, 69.23196003731556]]}, "properties": {"source": "2718558", "target": "15699096"}}, {"type": "Feature", "geometry": {"type": "LineString", "coordinates": [[44.16068765722292, 69.2313539947165], [44.15334509579361, 69.23162047798539]]}, "properties": {"source": "2131449", "target": "18043620"}}, {"type": "Feature", "geometry": {"type": "LineString", "coordinates": [[44.15267895177428, 69.23182230035417], [44.15556372901514, 69.23075021185159]]}, "properties": {"source": "3248441", "target": "2336689"}}, {"type": "Feature", "geometry": {"type": "LineString", "coordinates": [[44.16009051405507, 69.23067270782246], [44.15556372901514, 69.23075021185159]]}, "properties": {"source": "184788", "target": "2336689"}}, {"type": "Feature", "geometry": {"type": "LineString", "coordinates": [[44.16009051405507, 69.23067270782246], [44.158770415043506, 69.23164754158742]]}, "properties": {"source": "184788", "target": "2331842"}}, {"type": "Feature", "geometry": {"type": "LineString", "coordinates": [[44.15551394512943, 69.23228639477855], [44.15999928519466, 69.2316507713897]]}, "properties": {"source": "17553628", "target": "10770804"}}, {"type": "Feature", "geometry": {"type": "LineString", "coordinates": [[44.1530027812253, 69.2301347668807], [44.15556372901514, 69.23075021185159]]}, "properties": {"source": "13732554", "target": "2336689"}}, {"type": "Feature", "geometry": {"type": "LineString", "coordinates": [[44.1530027812253, 69.2301347668807], [44.15921857813305, 69.23002515028443]]}, "properties": {"source": "13732554", "target": "15720358"}}, {"type": "Feature", "geometry": {"type": "LineString", "coordinates": [[44.15376620514502, 69.23008344636949], [44.15556372901514, 69.23075021185159]]}, "properties": {"source": "230217", "target": "2336689"}}, {"type": "Feature", "geometry": {"type": "LineString", "coordinates": [[44.15376620514502, 69.23008344636949], [44.158770415043506, 69.23164754158742]]}, "properties": {"source": "230217", "target": "2331842"}}, {"type": "Feature", "geometry": {"type": "LineString", "coordinates": [[44.15376620514502, 69.23008344636949], [44.158817642413425, 69.23038285319782]]}, "properties": {"source": "230217", "target": "2664547"}}, {"type": "Feature", "geometry": {"type": "LineString", "coordinates": [[44.15376620514502, 69.23008344636949], [44.15921857813305, 69.23002515028443]]}, "properties": {"source": "230217", "target": "15720358"}}, {"type": "Feature", "geometry": {"type": "LineString", "coordinates": [[44.15376620514502, 69.23008344636949], [44.15824401695855, 69.23203445291722]]}, "properties": {"source": "230217", "target": "2994654"}}, {"type": "Feature", "geometry": {"type": "LineString", "coordinates": [[44.15376620514502, 69.23008344636949], [44.15334509579361, 69.23162047798539]]}, "properties": {"source": "230217", "target": "18043620"}}, {"type": "Feature", "geometry": {"type": "LineString", "coordinates": [[44.15340376135097, 69.23084800879315], [44.15556372901514, 69.23075021185159]]}, "properties": {"source": "20447813", "target": "2336689"}}, {"type": "Feature", "geometry": {"type": "LineString", "coordinates": [[44.15814248644676, 69.2307177396244], [44.1545319905284, 69.23008784223853]]}, "properties": {"source": "1015362", "target": "33463724"}}, {"type": "Feature", "geometry": {"type": "LineString", "coordinates": [[44.15814248644676, 69.2307177396244], [44.15556372901514, 69.23075021185159]]}, "properties": {"source": "1015362", "target": "2336689"}}, {"type": "Feature", "geometry": {"type": "LineString", "coordinates": [[44.15814248644676, 69.2307177396244], [44.158770415043506, 69.23164754158742]]}, "properties": {"source": "1015362", "target": "2331842"}}, {"type": "Feature", "geometry": {"type": "LineString", "coordinates": [[44.15529179733193, 69.23130454650399], [44.15978321287136, 69.23038785770876]]}, "properties": {"source": "24807610", "target": "10437994"}}, {"type": "Feature", "geometry": {"type": "LineString", "coordinates": [[44.15529179733193, 69.23130454650399], [44.15340376135097, 69.23084800879315]]}, "properties": {"source": "24807610", "target": "20447813"}}, {"type": "Feature", "geometry": {"type": "LineString", "coordinates": [[44.15529179733193, 69.23130454650399], [44.15267895177428, 69.23182230035417]]}, "properties": {"source": "24807610", "target": "3248441"}}, {"type": "Feature", "geometry": {"type": "LineString", "coordinates": [[44.1545319905284, 69.23008784223853], [44.15499460598318, 69.23075099090423]]}, "properties": {"source": "33463724", "target": "1226406"}}, {"type": "Feature", "geometry": {"type": "LineString", "coordinates": [[44.1545319905284, 69.23008784223853], [44.153429628432775, 69.23190369944365]]}, "properties": {"source": "33463724", "target": "2750672"}}, {"type": "Feature", "geometry": {"type": "LineString", "coordinates": [[44.1545319905284, 69.23008784223853], [44.16025878947761, 69.23020778311115]]}, "properties": {"source": "33463724", "target": "31701716"}}, {"type": "Feature", "geometry": {"type": "LineString", "coordinates": [[44.15556372901514, 69.23075021185159], [44.15334509579361, 69.23162047798539]]}, "properties": {"source": "2336689", "target": "18043620"}}, {"type": "Feature", "geometry": {"type": "LineString", "coordinates": [[44.158770415043506, 69.23164754158742], [44.15556372901514, 69.23075021185159]]}, "properties": {"source": "2331842", "target": "2336689"}}, {"type": "Feature", "geometry": {"type": "LineString", "coordinates": [[44.158770415043506, 69.23164754158742], [44.158817642413425, 69.23038285319782]]}, "properties": {"source": "2331842", "target": "2664547"}}, {"type": "Feature", "geometry": {"type": "LineString", "coordinates": [[44.158770415043506, 69.23164754158742], [44.15921857813305, 69.23002515028443]]}, "properties": {"source": "2331842", "target": "15720358"}}, {"type": "Feature", "geometry": {"type": "LineString", "coordinates": [[44.158770415043506, 69.23164754158742], [44.15824401695855, 69.23203445291722]]}, "properties": {"source": "2331842", "target": "2994654"}}, {"type": "Feature", "geometry": {"type": "LineString", "coordinates": [[44.158770415043506, 69.23164754158742], [44.160898334702836, 69.23016938497824]]}, "properties": {"source": "2331842", "target": "230214"}}, {"type": "Feature", "geometry": {"type": "LineString", "coordinates": [[44.158770415043506, 69.23164754158742], [44.1530027812253, 69.2301347668807]]}, "properties": {"source": "2331842", "target": "13732554"}}, {"type": "Feature", "geometry": {"type": "LineString", "coordinates": [[44.158770415043506, 69.23164754158742], [44.15743551973526, 69.23196003731556]]}, "properties": {"source": "2331842", "target": "15699096"}}, {"type": "Feature", "geometry": {"type": "LineString", "coordinates": [[44.158770415043506, 69.23164754158742], [44.15923469392956, 69.23109231883063]]}, "properties": {"source": "2331842", "target": "360685"}}, {"type": "Feature", "geometry": {"type": "LineString", "coordinates": [[44.158770415043506, 69.23164754158742], [44.15334509579361, 69.23162047798539]]}, "properties": {"source": "2331842", "target": "18043620"}}, {"type": "Feature", "geometry": {"type": "LineString", "coordinates": [[44.15814248644676, 69.2307177396244], [44.15921857813305, 69.23002515028443]]}, "properties": {"source": "1015362", "target": "15720358"}}, {"type": "Feature", "geometry": {"type": "LineString", "coordinates": [[44.15814248644676, 69.2307177396244], [44.155944993847754, 69.23042895645236]]}, "properties": {"source": "1015362", "target": "16001929"}}, {"type": "Feature", "geometry": {"type": "LineString", "coordinates": [[44.15814248644676, 69.2307177396244], [44.1530027812253, 69.2301347668807]]}, "properties": {"source": "1015362", "target": "13732554"}}, {"type": "Feature", "geometry": {"type": "LineString", "coordinates": [[44.152893740435815, 69.23063290414177], [44.15921857813305, 69.23002515028443]]}, "properties": {"source": "12020247", "target": "15720358"}}, {"type": "Feature", "geometry": {"type": "LineString", "coordinates": [[44.152893740435815, 69.23063290414177], [44.15529179733193, 69.23130454650399]]}, "properties": {"source": "12020247", "target": "24807610"}}, {"type": "Feature", "geometry": {"type": "LineString", "coordinates": [[44.152893740435815, 69.23063290414177], [44.15978321287136, 69.23038785770876]]}, "properties": {"source": "12020247", "target": "10437994"}}, {"type": "Feature", "geometry": {"type": "LineString", "coordinates": [[44.152893740435815, 69.23063290414177], [44.155944993847754, 69.23042895645236]]}, "properties": {"source": "12020247", "target": "16001929"}}, {"type": "Feature", "geometry": {"type": "LineString", "coordinates": [[44.152893740435815, 69.23063290414177], [44.15551394512943, 69.23228639477855]]}, "properties": {"source": "12020247", "target": "17553628"}}, {"type": "Feature", "geometry": {"type": "LineString", "coordinates": [[44.152893740435815, 69.23063290414177], [44.15340376135097, 69.23084800879315]]}, "properties": {"source": "12020247", "target": "20447813"}}, {"type": "Feature", "geometry": {"type": "LineString", "coordinates": [[44.152893740435815, 69.23063290414177], [44.1579164329614, 69.23053024592548]]}, "properties": {"source": "12020247", "target": "10205444"}}, {"type": "Feature", "geometry": {"type": "LineString", "coordinates": [[44.152893740435815, 69.23063290414177], [44.15999928519466, 69.2316507713897]]}, "properties": {"source": "12020247", "target": "10770804"}}, {"type": "Feature", "geometry": {"type": "LineString", "coordinates": [[44.152893740435815, 69.23063290414177], [44.159381625175854, 69.23245514042208]]}, "properties": {"source": "12020247", "target": "914213"}}, {"type": "Feature", "geometry": {"type": "LineString", "coordinates": [[44.15824401695855, 69.23203445291722], [44.15556372901514, 69.23075021185159]]}, "properties": {"source": "2994654", "target": "2336689"}}, {"type": "Feature", "geometry": {"type": "LineString", "coordinates": [[44.15529179733193, 69.23130454650399], [44.15556372901514, 69.23075021185159]]}, "properties": {"source": "24807610", "target": "2336689"}}, {"type": "Feature", "geometry": {"type": "LineString", "coordinates": [[44.15529179733193, 69.23130454650399], [44.158817642413425, 69.23038285319782]]}, "properties": {"source": "24807610", "target": "2664547"}}, {"type": "Feature", "geometry": {"type": "LineString", "coordinates": [[44.15529179733193, 69.23130454650399], [44.15824401695855, 69.23203445291722]]}, "properties": {"source": "24807610", "target": "2994654"}}, {"type": "Feature", "geometry": {"type": "LineString", "coordinates": [[44.15551394512943, 69.23228639477855], [44.15921857813305, 69.23002515028443]]}, "properties": {"source": "17553628", "target": "15720358"}}, {"type": "Feature", "geometry": {"type": "LineString", "coordinates": [[44.15551394512943, 69.23228639477855], [44.15978321287136, 69.23038785770876]]}, "properties": {"source": "17553628", "target": "10437994"}}, {"type": "Feature", "geometry": {"type": "LineString", "coordinates": [[44.15551394512943, 69.23228639477855], [44.1579164329614, 69.23053024592548]]}, "properties": {"source": "17553628", "target": "10205444"}}, {"type": "Feature", "geometry": {"type": "LineString", "coordinates": [[44.1545319905284, 69.23008784223853], [44.157651233330114, 69.2297699277133]]}, "properties": {"source": "33463724", "target": "25884301"}}, {"type": "Feature", "geometry": {"type": "LineString", "coordinates": [[44.1545319905284, 69.23008784223853], [44.152893740435815, 69.23063290414177]]}, "properties": {"source": "33463724", "target": "12020247"}}, {"type": "Feature", "geometry": {"type": "LineString", "coordinates": [[44.1545319905284, 69.23008784223853], [44.15824401695855, 69.23203445291722]]}, "properties": {"source": "33463724", "target": "2994654"}}, {"type": "Feature", "geometry": {"type": "LineString", "coordinates": [[44.1545319905284, 69.23008784223853], [44.15529179733193, 69.23130454650399]]}, "properties": {"source": "33463724", "target": "24807610"}}, {"type": "Feature", "geometry": {"type": "LineString", "coordinates": [[44.1545319905284, 69.23008784223853], [44.15978321287136, 69.23038785770876]]}, "properties": {"source": "33463724", "target": "10437994"}}, {"type": "Feature", "geometry": {"type": "LineString", "coordinates": [[44.1545319905284, 69.23008784223853], [44.160898334702836, 69.23016938497824]]}, "properties": {"source": "33463724", "target": "230214"}}, {"type": "Feature", "geometry": {"type": "LineString", "coordinates": [[44.1545319905284, 69.23008784223853], [44.1530027812253, 69.2301347668807]]}, "properties": {"source": "33463724", "target": "13732554"}}, {"type": "Feature", "geometry": {"type": "LineString", "coordinates": [[44.1545319905284, 69.23008784223853], [44.15376620514502, 69.23008344636949]]}, "properties": {"source": "33463724", "target": "230217"}}, {"type": "Feature", "geometry": {"type": "LineString", "coordinates": [[44.1545319905284, 69.23008784223853], [44.16028010046654, 69.23210355907173]]}, "properties": {"source": "33463724", "target": "230215"}}, {"type": "Feature", "geometry": {"type": "LineString", "coordinates": [[44.1545319905284, 69.23008784223853], [44.160393849907905, 69.23206751914591]]}, "properties": {"source": "33463724", "target": "27158748"}}, {"type": "Feature", "geometry": {"type": "LineString", "coordinates": [[44.1545319905284, 69.23008784223853], [44.158455190731985, 69.23029258570656]]}, "properties": {"source": "33463724", "target": "11464759"}}, {"type": "Feature", "geometry": {"type": "LineString", "coordinates": [[44.1545319905284, 69.23008784223853], [44.16063281106287, 69.23065041899966]]}, "properties": {"source": "33463724", "target": "1015371"}}, {"type": "Feature", "geometry": {"type": "LineString", "coordinates": [[44.1545319905284, 69.23008784223853], [44.1579164329614, 69.23053024592548]]}, "properties": {"source": "33463724", "target": "10205444"}}, {"type": "Feature", "geometry": {"type": "LineString", "coordinates": [[44.1545319905284, 69.23008784223853], [44.15923469392956, 69.23109231883063]]}, "properties": {"source": "33463724", "target": "360685"}}, {"type": "Feature", "geometry": {"type": "LineString", "coordinates": [[44.1545319905284, 69.23008784223853], [44.15267895177428, 69.23182230035417]]}, "properties": {"source": "33463724", "target": "3248441"}}, {"type": "Feature", "geometry": {"type": "LineString", "coordinates": [[44.1545319905284, 69.23008784223853], [44.15999928519466, 69.2316507713897]]}, "properties": {"source": "33463724", "target": "10770804"}}, {"type": "Feature", "geometry": {"type": "LineString", "coordinates": [[44.15814248644676, 69.2307177396244], [44.15743551973526, 69.23196003731556]]}, "properties": {"source": "1015362", "target": "15699096"}}, {"type": "Feature", "geometry": {"type": "LineString", "coordinates": [[44.16028010046654, 69.23210355907173], [44.158817642413425, 69.23038285319782]]}, "properties": {"source": "230215", "target": "2664547"}}, {"type": "Feature", "geometry": {"type": "LineString", "coordinates": [[44.16028010046654, 69.23210355907173], [44.157651233330114, 69.2297699277133]]}, "properties": {"source": "230215", "target": "25884301"}}, {"type": "Feature", "geometry": {"type": "LineString", "coordinates": [[44.16028010046654, 69.23210355907173], [44.15824401695855, 69.23203445291722]]}, "properties": {"source": "230215", "target": "2994654"}}, {"type": "Feature", "geometry": {"type": "LineString", "coordinates": [[44.16028010046654, 69.23210355907173], [44.15529179733193, 69.23130454650399]]}, "properties": {"source": "230215", "target": "24807610"}}, {"type": "Feature", "geometry": {"type": "LineString", "coordinates": [[44.16028010046654, 69.23210355907173], [44.160898334702836, 69.23016938497824]]}, "properties": {"source": "230215", "target": "230214"}}, {"type": "Feature", "geometry": {"type": "LineString", "coordinates": [[44.16028010046654, 69.23210355907173], [44.15340376135097, 69.23084800879315]]}, "properties": {"source": "230215", "target": "20447813"}}, {"type": "Feature", "geometry": {"type": "LineString", "coordinates": [[44.160393849907905, 69.23206751914591], [44.15556372901514, 69.23075021185159]]}, "properties": {"source": "27158748", "target": "2336689"}}, {"type": "Feature", "geometry": {"type": "LineString", "coordinates": [[44.160393849907905, 69.23206751914591], [44.158817642413425, 69.23038285319782]]}, "properties": {"source": "27158748", "target": "2664547"}}, {"type": "Feature", "geometry": {"type": "LineString", "coordinates": [[44.160393849907905, 69.23206751914591], [44.157651233330114, 69.2297699277133]]}, "properties": {"source": "27158748", "target": "25884301"}}, {"type": "Feature", "geometry": {"type": "LineString", "coordinates": [[44.160393849907905, 69.23206751914591], [44.15824401695855, 69.23203445291722]]}, "properties": {"source": "27158748", "target": "2994654"}}, {"type": "Feature", "geometry": {"type": "LineString", "coordinates": [[44.160393849907905, 69.23206751914591], [44.15529179733193, 69.23130454650399]]}, "properties": {"source": "27158748", "target": "24807610"}}, {"type": "Feature", "geometry": {"type": "LineString", "coordinates": [[44.160393849907905, 69.23206751914591], [44.15267895177428, 69.23182230035417]]}, "properties": {"source": "27158748", "target": "3248441"}}, {"type": "Feature", "geometry": {"type": "LineString", "coordinates": [[44.152893740435815, 69.23063290414177], [44.15556372901514, 69.23075021185159]]}, "properties": {"source": "12020247", "target": "2336689"}}, {"type": "Feature", "geometry": {"type": "LineString", "coordinates": [[44.152893740435815, 69.23063290414177], [44.158817642413425, 69.23038285319782]]}, "properties": {"source": "12020247", "target": "2664547"}}, {"type": "Feature", "geometry": {"type": "LineString", "coordinates": [[44.152893740435815, 69.23063290414177], [44.157651233330114, 69.2297699277133]]}, "properties": {"source": "12020247", "target": "25884301"}}]}