{"type": "FeatureCollection", "features": [{"type": "Feature", "geometry": {"type": "LineString", "coordinates": [[50.67871556628285, 69.04186861212989], [50.68681899023531, 69.03800472019779]]}, "properties": {"source": "15717339", "target": "6719956"}}, {"type": "Feature", "geometry": {"type": "LineString", "coordinates": [[50.67871556628285, 69.04186861212989], [50.69073909688305, 69.03753144477156]]}, "properties": {"source": "15717339", "target": "23014673"}}, {"type": "Feature", "geometry": {"type": "LineString", "coordinates": [[50.67871556628285, 69.04186861212989], [50.69158492064284, 69.03725166932901]]}, "properties": {"source": "15717339", "target": "17934450"}}, {"type": "Feature", "geometry": {"type": "LineString", "coordinates": [[50.67871556628285, 69.04186861212989], [50.677312684303644, 69.03846062596023]]}, "properties": {"source": "15717339", "target": "12208577"}}, {"type": "Feature", "geometry": {"type": "LineString", "coordinates": [[50.688977401827856, 69.03744776696016], [50.683295189851435, 69.0378421204673]]}, "properties": {"source": "9900565", "target": "9588402"}}, {"type": "Feature", "geometry": {"type": "LineString", "coordinates": [[50.688977401827856, 69.03744776696016], [50.67901449278855, 69.03731100976898]]}, "properties": {"source": "9900565", "target": "8787184"}}, {"type": "Feature", "geometry": {"type": "LineString", "coordinates": [[50.688977401827856, 69.03744776696016], [50.68168859670155, 69.0373320844621]]}, "properties": {"source": "9900565", "target": "9375951"}}, {"type": "Feature", "geometry": {"type": "LineString", "coordinates": [[50.688977401827856, 69.03744776696016], [50.67783808286134, 69.03741090914951]]}, "properties": {"source": "9900565", "target": "9848562"}}, {"type": "Feature", "geometry": {"type": "LineString", "coordinates": [[50.68488824638527, 69.03870006077045], [50.682398482324174, 69.03759650326194]]}, "properties": {"source": "8957798", "target": "9802297"}}, {"type": "Feature", "geometry": {"type": "LineString", "coordinates": [[50.68513179031797, 69.03778785613545], [50.682398482324174, 69.03759650326194]]}, "properties": {"source": "1017873", "target": "9802297"}}, {"type": "Feature", "geometry": {"type": "LineString", "coordinates": [[50.688977401827856, 69.03744776696016], [50.6869322353225, 69.03841562097551]]}, "properties": {"source": "9900565", "target": "9478546"}}, {"type": "Feature", "geometry": {"type": "LineString", "coordinates": [[50.688905759838036, 69.04033978551803], [50.68681899023531, 69.03800472019779]]}, "properties": {"source": "556083", "target": "6719956"}}, {"type": "Feature", "geometry": {"type": "LineString", "coordinates": [[50.688905759838036, 69.04033978551803], [50.69073909688305, 69.03753144477156]]}, "properties": {"source": "556083", "target": "23014673"}}, {"type": "Feature", "geometry": {"type": "LineString", "coordinates": [[50.690297406624666, 69.03894652283918], [50.682398482324174, 69.03759650326194]]}, "properties": {"source": "497006", "target": "9802297"}}, {"type": "Feature", "geometry": {"type": "LineString", "coordinates": [[50.690297406624666, 69.03894652283918], [50.684768943630615, 69.03910526547642]]}, "properties": {"source": "497006", "target": "5833819"}}, {"type": "Feature", "geometry": {"type": "LineString", "coordinates": [[50.690297406624666, 69.03894652283918], [50.68681899023531, 69.03800472019779]]}, "properties": {"source": "497006", "target": "6719956"}}, {"type": "Feature", "geometry": {"type": "LineString", "coordinates": [[50.690297406624666, 69.03894652283918], [50.69073909688305, 69.03753144477156]]}, "properties": {"source": "497006", "target": "23014673"}}, {"type": "Feature", "geometry": {"type": "LineString", "coordinates": [[50.690297406624666, 69.03894652283918], [50.683388363903134, 69.04233038871658]]}, "properties": {"source": "497006", "target": "13167063"}}, {"type": "Feature", "geometry": {"type": "LineString", "coordinates": [[50.690297406624666, 69.03894652283918], [50.69158492064284, 69.03725166932901]]}, "properties": {"source": "497006", "target": "17934450"}}, {"type": "Feature", "geometry": {"type": "LineString", "coordinates": [[50.690297406624666, 69.03894652283918], [50.67853339858607, 69.0387678381746]]}, "properties": {"source": "497006", "target": "1064306"}}, {"type": "Feature", "geometry": {"type": "LineString", "coordinates": [[50.690297406624666, 69.03894652283918], [50.68513179031797, 69.03778785613545]]}, "properties": {"source": "497006", "target": "1017873"}}, {"type": "Feature", "geometry": {"type": "LineString", "coordinates": [[50.690297406624666, 69.03894652283918], [50.677312684303644, 69.03846062596023]]}, "properties": {"source": "497006", "target": "12208577"}}, {"type": "Feature", "geometry": {"type": "LineString", "coordinates": [[50.68087825391106, 69.0387915564655], [50.68698473207013, 69.04144755424653]]}, "properties": {"source": "25991108", "target": "23848084"}}, {"type": "Feature", "geometry": {"type": "LineString", "coordinates": [[50.68180474489148, 69.0375324907383], [50.68313065785625, 69.0396105527976]]}, "properties": {"source": "931485", "target": "9443592"}}, {"type": "Feature", "geometry": {"type": "LineString", "coordinates": [[50.68180474489148, 69.0375324907383], [50.683295189851435, 69.0378421204673]]}, "properties": {"source": "931485", "target": "9588402"}}, {"type": "Feature", "geometry": {"type": "LineString", "coordinates": [[50.68180474489148, 69.0375324907383], [50.67901449278855, 69.03731100976898]]}, "properties": {"source": "931485", "target": "8787184"}}, {"type": "Feature", "geometry": {"type": "LineString", "coordinates": [[50.68180474489148, 69.0375324907383], [50.6869322353225, 69.03841562097551]]}, "properties": {"source": "931485", "target": "9478546"}}, {"type": "Feature", "geometry": {"type": "LineString", "coordinates": [[50.688905759838036, 69.04033978551803], [50.68513179031797, 69.03778785613545]]}, "properties": {"source": "556083", "target": "1017873"}}, {"type": "Feature", "geometry": {"type": "LineString", "coordinates": [[50.688905759838036, 69.04033978551803], [50.67680800249627, 69.03961179364137]]}, "properties": {"source": "556083", "target": "16045061"}}, {"type": "Feature", "geometry": {"type": "LineString", "coordinates": [[50.688905759838036, 69.04033978551803], [50.677312684303644, 69.03846062596023]]}, "properties": {"source": "556083", "target": "12208577"}}, {"type": "Feature", "geometry": {"type": "LineString", "coordinates": [[50.68904904329611, 69.04055414958648], [50.682398482324174, 69.03759650326194]]}, "properties": {"source": "575211", "target": "9802297"}}, {"type": "Feature", "geometry": {"type": "LineString", "coordinates": [[50.68904904329611, 69.04055414958648], [50.684768943630615, 69.03910526547642]]}, "properties": {"source": "575211", "target": "5833819"}}, {"type": "Feature", "geometry": {"type": "LineString", "coordinates": [[50.68904904329611, 69.04055414958648], [50.68620989342526, 69.04013083444414]]}, "properties": {"source": "575211", "target": "7315174"}}, {"type": "Feature", "geometry": {"type": "LineString", "coordinates": [[50.68904904329611, 69.04055414958648], [50.68681899023531, 69.03800472019779]]}, "properties": {"source": "575211", "target": "6719956"}}, {"type": "Feature", "geometry": {"type": "LineString", "coordinates": [[50.68904904329611, 69.04055414958648], [50.69073909688305, 69.03753144477156]]}, "properties": {"source": "575211", "target": "23014673"}}, {"type": "Feature", "geometry": {"type": "LineString", "coordinates": [[50.68904904329611, 69.04055414958648], [50.683388363903134, 69.04233038871658]]}, "properties": {"source": "575211", "target": "13167063"}}, {"type": "Feature", "geometry": {"type": "LineString", "coordinates": [[50.68904904329611, 69.04055414958648], [50.68303950051802, 69.03782276799552]]}, "properties": {"source": "575211", "target": "31450692"}}, {"type": "Feature", "geometry": {"type": "LineString", "coordinates": [[50.688905759838036, 69.04033978551803], [50.682398482324174, 69.03759650326194]]}, "properties": {"source": "556083", "target": "9802297"}}, {"type": "Feature", "geometry": {"type": "LineString", "coordinates": [[50.688905759838036, 69.04033978551803], [50.68904904329611, 69.04055414958648]]}, "properties": {"source": "556083", "target": "575211"}}, {"type": "Feature", "geometry": {"type": "LineString", "coordinates": [[50.688905759838036, 69.04033978551803], [50.684768943630615, 69.03910526547642]]}, "properties": {"source": "556083", "target": "5833819"}}, {"type": "Feature", "geometry": {"type": "LineString", "coordinates": [[50.688905759838036, 69.04033978551803], [50.68620989342526, 69.04013083444414]]}, "properties": {"source": "556083", "target": "7315174"}}, {"type": "Feature", "geometry": {"type": "LineString", "coordinates": [[50.68904904329611, 69.04055414958648], [50.690297406624666, 69.03894652283918]]}, "properties": {"source": "575211", "target": "497006"}}, {"type": "Feature", "geometry": {"type": "LineString", "coordinates": [[50.688905759838036, 69.04033978551803], [50.690297406624666, 69.03894652283918]]}, "properties": {"source": "556083", "target": "497006"}}, {"type": "Feature", "geometry": {"type": "LineString", "coordinates": [[50.678118644757774, 69.04231014891124], [50.68280082023131, 69.04147862134485]]}, "properties": {"source": "18404329", "target": "2517285"}}, {"type": "Feature", "geometry": {"type": "LineString", "coordinates": [[50.678118644757774, 69.04231014891124], [50.687721519406466, 69.04129982804844]]}, "properties": {"source": "18404329", "target": "28220750"}}, {"type": "Feature", "geometry": {"type": "LineString", "coordinates": [[50.678118644757774, 69.04231014891124], [50.68087825391106, 69.0387915564655]]}, "properties": {"source": "18404329", "target": "25991108"}}, {"type": "Feature", "geometry": {"type": "LineString", "coordinates": [[50.678118644757774, 69.04231014891124], [50.683388363903134, 69.04233038871658]]}, "properties": {"source": "18404329", "target": "13167063"}}, {"type": "Feature", "geometry": {"type": "LineString", "coordinates": [[50.678118644757774, 69.04231014891124], [50.69158492064284, 69.03725166932901]]}, "properties": {"source": "18404329", "target": "17934450"}}, {"type": "Feature", "geometry": {"type": "LineString", "coordinates": [[50.678118644757774, 69.04231014891124], [50.67853339858607, 69.0387678381746]]}, "properties": {"source": "18404329", "target": "1064306"}}, {"type": "Feature", "geometry": {"type": "LineString", "coordinates": [[50.678118644757774, 69.04231014891124], [50.67871556628285, 69.04186861212989]]}, "properties": {"source": "18404329", "target": "15717339"}}, {"type": "Feature", "geometry": {"type": "LineString", "coordinates": [[50.678118644757774, 69.04231014891124], [50.68513179031797, 69.03778785613545]]}, "properties": {"source": "18404329", "target": "1017873"}}, {"type": "Feature", "geometry": {"type": "LineString", "coordinates": [[50.678118644757774, 69.04231014891124], [50.67680800249627, 69.03961179364137]]}, "properties": {"source": "18404329", "target": "16045061"}}, {"type": "Feature", "geometry": {"type": "LineString", "coordinates": [[50.678118644757774, 69.04231014891124], [50.677312684303644, 69.03846062596023]]}, "properties": {"source": "18404329", "target": "12208577"}}, {"type": "Feature", "geometry": {"type": "LineString", "coordinates": [[50.68313065785625, 69.0396105527976], [50.676528385816425, 69.03922173768868]]}, "properties": {"source": "9443592", "target": "8523430"}}, {"type": "Feature", "geometry": {"type": "LineString", "coordinates": [[50.68878520394739, 69.03731547311756], [50.683006211101485, 69.04129327397374]]}, "properties": {"source": "8548013", "target": "808023"}}, {"type": "Feature", "geometry": {"type": "LineString", "coordinates": [[50.68878520394739, 69.03731547311756], [50.68488824638527, 69.03870006077045]]}, "properties": {"source": "8548013", "target": "8957798"}}, {"type": "Feature", "geometry": {"type": "LineString", "coordinates": [[50.68878520394739, 69.03731547311756], [50.6862938350354, 69.04029335084621]]}, "properties": {"source": "8548013", "target": "9638356"}}, {"type": "Feature", "geometry": {"type": "LineString", "coordinates": [[50.68878520394739, 69.03731547311756], [50.684813088576334, 69.04042879667395]]}, "properties": {"source": "8548013", "target": "11440826"}}, {"type": "Feature", "geometry": {"type": "LineString", "coordinates": [[50.68878520394739, 69.03731547311756], [50.68801711397455, 69.0382712243983]]}, "properties": {"source": "8548013", "target": "11720143"}}, {"type": "Feature", "geometry": {"type": "LineString", "coordinates": [[50.69028067419666, 69.03929924542393], [50.68620989342526, 69.04013083444414]]}, "properties": {"source": "8940272", "target": "7315174"}}, {"type": "Feature", "geometry": {"type": "LineString", "coordinates": [[50.69028067419666, 69.03929924542393], [50.68681899023531, 69.03800472019779]]}, "properties": {"source": "8940272", "target": "6719956"}}, {"type": "Feature", "geometry": {"type": "LineString", "coordinates": [[50.69028067419666, 69.03929924542393], [50.68878520394739, 69.03731547311756]]}, "properties": {"source": "8940272", "target": "8548013"}}, {"type": "Feature", "geometry": {"type": "LineString", "coordinates": [[50.69028067419666, 69.03929924542393], [50.68554667722398, 69.0399491835131]]}, "properties": {"source": "8940272", "target": "7683737"}}, {"type": "Feature", "geometry": {"type": "LineString", "coordinates": [[50.69028067419666, 69.03929924542393], [50.69073909688305, 69.03753144477156]]}, "properties": {"source": "8940272", "target": "23014673"}}, {"type": "Feature", "geometry": {"type": "LineString", "coordinates": [[50.69028067419666, 69.03929924542393], [50.68303950051802, 69.03782276799552]]}, "properties": {"source": "8940272", "target": "31450692"}}, {"type": "Feature", "geometry": {"type": "LineString", "coordinates": [[50.68904904329611, 69.04055414958648], [50.69158492064284, 69.03725166932901]]}, "properties": {"source": "575211", "target": "17934450"}}, {"type": "Feature", "geometry": {"type": "LineString", "coordinates": [[50.68904904329611, 69.04055414958648], [50.67853339858607, 69.0387678381746]]}, "properties": {"source": "575211", "target": "1064306"}}, {"type": "Feature", "geometry": {"type": "LineString", "coordinates": [[50.68904904329611, 69.04055414958648], [50.68513179031797, 69.03778785613545]]}, "properties": {"source": "575211", "target": "1017873"}}, {"type": "Feature", "geometry": {"type": "LineString", "coordinates": [[50.68904904329611, 69.04055414958648], [50.68698473207013, 69.04144755424653]]}, "properties": {"source": "575211", "target": "23848084"}}, {"type": "Feature", "geometry": {"type": "LineString", "coordinates": [[50.68904904329611, 69.04055414958648], [50.677312684303644, 69.03846062596023]]}, "properties": {"source": "575211", "target": "12208577"}}, {"type": "Feature", "geometry": {"type": "LineString", "coordinates": [[50.68906141093973, 69.03972346429023], [50.68143083790656, 69.0390534754994]]}, "properties": {"source": "6643977", "target": "7162321"}}, {"type": "Feature", "geometry": {"type": "LineString", "coordinates": [[50.68906141093973, 69.03972346429023], [50.68681899023531, 69.03800472019779]]}, "properties": {"source": "6643977", "target": "6719956"}}, {"type": "Feature", "geometry": {"type": "LineString", "coordinates": [[50.68906141093973, 69.03972346429023], [50.68554667722398, 69.0399491835131]]}, "properties": {"source": "6643977", "target": "7683737"}}, {"type": "Feature", "geometry": {"type": "LineString", "coordinates": [[50.68906141093973, 69.03972346429023], [50.683006211101485, 69.04129327397374]]}, "properties": {"source": "6643977", "target": "808023"}}, {"type": "Feature", "geometry": {"type": "LineString", "coordinates": [[50.68906141093973, 69.03972346429023], [50.68271551011557, 69.04055756947199]]}, "properties": {"source": "6643977", "target": "6678903"}}, {"type": "Feature", "geometry": {"type": "LineString", "coordinates": [[50.69028067419666, 69.03929924542393], [50.69158492064284, 69.03725166932901]]}, "properties": {"source": "8940272", "target": "17934450"}}, {"type": "Feature", "geometry": {"type": "LineString", "coordinates": [[50.69028067419666, 69.03929924542393], [50.67871556628285, 69.04186861212989]]}, "properties": {"source": "8940272", "target": "15717339"}}, {"type": "Feature", "geometry": {"type": "LineString", "coordinates": [[50.69028067419666, 69.03929924542393], [50.68488824638527, 69.03870006077045]]}, "properties": {"source": "8940272", "target": "8957798"}}, {"type": "Feature", "geometry": {"type": "LineString", "coordinates": [[50.69028067419666, 69.03929924542393], [50.68698473207013, 69.04144755424653]]}, "properties": {"source": "8940272", "target": "23848084"}}, {"type": "Feature", "geometry": {"type": "LineString", "coordinates": [[50.69028067419666, 69.03929924542393], [50.677312684303644, 69.03846062596023]]}, "properties": {"source": "8940272", "target": "12208577"}}, {"type": "Feature", "geometry": {"type": "LineString", "coordinates": [[50.684768943630615, 69.03910526547642], [50.682398482324174, 69.03759650326194]]}, "properties": {"source": "5833819", "target": "9802297"}}, {"type": "Feature", "geometry": {"type": "LineString", "coordinates": [[50.684768943630615, 69.03910526547642], [50.68681899023531, 69.03800472019779]]}, "properties": {"source": "5833819", "target": "6719956"}}, {"type": "Feature", "geometry": {"type": "LineString", "coordinates": [[50.684768943630615, 69.03910526547642], [50.683388363903134, 69.04233038871658]]}, "properties": {"source": "5833819", "target": "13167063"}}, {"type": "Feature", "geometry": {"type": "LineString", "coordinates": [[50.684768943630615, 69.03910526547642], [50.69158492064284, 69.03725166932901]]}, "properties": {"source": "5833819", "target": "17934450"}}, {"type": "Feature", "geometry": {"type": "LineString", "coordinates": [[50.684768943630615, 69.03910526547642], [50.67853339858607, 69.0387678381746]]}, "properties": {"source": "5833819", "target": "1064306"}}, {"type": "Feature", "geometry": {"type": "LineString", "coordinates": [[50.684768943630615, 69.03910526547642], [50.677312684303644, 69.03846062596023]]}, "properties": {"source": "5833819", "target": "12208577"}}, {"type": "Feature", "geometry": {"type": "LineString", "coordinates": [[50.68620989342526, 69.04013083444414], [50.682398482324174, 69.03759650326194]]}, "properties": {"source": "7315174", "target": "9802297"}}, {"type": "Feature", "geometry": {"type": "LineString", "coordinates": [[50.68620989342526, 69.04013083444414], [50.684768943630615, 69.03910526547642]]}, "properties": {"source": "7315174", "target": "5833819"}}, {"type": "Feature", "geometry": {"type": "LineString", "coordinates": [[50.68620989342526, 69.04013083444414], [50.68681899023531, 69.03800472019779]]}, "properties": {"source": "7315174", "target": "6719956"}}, {"type": "Feature", "geometry": {"type": "LineString", "coordinates": [[50.68620989342526, 69.04013083444414], [50.69073909688305, 69.03753144477156]]}, "properties": {"source": "7315174", "target": "23014673"}}, {"type": "Feature", "geometry": {"type": "LineString", "coordinates": [[50.68620989342526, 69.04013083444414], [50.690297406624666, 69.03894652283918]]}, "properties": {"source": "7315174", "target": "497006"}}, {"type": "Feature", "geometry": {"type": "LineString", "coordinates": [[50.68620989342526, 69.04013083444414], [50.683388363903134, 69.04233038871658]]}, "properties": {"source": "7315174", "target": "13167063"}}, {"type": "Feature", "geometry": {"type": "LineString", "coordinates": [[50.68620989342526, 69.04013083444414], [50.69158492064284, 69.03725166932901]]}, "properties": {"source": "7315174", "target": "17934450"}}, {"type": "Feature", "geometry": {"type": "LineString", "coordinates": [[50.68620989342526, 69.04013083444414], [50.67853339858607, 69.0387678381746]]}, "properties": {"source": "7315174", "target": "1064306"}}, {"type": "Feature", "geometry": {"type": "LineString", "coordinates": [[50.68620989342526, 69.04013083444414], [50.68513179031797, 69.03778785613545]]}, "properties": {"source": "7315174", "target": "1017873"}}, {"type": "Feature", "geometry": {"type": "LineString", "coordinates": [[50.68143083790656, 69.0390534754994], [50.68681899023531, 69.03800472019779]]}, "properties": {"source": "7162321", "target": "6719956"}}, {"type": "Feature", "geometry": {"type": "LineString", "coordinates": [[50.68143083790656, 69.0390534754994], [50.676528385816425, 69.03922173768868]]}, "properties": {"source": "7162321", "target": "8523430"}}, {"type": "Feature", "geometry": {"type": "LineString", "coordinates": [[50.68143083790656, 69.0390534754994], [50.68488824638527, 69.03870006077045]]}, "properties": {"source": "7162321", "target": "8957798"}}, {"type": "Feature", "geometry": {"type": "LineString", "coordinates": [[50.68143083790656, 69.0390534754994], [50.684813088576334, 69.04042879667395]]}, "properties": {"source": "7162321", "target": "11440826"}}, {"type": "Feature", "geometry": {"type": "LineString", "coordinates": [[50.68143083790656, 69.0390534754994], [50.68801711397455, 69.0382712243983]]}, "properties": {"source": "7162321", "target": "11720143"}}, {"type": "Feature", "geometry": {"type": "LineString", "coordinates": [[50.68681899023531, 69.03800472019779], [50.682398482324174, 69.03759650326194]]}, "properties": {"source": "6719956", "target": "9802297"}}, {"type": "Feature", "geometry": {"type": "LineString", "coordinates": [[50.686040731145624, 69.04245955533307], [50.69028067419666, 69.03929924542393]]}, "properties": {"source": "8146337", "target": "8940272"}}, {"type": "Feature", "geometry": {"type": "LineString", "coordinates": [[50.686040731145624, 69.04245955533307], [50.68143083790656, 69.0390534754994]]}, "properties": {"source": "8146337", "target": "7162321"}}, {"type": "Feature", "geometry": {"type": "LineString", "coordinates": [[50.686040731145624, 69.04245955533307], [50.68878520394739, 69.03731547311756]]}, "properties": {"source": "8146337", "target": "8548013"}}, {"type": "Feature", "geometry": {"type": "LineString", "coordinates": [[50.686040731145624, 69.04245955533307], [50.68554667722398, 69.0399491835131]]}, "properties": {"source": "8146337", "target": "7683737"}}, {"type": "Feature", "geometry": {"type": "LineString", "coordinates": [[50.686040731145624, 69.04245955533307], [50.676528385816425, 69.03922173768868]]}, "properties": {"source": "8146337", "target": "8523430"}}, {"type": "Feature", "geometry": {"type": "LineString", "coordinates": [[50.686040731145624, 69.04245955533307], [50.69019609906033, 69.03791741572604]]}, "properties": {"source": "8146337", "target": "9026749"}}, {"type": "Feature", "geometry": {"type": "LineString", "coordinates": [[50.68313065785625, 69.0396105527976], [50.683163572256404, 69.03921616141494]]}, "properties": {"source": "9443592", "target": "8542611"}}, {"type": "Feature", "geometry": {"type": "LineString", "coordinates": [[50.68313065785625, 69.0396105527976], [50.67783808286134, 69.03741090914951]]}, "properties": {"source": "9443592", "target": "9848562"}}, {"type": "Feature", "geometry": {"type": "LineString", "coordinates": [[50.6869322353225, 69.03841562097551], [50.676528385816425, 69.03922173768868]]}, "properties": {"source": "9478546", "target": "8523430"}}, {"type": "Feature", "geometry": {"type": "LineString", "coordinates": [[50.6869322353225, 69.03841562097551], [50.683295189851435, 69.0378421204673]]}, "properties": {"source": "9478546", "target": "9588402"}}, {"type": "Feature", "geometry": {"type": "LineString", "coordinates": [[50.6869322353225, 69.03841562097551], [50.67901449278855, 69.03731100976898]]}, "properties": {"source": "9478546", "target": "8787184"}}, {"type": "Feature", "geometry": {"type": "LineString", "coordinates": [[50.6869322353225, 69.03841562097551], [50.68168859670155, 69.0373320844621]]}, "properties": {"source": "9478546", "target": "9375951"}}, {"type": "Feature", "geometry": {"type": "LineString", "coordinates": [[50.6869322353225, 69.03841562097551], [50.67783808286134, 69.03741090914951]]}, "properties": {"source": "9478546", "target": "9848562"}}, {"type": "Feature", "geometry": {"type": "LineString", "coordinates": [[50.69073909688305, 69.03753144477156], [50.682398482324174, 69.03759650326194]]}, "properties": {"source": "23014673", "target": "9802297"}}, {"type": "Feature", "geometry": {"type": "LineString", "coordinates": [[50.69073909688305, 69.03753144477156], [50.684768943630615, 69.03910526547642]]}, "properties": {"source": "23014673", "target": "5833819"}}, {"type": "Feature", "geometry": {"type": "LineString", "coordinates": [[50.69073909688305, 69.03753144477156], [50.68681899023531, 69.03800472019779]]}, "properties": {"source": "23014673", "target": "6719956"}}, {"type": "Feature", "geometry": {"type": "LineString", "coordinates": [[50.69073909688305, 69.03753144477156], [50.683388363903134, 69.04233038871658]]}, "properties": {"source": "23014673", "target": "13167063"}}, {"type": "Feature", "geometry": {"type": "LineString", "coordinates": [[50.68496698776599, 69.03966164457722], [50.683388363903134, 69.04233038871658]]}, "properties": {"source": "1017537", "target": "13167063"}}, {"type": "Feature", "geometry": {"type": "LineString", "coordinates": [[50.68496698776599, 69.03966164457722], [50.67853339858607, 69.0387678381746]]}, "properties": {"source": "1017537", "target": "1064306"}}, {"type": "Feature", "geometry": {"type": "LineString", "coordinates": [[50.68496698776599, 69.03966164457722], [50.68513179031797, 69.03778785613545]]}, "properties": {"source": "1017537", "target": "1017873"}}, {"type": "Feature", "geometry": {"type": "LineString", "coordinates": [[50.67680800249627, 69.03961179364137], [50.682398482324174, 69.03759650326194]]}, "properties": {"source": "16045061", "target": "9802297"}}, {"type": "Feature", "geometry": {"type": "LineString", "coordinates": [[50.67680800249627, 69.03961179364137], [50.690297406624666, 69.03894652283918]]}, "properties": {"source": "16045061", "target": "497006"}}, {"type": "Feature", "geometry": {"type": "LineString", "coordinates": [[50.67680800249627, 69.03961179364137], [50.68904904329611, 69.04055414958648]]}, "properties": {"source": "16045061", "target": "575211"}}, {"type": "Feature", "geometry": {"type": "LineString", "coordinates": [[50.67680800249627, 69.03961179364137], [50.684768943630615, 69.03910526547642]]}, "properties": {"source": "16045061", "target": "5833819"}}, {"type": "Feature", "geometry": {"type": "LineString", "coordinates": [[50.67680800249627, 69.03961179364137], [50.69073909688305, 69.03753144477156]]}, "properties": {"source": "16045061", "target": "23014673"}}, {"type": "Feature", "geometry": {"type": "LineString", "coordinates": [[50.67680800249627, 69.03961179364137], [50.69158492064284, 69.03725166932901]]}, "properties": {"source": "16045061", "target": "17934450"}}, {"type": "Feature", "geometry": {"type": "LineString", "coordinates": [[50.677312684303644, 69.03846062596023], [50.68681899023531, 69.03800472019779]]}, "properties": {"source": "12208577", "target": "6719956"}}, {"type": "Feature", "geometry": {"type": "LineString", "coordinates": [[50.67871358038505, 69.03836687034553], [50.68143083790656, 69.0390534754994]]}, "properties": {"source": "8271070", "target": "7162321"}}, {"type": "Feature", "geometry": {"type": "LineString", "coordinates": [[50.67871358038505, 69.03836687034553], [50.68878520394739, 69.03731547311756]]}, "properties": {"source": "8271070", "target": "8548013"}}, {"type": "Feature", "geometry": {"type": "LineString", "coordinates": [[50.68698473207013, 69.04144755424653], [50.68620989342526, 69.04013083444414]]}, "properties": {"source": "23848084", "target": "7315174"}}, {"type": "Feature", "geometry": {"type": "LineString", "coordinates": [[50.68698473207013, 69.04144755424653], [50.68681899023531, 69.03800472019779]]}, "properties": {"source": "23848084", "target": "6719956"}}, {"type": "Feature", "geometry": {"type": "LineString", "coordinates": [[50.68698473207013, 69.04144755424653], [50.68303950051802, 69.03782276799552]]}, "properties": {"source": "23848084", "target": "31450692"}}, {"type": "Feature", "geometry": {"type": "LineString", "coordinates": [[50.69003388395822, 69.03751645659904], [50.68280117035442, 69.04060371171889]]}, "properties": {"source": "10221761", "target": "6038931"}}, {"type": "Feature", "geometry": {"type": "LineString", "coordinates": [[50.68271551011557, 69.04055756947199], [50.68143083790656, 69.0390534754994]]}, "properties": {"source": "6678903", "target": "7162321"}}, {"type": "Feature", "geometry": {"type": "LineString", "coordinates": [[50.68271551011557, 69.04055756947199], [50.68554667722398, 69.0399491835131]]}, "properties": {"source": "6678903", "target": "7683737"}}, {"type": "Feature", "geometry": {"type": "LineString", "coordinates": [[50.68271551011557, 69.04055756947199], [50.683006211101485, 69.04129327397374]]}, "properties": {"source": "6678903", "target": "808023"}}, {"type": "Feature", "geometry": {"type": "LineString", "coordinates": [[50.691183202514765, 69.03982225861554], [50.68313065785625, 69.0396105527976]]}, "properties": {"source": "9275902", "target": "9443592"}}, {"type": "Feature", "geometry": {"type": "LineString", "coordinates": [[50.68698473207013, 69.04144755424653], [50.690297406624666, 69.03894652283918]]}, "properties": {"source": "23848084", "target": "497006"}}, {"type": "Feature", "geometry": {"type": "LineString", "coordinates": [[50.68180474489148, 69.0375324907383], [50.68168859670155, 69.0373320844621]]}, "properties": {"source": "931485", "target": "9375951"}}, {"type": "Feature", "geometry": {"type": "LineString", "coordinates": [[50.68180474489148, 69.0375324907383], [50.688977401827856, 69.03744776696016]]}, "properties": {"source": "931485", "target": "9900565"}}, {"type": "Feature", "geometry": {"type": "LineString", "coordinates": [[50.68180474489148, 69.0375324907383], [50.67870979180185, 69.03988869922136]]}, "properties": {"source": "931485", "target": "7748843"}}, {"type": "Feature", "geometry": {"type": "LineString", "coordinates": [[50.68180474489148, 69.0375324907383], [50.683163572256404, 69.03921616141494]]}, "properties": {"source": "931485", "target": "8542611"}}, {"type": "Feature", "geometry": {"type": "LineString", "coordinates": [[50.67901449278855, 69.03731100976898], [50.676528385816425, 69.03922173768868]]}, "properties": {"source": "8787184", "target": "8523430"}}, {"type": "Feature", "geometry": {"type": "LineString", "coordinates": [[50.67901449278855, 69.03731100976898], [50.683295189851435, 69.0378421204673]]}, "properties": {"source": "8787184", "target": "9588402"}}, {"type": "Feature", "geometry": {"type": "LineString", "coordinates": [[50.67901449278855, 69.03731100976898], [50.68168859670155, 69.0373320844621]]}, "properties": {"source": "8787184", "target": "9375951"}}, {"type": "Feature", "geometry": {"type": "LineString", "coordinates": [[50.67901449278855, 69.03731100976898], [50.67870979180185, 69.03988869922136]]}, "properties": {"source": "8787184", "target": "7748843"}}, {"type": "Feature", "geometry": {"type": "LineString", "coordinates": [[50.683388363903134, 69.04233038871658], [50.682398482324174, 69.03759650326194]]}, "properties": {"source": "13167063", "target": "9802297"}}, {"type": "Feature", "geometry": {"type": "LineString", "coordinates": [[50.683388363903134, 69.04233038871658], [50.67853339858607, 69.0387678381746]]}, "properties": {"source": "13167063", "target": "1064306"}}, {"type": "Feature", "geometry": {"type": "LineString", "coordinates": [[50.683388363903134, 69.04233038871658], [50.677312684303644, 69.03846062596023]]}, "properties": {"source": "13167063", "target": "12208577"}}, {"type": "Feature", "geometry": {"type": "LineString", "coordinates": [[50.678471977662355, 69.04149168016494], [50.68168859670155, 69.0373320844621]]}, "properties": {"source": "8304945", "target": "9375951"}}, {"type": "Feature", "geometry": {"type": "LineString", "coordinates": [[50.678471977662355, 69.04149168016494], [50.67870979180185, 69.03988869922136]]}, "properties": {"source": "8304945", "target": "7748843"}}, {"type": "Feature", "geometry": {"type": "LineString", "coordinates": [[50.678471977662355, 69.04149168016494], [50.68614361053912, 69.03793310444252]]}, "properties": {"source": "8304945", "target": "6989334"}}, {"type": "Feature", "geometry": {"type": "LineString", "coordinates": [[50.67871556628285, 69.04186861212989], [50.682398482324174, 69.03759650326194]]}, "properties": {"source": "15717339", "target": "9802297"}}, {"type": "Feature", "geometry": {"type": "LineString", "coordinates": [[50.67871556628285, 69.04186861212989], [50.690297406624666, 69.03894652283918]]}, "properties": {"source": "15717339", "target": "497006"}}, {"type": "Feature", "geometry": {"type": "LineString", "coordinates": [[50.68878520394739, 69.03731547311756], [50.687117936941746, 69.04219891748758]]}, "properties": {"source": "8548013", "target": "12958728"}}, {"type": "Feature", "geometry": {"type": "LineString", "coordinates": [[50.676528385816425, 69.03922173768868], [50.683295189851435, 69.0378421204673]]}, "properties": {"source": "8523430", "target": "9588402"}}, {"type": "Feature", "geometry": {"type": "LineString", "coordinates": [[50.676528385816425, 69.03922173768868], [50.68425406671133, 69.04090333062766]]}, "properties": {"source": "8523430", "target": "4483610"}}, {"type": "Feature", "geometry": {"type": "LineString", "coordinates": [[50.678118644757774, 69.04231014891124], [50.682398482324174, 69.03759650326194]]}, "properties": {"source": "18404329", "target": "9802297"}}, {"type": "Feature", "geometry": {"type": "LineString", "coordinates": [[50.678118644757774, 69.04231014891124], [50.688905759838036, 69.04033978551803]]}, "properties": {"source": "18404329", "target": "556083"}}, {"type": "Feature", "geometry": {"type": "LineString", "coordinates": [[50.68554667722398, 69.0399491835131], [50.68143083790656, 69.0390534754994]]}, "properties": {"source": "7683737", "target": "7162321"}}, {"type": "Feature", "geometry": {"type": "LineString", "coordinates": [[50.68554667722398, 69.0399491835131], [50.676528385816425, 69.03922173768868]]}, "properties": {"source": "7683737", "target": "8523430"}}, {"type": "Feature", "geometry": {"type": "LineString", "coordinates": [[50.68554667722398, 69.0399491835131], [50.68488824638527, 69.03870006077045]]}, "properties": {"source": "7683737", "target": "8957798"}}, {"type": "Feature", "geometry": {"type": "LineString", "coordinates": [[50.68554667722398, 69.0399491835131], [50.684813088576334, 69.04042879667395]]}, "properties": {"source": "7683737", "target": "11440826"}}, {"type": "Feature", "geometry": {"type": "LineString", "coordinates": [[50.68554667722398, 69.0399491835131], [50.68801711397455, 69.0382712243983]]}, "properties": {"source": "7683737", "target": "11720143"}}, {"type": "Feature", "geometry": {"type": "LineString", "coordinates": [[50.688905759838036, 69.04033978551803], [50.683388363903134, 69.04233038871658]]}, "properties": {"source": "556083", "target": "13167063"}}, {"type": "Feature", "geometry": {"type": "LineString", "coordinates": [[50.688905759838036, 69.04033978551803], [50.68303950051802, 69.03782276799552]]}, "properties": {"source": "556083", "target": "31450692"}}, {"type": "Feature", "geometry": {"type": "LineString", "coordinates": [[50.688905759838036, 69.04033978551803], [50.69158492064284, 69.03725166932901]]}, "properties": {"source": "556083", "target": "17934450"}}, {"type": "Feature", "geometry": {"type": "LineString", "coordinates": [[50.688905759838036, 69.04033978551803], [50.67853339858607, 69.0387678381746]]}, "properties": {"source": "556083", "target": "1064306"}}, {"type": "Feature", "geometry": {"type": "LineString", "coordinates": [[50.688905759838036, 69.04033978551803], [50.67871556628285, 69.04186861212989]]}, "properties": {"source": "556083", "target": "15717339"}}, {"type": "Feature", "geometry": {"type": "LineString", "coordinates": [[50.678118644757774, 69.04231014891124], [50.690297406624666, 69.03894652283918]]}, "properties": {"source": "18404329", "target": "497006"}}, {"type": "Feature", "geometry": {"type": "LineString", "coordinates": [[50.68325885438733, 69.03800593455526], [50.68488824638527, 69.03870006077045]]}, "properties": {"source": "7464845", "target": "8957798"}}, {"type": "Feature", "geometry": {"type": "LineString", "coordinates": [[50.68325885438733, 69.03800593455526], [50.68718031533817, 69.03965150873731]]}, "properties": {"source": "7464845", "target": "9276237"}}, {"type": "Feature", "geometry": {"type": "LineString", "coordinates": [[50.68325885438733, 69.03800593455526], [50.67871358038505, 69.03836687034553]]}, "properties": {"source": "7464845", "target": "8271070"}}, {"type": "Feature", "geometry": {"type": "LineString", "coordinates": [[50.68325885438733, 69.03800593455526], [50.68280117035442, 69.04060371171889]]}, "properties": {"source": "7464845", "target": "6038931"}}, {"type": "Feature", "geometry": {"type": "LineString", "coordinates": [[50.68325885438733, 69.03800593455526], [50.68271551011557, 69.04055756947199]]}, "properties": {"source": "7464845", "target": "6678903"}}, {"type": "Feature", "geometry": {"type": "LineString", "coordinates": [[50.68325885438733, 69.03800593455526], [50.69026055973865, 69.04060513419327]]}, "properties": {"source": "7464845", "target": "6491779"}}, {"type": "Feature", "geometry": {"type": "LineString", "coordinates": [[50.68087825391106, 69.0387915564655], [50.682398482324174, 69.03759650326194]]}, "properties": {"source": "25991108", "target": "9802297"}}, {"type": "Feature", "geometry": {"type": "LineString", "coordinates": [[50.68087825391106, 69.0387915564655], [50.688905759838036, 69.04033978551803]]}, "properties": {"source": "25991108", "target": "556083"}}, {"type": "Feature", "geometry": {"type": "LineString", "coordinates": [[50.68087825391106, 69.0387915564655], [50.68904904329611, 69.04055414958648]]}, "properties": {"source": "25991108", "target": "575211"}}, {"type": "Feature", "geometry": {"type": "LineString", "coordinates": [[50.68087825391106, 69.0387915564655], [50.684768943630615, 69.03910526547642]]}, "properties": {"source": "25991108", "target": "5833819"}}, {"type": "Feature", "geometry": {"type": "LineString", "coordinates": [[50.68087825391106, 69.0387915564655], [50.68620989342526, 69.04013083444414]]}, "properties": {"source": "25991108", "target": "7315174"}}, {"type": "Feature", "geometry": {"type": "LineString", "coordinates": [[50.68087825391106, 69.0387915564655], [50.68681899023531, 69.03800472019779]]}, "properties": {"source": "25991108", "target": "6719956"}}, {"type": "Feature", "geometry": {"type": "LineString", "coordinates": [[50.68087825391106, 69.0387915564655], [50.69073909688305, 69.03753144477156]]}, "properties": {"source": "25991108", "target": "23014673"}}, {"type": "Feature", "geometry": {"type": "LineString", "coordinates": [[50.68087825391106, 69.0387915564655], [50.683388363903134, 69.04233038871658]]}, "properties": {"source": "25991108", "target": "13167063"}}, {"type": "Feature", "geometry": {"type": "LineString", "coordinates": [[50.68087825391106, 69.0387915564655], [50.68303950051802, 69.03782276799552]]}, "properties": {"source": "25991108", "target": "31450692"}}, {"type": "Feature", "geometry": {"type": "LineString", "coordinates": [[50.68087825391106, 69.0387915564655], [50.690297406624666, 69.03894652283918]]}, "properties": {"source": "25991108", "target": "497006"}}, {"type": "Feature", "geometry": {"type": "LineString", "coordinates": [[50.686040731145624, 69.04245955533307], [50.67871358038505, 69.03836687034553]]}, "properties": {"source": "8146337", "target": "8271070"}}, {"type": "Feature", "geometry": {"type": "LineString", "coordinates": [[50.686040731145624, 69.04245955533307], [50.69003388395822, 69.03751645659904]]}, "properties": {"source": "8146337", "target": "10221761"}}, {"type": "Feature", "geometry": {"type": "LineString", "coordinates": [[50.686040731145624, 69.04245955533307], [50.68271551011557, 69.04055756947199]]}, "properties": {"source": "8146337", "target": "6678903"}}, {"type": "Feature", "geometry": {"type": "LineString", "coordinates": [[50.686040731145624, 69.04245955533307], [50.6862938350354, 69.04029335084621]]}, "properties": {"source": "8146337", "target": "9638356"}}, {"type": "Feature", "geometry": {"type": "LineString", "coordinates": [[50.686040731145624, 69.04245955533307], [50.684813088576334, 69.04042879667395]]}, "properties": {"source": "8146337", "target": "11440826"}}, {"type": "Feature", "geometry": {"type": "LineString", "coordinates": [[50.686040731145624, 69.04245955533307], [50.68801711397455, 69.0382712243983]]}, "properties": {"source": "8146337", "target": "11720143"}}, {"type": "Feature", "geometry": {"type": "LineString", "coordinates": [[50.686040731145624, 69.04245955533307], [50.68496511464264, 69.03839294702428]]}, "properties": {"source": "8146337", "target": "1133397"}}, {"type": "Feature", "geometry": {"type": "LineString", "coordinates": [[50.68878520394739, 69.03731547311756], [50.682398482324174, 69.03759650326194]]}, "properties": {"source": "8548013", "target": "9802297"}}, {"type": "Feature", "geometry": {"type": "LineString", "coordinates": [[50.68878520394739, 69.03731547311756], [50.68143083790656, 69.0390534754994]]}, "properties": {"source": "8548013", "target": "7162321"}}, {"type": "Feature", "geometry": {"type": "LineString", "coordinates": [[50.68878520394739, 69.03731547311756], [50.68554667722398, 69.0399491835131]]}, "properties": {"source": "8548013", "target": "7683737"}}, {"type": "Feature", "geometry": {"type": "LineString", "coordinates": [[50.68878520394739, 69.03731547311756], [50.676528385816425, 69.03922173768868]]}, "properties": {"source": "8548013", "target": "8523430"}}, {"type": "Feature", "geometry": {"type": "LineString", "coordinates": [[50.68313065785625, 69.0396105527976], [50.683295189851435, 69.0378421204673]]}, "properties": {"source": "9443592", "target": "9588402"}}, {"type": "Feature", "geometry": {"type": "LineString", "coordinates": [[50.68313065785625, 69.0396105527976], [50.67901449278855, 69.03731100976898]]}, "properties": {"source": "9443592", "target": "8787184"}}, {"type": "Feature", "geometry": {"type": "LineString", "coordinates": [[50.68313065785625, 69.0396105527976], [50.68168859670155, 69.0373320844621]]}, "properties": {"source": "9443592", "target": "9375951"}}, {"type": "Feature", "geometry": {"type": "LineString", "coordinates": [[50.68313065785625, 69.0396105527976], [50.688977401827856, 69.03744776696016]]}, "properties": {"source": "9443592", "target": "9900565"}}, {"type": "Feature", "geometry": {"type": "LineString", "coordinates": [[50.68313065785625, 69.0396105527976], [50.6869322353225, 69.03841562097551]]}, "properties": {"source": "9443592", "target": "9478546"}}, {"type": "Feature", "geometry": {"type": "LineString", "coordinates": [[50.688139967801106, 69.04057557898747], [50.68763372476403, 69.04096876270407]]}, "properties": {"source": "6627961", "target": "7942245"}}, {"type": "Feature", "geometry": {"type": "LineString", "coordinates": [[50.688139967801106, 69.04057557898747], [50.67870979180185, 69.03988869922136]]}, "properties": {"source": "6627961", "target": "7748843"}}, {"type": "Feature", "geometry": {"type": "LineString", "coordinates": [[50.688139967801106, 69.04057557898747], [50.68614361053912, 69.03793310444252]]}, "properties": {"source": "6627961", "target": "6989334"}}, {"type": "Feature", "geometry": {"type": "LineString", "coordinates": [[50.684691130659274, 69.03897354704876], [50.68313065785625, 69.0396105527976]]}, "properties": {"source": "9182368", "target": "9443592"}}, {"type": "Feature", "geometry": {"type": "LineString", "coordinates": [[50.68496511464264, 69.03839294702428], [50.68878520394739, 69.03731547311756]]}, "properties": {"source": "1133397", "target": "8548013"}}, {"type": "Feature", "geometry": {"type": "LineString", "coordinates": [[50.67985126830396, 69.03721614804437], [50.68303950051802, 69.03782276799552]]}, "properties": {"source": "26143139", "target": "31450692"}}, {"type": "Feature", "geometry": {"type": "LineString", "coordinates": [[50.67985126830396, 69.03721614804437], [50.68776750225672, 69.03811315798356]]}, "properties": {"source": "26143139", "target": "13360594"}}, {"type": "Feature", "geometry": {"type": "LineString", "coordinates": [[50.68776750225672, 69.03811315798356], [50.68303950051802, 69.03782276799552]]}, "properties": {"source": "13360594", "target": "31450692"}}, {"type": "Feature", "geometry": {"type": "LineString", "coordinates": [[50.68704405618902, 69.03908040289636], [50.68425406671133, 69.04090333062766]]}, "properties": {"source": "1906470", "target": "4483610"}}, {"type": "Feature", "geometry": {"type": "LineString", "coordinates": [[50.68972593551658, 69.03791000690228], [50.68313065785625, 69.0396105527976]]}, "properties": {"source": "8310730", "target": "9443592"}}, {"type": "Feature", "geometry": {"type": "LineString", "coordinates": [[50.68972593551658, 69.03791000690228], [50.683295189851435, 69.0378421204673]]}, "properties": {"source": "8310730", "target": "9588402"}}, {"type": "Feature", "geometry": {"type": "LineString", "coordinates": [[50.68972593551658, 69.03791000690228], [50.67901449278855, 69.03731100976898]]}, "properties": {"source": "8310730", "target": "8787184"}}, {"type": "Feature", "geometry": {"type": "LineString", "coordinates": [[50.68972593551658, 69.03791000690228], [50.68614361053912, 69.03793310444252]]}, "properties": {"source": "8310730", "target": "6989334"}}, {"type": "Feature", "geometry": {"type": "LineString", "coordinates": [[50.684691130659274, 69.03897354704876], [50.6869322353225, 69.03841562097551]]}, "properties": {"source": "9182368", "target": "9478546"}}, {"type": "Feature", "geometry": {"type": "LineString", "coordinates": [[50.68972593551658, 69.03791000690228], [50.6869322353225, 69.03841562097551]]}, "properties": {"source": "8310730", "target": "9478546"}}, {"type": "Feature", "geometry": {"type": "LineString", "coordinates": [[50.684691130659274, 69.03897354704876], [50.68180474489148, 69.0375324907383]]}, "properties": {"source": "9182368", "target": "931485"}}, {"type": "Feature", "geometry": {"type": "LineString", "coordinates": [[50.69019609906033, 69.03791741572604], [50.68143083790656, 69.0390534754994]]}, "properties": {"source": "9026749", "target": "7162321"}}, {"type": "Feature", "geometry": {"type": "LineString", "coordinates": [[50.69019609906033, 69.03791741572604], [50.68878520394739, 69.03731547311756]]}, "properties": {"source": "9026749", "target": "8548013"}}, {"type": "Feature", "geometry": {"type": "LineString", "coordinates": [[50.69019609906033, 69.03791741572604], [50.68554667722398, 69.0399491835131]]}, "properties": {"source": "9026749", "target": "7683737"}}, {"type": "Feature", "geometry": {"type": "LineString", "coordinates": [[50.69019609906033, 69.03791741572604], [50.676528385816425, 69.03922173768868]]}, "properties": {"source": "9026749", "target": "8523430"}}, {"type": "Feature", "geometry": {"type": "LineString", "coordinates": [[50.69019609906033, 69.03791741572604], [50.683006211101485, 69.04129327397374]]}, "properties": {"source": "9026749", "target": "808023"}}, {"type": "Feature", "geometry": {"type": "LineString", "coordinates": [[50.69019609906033, 69.03791741572604], [50.68488824638527, 69.03870006077045]]}, "properties": {"source": "9026749", "target": "8957798"}}, {"type": "Feature", "geometry": {"type": "LineString", "coordinates": [[50.69019609906033, 69.03791741572604], [50.68718031533817, 69.03965150873731]]}, "properties": {"source": "9026749", "target": "9276237"}}, {"type": "Feature", "geometry": {"type": "LineString", "coordinates": [[50.69019609906033, 69.03791741572604], [50.6862938350354, 69.04029335084621]]}, "properties": {"source": "9026749", "target": "9638356"}}, {"type": "Feature", "geometry": {"type": "LineString", "coordinates": [[50.69019609906033, 69.03791741572604], [50.684813088576334, 69.04042879667395]]}, "properties": {"source": "9026749", "target": "11440826"}}, {"type": "Feature", "geometry": {"type": "LineString", "coordinates": [[50.687721519406466, 69.04129982804844], [50.682398482324174, 69.03759650326194]]}, "properties": {"source": "28220750", "target": "9802297"}}, {"type": "Feature", "geometry": {"type": "LineString", "coordinates": [[50.687721519406466, 69.04129982804844], [50.688905759838036, 69.04033978551803]]}, "properties": {"source": "28220750", "target": "556083"}}, {"type": "Feature", "geometry": {"type": "LineString", "coordinates": [[50.687721519406466, 69.04129982804844], [50.68904904329611, 69.04055414958648]]}, "properties": {"source": "28220750", "target": "575211"}}, {"type": "Feature", "geometry": {"type": "LineString", "coordinates": [[50.687721519406466, 69.04129982804844], [50.69028067419666, 69.03929924542393]]}, "properties": {"source": "28220750", "target": "8940272"}}, {"type": "Feature", "geometry": {"type": "LineString", "coordinates": [[50.687721519406466, 69.04129982804844], [50.684768943630615, 69.03910526547642]]}, "properties": {"source": "28220750", "target": "5833819"}}, {"type": "Feature", "geometry": {"type": "LineString", "coordinates": [[50.687721519406466, 69.04129982804844], [50.68620989342526, 69.04013083444414]]}, "properties": {"source": "28220750", "target": "7315174"}}, {"type": "Feature", "geometry": {"type": "LineString", "coordinates": [[50.687721519406466, 69.04129982804844], [50.690297406624666, 69.03894652283918]]}, "properties": {"source": "28220750", "target": "497006"}}, {"type": "Feature", "geometry": {"type": "LineString", "coordinates": [[50.687997970869475, 69.04167889150222], [50.68681899023531, 69.03800472019779]]}, "properties": {"source": "5325372", "target": "6719956"}}, {"type": "Feature", "geometry": {"type": "LineString", "coordinates": [[50.687997970869475, 69.04167889150222], [50.68906141093973, 69.03972346429023]]}, "properties": {"source": "5325372", "target": "6643977"}}, {"type": "Feature", "geometry": {"type": "LineString", "coordinates": [[50.687997970869475, 69.04167889150222], [50.68280117035442, 69.04060371171889]]}, "properties": {"source": "5325372", "target": "6038931"}}, {"type": "Feature", "geometry": {"type": "LineString", "coordinates": [[50.687997970869475, 69.04167889150222], [50.68271551011557, 69.04055756947199]]}, "properties": {"source": "5325372", "target": "6678903"}}, {"type": "Feature", "geometry": {"type": "LineString", "coordinates": [[50.68149362516388, 69.04177977512569], [50.68313065785625, 69.0396105527976]]}, "properties": {"source": "9668120", "target": "9443592"}}, {"type": "Feature", "geometry": {"type": "LineString", "coordinates": [[50.68149362516388, 69.04177977512569], [50.683295189851435, 69.0378421204673]]}, "properties": {"source": "9668120", "target": "9588402"}}, {"type": "Feature", "geometry": {"type": "LineString", "coordinates": [[50.68149362516388, 69.04177977512569], [50.681432974768256, 69.03730100823392]]}, "properties": {"source": "9668120", "target": "9996376"}}, {"type": "Feature", "geometry": {"type": "LineString", "coordinates": [[50.68149362516388, 69.04177977512569], [50.688977401827856, 69.03744776696016]]}, "properties": {"source": "9668120", "target": "9900565"}}, {"type": "Feature", "geometry": {"type": "LineString", "coordinates": [[50.68149362516388, 69.04177977512569], [50.686980947654575, 69.03742621921299]]}, "properties": {"source": "9668120", "target": "8981380"}}, {"type": "Feature", "geometry": {"type": "LineString", "coordinates": [[50.68972593551658, 69.03791000690228], [50.676528385816425, 69.03922173768868]]}, "properties": {"source": "8310730", "target": "8523430"}}, {"type": "Feature", "geometry": {"type": "LineString", "coordinates": [[50.678118644757774, 69.04231014891124], [50.68904904329611, 69.04055414958648]]}, "properties": {"source": "18404329", "target": "575211"}}, {"type": "Feature", "geometry": {"type": "LineString", "coordinates": [[50.678118644757774, 69.04231014891124], [50.684768943630615, 69.03910526547642]]}, "properties": {"source": "18404329", "target": "5833819"}}, {"type": "Feature", "geometry": {"type": "LineString", "coordinates": [[50.678118644757774, 69.04231014891124], [50.68620989342526, 69.04013083444414]]}, "properties": {"source": "18404329", "target": "7315174"}}, {"type": "Feature", "geometry": {"type": "LineString", "coordinates": [[50.678118644757774, 69.04231014891124], [50.69073909688305, 69.03753144477156]]}, "properties": {"source": "18404329", "target": "23014673"}}, {"type": "Feature", "geometry": {"type": "LineString", "coordinates": [[50.678118644757774, 69.04231014891124], [50.68602118394762, 69.0408034382177]]}, "properties": {"source": "18404329", "target": "16045105"}}, {"type": "Feature", "geometry": {"type": "LineString", "coordinates": [[50.68149362516388, 69.04177977512569], [50.6869322353225, 69.03841562097551]]}, "properties": {"source": "9668120", "target": "9478546"}}, {"type": "Feature", "geometry": {"type": "LineString", "coordinates": [[50.683006211101485, 69.04129327397374], [50.68143083790656, 69.0390534754994]]}, "properties": {"source": "808023", "target": "7162321"}}, {"type": "Feature", "geometry": {"type": "LineString", "coordinates": [[50.683006211101485, 69.04129327397374], [50.68554667722398, 69.0399491835131]]}, "properties": {"source": "808023", "target": "7683737"}}, {"type": "Feature", "geometry": {"type": "LineString", "coordinates": [[50.683006211101485, 69.04129327397374], [50.676528385816425, 69.03922173768868]]}, "properties": {"source": "808023", "target": "8523430"}}, {"type": "Feature", "geometry": {"type": "LineString", "coordinates": [[50.683006211101485, 69.04129327397374], [50.68488824638527, 69.03870006077045]]}, "properties": {"source": "808023", "target": "8957798"}}, {"type": "Feature", "geometry": {"type": "LineString", "coordinates": [[50.683006211101485, 69.04129327397374], [50.6862938350354, 69.04029335084621]]}, "properties": {"source": "808023", "target": "9638356"}}, {"type": "Feature", "geometry": {"type": "LineString", "coordinates": [[50.68303950051802, 69.03782276799552], [50.682398482324174, 69.03759650326194]]}, "properties": {"source": "31450692", "target": "9802297"}}, {"type": "Feature", "geometry": {"type": "LineString", "coordinates": [[50.68303950051802, 69.03782276799552], [50.684768943630615, 69.03910526547642]]}, "properties": {"source": "31450692", "target": "5833819"}}, {"type": "Feature", "geometry": {"type": "LineString", "coordinates": [[50.68303950051802, 69.03782276799552], [50.68620989342526, 69.04013083444414]]}, "properties": {"source": "31450692", "target": "7315174"}}, {"type": "Feature", "geometry": {"type": "LineString", "coordinates": [[50.68303950051802, 69.03782276799552], [50.68681899023531, 69.03800472019779]]}, "properties": {"source": "31450692", "target": "6719956"}}, {"type": "Feature", "geometry": {"type": "LineString", "coordinates": [[50.681432974768256, 69.03730100823392], [50.676528385816425, 69.03922173768868]]}, "properties": {"source": "9996376", "target": "8523430"}}, {"type": "Feature", "geometry": {"type": "LineString", "coordinates": [[50.69026055973865, 69.04060513419327], [50.68554667722398, 69.0399491835131]]}, "properties": {"source": "6491779", "target": "7683737"}}, {"type": "Feature", "geometry": {"type": "LineString", "coordinates": [[50.69026055973865, 69.04060513419327], [50.68906141093973, 69.03972346429023]]}, "properties": {"source": "6491779", "target": "6643977"}}, {"type": "Feature", "geometry": {"type": "LineString", "coordinates": [[50.69026055973865, 69.04060513419327], [50.68280117035442, 69.04060371171889]]}, "properties": {"source": "6491779", "target": "6038931"}}, {"type": "Feature", "geometry": {"type": "LineString", "coordinates": [[50.69026055973865, 69.04060513419327], [50.687997970869475, 69.04167889150222]]}, "properties": {"source": "6491779", "target": "5325372"}}, {"type": "Feature", "geometry": {"type": "LineString", "coordinates": [[50.687997970869475, 69.04167889150222], [50.68143083790656, 69.0390534754994]]}, "properties": {"source": "5325372", "target": "7162321"}}, {"type": "Feature", "geometry": {"type": "LineString", "coordinates": [[50.68303950051802, 69.03782276799552], [50.690297406624666, 69.03894652283918]]}, "properties": {"source": "31450692", "target": "497006"}}, {"type": "Feature", "geometry": {"type": "LineString", "coordinates": [[50.686980947654575, 69.03742621921299], [50.68313065785625, 69.0396105527976]]}, "properties": {"source": "8981380", "target": "9443592"}}, {"type": "Feature", "geometry": {"type": "LineString", "coordinates": [[50.686980947654575, 69.03742621921299], [50.683295189851435, 69.0378421204673]]}, "properties": {"source": "8981380", "target": "9588402"}}, {"type": "Feature", "geometry": {"type": "LineString", "coordinates": [[50.686980947654575, 69.03742621921299], [50.68168859670155, 69.0373320844621]]}, "properties": {"source": "8981380", "target": "9375951"}}, {"type": "Feature", "geometry": {"type": "LineString", "coordinates": [[50.68614361053912, 69.03793310444252], [50.67870979180185, 69.03988869922136]]}, "properties": {"source": "6989334", "target": "7748843"}}, {"type": "Feature", "geometry": {"type": "LineString", "coordinates": [[50.6862938350354, 69.04029335084621], [50.68488824638527, 69.03870006077045]]}, "properties": {"source": "9638356", "target": "8957798"}}, {"type": "Feature", "geometry": {"type": "LineString", "coordinates": [[50.6891600041225, 69.03829950434564], [50.68681899023531, 69.03800472019779]]}, "properties": {"source": "23014747", "target": "6719956"}}, {"type": "Feature", "geometry": {"type": "LineString", "coordinates": [[50.6891600041225, 69.03829950434564], [50.68087825391106, 69.0387915564655]]}, "properties": {"source": "23014747", "target": "25991108"}}, {"type": "Feature", "geometry": {"type": "LineString", "coordinates": [[50.6891600041225, 69.03829950434564], [50.68698473207013, 69.04144755424653]]}, "properties": {"source": "23014747", "target": "23848084"}}, {"type": "Feature", "geometry": {"type": "LineString", "coordinates": [[50.67783808286134, 69.03741090914951], [50.683295189851435, 69.0378421204673]]}, "properties": {"source": "9848562", "target": "9588402"}}, {"type": "Feature", "geometry": {"type": "LineString", "coordinates": [[50.686040731145624, 69.04245955533307], [50.68906141093973, 69.03972346429023]]}, "properties": {"source": "8146337", "target": "6643977"}}, {"type": "Feature", "geometry": {"type": "LineString", "coordinates": [[50.686040731145624, 69.04245955533307], [50.683006211101485, 69.04129327397374]]}, "properties": {"source": "8146337", "target": "808023"}}, {"type": "Feature", "geometry": {"type": "LineString", "coordinates": [[50.686040731145624, 69.04245955533307], [50.67808505156344, 69.04244907119627]]}, "properties": {"source": "8146337", "target": "11338739"}}, {"type": "Feature", "geometry": {"type": "LineString", "coordinates": [[50.686040731145624, 69.04245955533307], [50.68488824638527, 69.03870006077045]]}, "properties": {"source": "8146337", "target": "8957798"}}, {"type": "Feature", "geometry": {"type": "LineString", "coordinates": [[50.686040731145624, 69.04245955533307], [50.68718031533817, 69.03965150873731]]}, "properties": {"source": "8146337", "target": "9276237"}}, {"type": "Feature", "geometry": {"type": "LineString", "coordinates": [[50.686980947654575, 69.03742621921299], [50.6869322353225, 69.03841562097551]]}, "properties": {"source": "8981380", "target": "9478546"}}, {"type": "Feature", "geometry": {"type": "LineString", "coordinates": [[50.686980947654575, 69.03742621921299], [50.68180474489148, 69.0375324907383]]}, "properties": {"source": "8981380", "target": "931485"}}, {"type": "Feature", "geometry": {"type": "LineString", "coordinates": [[50.69073909688305, 69.03753144477156], [50.69158492064284, 69.03725166932901]]}, "properties": {"source": "23014673", "target": "17934450"}}, {"type": "Feature", "geometry": {"type": "LineString", "coordinates": [[50.69073909688305, 69.03753144477156], [50.67853339858607, 69.0387678381746]]}, "properties": {"source": "23014673", "target": "1064306"}}, {"type": "Feature", "geometry": {"type": "LineString", "coordinates": [[50.68602118394762, 69.0408034382177], [50.682398482324174, 69.03759650326194]]}, "properties": {"source": "16045105", "target": "9802297"}}, {"type": "Feature", "geometry": {"type": "LineString", "coordinates": [[50.68602118394762, 69.0408034382177], [50.688905759838036, 69.04033978551803]]}, "properties": {"source": "16045105", "target": "556083"}}, {"type": "Feature", "geometry": {"type": "LineString", "coordinates": [[50.68602118394762, 69.0408034382177], [50.68904904329611, 69.04055414958648]]}, "properties": {"source": "16045105", "target": "575211"}}, {"type": "Feature", "geometry": {"type": "LineString", "coordinates": [[50.68602118394762, 69.0408034382177], [50.684768943630615, 69.03910526547642]]}, "properties": {"source": "16045105", "target": "5833819"}}, {"type": "Feature", "geometry": {"type": "LineString", "coordinates": [[50.68602118394762, 69.0408034382177], [50.68620989342526, 69.04013083444414]]}, "properties": {"source": "16045105", "target": "7315174"}}, {"type": "Feature", "geometry": {"type": "LineString", "coordinates": [[50.68602118394762, 69.0408034382177], [50.69073909688305, 69.03753144477156]]}, "properties": {"source": "16045105", "target": "23014673"}}, {"type": "Feature", "geometry": {"type": "LineString", "coordinates": [[50.68602118394762, 69.0408034382177], [50.68280082023131, 69.04147862134485]]}, "properties": {"source": "16045105", "target": "2517285"}}, {"type": "Feature", "geometry": {"type": "LineString", "coordinates": [[50.68602118394762, 69.0408034382177], [50.68087825391106, 69.0387915564655]]}, "properties": {"source": "16045105", "target": "25991108"}}, {"type": "Feature", "geometry": {"type": "LineString", "coordinates": [[50.68602118394762, 69.0408034382177], [50.683388363903134, 69.04233038871658]]}, "properties": {"source": "16045105", "target": "13167063"}}, {"type": "Feature", "geometry": {"type": "LineString", "coordinates": [[50.68602118394762, 69.0408034382177], [50.67853339858607, 69.0387678381746]]}, "properties": {"source": "16045105", "target": "1064306"}}, {"type": "Feature", "geometry": {"type": "LineString", "coordinates": [[50.68602118394762, 69.0408034382177], [50.67871556628285, 69.04186861212989]]}, "properties": {"source": "16045105", "target": "15717339"}}, {"type": "Feature", "geometry": {"type": "LineString", "coordinates": [[50.68602118394762, 69.0408034382177], [50.68513179031797, 69.03778785613545]]}, "properties": {"source": "16045105", "target": "1017873"}}, {"type": "Feature", "geometry": {"type": "LineString", "coordinates": [[50.68602118394762, 69.0408034382177], [50.68496698776599, 69.03966164457722]]}, "properties": {"source": "16045105", "target": "1017537"}}, {"type": "Feature", "geometry": {"type": "LineString", "coordinates": [[50.68602118394762, 69.0408034382177], [50.690297406624666, 69.03894652283918]]}, "properties": {"source": "16045105", "target": "497006"}}, {"type": "Feature", "geometry": {"type": "LineString", "coordinates": [[50.687721519406466, 69.04129982804844], [50.68681899023531, 69.03800472019779]]}, "properties": {"source": "28220750", "target": "6719956"}}, {"type": "Feature", "geometry": {"type": "LineString", "coordinates": [[50.687721519406466, 69.04129982804844], [50.69073909688305, 69.03753144477156]]}, "properties": {"source": "28220750", "target": "23014673"}}, {"type": "Feature", "geometry": {"type": "LineString", "coordinates": [[50.687721519406466, 69.04129982804844], [50.68280082023131, 69.04147862134485]]}, "properties": {"source": "28220750", "target": "2517285"}}, {"type": "Feature", "geometry": {"type": "LineString", "coordinates": [[50.687721519406466, 69.04129982804844], [50.68087825391106, 69.0387915564655]]}, "properties": {"source": "28220750", "target": "25991108"}}, {"type": "Feature", "geometry": {"type": "LineString", "coordinates": [[50.687721519406466, 69.04129982804844], [50.68303950051802, 69.03782276799552]]}, "properties": {"source": "28220750", "target": "31450692"}}, {"type": "Feature", "geometry": {"type": "LineString", "coordinates": [[50.687721519406466, 69.04129982804844], [50.68698473207013, 69.04144755424653]]}, "properties": {"source": "28220750", "target": "23848084"}}, {"type": "Feature", "geometry": {"type": "LineString", "coordinates": [[50.687721519406466, 69.04129982804844], [50.6891600041225, 69.03829950434564]]}, "properties": {"source": "28220750", "target": "23014747"}}, {"type": "Feature", "geometry": {"type": "LineString", "coordinates": [[50.68325885438733, 69.03800593455526], [50.68143083790656, 69.0390534754994]]}, "properties": {"source": "7464845", "target": "7162321"}}, {"type": "Feature", "geometry": {"type": "LineString", "coordinates": [[50.68325885438733, 69.03800593455526], [50.686040731145624, 69.04245955533307]]}, "properties": {"source": "7464845", "target": "8146337"}}, {"type": "Feature", "geometry": {"type": "LineString", "coordinates": [[50.68325885438733, 69.03800593455526], [50.68878520394739, 69.03731547311756]]}, "properties": {"source": "7464845", "target": "8548013"}}, {"type": "Feature", "geometry": {"type": "LineString", "coordinates": [[50.68325885438733, 69.03800593455526], [50.68554667722398, 69.0399491835131]]}, "properties": {"source": "7464845", "target": "7683737"}}, {"type": "Feature", "geometry": {"type": "LineString", "coordinates": [[50.68325885438733, 69.03800593455526], [50.676528385816425, 69.03922173768868]]}, "properties": {"source": "7464845", "target": "8523430"}}, {"type": "Feature", "geometry": {"type": "LineString", "coordinates": [[50.68325885438733, 69.03800593455526], [50.69019609906033, 69.03791741572604]]}, "properties": {"source": "7464845", "target": "9026749"}}, {"type": "Feature", "geometry": {"type": "LineString", "coordinates": [[50.68325885438733, 69.03800593455526], [50.68906141093973, 69.03972346429023]]}, "properties": {"source": "7464845", "target": "6643977"}}, {"type": "Feature", "geometry": {"type": "LineString", "coordinates": [[50.68325885438733, 69.03800593455526], [50.683006211101485, 69.04129327397374]]}, "properties": {"source": "7464845", "target": "808023"}}, {"type": "Feature", "geometry": {"type": "LineString", "coordinates": [[50.68325885438733, 69.03800593455526], [50.67808505156344, 69.04244907119627]]}, "properties": {"source": "7464845", "target": "11338739"}}, {"type": "Feature", "geometry": {"type": "LineString", "coordinates": [[50.68602118394762, 69.0408034382177], [50.67680800249627, 69.03961179364137]]}, "properties": {"source": "16045105", "target": "16045061"}}, {"type": "Feature", "geometry": {"type": "LineString", "coordinates": [[50.68280082023131, 69.04147862134485], [50.682398482324174, 69.03759650326194]]}, "properties": {"source": "2517285", "target": "9802297"}}, {"type": "Feature", "geometry": {"type": "LineString", "coordinates": [[50.68280082023131, 69.04147862134485], [50.688905759838036, 69.04033978551803]]}, "properties": {"source": "2517285", "target": "556083"}}, {"type": "Feature", "geometry": {"type": "LineString", "coordinates": [[50.68280082023131, 69.04147862134485], [50.68904904329611, 69.04055414958648]]}, "properties": {"source": "2517285", "target": "575211"}}, {"type": "Feature", "geometry": {"type": "LineString", "coordinates": [[50.68280082023131, 69.04147862134485], [50.69028067419666, 69.03929924542393]]}, "properties": {"source": "2517285", "target": "8940272"}}, {"type": "Feature", "geometry": {"type": "LineString", "coordinates": [[50.68280082023131, 69.04147862134485], [50.684768943630615, 69.03910526547642]]}, "properties": {"source": "2517285", "target": "5833819"}}, {"type": "Feature", "geometry": {"type": "LineString", "coordinates": [[50.68280082023131, 69.04147862134485], [50.68620989342526, 69.04013083444414]]}, "properties": {"source": "2517285", "target": "7315174"}}, {"type": "Feature", "geometry": {"type": "LineString", "coordinates": [[50.68280082023131, 69.04147862134485], [50.68681899023531, 69.03800472019779]]}, "properties": {"source": "2517285", "target": "6719956"}}, {"type": "Feature", "geometry": {"type": "LineString", "coordinates": [[50.68280082023131, 69.04147862134485], [50.67871556628285, 69.04186861212989]]}, "properties": {"source": "2517285", "target": "15717339"}}, {"type": "Feature", "geometry": {"type": "LineString", "coordinates": [[50.68280082023131, 69.04147862134485], [50.67680800249627, 69.03961179364137]]}, "properties": {"source": "2517285", "target": "16045061"}}, {"type": "Feature", "geometry": {"type": "LineString", "coordinates": [[50.68280082023131, 69.04147862134485], [50.68698473207013, 69.04144755424653]]}, "properties": {"source": "2517285", "target": "23848084"}}, {"type": "Feature", "geometry": {"type": "LineString", "coordinates": [[50.68280082023131, 69.04147862134485], [50.677312684303644, 69.03846062596023]]}, "properties": {"source": "2517285", "target": "12208577"}}, {"type": "Feature", "geometry": {"type": "LineString", "coordinates": [[50.68280082023131, 69.04147862134485], [50.6891600041225, 69.03829950434564]]}, "properties": {"source": "2517285", "target": "23014747"}}, {"type": "Feature", "geometry": {"type": "LineString", "coordinates": [[50.69019609906033, 69.03791741572604], [50.682398482324174, 69.03759650326194]]}, "properties": {"source": "9026749", "target": "9802297"}}, {"type": "Feature", "geometry": {"type": "LineString", "coordinates": [[50.69019609906033, 69.03791741572604], [50.69028067419666, 69.03929924542393]]}, "properties": {"source": "9026749", "target": "8940272"}}, {"type": "Feature", "geometry": {"type": "LineString", "coordinates": [[50.68280082023131, 69.04147862134485], [50.690297406624666, 69.03894652283918]]}, "properties": {"source": "2517285", "target": "497006"}}, {"type": "Feature", "geometry": {"type": "LineString", "coordinates": [[50.691183202514765, 69.03982225861554], [50.683295189851435, 69.0378421204673]]}, "properties": {"source": "9275902", "target": "9588402"}}, {"type": "Feature", "geometry": {"type": "LineString", "coordinates": [[50.691183202514765, 69.03982225861554], [50.681432974768256, 69.03730100823392]]}, "properties": {"source": "9275902", "target": "9996376"}}, {"type": "Feature", "geometry": {"type": "LineString", "coordinates": [[50.691183202514765, 69.03982225861554], [50.688977401827856, 69.03744776696016]]}, "properties": {"source": "9275902", "target": "9900565"}}, {"type": "Feature", "geometry": {"type": "LineString", "coordinates": [[50.691183202514765, 69.03982225861554], [50.6875825050019, 69.04171966744812]]}, "properties": {"source": "9275902", "target": "8906359"}}, {"type": "Feature", "geometry": {"type": "LineString", "coordinates": [[50.683163572256404, 69.03921616141494], [50.683295189851435, 69.0378421204673]]}, "properties": {"source": "8542611", "target": "9588402"}}, {"type": "Feature", "geometry": {"type": "LineString", "coordinates": [[50.683163572256404, 69.03921616141494], [50.67901449278855, 69.03731100976898]]}, "properties": {"source": "8542611", "target": "8787184"}}, {"type": "Feature", "geometry": {"type": "LineString", "coordinates": [[50.683163572256404, 69.03921616141494], [50.688977401827856, 69.03744776696016]]}, "properties": {"source": "8542611", "target": "9900565"}}, {"type": "Feature", "geometry": {"type": "LineString", "coordinates": [[50.69026055973865, 69.04060513419327], [50.68143083790656, 69.0390534754994]]}, "properties": {"source": "6491779", "target": "7162321"}}, {"type": "Feature", "geometry": {"type": "LineString", "coordinates": [[50.69028067419666, 69.03929924542393], [50.682398482324174, 69.03759650326194]]}, "properties": {"source": "8940272", "target": "9802297"}}, {"type": "Feature", "geometry": {"type": "LineString", "coordinates": [[50.69028067419666, 69.03929924542393], [50.688905759838036, 69.04033978551803]]}, "properties": {"source": "8940272", "target": "556083"}}, {"type": "Feature", "geometry": {"type": "LineString", "coordinates": [[50.69028067419666, 69.03929924542393], [50.68904904329611, 69.04055414958648]]}, "properties": {"source": "8940272", "target": "575211"}}, {"type": "Feature", "geometry": {"type": "LineString", "coordinates": [[50.69028067419666, 69.03929924542393], [50.684768943630615, 69.03910526547642]]}, "properties": {"source": "8940272", "target": "5833819"}}, {"type": "Feature", "geometry": {"type": "LineString", "coordinates": [[50.691183202514765, 69.03982225861554], [50.6869322353225, 69.03841562097551]]}, "properties": {"source": "9275902", "target": "9478546"}}, {"type": "Feature", "geometry": {"type": "LineString", "coordinates": [[50.683163572256404, 69.03921616141494], [50.6869322353225, 69.03841562097551]]}, "properties": {"source": "8542611", "target": "9478546"}}, {"type": "Feature", "geometry": {"type": "LineString", "coordinates": [[50.69028067419666, 69.03929924542393], [50.690297406624666, 69.03894652283918]]}, "properties": {"source": "8940272", "target": "497006"}}, {"type": "Feature", "geometry": {"type": "LineString", "coordinates": [[50.691183202514765, 69.03982225861554], [50.68180474489148, 69.0375324907383]]}, "properties": {"source": "9275902", "target": "931485"}}, {"type": "Feature", "geometry": {"type": "LineString", "coordinates": [[50.67871358038505, 69.03836687034553], [50.68554667722398, 69.0399491835131]]}, "properties": {"source": "8271070", "target": "7683737"}}, {"type": "Feature", "geometry": {"type": "LineString", "coordinates": [[50.67871358038505, 69.03836687034553], [50.69019609906033, 69.03791741572604]]}, "properties": {"source": "8271070", "target": "9026749"}}, {"type": "Feature", "geometry": {"type": "LineString", "coordinates": [[50.67871358038505, 69.03836687034553], [50.68906141093973, 69.03972346429023]]}, "properties": {"source": "8271070", "target": "6643977"}}, {"type": "Feature", "geometry": {"type": "LineString", "coordinates": [[50.67871358038505, 69.03836687034553], [50.683006211101485, 69.04129327397374]]}, "properties": {"source": "8271070", "target": "808023"}}, {"type": "Feature", "geometry": {"type": "LineString", "coordinates": [[50.67871358038505, 69.03836687034553], [50.687117936941746, 69.04219891748758]]}, "properties": {"source": "8271070", "target": "12958728"}}, {"type": "Feature", "geometry": {"type": "LineString", "coordinates": [[50.68280117035442, 69.04060371171889], [50.68143083790656, 69.0390534754994]]}, "properties": {"source": "6038931", "target": "7162321"}}, {"type": "Feature", "geometry": {"type": "LineString", "coordinates": [[50.68280117035442, 69.04060371171889], [50.68554667722398, 69.0399491835131]]}, "properties": {"source": "6038931", "target": "7683737"}}, {"type": "Feature", "geometry": {"type": "LineString", "coordinates": [[50.68280117035442, 69.04060371171889], [50.68906141093973, 69.03972346429023]]}, "properties": {"source": "6038931", "target": "6643977"}}, {"type": "Feature", "geometry": {"type": "LineString", "coordinates": [[50.68280117035442, 69.04060371171889], [50.68271551011557, 69.04055756947199]]}, "properties": {"source": "6038931", "target": "6678903"}}, {"type": "Feature", "geometry": {"type": "LineString", "coordinates": [[50.67870979180185, 69.03988869922136], [50.676528385816425, 69.03922173768868]]}, "properties": {"source": "7748843", "target": "8523430"}}, {"type": "Feature", "geometry": {"type": "LineString", "coordinates": [[50.67870979180185, 69.03988869922136], [50.68168859670155, 69.0373320844621]]}, "properties": {"source": "7748843", "target": "9375951"}}, {"type": "Feature", "geometry": {"type": "LineString", "coordinates": [[50.69003388395822, 69.03751645659904], [50.68143083790656, 69.0390534754994]]}, "properties": {"source": "10221761", "target": "7162321"}}, {"type": "Feature", "geometry": {"type": "LineString", "coordinates": [[50.69003388395822, 69.03751645659904], [50.68878520394739, 69.03731547311756]]}, "properties": {"source": "10221761", "target": "8548013"}}, {"type": "Feature", "geometry": {"type": "LineString", "coordinates": [[50.69003388395822, 69.03751645659904], [50.68554667722398, 69.0399491835131]]}, "properties": {"source": "10221761", "target": "7683737"}}, {"type": "Feature", "geometry": {"type": "LineString", "coordinates": [[50.69003388395822, 69.03751645659904], [50.69019609906033, 69.03791741572604]]}, "properties": {"source": "10221761", "target": "9026749"}}, {"type": "Feature", "geometry": {"type": "LineString", "coordinates": [[50.69003388395822, 69.03751645659904], [50.68906141093973, 69.03972346429023]]}, "properties": {"source": "10221761", "target": "6643977"}}, {"type": "Feature", "geometry": {"type": "LineString", "coordinates": [[50.68513179031797, 69.03778785613545], [50.684768943630615, 69.03910526547642]]}, "properties": {"source": "1017873", "target": "5833819"}}, {"type": "Feature", "geometry": {"type": "LineString", "coordinates": [[50.68513179031797, 69.03778785613545], [50.683388363903134, 69.04233038871658]]}, "properties": {"source": "1017873", "target": "13167063"}}, {"type": "Feature", "geometry": {"type": "LineString", "coordinates": [[50.68513179031797, 69.03778785613545], [50.67853339858607, 69.0387678381746]]}, "properties": {"source": "1017873", "target": "1064306"}}, {"type": "Feature", "geometry": {"type": "LineString", "coordinates": [[50.68718031533817, 69.03965150873731], [50.69028067419666, 69.03929924542393]]}, "properties": {"source": "9276237", "target": "8940272"}}, {"type": "Feature", "geometry": {"type": "LineString", "coordinates": [[50.68718031533817, 69.03965150873731], [50.68143083790656, 69.0390534754994]]}, "properties": {"source": "9276237", "target": "7162321"}}, {"type": "Feature", "geometry": {"type": "LineString", "coordinates": [[50.68718031533817, 69.03965150873731], [50.68878520394739, 69.03731547311756]]}, "properties": {"source": "9276237", "target": "8548013"}}, {"type": "Feature", "geometry": {"type": "LineString", "coordinates": [[50.68718031533817, 69.03965150873731], [50.68554667722398, 69.0399491835131]]}, "properties": {"source": "9276237", "target": "7683737"}}, {"type": "Feature", "geometry": {"type": "LineString", "coordinates": [[50.68718031533817, 69.03965150873731], [50.683006211101485, 69.04129327397374]]}, "properties": {"source": "9276237", "target": "808023"}}, {"type": "Feature", "geometry": {"type": "LineString", "coordinates": [[50.68718031533817, 69.03965150873731], [50.68488824638527, 69.03870006077045]]}, "properties": {"source": "9276237", "target": "8957798"}}, {"type": "Feature", "geometry": {"type": "LineString", "coordinates": [[50.68718031533817, 69.03965150873731], [50.6862938350354, 69.04029335084621]]}, "properties": {"source": "9276237", "target": "9638356"}}, {"type": "Feature", "geometry": {"type": "LineString", "coordinates": [[50.68496698776599, 69.03966164457722], [50.682398482324174, 69.03759650326194]]}, "properties": {"source": "1017537", "target": "9802297"}}, {"type": "Feature", "geometry": {"type": "LineString", "coordinates": [[50.68496698776599, 69.03966164457722], [50.688905759838036, 69.04033978551803]]}, "properties": {"source": "1017537", "target": "556083"}}, {"type": "Feature", "geometry": {"type": "LineString", "coordinates": [[50.68496698776599, 69.03966164457722], [50.68904904329611, 69.04055414958648]]}, "properties": {"source": "1017537", "target": "575211"}}, {"type": "Feature", "geometry": {"type": "LineString", "coordinates": [[50.68496698776599, 69.03966164457722], [50.684768943630615, 69.03910526547642]]}, "properties": {"source": "1017537", "target": "5833819"}}, {"type": "Feature", "geometry": {"type": "LineString", "coordinates": [[50.68496698776599, 69.03966164457722], [50.68620989342526, 69.04013083444414]]}, "properties": {"source": "1017537", "target": "7315174"}}, {"type": "Feature", "geometry": {"type": "LineString", "coordinates": [[50.68496698776599, 69.03966164457722], [50.690297406624666, 69.03894652283918]]}, "properties": {"source": "1017537", "target": "497006"}}, {"type": "Feature", "geometry": {"type": "LineString", "coordinates": [[50.67916917854839, 69.04054522714011], [50.683295189851435, 69.0378421204673]]}, "properties": {"source": "8333121", "target": "9588402"}}, {"type": "Feature", "geometry": {"type": "LineString", "coordinates": [[50.67916917854839, 69.04054522714011], [50.67901449278855, 69.03731100976898]]}, "properties": {"source": "8333121", "target": "8787184"}}, {"type": "Feature", "geometry": {"type": "LineString", "coordinates": [[50.67916917854839, 69.04054522714011], [50.68168859670155, 69.0373320844621]]}, "properties": {"source": "8333121", "target": "9375951"}}, {"type": "Feature", "geometry": {"type": "LineString", "coordinates": [[50.67916917854839, 69.04054522714011], [50.68763372476403, 69.04096876270407]]}, "properties": {"source": "8333121", "target": "7942245"}}, {"type": "Feature", "geometry": {"type": "LineString", "coordinates": [[50.67916917854839, 69.04054522714011], [50.678471977662355, 69.04149168016494]]}, "properties": {"source": "8333121", "target": "8304945"}}, {"type": "Feature", "geometry": {"type": "LineString", "coordinates": [[50.67916917854839, 69.04054522714011], [50.67870979180185, 69.03988869922136]]}, "properties": {"source": "8333121", "target": "7748843"}}, {"type": "Feature", "geometry": {"type": "LineString", "coordinates": [[50.67916917854839, 69.04054522714011], [50.68614361053912, 69.03793310444252]]}, "properties": {"source": "8333121", "target": "6989334"}}, {"type": "Feature", "geometry": {"type": "LineString", "coordinates": [[50.67808505156344, 69.04244907119627], [50.68143083790656, 69.0390534754994]]}, "properties": {"source": "11338739", "target": "7162321"}}, {"type": "Feature", "geometry": {"type": "LineString", "coordinates": [[50.67808505156344, 69.04244907119627], [50.68878520394739, 69.03731547311756]]}, "properties": {"source": "11338739", "target": "8548013"}}, {"type": "Feature", "geometry": {"type": "LineString", "coordinates": [[50.67808505156344, 69.04244907119627], [50.68554667722398, 69.0399491835131]]}, "properties": {"source": "11338739", "target": "7683737"}}, {"type": "Feature", "geometry": {"type": "LineString", "coordinates": [[50.67808505156344, 69.04244907119627], [50.676528385816425, 69.03922173768868]]}, "properties": {"source": "11338739", "target": "8523430"}}, {"type": "Feature", "geometry": {"type": "LineString", "coordinates": [[50.67808505156344, 69.04244907119627], [50.69019609906033, 69.03791741572604]]}, "properties": {"source": "11338739", "target": "9026749"}}, {"type": "Feature", "geometry": {"type": "LineString", "coordinates": [[50.67808505156344, 69.04244907119627], [50.68906141093973, 69.03972346429023]]}, "properties": {"source": "11338739", "target": "6643977"}}, {"type": "Feature", "geometry": {"type": "LineString", "coordinates": [[50.67808505156344, 69.04244907119627], [50.68280117035442, 69.04060371171889]]}, "properties": {"source": "11338739", "target": "6038931"}}, {"type": "Feature", "geometry": {"type": "LineString", "coordinates": [[50.67808505156344, 69.04244907119627], [50.69003388395822, 69.03751645659904]]}, "properties": {"source": "11338739", "target": "10221761"}}, {"type": "Feature", "geometry": {"type": "LineString", "coordinates": [[50.67916917854839, 69.04054522714011], [50.68180474489148, 69.0375324907383]]}, "properties": {"source": "8333121", "target": "931485"}}, {"type": "Feature", "geometry": {"type": "LineString", "coordinates": [[50.681432974768256, 69.03730100823392], [50.68313065785625, 69.0396105527976]]}, "properties": {"source": "9996376", "target": "9443592"}}, {"type": "Feature", "geometry": {"type": "LineString", "coordinates": [[50.681432974768256, 69.03730100823392], [50.683295189851435, 69.0378421204673]]}, "properties": {"source": "9996376", "target": "9588402"}}, {"type": "Feature", "geometry": {"type": "LineString", "coordinates": [[50.681432974768256, 69.03730100823392], [50.67901449278855, 69.03731100976898]]}, "properties": {"source": "9996376", "target": "8787184"}}, {"type": "Feature", "geometry": {"type": "LineString", "coordinates": [[50.681432974768256, 69.03730100823392], [50.68168859670155, 69.0373320844621]]}, "properties": {"source": "9996376", "target": "9375951"}}, {"type": "Feature", "geometry": {"type": "LineString", "coordinates": [[50.681432974768256, 69.03730100823392], [50.688977401827856, 69.03744776696016]]}, "properties": {"source": "9996376", "target": "9900565"}}, {"type": "Feature", "geometry": {"type": "LineString", "coordinates": [[50.681432974768256, 69.03730100823392], [50.683163572256404, 69.03921616141494]]}, "properties": {"source": "9996376", "target": "8542611"}}, {"type": "Feature", "geometry": {"type": "LineString", "coordinates": [[50.681432974768256, 69.03730100823392], [50.67783808286134, 69.03741090914951]]}, "properties": {"source": "9996376", "target": "9848562"}}, {"type": "Feature", "geometry": {"type": "LineString", "coordinates": [[50.68168859670155, 69.0373320844621], [50.683295189851435, 69.0378421204673]]}, "properties": {"source": "9375951", "target": "9588402"}}, {"type": "Feature", "geometry": {"type": "LineString", "coordinates": [[50.69158492064284, 69.03725166932901], [50.682398482324174, 69.03759650326194]]}, "properties": {"source": "17934450", "target": "9802297"}}, {"type": "Feature", "geometry": {"type": "LineString", "coordinates": [[50.69158492064284, 69.03725166932901], [50.68681899023531, 69.03800472019779]]}, "properties": {"source": "17934450", "target": "6719956"}}, {"type": "Feature", "geometry": {"type": "LineString", "coordinates": [[50.67853339858607, 69.0387678381746], [50.682398482324174, 69.03759650326194]]}, "properties": {"source": "1064306", "target": "9802297"}}, {"type": "Feature", "geometry": {"type": "LineString", "coordinates": [[50.67916917854839, 69.04054522714011], [50.676528385816425, 69.03922173768868]]}, "properties": {"source": "8333121", "target": "8523430"}}, {"type": "Feature", "geometry": {"type": "LineString", "coordinates": [[50.67916917854839, 69.04054522714011], [50.68313065785625, 69.0396105527976]]}, "properties": {"source": "8333121", "target": "9443592"}}, {"type": "Feature", "geometry": {"type": "LineString", "coordinates": [[50.681432974768256, 69.03730100823392], [50.6869322353225, 69.03841562097551]]}, "properties": {"source": "9996376", "target": "9478546"}}, {"type": "Feature", "geometry": {"type": "LineString", "coordinates": [[50.67916917854839, 69.04054522714011], [50.6869322353225, 69.03841562097551]]}, "properties": {"source": "8333121", "target": "9478546"}}, {"type": "Feature", "geometry": {"type": "LineString", "coordinates": [[50.681432974768256, 69.03730100823392], [50.68180474489148, 69.0375324907383]]}, "properties": {"source": "9996376", "target": "931485"}}, {"type": "Feature", "geometry": {"type": "LineString", "coordinates": [[50.67808505156344, 69.04244907119627], [50.68496511464264, 69.03839294702428]]}, "properties": {"source": "11338739", "target": "1133397"}}, {"type": "Feature", "geometry": {"type": "LineString", "coordinates": [[50.68763372476403, 69.04096876270407], [50.676528385816425, 69.03922173768868]]}, "properties": {"source": "7942245", "target": "8523430"}}, {"type": "Feature", "geometry": {"type": "LineString", "coordinates": [[50.68763372476403, 69.04096876270407], [50.68313065785625, 69.0396105527976]]}, "properties": {"source": "7942245", "target": "9443592"}}, {"type": "Feature", "geometry": {"type": "LineString", "coordinates": [[50.68763372476403, 69.04096876270407], [50.67901449278855, 69.03731100976898]]}, "properties": {"source": "7942245", "target": "8787184"}}, {"type": "Feature", "geometry": {"type": "LineString", "coordinates": [[50.68763372476403, 69.04096876270407], [50.68168859670155, 69.0373320844621]]}, "properties": {"source": "7942245", "target": "9375951"}}, {"type": "Feature", "geometry": {"type": "LineString", "coordinates": [[50.68763372476403, 69.04096876270407], [50.678471977662355, 69.04149168016494]]}, "properties": {"source": "7942245", "target": "8304945"}}, {"type": "Feature", "geometry": {"type": "LineString", "coordinates": [[50.68763372476403, 69.04096876270407], [50.67870979180185, 69.03988869922136]]}, "properties": {"source": "7942245", "target": "7748843"}}, {"type": "Feature", "geometry": {"type": "LineString", "coordinates": [[50.68763372476403, 69.04096876270407], [50.68614361053912, 69.03793310444252]]}, "properties": {"source": "7942245", "target": "6989334"}}, {"type": "Feature", "geometry": {"type": "LineString", "coordinates": [[50.678471977662355, 69.04149168016494], [50.676528385816425, 69.03922173768868]]}, "properties": {"source": "8304945", "target": "8523430"}}, {"type": "Feature", "geometry": {"type": "LineString", "coordinates": [[50.678471977662355, 69.04149168016494], [50.68313065785625, 69.0396105527976]]}, "properties": {"source": "8304945", "target": "9443592"}}, {"type": "Feature", "geometry": {"type": "LineString", "coordinates": [[50.678471977662355, 69.04149168016494], [50.683295189851435, 69.0378421204673]]}, "properties": {"source": "8304945", "target": "9588402"}}, {"type": "Feature", "geometry": {"type": "LineString", "coordinates": [[50.678471977662355, 69.04149168016494], [50.67901449278855, 69.03731100976898]]}, "properties": {"source": "8304945", "target": "8787184"}}, {"type": "Feature", "geometry": {"type": "LineString", "coordinates": [[50.68763372476403, 69.04096876270407], [50.6869322353225, 69.03841562097551]]}, "properties": {"source": "7942245", "target": "9478546"}}, {"type": "Feature", "geometry": {"type": "LineString", "coordinates": [[50.678471977662355, 69.04149168016494], [50.6869322353225, 69.03841562097551]]}, "properties": {"source": "8304945", "target": "9478546"}}, {"type": "Feature", "geometry": {"type": "LineString", "coordinates": [[50.68763372476403, 69.04096876270407], [50.68180474489148, 69.0375324907383]]}, "properties": {"source": "7942245", "target": "931485"}}, {"type": "Feature", "geometry": {"type": "LineString", "coordinates": [[50.678471977662355, 69.04149168016494], [50.68180474489148, 69.0375324907383]]}, "properties": {"source": "8304945", "target": "931485"}}]}