{"type": "FeatureCollection", "features": [{"type": "Feature", "geometry": {"type": "LineString", "coordinates": [[21.152657898931807, 69.04041261496369], [21.156662163206903, 69.04119731251754]]}, "properties": {"source": "20580844", "target": "30351557"}}, {"type": "Feature", "geometry": {"type": "LineString", "coordinates": [[21.152657898931807, 69.04041261496369], [21.157092241773853, 69.04220556478066]]}, "properties": {"source": "20580844", "target": "27258988"}}, {"type": "Feature", "geometry": {"type": "LineString", "coordinates": [[21.152657898931807, 69.04041261496369], [21.14839418878381, 69.03748642652684]]}, "properties": {"source": "20580844", "target": "27311262"}}, {"type": "Feature", "geometry": {"type": "LineString", "coordinates": [[21.152657898931807, 69.04041261496369], [21.154676704849862, 69.03897102971774]]}, "properties": {"source": "20580844", "target": "18107664"}}, {"type": "Feature", "geometry": {"type": "LineString", "coordinates": [[21.14839418878381, 69.03748642652684], [21.153936291720925, 69.04215893872913]]}, "properties": {"source": "27311262", "target": "24340145"}}, {"type": "Feature", "geometry": {"type": "LineString", "coordinates": [[21.14839418878381, 69.03748642652684], [21.156662163206903, 69.04119731251754]]}, "properties": {"source": "27311262", "target": "30351557"}}, {"type": "Feature", "geometry": {"type": "LineString", "coordinates": [[21.14839418878381, 69.03748642652684], [21.157092241773853, 69.04220556478066]]}, "properties": {"source": "27311262", "target": "27258988"}}, {"type": "Feature", "geometry": {"type": "LineString", "coordinates": [[21.14839418878381, 69.03748642652684], [21.163571751002394, 69.03846549304433]]}, "properties": {"source": "27311262", "target": "25222671"}}, {"type": "Feature", "geometry": {"type": "LineString", "coordinates": [[21.16033489339972, 69.04244800280233], [21.149759923433948, 69.0409736528201]]}, "properties": {"source": "24234255", "target": "24965435"}}, {"type": "Feature", "geometry": {"type": "LineString", "coordinates": [[21.16033489339972, 69.04244800280233], [21.153936291720925, 69.04215893872913]]}, "properties": {"source": "24234255", "target": "24340145"}}, {"type": "Feature", "geometry": {"type": "LineString", "coordinates": [[21.16033489339972, 69.04244800280233], [21.152930245137497, 69.03980311861784]]}, "properties": {"source": "24234255", "target": "24340148"}}, {"type": "Feature", "geometry": {"type": "LineString", "coordinates": [[21.16033489339972, 69.04244800280233], [21.150512609352205, 69.0378470487882]]}, "properties": {"source": "24234255", "target": "23258958"}}, {"type": "Feature", "geometry": {"type": "LineString", "coordinates": [[21.15913913693072, 69.03811203180041], [21.163571751002394, 69.03846549304433]]}, "properties": {"source": "30225224", "target": "25222671"}}, {"type": "Feature", "geometry": {"type": "LineString", "coordinates": [[21.15913913693072, 69.03811203180041], [21.154676704849862, 69.03897102971774]]}, "properties": {"source": "30225224", "target": "18107664"}}, {"type": "Feature", "geometry": {"type": "LineString", "coordinates": [[21.15913913693072, 69.03811203180041], [21.15034746463047, 69.04048817789607]]}, "properties": {"source": "30225224", "target": "6634098"}}, {"type": "Feature", "geometry": {"type": "LineString", "coordinates": [[21.15913913693072, 69.03811203180041], [21.160408315475195, 69.0424752258719]]}, "properties": {"source": "30225224", "target": "25588238"}}, {"type": "Feature", "geometry": {"type": "LineString", "coordinates": [[21.150987830292166, 69.04013173443386], [21.15546867704967, 69.03802733526462]]}, "properties": {"source": "13689847", "target": "273467"}}, {"type": "Feature", "geometry": {"type": "LineString", "coordinates": [[21.150987830292166, 69.04013173443386], [21.15321283914082, 69.03984395328928]]}, "properties": {"source": "13689847", "target": "23204346"}}, {"type": "Feature", "geometry": {"type": "LineString", "coordinates": [[21.150987830292166, 69.04013173443386], [21.153965616377548, 69.0375495290763]]}, "properties": {"source": "13689847", "target": "23274987"}}, {"type": "Feature", "geometry": {"type": "LineString", "coordinates": [[21.150987830292166, 69.04013173443386], [21.155393672696903, 69.0397029533816]]}, "properties": {"source": "13689847", "target": "16241473"}}, {"type": "Feature", "geometry": {"type": "LineString", "coordinates": [[21.150987830292166, 69.04013173443386], [21.150884931082743, 69.04241988701185]]}, "properties": {"source": "13689847", "target": "1107018"}}, {"type": "Feature", "geometry": {"type": "LineString", "coordinates": [[21.150987830292166, 69.04013173443386], [21.15463345881068, 69.04009162308708]]}, "properties": {"source": "13689847", "target": "7359699"}}, {"type": "Feature", "geometry": {"type": "LineString", "coordinates": [[21.150987830292166, 69.04013173443386], [21.14903419987769, 69.03969890012996]]}, "properties": {"source": "13689847", "target": "28180573"}}, {"type": "Feature", "geometry": {"type": "LineString", "coordinates": [[21.150987830292166, 69.04013173443386], [21.14826301424594, 69.04162483830112]]}, "properties": {"source": "13689847", "target": "1107017"}}, {"type": "Feature", "geometry": {"type": "LineString", "coordinates": [[21.150936920555722, 69.04061816670378], [21.150884931082743, 69.04241988701185]]}, "properties": {"source": "1516076", "target": "1107018"}}, {"type": "Feature", "geometry": {"type": "LineString", "coordinates": [[21.150936920555722, 69.04061816670378], [21.15463345881068, 69.04009162308708]]}, "properties": {"source": "1516076", "target": "7359699"}}, {"type": "Feature", "geometry": {"type": "LineString", "coordinates": [[21.150936920555722, 69.04061816670378], [21.14826301424594, 69.04162483830112]]}, "properties": {"source": "1516076", "target": "1107017"}}, {"type": "Feature", "geometry": {"type": "LineString", "coordinates": [[21.163571751002394, 69.03846549304433], [21.156662163206903, 69.04119731251754]]}, "properties": {"source": "25222671", "target": "30351557"}}, {"type": "Feature", "geometry": {"type": "LineString", "coordinates": [[21.14959628517829, 69.04174376910902], [21.149759923433948, 69.0409736528201]]}, "properties": {"source": "15839862", "target": "24965435"}}, {"type": "Feature", "geometry": {"type": "LineString", "coordinates": [[21.14959628517829, 69.04174376910902], [21.15321283914082, 69.03984395328928]]}, "properties": {"source": "15839862", "target": "23204346"}}, {"type": "Feature", "geometry": {"type": "LineString", "coordinates": [[21.14959628517829, 69.04174376910902], [21.153965616377548, 69.0375495290763]]}, "properties": {"source": "15839862", "target": "23274987"}}, {"type": "Feature", "geometry": {"type": "LineString", "coordinates": [[21.14959628517829, 69.04174376910902], [21.14998924175248, 69.04243024294178]]}, "properties": {"source": "15839862", "target": "100756"}}, {"type": "Feature", "geometry": {"type": "LineString", "coordinates": [[21.14959628517829, 69.04174376910902], [21.159250094357418, 69.0420795704726]]}, "properties": {"source": "15839862", "target": "17669440"}}, {"type": "Feature", "geometry": {"type": "LineString", "coordinates": [[21.154676704849862, 69.03897102971774], [21.156662163206903, 69.04119731251754]]}, "properties": {"source": "18107664", "target": "30351557"}}, {"type": "Feature", "geometry": {"type": "LineString", "coordinates": [[21.149534502003576, 69.04095164205069], [21.160032454695937, 69.04021039909813]]}, "properties": {"source": "22838091", "target": "24238657"}}, {"type": "Feature", "geometry": {"type": "LineString", "coordinates": [[21.149534502003576, 69.04095164205069], [21.161901322141944, 69.03864637488775]]}, "properties": {"source": "22838091", "target": "19272983"}}, {"type": "Feature", "geometry": {"type": "LineString", "coordinates": [[21.148375249127383, 69.04160701116754], [21.16174381614246, 69.03816553271184]]}, "properties": {"source": "12933792", "target": "25446882"}}, {"type": "Feature", "geometry": {"type": "LineString", "coordinates": [[21.148375249127383, 69.04160701116754], [21.161901322141944, 69.03864637488775]]}, "properties": {"source": "12933792", "target": "19272983"}}, {"type": "Feature", "geometry": {"type": "LineString", "coordinates": [[21.160586568649023, 69.03751251475737], [21.16174381614246, 69.03816553271184]]}, "properties": {"source": "24500978", "target": "25446882"}}, {"type": "Feature", "geometry": {"type": "LineString", "coordinates": [[21.160586568649023, 69.03751251475737], [21.153836202869, 69.0410687597469]]}, "properties": {"source": "24500978", "target": "25254481"}}, {"type": "Feature", "geometry": {"type": "LineString", "coordinates": [[21.149759923433948, 69.0409736528201], [21.160032454695937, 69.04021039909813]]}, "properties": {"source": "24965435", "target": "24238657"}}, {"type": "Feature", "geometry": {"type": "LineString", "coordinates": [[21.15546867704967, 69.03802733526462], [21.149759923433948, 69.0409736528201]]}, "properties": {"source": "273467", "target": "24965435"}}, {"type": "Feature", "geometry": {"type": "LineString", "coordinates": [[21.15546867704967, 69.03802733526462], [21.155393672696903, 69.0397029533816]]}, "properties": {"source": "273467", "target": "16241473"}}, {"type": "Feature", "geometry": {"type": "LineString", "coordinates": [[21.15546867704967, 69.03802733526462], [21.15463345881068, 69.04009162308708]]}, "properties": {"source": "273467", "target": "7359699"}}, {"type": "Feature", "geometry": {"type": "LineString", "coordinates": [[21.14998924175248, 69.04243024294178], [21.15546867704967, 69.03802733526462]]}, "properties": {"source": "100756", "target": "273467"}}, {"type": "Feature", "geometry": {"type": "LineString", "coordinates": [[21.14998924175248, 69.04243024294178], [21.150987830292166, 69.04013173443386]]}, "properties": {"source": "100756", "target": "13689847"}}, {"type": "Feature", "geometry": {"type": "LineString", "coordinates": [[21.14998924175248, 69.04243024294178], [21.15321283914082, 69.03984395328928]]}, "properties": {"source": "100756", "target": "23204346"}}, {"type": "Feature", "geometry": {"type": "LineString", "coordinates": [[21.14998924175248, 69.04243024294178], [21.153965616377548, 69.0375495290763]]}, "properties": {"source": "100756", "target": "23274987"}}, {"type": "Feature", "geometry": {"type": "LineString", "coordinates": [[21.14998924175248, 69.04243024294178], [21.154657471965294, 69.03805280497846]]}, "properties": {"source": "100756", "target": "345931"}}, {"type": "Feature", "geometry": {"type": "LineString", "coordinates": [[21.14998924175248, 69.04243024294178], [21.159250094357418, 69.0420795704726]]}, "properties": {"source": "100756", "target": "17669440"}}, {"type": "Feature", "geometry": {"type": "LineString", "coordinates": [[21.153836202869, 69.0410687597469], [21.149759923433948, 69.0409736528201]]}, "properties": {"source": "25254481", "target": "24965435"}}, {"type": "Feature", "geometry": {"type": "LineString", "coordinates": [[21.153836202869, 69.0410687597469], [21.151733513226617, 69.03806538323082]]}, "properties": {"source": "25254481", "target": "25640677"}}, {"type": "Feature", "geometry": {"type": "LineString", "coordinates": [[21.153836202869, 69.0410687597469], [21.160032454695937, 69.04021039909813]]}, "properties": {"source": "25254481", "target": "24238657"}}, {"type": "Feature", "geometry": {"type": "LineString", "coordinates": [[21.159020642572415, 69.04221519489548], [21.155354762538593, 69.03722110983995]]}, "properties": {"source": "12855203", "target": "23660893"}}, {"type": "Feature", "geometry": {"type": "LineString", "coordinates": [[21.159020642572415, 69.04221519489548], [21.150774622203528, 69.03946583496696]]}, "properties": {"source": "12855203", "target": "13608611"}}, {"type": "Feature", "geometry": {"type": "LineString", "coordinates": [[21.159020642572415, 69.04221519489548], [21.158455926338064, 69.04106956285949]]}, "properties": {"source": "12855203", "target": "123997"}}, {"type": "Feature", "geometry": {"type": "LineString", "coordinates": [[21.15913913693072, 69.03811203180041], [21.156662163206903, 69.04119731251754]]}, "properties": {"source": "30225224", "target": "30351557"}}, {"type": "Feature", "geometry": {"type": "LineString", "coordinates": [[21.15913913693072, 69.03811203180041], [21.157092241773853, 69.04220556478066]]}, "properties": {"source": "30225224", "target": "27258988"}}, {"type": "Feature", "geometry": {"type": "LineString", "coordinates": [[21.15913913693072, 69.03811203180041], [21.152657898931807, 69.04041261496369]]}, "properties": {"source": "30225224", "target": "20580844"}}, {"type": "Feature", "geometry": {"type": "LineString", "coordinates": [[21.15913913693072, 69.03811203180041], [21.14839418878381, 69.03748642652684]]}, "properties": {"source": "30225224", "target": "27311262"}}, {"type": "Feature", "geometry": {"type": "LineString", "coordinates": [[21.151702401227595, 69.04133024608834], [21.155465797586203, 69.04248794756256]]}, "properties": {"source": "20749902", "target": "35344024"}}, {"type": "Feature", "geometry": {"type": "LineString", "coordinates": [[21.151702401227595, 69.04133024608834], [21.15489135157725, 69.03726708385491]]}, "properties": {"source": "20749902", "target": "25449257"}}, {"type": "Feature", "geometry": {"type": "LineString", "coordinates": [[21.16378886556589, 69.04215656238424], [21.149759923433948, 69.0409736528201]]}, "properties": {"source": "23736107", "target": "24965435"}}, {"type": "Feature", "geometry": {"type": "LineString", "coordinates": [[21.16378886556589, 69.04215656238424], [21.153936291720925, 69.04215893872913]]}, "properties": {"source": "23736107", "target": "24340145"}}, {"type": "Feature", "geometry": {"type": "LineString", "coordinates": [[21.16378886556589, 69.04215656238424], [21.16033489339972, 69.04244800280233]]}, "properties": {"source": "23736107", "target": "24234255"}}, {"type": "Feature", "geometry": {"type": "LineString", "coordinates": [[21.16378886556589, 69.04215656238424], [21.152930245137497, 69.03980311861784]]}, "properties": {"source": "23736107", "target": "24340148"}}, {"type": "Feature", "geometry": {"type": "LineString", "coordinates": [[21.16378886556589, 69.04215656238424], [21.15953030777669, 69.03779250711247]]}, "properties": {"source": "23736107", "target": "23258953"}}, {"type": "Feature", "geometry": {"type": "LineString", "coordinates": [[21.16378886556589, 69.04215656238424], [21.148745903851847, 69.04021359040826]]}, "properties": {"source": "23736107", "target": "24116739"}}, {"type": "Feature", "geometry": {"type": "LineString", "coordinates": [[21.148745903851847, 69.04021359040826], [21.149759923433948, 69.0409736528201]]}, "properties": {"source": "24116739", "target": "24965435"}}, {"type": "Feature", "geometry": {"type": "LineString", "coordinates": [[21.148745903851847, 69.04021359040826], [21.153936291720925, 69.04215893872913]]}, "properties": {"source": "24116739", "target": "24340145"}}, {"type": "Feature", "geometry": {"type": "LineString", "coordinates": [[21.148745903851847, 69.04021359040826], [21.16033489339972, 69.04244800280233]]}, "properties": {"source": "24116739", "target": "24234255"}}, {"type": "Feature", "geometry": {"type": "LineString", "coordinates": [[21.148745903851847, 69.04021359040826], [21.152930245137497, 69.03980311861784]]}, "properties": {"source": "24116739", "target": "24340148"}}, {"type": "Feature", "geometry": {"type": "LineString", "coordinates": [[21.148745903851847, 69.04021359040826], [21.15953030777669, 69.03779250711247]]}, "properties": {"source": "24116739", "target": "23258953"}}, {"type": "Feature", "geometry": {"type": "LineString", "coordinates": [[21.150936920555722, 69.04061816670378], [21.15546867704967, 69.03802733526462]]}, "properties": {"source": "1516076", "target": "273467"}}, {"type": "Feature", "geometry": {"type": "LineString", "coordinates": [[21.150936920555722, 69.04061816670378], [21.150987830292166, 69.04013173443386]]}, "properties": {"source": "1516076", "target": "13689847"}}, {"type": "Feature", "geometry": {"type": "LineString", "coordinates": [[21.150936920555722, 69.04061816670378], [21.155393672696903, 69.0397029533816]]}, "properties": {"source": "1516076", "target": "16241473"}}, {"type": "Feature", "geometry": {"type": "LineString", "coordinates": [[21.15546867704967, 69.03802733526462], [21.14903419987769, 69.03969890012996]]}, "properties": {"source": "273467", "target": "28180573"}}, {"type": "Feature", "geometry": {"type": "LineString", "coordinates": [[21.15546867704967, 69.03802733526462], [21.154657471965294, 69.03805280497846]]}, "properties": {"source": "273467", "target": "345931"}}, {"type": "Feature", "geometry": {"type": "LineString", "coordinates": [[21.15546867704967, 69.03802733526462], [21.14826301424594, 69.04162483830112]]}, "properties": {"source": "273467", "target": "1107017"}}, {"type": "Feature", "geometry": {"type": "LineString", "coordinates": [[21.15546867704967, 69.03802733526462], [21.15793564120034, 69.04118064021324]]}, "properties": {"source": "273467", "target": "453636"}}, {"type": "Feature", "geometry": {"type": "LineString", "coordinates": [[21.153936291720925, 69.04215893872913], [21.156662163206903, 69.04119731251754]]}, "properties": {"source": "24340145", "target": "30351557"}}, {"type": "Feature", "geometry": {"type": "LineString", "coordinates": [[21.16174381614246, 69.03816553271184], [21.149759923433948, 69.0409736528201]]}, "properties": {"source": "25446882", "target": "24965435"}}, {"type": "Feature", "geometry": {"type": "LineString", "coordinates": [[21.16174381614246, 69.03816553271184], [21.151733513226617, 69.03806538323082]]}, "properties": {"source": "25446882", "target": "25640677"}}, {"type": "Feature", "geometry": {"type": "LineString", "coordinates": [[21.16174381614246, 69.03816553271184], [21.153836202869, 69.0410687597469]]}, "properties": {"source": "25446882", "target": "25254481"}}, {"type": "Feature", "geometry": {"type": "LineString", "coordinates": [[21.16174381614246, 69.03816553271184], [21.160032454695937, 69.04021039909813]]}, "properties": {"source": "25446882", "target": "24238657"}}, {"type": "Feature", "geometry": {"type": "LineString", "coordinates": [[21.16174381614246, 69.03816553271184], [21.15549532234877, 69.04151256857858]]}, "properties": {"source": "25446882", "target": "25319577"}}, {"type": "Feature", "geometry": {"type": "LineString", "coordinates": [[21.16174381614246, 69.03816553271184], [21.152580845883875, 69.03882317913096]]}, "properties": {"source": "25446882", "target": "25360086"}}, {"type": "Feature", "geometry": {"type": "LineString", "coordinates": [[21.15913913693072, 69.03811203180041], [21.153936291720925, 69.04215893872913]]}, "properties": {"source": "30225224", "target": "24340145"}}, {"type": "Feature", "geometry": {"type": "LineString", "coordinates": [[21.159020642572415, 69.04221519489548], [21.159497730489676, 69.03861796785924]]}, "properties": {"source": "12855203", "target": "47289"}}, {"type": "Feature", "geometry": {"type": "LineString", "coordinates": [[21.159020642572415, 69.04221519489548], [21.159621627108322, 69.03805931642978]]}, "properties": {"source": "12855203", "target": "6149403"}}, {"type": "Feature", "geometry": {"type": "LineString", "coordinates": [[21.152657898931807, 69.04041261496369], [21.153936291720925, 69.04215893872913]]}, "properties": {"source": "20580844", "target": "24340145"}}, {"type": "Feature", "geometry": {"type": "LineString", "coordinates": [[21.159020642572415, 69.04221519489548], [21.159858871639415, 69.03951933577824]]}, "properties": {"source": "12855203", "target": "12330171"}}, {"type": "Feature", "geometry": {"type": "LineString", "coordinates": [[21.153965616377548, 69.0375495290763], [21.15546867704967, 69.03802733526462]]}, "properties": {"source": "23274987", "target": "273467"}}, {"type": "Feature", "geometry": {"type": "LineString", "coordinates": [[21.153965616377548, 69.0375495290763], [21.14903419987769, 69.03969890012996]]}, "properties": {"source": "23274987", "target": "28180573"}}, {"type": "Feature", "geometry": {"type": "LineString", "coordinates": [[21.153965616377548, 69.0375495290763], [21.154657471965294, 69.03805280497846]]}, "properties": {"source": "23274987", "target": "345931"}}, {"type": "Feature", "geometry": {"type": "LineString", "coordinates": [[21.153965616377548, 69.0375495290763], [21.159250094357418, 69.0420795704726]]}, "properties": {"source": "23274987", "target": "17669440"}}, {"type": "Feature", "geometry": {"type": "LineString", "coordinates": [[21.151733513226617, 69.03806538323082], [21.149759923433948, 69.0409736528201]]}, "properties": {"source": "25640677", "target": "24965435"}}, {"type": "Feature", "geometry": {"type": "LineString", "coordinates": [[21.151733513226617, 69.03806538323082], [21.15549532234877, 69.04151256857858]]}, "properties": {"source": "25640677", "target": "25319577"}}, {"type": "Feature", "geometry": {"type": "LineString", "coordinates": [[21.151733513226617, 69.03806538323082], [21.156724494487207, 69.04237991169904]]}, "properties": {"source": "25640677", "target": "24435982"}}, {"type": "Feature", "geometry": {"type": "LineString", "coordinates": [[21.155354762538593, 69.03722110983995], [21.150774622203528, 69.03946583496696]]}, "properties": {"source": "23660893", "target": "13608611"}}, {"type": "Feature", "geometry": {"type": "LineString", "coordinates": [[21.155354762538593, 69.03722110983995], [21.154657471965294, 69.03805280497846]]}, "properties": {"source": "23660893", "target": "345931"}}, {"type": "Feature", "geometry": {"type": "LineString", "coordinates": [[21.155354762538593, 69.03722110983995], [21.16399535817095, 69.0399142674188]]}, "properties": {"source": "23660893", "target": "12247405"}}, {"type": "Feature", "geometry": {"type": "LineString", "coordinates": [[21.155354762538593, 69.03722110983995], [21.16335531405184, 69.03783860137102]]}, "properties": {"source": "23660893", "target": "6262503"}}, {"type": "Feature", "geometry": {"type": "LineString", "coordinates": [[21.155354762538593, 69.03722110983995], [21.15914921636795, 69.04022911992334]]}, "properties": {"source": "23660893", "target": "2718795"}}, {"type": "Feature", "geometry": {"type": "LineString", "coordinates": [[21.157092241773853, 69.04220556478066], [21.153936291720925, 69.04215893872913]]}, "properties": {"source": "27258988", "target": "24340145"}}, {"type": "Feature", "geometry": {"type": "LineString", "coordinates": [[21.157092241773853, 69.04220556478066], [21.156662163206903, 69.04119731251754]]}, "properties": {"source": "27258988", "target": "30351557"}}, {"type": "Feature", "geometry": {"type": "LineString", "coordinates": [[21.157092241773853, 69.04220556478066], [21.163571751002394, 69.03846549304433]]}, "properties": {"source": "27258988", "target": "25222671"}}, {"type": "Feature", "geometry": {"type": "LineString", "coordinates": [[21.14998924175248, 69.04243024294178], [21.149759923433948, 69.0409736528201]]}, "properties": {"source": "100756", "target": "24965435"}}, {"type": "Feature", "geometry": {"type": "LineString", "coordinates": [[21.150884931082743, 69.04241988701185], [21.15546867704967, 69.03802733526462]]}, "properties": {"source": "1107018", "target": "273467"}}, {"type": "Feature", "geometry": {"type": "LineString", "coordinates": [[21.150884931082743, 69.04241988701185], [21.155393672696903, 69.0397029533816]]}, "properties": {"source": "1107018", "target": "16241473"}}, {"type": "Feature", "geometry": {"type": "LineString", "coordinates": [[21.150884931082743, 69.04241988701185], [21.15463345881068, 69.04009162308708]]}, "properties": {"source": "1107018", "target": "7359699"}}, {"type": "Feature", "geometry": {"type": "LineString", "coordinates": [[21.150884931082743, 69.04241988701185], [21.14826301424594, 69.04162483830112]]}, "properties": {"source": "1107018", "target": "1107017"}}, {"type": "Feature", "geometry": {"type": "LineString", "coordinates": [[21.150884931082743, 69.04241988701185], [21.15793564120034, 69.04118064021324]]}, "properties": {"source": "1107018", "target": "453636"}}, {"type": "Feature", "geometry": {"type": "LineString", "coordinates": [[21.15953030777669, 69.03779250711247], [21.149759923433948, 69.0409736528201]]}, "properties": {"source": "23258953", "target": "24965435"}}, {"type": "Feature", "geometry": {"type": "LineString", "coordinates": [[21.15953030777669, 69.03779250711247], [21.153936291720925, 69.04215893872913]]}, "properties": {"source": "23258953", "target": "24340145"}}, {"type": "Feature", "geometry": {"type": "LineString", "coordinates": [[21.15953030777669, 69.03779250711247], [21.16033489339972, 69.04244800280233]]}, "properties": {"source": "23258953", "target": "24234255"}}, {"type": "Feature", "geometry": {"type": "LineString", "coordinates": [[21.15953030777669, 69.03779250711247], [21.152930245137497, 69.03980311861784]]}, "properties": {"source": "23258953", "target": "24340148"}}, {"type": "Feature", "geometry": {"type": "LineString", "coordinates": [[21.15953030777669, 69.03779250711247], [21.150512609352205, 69.0378470487882]]}, "properties": {"source": "23258953", "target": "23258958"}}, {"type": "Feature", "geometry": {"type": "LineString", "coordinates": [[21.15463345881068, 69.04009162308708], [21.14903419987769, 69.03969890012996]]}, "properties": {"source": "7359699", "target": "28180573"}}, {"type": "Feature", "geometry": {"type": "LineString", "coordinates": [[21.15463345881068, 69.04009162308708], [21.14826301424594, 69.04162483830112]]}, "properties": {"source": "7359699", "target": "1107017"}}, {"type": "Feature", "geometry": {"type": "LineString", "coordinates": [[21.14903419987769, 69.03969890012996], [21.15793564120034, 69.04118064021324]]}, "properties": {"source": "28180573", "target": "453636"}}, {"type": "Feature", "geometry": {"type": "LineString", "coordinates": [[21.151702401227595, 69.04133024608834], [21.151733513226617, 69.03806538323082]]}, "properties": {"source": "20749902", "target": "25640677"}}, {"type": "Feature", "geometry": {"type": "LineString", "coordinates": [[21.151702401227595, 69.04133024608834], [21.1518010037222, 69.03899937391509]]}, "properties": {"source": "20749902", "target": "17702223"}}, {"type": "Feature", "geometry": {"type": "LineString", "coordinates": [[21.151702401227595, 69.04133024608834], [21.156724494487207, 69.04237991169904]]}, "properties": {"source": "20749902", "target": "24435982"}}, {"type": "Feature", "geometry": {"type": "LineString", "coordinates": [[21.155557360396045, 69.03976591655666], [21.15549532234877, 69.04151256857858]]}, "properties": {"source": "25445722", "target": "25319577"}}, {"type": "Feature", "geometry": {"type": "LineString", "coordinates": [[21.155557360396045, 69.03976591655666], [21.152580845883875, 69.03882317913096]]}, "properties": {"source": "25445722", "target": "25360086"}}, {"type": "Feature", "geometry": {"type": "LineString", "coordinates": [[21.157366699130222, 69.04101238213374], [21.153936291720925, 69.04215893872913]]}, "properties": {"source": "34993370", "target": "24340145"}}, {"type": "Feature", "geometry": {"type": "LineString", "coordinates": [[21.157366699130222, 69.04101238213374], [21.15913913693072, 69.03811203180041]]}, "properties": {"source": "34993370", "target": "30225224"}}, {"type": "Feature", "geometry": {"type": "LineString", "coordinates": [[21.157366699130222, 69.04101238213374], [21.156662163206903, 69.04119731251754]]}, "properties": {"source": "34993370", "target": "30351557"}}, {"type": "Feature", "geometry": {"type": "LineString", "coordinates": [[21.157366699130222, 69.04101238213374], [21.152657898931807, 69.04041261496369]]}, "properties": {"source": "34993370", "target": "20580844"}}, {"type": "Feature", "geometry": {"type": "LineString", "coordinates": [[21.157366699130222, 69.04101238213374], [21.14839418878381, 69.03748642652684]]}, "properties": {"source": "34993370", "target": "27311262"}}, {"type": "Feature", "geometry": {"type": "LineString", "coordinates": [[21.157366699130222, 69.04101238213374], [21.163571751002394, 69.03846549304433]]}, "properties": {"source": "34993370", "target": "25222671"}}, {"type": "Feature", "geometry": {"type": "LineString", "coordinates": [[21.157366699130222, 69.04101238213374], [21.154676704849862, 69.03897102971774]]}, "properties": {"source": "34993370", "target": "18107664"}}, {"type": "Feature", "geometry": {"type": "LineString", "coordinates": [[21.157366699130222, 69.04101238213374], [21.15034746463047, 69.04048817789607]]}, "properties": {"source": "34993370", "target": "6634098"}}, {"type": "Feature", "geometry": {"type": "LineString", "coordinates": [[21.157366699130222, 69.04101238213374], [21.160408315475195, 69.0424752258719]]}, "properties": {"source": "34993370", "target": "25588238"}}, {"type": "Feature", "geometry": {"type": "LineString", "coordinates": [[21.153453572697344, 69.0394620166987], [21.153936291720925, 69.04215893872913]]}, "properties": {"source": "23295618", "target": "24340145"}}, {"type": "Feature", "geometry": {"type": "LineString", "coordinates": [[21.153453572697344, 69.0394620166987], [21.15913913693072, 69.03811203180041]]}, "properties": {"source": "23295618", "target": "30225224"}}, {"type": "Feature", "geometry": {"type": "LineString", "coordinates": [[21.153453572697344, 69.0394620166987], [21.156662163206903, 69.04119731251754]]}, "properties": {"source": "23295618", "target": "30351557"}}, {"type": "Feature", "geometry": {"type": "LineString", "coordinates": [[21.153453572697344, 69.0394620166987], [21.157366699130222, 69.04101238213374]]}, "properties": {"source": "23295618", "target": "34993370"}}, {"type": "Feature", "geometry": {"type": "LineString", "coordinates": [[21.153453572697344, 69.0394620166987], [21.157092241773853, 69.04220556478066]]}, "properties": {"source": "23295618", "target": "27258988"}}, {"type": "Feature", "geometry": {"type": "LineString", "coordinates": [[21.15034746463047, 69.04048817789607], [21.148717376999798, 69.04011104315455]]}, "properties": {"source": "6634098", "target": "17792461"}}, {"type": "Feature", "geometry": {"type": "LineString", "coordinates": [[21.148216222019755, 69.04025980151246], [21.16033489339972, 69.04244800280233]]}, "properties": {"source": "22301334", "target": "24234255"}}, {"type": "Feature", "geometry": {"type": "LineString", "coordinates": [[21.148216222019755, 69.04025980151246], [21.152930245137497, 69.03980311861784]]}, "properties": {"source": "22301334", "target": "24340148"}}, {"type": "Feature", "geometry": {"type": "LineString", "coordinates": [[21.152580845883875, 69.03882317913096], [21.151733513226617, 69.03806538323082]]}, "properties": {"source": "25360086", "target": "25640677"}}, {"type": "Feature", "geometry": {"type": "LineString", "coordinates": [[21.163922648740737, 69.039012080102], [21.155354762538593, 69.03722110983995]]}, "properties": {"source": "21744", "target": "23660893"}}, {"type": "Feature", "geometry": {"type": "LineString", "coordinates": [[21.163922648740737, 69.039012080102], [21.150774622203528, 69.03946583496696]]}, "properties": {"source": "21744", "target": "13608611"}}, {"type": "Feature", "geometry": {"type": "LineString", "coordinates": [[21.160408315475195, 69.0424752258719], [21.156662163206903, 69.04119731251754]]}, "properties": {"source": "25588238", "target": "30351557"}}, {"type": "Feature", "geometry": {"type": "LineString", "coordinates": [[21.155465797586203, 69.04248794756256], [21.156724494487207, 69.04237991169904]]}, "properties": {"source": "35344024", "target": "24435982"}}, {"type": "Feature", "geometry": {"type": "LineString", "coordinates": [[21.148625168419215, 69.04238190722947], [21.151702401227595, 69.04133024608834]]}, "properties": {"source": "20749885", "target": "20749902"}}, {"type": "Feature", "geometry": {"type": "LineString", "coordinates": [[21.148625168419215, 69.04238190722947], [21.15489135157725, 69.03726708385491]]}, "properties": {"source": "20749885", "target": "25449257"}}, {"type": "Feature", "geometry": {"type": "LineString", "coordinates": [[21.15157011544153, 69.03790899881022], [21.161901322141944, 69.03864637488775]]}, "properties": {"source": "19251670", "target": "19272983"}}, {"type": "Feature", "geometry": {"type": "LineString", "coordinates": [[21.15157011544153, 69.03790899881022], [21.151102479064008, 69.03742299816409]]}, "properties": {"source": "19251670", "target": "18209656"}}, {"type": "Feature", "geometry": {"type": "LineString", "coordinates": [[21.15321283914082, 69.03984395328928], [21.14903419987769, 69.03969890012996]]}, "properties": {"source": "23204346", "target": "28180573"}}, {"type": "Feature", "geometry": {"type": "LineString", "coordinates": [[21.15321283914082, 69.03984395328928], [21.154657471965294, 69.03805280497846]]}, "properties": {"source": "23204346", "target": "345931"}}, {"type": "Feature", "geometry": {"type": "LineString", "coordinates": [[21.15321283914082, 69.03984395328928], [21.159250094357418, 69.0420795704726]]}, "properties": {"source": "23204346", "target": "17669440"}}, {"type": "Feature", "geometry": {"type": "LineString", "coordinates": [[21.153965616377548, 69.0375495290763], [21.149759923433948, 69.0409736528201]]}, "properties": {"source": "23274987", "target": "24965435"}}, {"type": "Feature", "geometry": {"type": "LineString", "coordinates": [[21.151130380180575, 69.04097727779993], [21.159020642572415, 69.04221519489548]]}, "properties": {"source": "12480330", "target": "12855203"}}, {"type": "Feature", "geometry": {"type": "LineString", "coordinates": [[21.151130380180575, 69.04097727779993], [21.158455926338064, 69.04106956285949]]}, "properties": {"source": "12480330", "target": "123997"}}, {"type": "Feature", "geometry": {"type": "LineString", "coordinates": [[21.149774781227393, 69.03868581266693], [21.155354762538593, 69.03722110983995]]}, "properties": {"source": "10900327", "target": "23660893"}}, {"type": "Feature", "geometry": {"type": "LineString", "coordinates": [[21.149774781227393, 69.03868581266693], [21.150774622203528, 69.03946583496696]]}, "properties": {"source": "10900327", "target": "13608611"}}, {"type": "Feature", "geometry": {"type": "LineString", "coordinates": [[21.151102479064008, 69.03742299816409], [21.161901322141944, 69.03864637488775]]}, "properties": {"source": "18209656", "target": "19272983"}}, {"type": "Feature", "geometry": {"type": "LineString", "coordinates": [[21.150060235411928, 69.03785488117603], [21.157092241773853, 69.04220556478066]]}, "properties": {"source": "13765728", "target": "27258988"}}, {"type": "Feature", "geometry": {"type": "LineString", "coordinates": [[21.150060235411928, 69.03785488117603], [21.153735356704004, 69.03834323890453]]}, "properties": {"source": "13765728", "target": "29372146"}}, {"type": "Feature", "geometry": {"type": "LineString", "coordinates": [[21.153735356704004, 69.03834323890453], [21.157092241773853, 69.04220556478066]]}, "properties": {"source": "29372146", "target": "27258988"}}, {"type": "Feature", "geometry": {"type": "LineString", "coordinates": [[21.159249856525634, 69.03925684840311], [21.150774622203528, 69.03946583496696]]}, "properties": {"source": "16646871", "target": "13608611"}}, {"type": "Feature", "geometry": {"type": "LineString", "coordinates": [[21.159497730489676, 69.03861796785924], [21.159621627108322, 69.03805931642978]]}, "properties": {"source": "47289", "target": "6149403"}}, {"type": "Feature", "geometry": {"type": "LineString", "coordinates": [[21.16335531405184, 69.03783860137102], [21.15914921636795, 69.04022911992334]]}, "properties": {"source": "6262503", "target": "2718795"}}, {"type": "Feature", "geometry": {"type": "LineString", "coordinates": [[21.15566512856384, 69.03818516267597], [21.158455926338064, 69.04106956285949]]}, "properties": {"source": "6431372", "target": "123997"}}, {"type": "Feature", "geometry": {"type": "LineString", "coordinates": [[21.150987830292166, 69.04013173443386], [21.15793564120034, 69.04118064021324]]}, "properties": {"source": "13689847", "target": "453636"}}, {"type": "Feature", "geometry": {"type": "LineString", "coordinates": [[21.16117700271866, 69.04040740914391], [21.149759923433948, 69.0409736528201]]}, "properties": {"source": "24412129", "target": "24965435"}}, {"type": "Feature", "geometry": {"type": "LineString", "coordinates": [[21.16117700271866, 69.04040740914391], [21.16174381614246, 69.03816553271184]]}, "properties": {"source": "24412129", "target": "25446882"}}, {"type": "Feature", "geometry": {"type": "LineString", "coordinates": [[21.16117700271866, 69.04040740914391], [21.155557360396045, 69.03976591655666]]}, "properties": {"source": "24412129", "target": "25445722"}}, {"type": "Feature", "geometry": {"type": "LineString", "coordinates": [[21.16117700271866, 69.04040740914391], [21.153836202869, 69.0410687597469]]}, "properties": {"source": "24412129", "target": "25254481"}}, {"type": "Feature", "geometry": {"type": "LineString", "coordinates": [[21.16117700271866, 69.04040740914391], [21.160032454695937, 69.04021039909813]]}, "properties": {"source": "24412129", "target": "24238657"}}, {"type": "Feature", "geometry": {"type": "LineString", "coordinates": [[21.16117700271866, 69.04040740914391], [21.149534502003576, 69.04095164205069]]}, "properties": {"source": "24412129", "target": "22838091"}}, {"type": "Feature", "geometry": {"type": "LineString", "coordinates": [[21.16117700271866, 69.04040740914391], [21.148375249127383, 69.04160701116754]]}, "properties": {"source": "24412129", "target": "12933792"}}, {"type": "Feature", "geometry": {"type": "LineString", "coordinates": [[21.16117700271866, 69.04040740914391], [21.15549532234877, 69.04151256857858]]}, "properties": {"source": "24412129", "target": "25319577"}}, {"type": "Feature", "geometry": {"type": "LineString", "coordinates": [[21.16117700271866, 69.04040740914391], [21.148216222019755, 69.04025980151246]]}, "properties": {"source": "24412129", "target": "22301334"}}, {"type": "Feature", "geometry": {"type": "LineString", "coordinates": [[21.155557360396045, 69.03976591655666], [21.149759923433948, 69.0409736528201]]}, "properties": {"source": "25445722", "target": "24965435"}}, {"type": "Feature", "geometry": {"type": "LineString", "coordinates": [[21.155557360396045, 69.03976591655666], [21.16174381614246, 69.03816553271184]]}, "properties": {"source": "25445722", "target": "25446882"}}, {"type": "Feature", "geometry": {"type": "LineString", "coordinates": [[21.155557360396045, 69.03976591655666], [21.151733513226617, 69.03806538323082]]}, "properties": {"source": "25445722", "target": "25640677"}}, {"type": "Feature", "geometry": {"type": "LineString", "coordinates": [[21.155557360396045, 69.03976591655666], [21.153836202869, 69.0410687597469]]}, "properties": {"source": "25445722", "target": "25254481"}}, {"type": "Feature", "geometry": {"type": "LineString", "coordinates": [[21.155557360396045, 69.03976591655666], [21.160032454695937, 69.04021039909813]]}, "properties": {"source": "25445722", "target": "24238657"}}, {"type": "Feature", "geometry": {"type": "LineString", "coordinates": [[21.155557360396045, 69.03976591655666], [21.160586568649023, 69.03751251475737]]}, "properties": {"source": "25445722", "target": "24500978"}}, {"type": "Feature", "geometry": {"type": "LineString", "coordinates": [[21.152930245137497, 69.03980311861784], [21.149759923433948, 69.0409736528201]]}, "properties": {"source": "24340148", "target": "24965435"}}, {"type": "Feature", "geometry": {"type": "LineString", "coordinates": [[21.152930245137497, 69.03980311861784], [21.153936291720925, 69.04215893872913]]}, "properties": {"source": "24340148", "target": "24340145"}}, {"type": "Feature", "geometry": {"type": "LineString", "coordinates": [[21.152930245137497, 69.03980311861784], [21.150512609352205, 69.0378470487882]]}, "properties": {"source": "24340148", "target": "23258958"}}, {"type": "Feature", "geometry": {"type": "LineString", "coordinates": [[21.155393672696903, 69.0397029533816], [21.15463345881068, 69.04009162308708]]}, "properties": {"source": "16241473", "target": "7359699"}}, {"type": "Feature", "geometry": {"type": "LineString", "coordinates": [[21.153453572697344, 69.0394620166987], [21.152657898931807, 69.04041261496369]]}, "properties": {"source": "23295618", "target": "20580844"}}, {"type": "Feature", "geometry": {"type": "LineString", "coordinates": [[21.153453572697344, 69.0394620166987], [21.14839418878381, 69.03748642652684]]}, "properties": {"source": "23295618", "target": "27311262"}}, {"type": "Feature", "geometry": {"type": "LineString", "coordinates": [[21.153453572697344, 69.0394620166987], [21.163571751002394, 69.03846549304433]]}, "properties": {"source": "23295618", "target": "25222671"}}, {"type": "Feature", "geometry": {"type": "LineString", "coordinates": [[21.153453572697344, 69.0394620166987], [21.154676704849862, 69.03897102971774]]}, "properties": {"source": "23295618", "target": "18107664"}}, {"type": "Feature", "geometry": {"type": "LineString", "coordinates": [[21.148456463116588, 69.0386126290849], [21.149759923433948, 69.0409736528201]]}, "properties": {"source": "24611066", "target": "24965435"}}, {"type": "Feature", "geometry": {"type": "LineString", "coordinates": [[21.148456463116588, 69.0386126290849], [21.16174381614246, 69.03816553271184]]}, "properties": {"source": "24611066", "target": "25446882"}}, {"type": "Feature", "geometry": {"type": "LineString", "coordinates": [[21.148456463116588, 69.0386126290849], [21.16117700271866, 69.04040740914391]]}, "properties": {"source": "24611066", "target": "24412129"}}, {"type": "Feature", "geometry": {"type": "LineString", "coordinates": [[21.148456463116588, 69.0386126290849], [21.155557360396045, 69.03976591655666]]}, "properties": {"source": "24611066", "target": "25445722"}}, {"type": "Feature", "geometry": {"type": "LineString", "coordinates": [[21.148456463116588, 69.0386126290849], [21.153836202869, 69.0410687597469]]}, "properties": {"source": "24611066", "target": "25254481"}}, {"type": "Feature", "geometry": {"type": "LineString", "coordinates": [[21.148456463116588, 69.0386126290849], [21.160032454695937, 69.04021039909813]]}, "properties": {"source": "24611066", "target": "24238657"}}, {"type": "Feature", "geometry": {"type": "LineString", "coordinates": [[21.148456463116588, 69.0386126290849], [21.149534502003576, 69.04095164205069]]}, "properties": {"source": "24611066", "target": "22838091"}}, {"type": "Feature", "geometry": {"type": "LineString", "coordinates": [[21.148456463116588, 69.0386126290849], [21.148375249127383, 69.04160701116754]]}, "properties": {"source": "24611066", "target": "12933792"}}, {"type": "Feature", "geometry": {"type": "LineString", "coordinates": [[21.148456463116588, 69.0386126290849], [21.160586568649023, 69.03751251475737]]}, "properties": {"source": "24611066", "target": "24500978"}}, {"type": "Feature", "geometry": {"type": "LineString", "coordinates": [[21.15321283914082, 69.03984395328928], [21.149759923433948, 69.0409736528201]]}, "properties": {"source": "23204346", "target": "24965435"}}, {"type": "Feature", "geometry": {"type": "LineString", "coordinates": [[21.15321283914082, 69.03984395328928], [21.15546867704967, 69.03802733526462]]}, "properties": {"source": "23204346", "target": "273467"}}, {"type": "Feature", "geometry": {"type": "LineString", "coordinates": [[21.15321283914082, 69.03984395328928], [21.153965616377548, 69.0375495290763]]}, "properties": {"source": "23204346", "target": "23274987"}}, {"type": "Feature", "geometry": {"type": "LineString", "coordinates": [[21.155393672696903, 69.0397029533816], [21.14903419987769, 69.03969890012996]]}, "properties": {"source": "16241473", "target": "28180573"}}, {"type": "Feature", "geometry": {"type": "LineString", "coordinates": [[21.155393672696903, 69.0397029533816], [21.14826301424594, 69.04162483830112]]}, "properties": {"source": "16241473", "target": "1107017"}}, {"type": "Feature", "geometry": {"type": "LineString", "coordinates": [[21.155393672696903, 69.0397029533816], [21.15793564120034, 69.04118064021324]]}, "properties": {"source": "16241473", "target": "453636"}}, {"type": "Feature", "geometry": {"type": "LineString", "coordinates": [[21.150774622203528, 69.03946583496696], [21.154657471965294, 69.03805280497846]]}, "properties": {"source": "13608611", "target": "345931"}}, {"type": "Feature", "geometry": {"type": "LineString", "coordinates": [[21.150774622203528, 69.03946583496696], [21.16399535817095, 69.0399142674188]]}, "properties": {"source": "13608611", "target": "12247405"}}, {"type": "Feature", "geometry": {"type": "LineString", "coordinates": [[21.159791834628436, 69.04152606623595], [21.155354762538593, 69.03722110983995]]}, "properties": {"source": "12142790", "target": "23660893"}}, {"type": "Feature", "geometry": {"type": "LineString", "coordinates": [[21.159791834628436, 69.04152606623595], [21.159020642572415, 69.04221519489548]]}, "properties": {"source": "12142790", "target": "12855203"}}, {"type": "Feature", "geometry": {"type": "LineString", "coordinates": [[21.159791834628436, 69.04152606623595], [21.150774622203528, 69.03946583496696]]}, "properties": {"source": "12142790", "target": "13608611"}}, {"type": "Feature", "geometry": {"type": "LineString", "coordinates": [[21.159791834628436, 69.04152606623595], [21.154657471965294, 69.03805280497846]]}, "properties": {"source": "12142790", "target": "345931"}}, {"type": "Feature", "geometry": {"type": "LineString", "coordinates": [[21.159791834628436, 69.04152606623595], [21.163922648740737, 69.039012080102]]}, "properties": {"source": "12142790", "target": "21744"}}, {"type": "Feature", "geometry": {"type": "LineString", "coordinates": [[21.159791834628436, 69.04152606623595], [21.16399535817095, 69.0399142674188]]}, "properties": {"source": "12142790", "target": "12247405"}}, {"type": "Feature", "geometry": {"type": "LineString", "coordinates": [[21.159791834628436, 69.04152606623595], [21.159249856525634, 69.03925684840311]]}, "properties": {"source": "12142790", "target": "16646871"}}, {"type": "Feature", "geometry": {"type": "LineString", "coordinates": [[21.1518010037222, 69.03899937391509], [21.151733513226617, 69.03806538323082]]}, "properties": {"source": "17702223", "target": "25640677"}}, {"type": "Feature", "geometry": {"type": "LineString", "coordinates": [[21.1518010037222, 69.03899937391509], [21.156724494487207, 69.04237991169904]]}, "properties": {"source": "17702223", "target": "24435982"}}, {"type": "Feature", "geometry": {"type": "LineString", "coordinates": [[21.1518010037222, 69.03899937391509], [21.155465797586203, 69.04248794756256]]}, "properties": {"source": "17702223", "target": "35344024"}}, {"type": "Feature", "geometry": {"type": "LineString", "coordinates": [[21.15034746463047, 69.04048817789607], [21.156662163206903, 69.04119731251754]]}, "properties": {"source": "6634098", "target": "30351557"}}]}