{"type": "FeatureCollection", "features": [{"type": "Feature", "geometry": {"type": "LineString", "coordinates": [[64.14723734230137, 69.23044725433238], [64.14202448989371, 69.23090901398396]]}, "properties": {"source": "25655850", "target": "20428850"}}, {"type": "Feature", "geometry": {"type": "LineString", "coordinates": [[64.14723734230137, 69.23044725433238], [64.14692210521, 69.23157882001917]]}, "properties": {"source": "25655850", "target": "28190677"}}, {"type": "Feature", "geometry": {"type": "LineString", "coordinates": [[64.14723734230137, 69.23044725433238], [64.14289770206679, 69.23001556625016]]}, "properties": {"source": "25655850", "target": "20360127"}}, {"type": "Feature", "geometry": {"type": "LineString", "coordinates": [[64.14723734230137, 69.23044725433238], [64.14770246638165, 69.23090367512509]]}, "properties": {"source": "25655850", "target": "2814155"}}, {"type": "Feature", "geometry": {"type": "LineString", "coordinates": [[64.14723734230137, 69.23044725433238], [64.14439873207792, 69.23124013898706]]}, "properties": {"source": "25655850", "target": "2066662"}}, {"type": "Feature", "geometry": {"type": "LineString", "coordinates": [[64.14723734230137, 69.23044725433238], [64.14367211221182, 69.23202219523753]]}, "properties": {"source": "25655850", "target": "11525290"}}, {"type": "Feature", "geometry": {"type": "LineString", "coordinates": [[64.1430325661486, 69.22988589769705], [64.1476529987165, 69.23106378794003]]}, "properties": {"source": "11036536", "target": "16090241"}}, {"type": "Feature", "geometry": {"type": "LineString", "coordinates": [[64.14236668394304, 69.22995748359034], [64.14243330032576, 69.23160558726607]]}, "properties": {"source": "8311012", "target": "8768691"}}, {"type": "Feature", "geometry": {"type": "LineString", "coordinates": [[64.14862805705269, 69.23013670162842], [64.14370046901806, 69.23005052089616]]}, "properties": {"source": "18899415", "target": "17623152"}}, {"type": "Feature", "geometry": {"type": "LineString", "coordinates": [[64.1414754420689, 69.23067463810526], [64.14686063063141, 69.2301216051616]]}, "properties": {"source": "11699136", "target": "26209224"}}, {"type": "Feature", "geometry": {"type": "LineString", "coordinates": [[64.1414754420689, 69.23067463810526], [64.1473130506491, 69.23114141170402]]}, "properties": {"source": "11699136", "target": "30303559"}}, {"type": "Feature", "geometry": {"type": "LineString", "coordinates": [[64.14410430578465, 69.23003075496203], [64.14202448989371, 69.23090901398396]]}, "properties": {"source": "19033422", "target": "20428850"}}, {"type": "Feature", "geometry": {"type": "LineString", "coordinates": [[64.1467090581418, 69.2297945657779], [64.14723734230137, 69.23044725433238]]}, "properties": {"source": "19333585", "target": "25655850"}}, {"type": "Feature", "geometry": {"type": "LineString", "coordinates": [[64.1467090581418, 69.2297945657779], [64.14202448989371, 69.23090901398396]]}, "properties": {"source": "19333585", "target": "20428850"}}, {"type": "Feature", "geometry": {"type": "LineString", "coordinates": [[64.1467090581418, 69.2297945657779], [64.14289770206679, 69.23001556625016]]}, "properties": {"source": "19333585", "target": "20360127"}}, {"type": "Feature", "geometry": {"type": "LineString", "coordinates": [[64.1467090581418, 69.2297945657779], [64.14770246638165, 69.23090367512509]]}, "properties": {"source": "19333585", "target": "2814155"}}, {"type": "Feature", "geometry": {"type": "LineString", "coordinates": [[64.1467090581418, 69.2297945657779], [64.14439873207792, 69.23124013898706]]}, "properties": {"source": "19333585", "target": "2066662"}}, {"type": "Feature", "geometry": {"type": "LineString", "coordinates": [[64.14439873207792, 69.23124013898706], [64.14692210521, 69.23157882001917]]}, "properties": {"source": "2066662", "target": "28190677"}}, {"type": "Feature", "geometry": {"type": "LineString", "coordinates": [[64.14439873207792, 69.23124013898706], [64.14374485713128, 69.23090144450919]]}, "properties": {"source": "2066662", "target": "3355832"}}, {"type": "Feature", "geometry": {"type": "LineString", "coordinates": [[64.14317910557031, 69.23149366893253], [64.14706343376918, 69.23224125188011]]}, "properties": {"source": "1436045", "target": "35423271"}}, {"type": "Feature", "geometry": {"type": "LineString", "coordinates": [[64.14317910557031, 69.23149366893253], [64.14686063063141, 69.2301216051616]]}, "properties": {"source": "1436045", "target": "26209224"}}, {"type": "Feature", "geometry": {"type": "LineString", "coordinates": [[64.14317910557031, 69.23149366893253], [64.1473130506491, 69.23114141170402]]}, "properties": {"source": "1436045", "target": "30303559"}}, {"type": "Feature", "geometry": {"type": "LineString", "coordinates": [[64.14317910557031, 69.23149366893253], [64.14778280574643, 69.23109389901902]]}, "properties": {"source": "1436045", "target": "35847442"}}, {"type": "Feature", "geometry": {"type": "LineString", "coordinates": [[64.14317910557031, 69.23149366893253], [64.14862805705269, 69.23013670162842]]}, "properties": {"source": "1436045", "target": "18899415"}}, {"type": "Feature", "geometry": {"type": "LineString", "coordinates": [[64.14317910557031, 69.23149366893253], [64.14370046901806, 69.23005052089616]]}, "properties": {"source": "1436045", "target": "17623152"}}, {"type": "Feature", "geometry": {"type": "LineString", "coordinates": [[64.14834207963332, 69.22976919068049], [64.14706343376918, 69.23224125188011]]}, "properties": {"source": "36335345", "target": "35423271"}}, {"type": "Feature", "geometry": {"type": "LineString", "coordinates": [[64.14834207963332, 69.22976919068049], [64.14692210521, 69.23157882001917]]}, "properties": {"source": "36335345", "target": "28190677"}}, {"type": "Feature", "geometry": {"type": "LineString", "coordinates": [[64.14834207963332, 69.22976919068049], [64.14770246638165, 69.23090367512509]]}, "properties": {"source": "36335345", "target": "2814155"}}, {"type": "Feature", "geometry": {"type": "LineString", "coordinates": [[64.14723734230137, 69.23044725433238], [64.14374485713128, 69.23090144450919]]}, "properties": {"source": "25655850", "target": "3355832"}}, {"type": "Feature", "geometry": {"type": "LineString", "coordinates": [[64.14706343376918, 69.23224125188011], [64.14692210521, 69.23157882001917]]}, "properties": {"source": "35423271", "target": "28190677"}}, {"type": "Feature", "geometry": {"type": "LineString", "coordinates": [[64.14706343376918, 69.23224125188011], [64.14686063063141, 69.2301216051616]]}, "properties": {"source": "35423271", "target": "26209224"}}, {"type": "Feature", "geometry": {"type": "LineString", "coordinates": [[64.14706343376918, 69.23224125188011], [64.1473130506491, 69.23114141170402]]}, "properties": {"source": "35423271", "target": "30303559"}}, {"type": "Feature", "geometry": {"type": "LineString", "coordinates": [[64.14706343376918, 69.23224125188011], [64.14374485713128, 69.23090144450919]]}, "properties": {"source": "35423271", "target": "3355832"}}, {"type": "Feature", "geometry": {"type": "LineString", "coordinates": [[64.14706343376918, 69.23224125188011], [64.14778280574643, 69.23109389901902]]}, "properties": {"source": "35423271", "target": "35847442"}}, {"type": "Feature", "geometry": {"type": "LineString", "coordinates": [[64.14202448989371, 69.23090901398396], [64.14692210521, 69.23157882001917]]}, "properties": {"source": "20428850", "target": "28190677"}}, {"type": "Feature", "geometry": {"type": "LineString", "coordinates": [[64.14202448989371, 69.23090901398396], [64.14439873207792, 69.23124013898706]]}, "properties": {"source": "20428850", "target": "2066662"}}, {"type": "Feature", "geometry": {"type": "LineString", "coordinates": [[64.14202448989371, 69.23090901398396], [64.14367211221182, 69.23202219523753]]}, "properties": {"source": "20428850", "target": "11525290"}}, {"type": "Feature", "geometry": {"type": "LineString", "coordinates": [[64.14289770206679, 69.23001556625016], [64.1414349138474, 69.23220119382461]]}, "properties": {"source": "20360127", "target": "22849111"}}, {"type": "Feature", "geometry": {"type": "LineString", "coordinates": [[64.14289770206679, 69.23001556625016], [64.14202448989371, 69.23090901398396]]}, "properties": {"source": "20360127", "target": "20428850"}}, {"type": "Feature", "geometry": {"type": "LineString", "coordinates": [[64.14289770206679, 69.23001556625016], [64.14692210521, 69.23157882001917]]}, "properties": {"source": "20360127", "target": "28190677"}}, {"type": "Feature", "geometry": {"type": "LineString", "coordinates": [[64.14289770206679, 69.23001556625016], [64.14770246638165, 69.23090367512509]]}, "properties": {"source": "20360127", "target": "2814155"}}, {"type": "Feature", "geometry": {"type": "LineString", "coordinates": [[64.14289770206679, 69.23001556625016], [64.14439873207792, 69.23124013898706]]}, "properties": {"source": "20360127", "target": "2066662"}}, {"type": "Feature", "geometry": {"type": "LineString", "coordinates": [[64.14289770206679, 69.23001556625016], [64.14367211221182, 69.23202219523753]]}, "properties": {"source": "20360127", "target": "11525290"}}, {"type": "Feature", "geometry": {"type": "LineString", "coordinates": [[64.14373021938403, 69.2301759526379], [64.14165666096426, 69.23167886019138]]}, "properties": {"source": "4036200", "target": "298740"}}, {"type": "Feature", "geometry": {"type": "LineString", "coordinates": [[64.14373021938403, 69.2301759526379], [64.14696759521371, 69.23139417624537]]}, "properties": {"source": "4036200", "target": "24248153"}}, {"type": "Feature", "geometry": {"type": "LineString", "coordinates": [[64.14373021938403, 69.2301759526379], [64.14343829857606, 69.2302559889437]]}, "properties": {"source": "4036200", "target": "741622"}}, {"type": "Feature", "geometry": {"type": "LineString", "coordinates": [[64.14770246638165, 69.23090367512509], [64.14706343376918, 69.23224125188011]]}, "properties": {"source": "2814155", "target": "35423271"}}, {"type": "Feature", "geometry": {"type": "LineString", "coordinates": [[64.14770246638165, 69.23090367512509], [64.14202448989371, 69.23090901398396]]}, "properties": {"source": "2814155", "target": "20428850"}}, {"type": "Feature", "geometry": {"type": "LineString", "coordinates": [[64.14770246638165, 69.23090367512509], [64.14692210521, 69.23157882001917]]}, "properties": {"source": "2814155", "target": "28190677"}}, {"type": "Feature", "geometry": {"type": "LineString", "coordinates": [[64.14770246638165, 69.23090367512509], [64.14374485713128, 69.23090144450919]]}, "properties": {"source": "2814155", "target": "3355832"}}, {"type": "Feature", "geometry": {"type": "LineString", "coordinates": [[64.14400452803363, 69.22990415654951], [64.14723734230137, 69.23044725433238]]}, "properties": {"source": "27826688", "target": "25655850"}}, {"type": "Feature", "geometry": {"type": "LineString", "coordinates": [[64.14400452803363, 69.22990415654951], [64.14706343376918, 69.23224125188011]]}, "properties": {"source": "27826688", "target": "35423271"}}, {"type": "Feature", "geometry": {"type": "LineString", "coordinates": [[64.14373021938403, 69.2301759526379], [64.1471687961066, 69.23215045794976]]}, "properties": {"source": "4036200", "target": "29233947"}}, {"type": "Feature", "geometry": {"type": "LineString", "coordinates": [[64.14165666096426, 69.23167886019138], [64.1471687961066, 69.23215045794976]]}, "properties": {"source": "298740", "target": "29233947"}}, {"type": "Feature", "geometry": {"type": "LineString", "coordinates": [[64.14400452803363, 69.22990415654951], [64.14202448989371, 69.23090901398396]]}, "properties": {"source": "27826688", "target": "20428850"}}, {"type": "Feature", "geometry": {"type": "LineString", "coordinates": [[64.14400452803363, 69.22990415654951], [64.14692210521, 69.23157882001917]]}, "properties": {"source": "27826688", "target": "28190677"}}, {"type": "Feature", "geometry": {"type": "LineString", "coordinates": [[64.14400452803363, 69.22990415654951], [64.14289770206679, 69.23001556625016]]}, "properties": {"source": "27826688", "target": "20360127"}}, {"type": "Feature", "geometry": {"type": "LineString", "coordinates": [[64.14400452803363, 69.22990415654951], [64.1467090581418, 69.2297945657779]]}, "properties": {"source": "27826688", "target": "19333585"}}, {"type": "Feature", "geometry": {"type": "LineString", "coordinates": [[64.14400452803363, 69.22990415654951], [64.14834207963332, 69.22976919068049]]}, "properties": {"source": "27826688", "target": "36335345"}}, {"type": "Feature", "geometry": {"type": "LineString", "coordinates": [[64.1467090581418, 69.2297945657779], [64.1414349138474, 69.23220119382461]]}, "properties": {"source": "19333585", "target": "22849111"}}, {"type": "Feature", "geometry": {"type": "LineString", "coordinates": [[64.14834207963332, 69.22976919068049], [64.14367211221182, 69.23202219523753]]}, "properties": {"source": "36335345", "target": "11525290"}}, {"type": "Feature", "geometry": {"type": "LineString", "coordinates": [[64.14834207963332, 69.22976919068049], [64.14374485713128, 69.23090144450919]]}, "properties": {"source": "36335345", "target": "3355832"}}, {"type": "Feature", "geometry": {"type": "LineString", "coordinates": [[64.14686063063141, 69.2301216051616], [64.1473130506491, 69.23114141170402]]}, "properties": {"source": "26209224", "target": "30303559"}}, {"type": "Feature", "geometry": {"type": "LineString", "coordinates": [[64.14686063063141, 69.2301216051616], [64.14778280574643, 69.23109389901902]]}, "properties": {"source": "26209224", "target": "35847442"}}, {"type": "Feature", "geometry": {"type": "LineString", "coordinates": [[64.14374485713128, 69.23090144450919], [64.14692210521, 69.23157882001917]]}, "properties": {"source": "3355832", "target": "28190677"}}, {"type": "Feature", "geometry": {"type": "LineString", "coordinates": [[64.14885365801163, 69.23075614213784], [64.1414349138474, 69.23220119382461]]}, "properties": {"source": "28451835", "target": "22849111"}}, {"type": "Feature", "geometry": {"type": "LineString", "coordinates": [[64.14885365801163, 69.23075614213784], [64.14373021938403, 69.2301759526379]]}, "properties": {"source": "28451835", "target": "4036200"}}, {"type": "Feature", "geometry": {"type": "LineString", "coordinates": [[64.14885365801163, 69.23075614213784], [64.14165666096426, 69.23167886019138]]}, "properties": {"source": "28451835", "target": "298740"}}, {"type": "Feature", "geometry": {"type": "LineString", "coordinates": [[64.14885365801163, 69.23075614213784], [64.14696759521371, 69.23139417624537]]}, "properties": {"source": "28451835", "target": "24248153"}}, {"type": "Feature", "geometry": {"type": "LineString", "coordinates": [[64.14885365801163, 69.23075614213784], [64.1471687961066, 69.23215045794976]]}, "properties": {"source": "28451835", "target": "29233947"}}, {"type": "Feature", "geometry": {"type": "LineString", "coordinates": [[64.1481770339094, 69.23177914443158], [64.14165666096426, 69.23167886019138]]}, "properties": {"source": "8739950", "target": "298740"}}, {"type": "Feature", "geometry": {"type": "LineString", "coordinates": [[64.14243330032576, 69.23160558726607], [64.14367211221182, 69.23202219523753]]}, "properties": {"source": "8768691", "target": "11525290"}}, {"type": "Feature", "geometry": {"type": "LineString", "coordinates": [[64.14343829857606, 69.2302559889437], [64.14165666096426, 69.23167886019138]]}, "properties": {"source": "741622", "target": "298740"}}, {"type": "Feature", "geometry": {"type": "LineString", "coordinates": [[64.1430325661486, 69.22988589769705], [64.14181197537977, 69.2308460957797]]}, "properties": {"source": "11036536", "target": "11860432"}}, {"type": "Feature", "geometry": {"type": "LineString", "coordinates": [[64.1414349138474, 69.23220119382461], [64.14202448989371, 69.23090901398396]]}, "properties": {"source": "22849111", "target": "20428850"}}, {"type": "Feature", "geometry": {"type": "LineString", "coordinates": [[64.1414349138474, 69.23220119382461], [64.14692210521, 69.23157882001917]]}, "properties": {"source": "22849111", "target": "28190677"}}, {"type": "Feature", "geometry": {"type": "LineString", "coordinates": [[64.1414349138474, 69.23220119382461], [64.14373021938403, 69.2301759526379]]}, "properties": {"source": "22849111", "target": "4036200"}}, {"type": "Feature", "geometry": {"type": "LineString", "coordinates": [[64.1414349138474, 69.23220119382461], [64.14165666096426, 69.23167886019138]]}, "properties": {"source": "22849111", "target": "298740"}}, {"type": "Feature", "geometry": {"type": "LineString", "coordinates": [[64.1414349138474, 69.23220119382461], [64.14439873207792, 69.23124013898706]]}, "properties": {"source": "22849111", "target": "2066662"}}, {"type": "Feature", "geometry": {"type": "LineString", "coordinates": [[64.1414349138474, 69.23220119382461], [64.14453927963342, 69.22979728350694]]}, "properties": {"source": "22849111", "target": "21569980"}}, {"type": "Feature", "geometry": {"type": "LineString", "coordinates": [[64.1414349138474, 69.23220119382461], [64.1476529987165, 69.23106378794003]]}, "properties": {"source": "22849111", "target": "16090241"}}, {"type": "Feature", "geometry": {"type": "LineString", "coordinates": [[64.14723734230137, 69.23044725433238], [64.1414349138474, 69.23220119382461]]}, "properties": {"source": "25655850", "target": "22849111"}}, {"type": "Feature", "geometry": {"type": "LineString", "coordinates": [[64.14723734230137, 69.23044725433238], [64.14706343376918, 69.23224125188011]]}, "properties": {"source": "25655850", "target": "35423271"}}, {"type": "Feature", "geometry": {"type": "LineString", "coordinates": [[64.1481770339094, 69.23177914443158], [64.1471687961066, 69.23215045794976]]}, "properties": {"source": "8739950", "target": "29233947"}}, {"type": "Feature", "geometry": {"type": "LineString", "coordinates": [[64.14343829857606, 69.2302559889437], [64.1471687961066, 69.23215045794976]]}, "properties": {"source": "741622", "target": "29233947"}}, {"type": "Feature", "geometry": {"type": "LineString", "coordinates": [[64.1414349138474, 69.23220119382461], [64.1471687961066, 69.23215045794976]]}, "properties": {"source": "22849111", "target": "29233947"}}, {"type": "Feature", "geometry": {"type": "LineString", "coordinates": [[64.14778280574643, 69.23109389901902], [64.1473130506491, 69.23114141170402]]}, "properties": {"source": "35847442", "target": "30303559"}}, {"type": "Feature", "geometry": {"type": "LineString", "coordinates": [[64.14288781744938, 69.2310644529316], [64.14706343376918, 69.23224125188011]]}, "properties": {"source": "12924011", "target": "35423271"}}, {"type": "Feature", "geometry": {"type": "LineString", "coordinates": [[64.14288781744938, 69.2310644529316], [64.14686063063141, 69.2301216051616]]}, "properties": {"source": "12924011", "target": "26209224"}}, {"type": "Feature", "geometry": {"type": "LineString", "coordinates": [[64.14288781744938, 69.2310644529316], [64.1473130506491, 69.23114141170402]]}, "properties": {"source": "12924011", "target": "30303559"}}, {"type": "Feature", "geometry": {"type": "LineString", "coordinates": [[64.14288781744938, 69.2310644529316], [64.14778280574643, 69.23109389901902]]}, "properties": {"source": "12924011", "target": "35847442"}}, {"type": "Feature", "geometry": {"type": "LineString", "coordinates": [[64.14453927963342, 69.22979728350694], [64.14373021938403, 69.2301759526379]]}, "properties": {"source": "21569980", "target": "4036200"}}, {"type": "Feature", "geometry": {"type": "LineString", "coordinates": [[64.14453927963342, 69.22979728350694], [64.14165666096426, 69.23167886019138]]}, "properties": {"source": "21569980", "target": "298740"}}, {"type": "Feature", "geometry": {"type": "LineString", "coordinates": [[64.14696759521371, 69.23139417624537], [64.14165666096426, 69.23167886019138]]}, "properties": {"source": "24248153", "target": "298740"}}, {"type": "Feature", "geometry": {"type": "LineString", "coordinates": [[64.14696044058476, 69.231831932039], [64.14367211221182, 69.23202219523753]]}, "properties": {"source": "10393617", "target": "11525290"}}, {"type": "Feature", "geometry": {"type": "LineString", "coordinates": [[64.14696044058476, 69.231831932039], [64.14243330032576, 69.23160558726607]]}, "properties": {"source": "10393617", "target": "8768691"}}, {"type": "Feature", "geometry": {"type": "LineString", "coordinates": [[64.14696044058476, 69.231831932039], [64.14236668394304, 69.22995748359034]]}, "properties": {"source": "10393617", "target": "8311012"}}, {"type": "Feature", "geometry": {"type": "LineString", "coordinates": [[64.14181197537977, 69.2308460957797], [64.1414349138474, 69.23220119382461]]}, "properties": {"source": "11860432", "target": "22849111"}}, {"type": "Feature", "geometry": {"type": "LineString", "coordinates": [[64.14181197537977, 69.2308460957797], [64.1476529987165, 69.23106378794003]]}, "properties": {"source": "11860432", "target": "16090241"}}, {"type": "Feature", "geometry": {"type": "LineString", "coordinates": [[64.1481770339094, 69.23177914443158], [64.14373021938403, 69.2301759526379]]}, "properties": {"source": "8739950", "target": "4036200"}}, {"type": "Feature", "geometry": {"type": "LineString", "coordinates": [[64.14453927963342, 69.22979728350694], [64.1471687961066, 69.23215045794976]]}, "properties": {"source": "21569980", "target": "29233947"}}, {"type": "Feature", "geometry": {"type": "LineString", "coordinates": [[64.14696759521371, 69.23139417624537], [64.1471687961066, 69.23215045794976]]}, "properties": {"source": "24248153", "target": "29233947"}}]}