{"type": "FeatureCollection", "features": [{"type": "Feature", "geometry": {"type": "LineString", "coordinates": [[36.871904107414224, 69.23031968121194], [36.874038484079705, 69.2312711474406]]}, "properties": {"source": "85345", "target": "6561743"}}, {"type": "Feature", "geometry": {"type": "LineString", "coordinates": [[36.871904107414224, 69.23031968121194], [36.87281927471858, 69.23247033979368]]}, "properties": {"source": "85345", "target": "2950951"}}, {"type": "Feature", "geometry": {"type": "LineString", "coordinates": [[36.871904107414224, 69.23031968121194], [36.86961820973792, 69.23206238242634]]}, "properties": {"source": "85345", "target": "1604853"}}, {"type": "Feature", "geometry": {"type": "LineString", "coordinates": [[36.871904107414224, 69.23031968121194], [36.876237501659034, 69.23007529629842]]}, "properties": {"source": "85345", "target": "902042"}}, {"type": "Feature", "geometry": {"type": "LineString", "coordinates": [[36.87107191512342, 69.23071312974665], [36.87060897118448, 69.23115931004222]]}, "properties": {"source": "85338", "target": "85307"}}, {"type": "Feature", "geometry": {"type": "LineString", "coordinates": [[36.87107191512342, 69.23071312974665], [36.87155726102057, 69.23194881616041]]}, "properties": {"source": "85338", "target": "85341"}}, {"type": "Feature", "geometry": {"type": "LineString", "coordinates": [[36.87107191512342, 69.23071312974665], [36.87112538557594, 69.2307391027201]]}, "properties": {"source": "85338", "target": "85335"}}, {"type": "Feature", "geometry": {"type": "LineString", "coordinates": [[36.87063805104199, 69.23020852340784], [36.87060897118448, 69.23115931004222]]}, "properties": {"source": "386618", "target": "85307"}}, {"type": "Feature", "geometry": {"type": "LineString", "coordinates": [[36.87063805104199, 69.23020852340784], [36.87348230571595, 69.22994742626304]]}, "properties": {"source": "386618", "target": "607410"}}, {"type": "Feature", "geometry": {"type": "LineString", "coordinates": [[36.87063805104199, 69.23020852340784], [36.876467654981695, 69.22987740807284]]}, "properties": {"source": "386618", "target": "607403"}}, {"type": "Feature", "geometry": {"type": "LineString", "coordinates": [[36.87063805104199, 69.23020852340784], [36.8742089239434, 69.23079190446023]]}, "properties": {"source": "386618", "target": "341587"}}, {"type": "Feature", "geometry": {"type": "LineString", "coordinates": [[36.87063805104199, 69.23020852340784], [36.872824814795024, 69.23068991025087]]}, "properties": {"source": "386618", "target": "319631"}}, {"type": "Feature", "geometry": {"type": "LineString", "coordinates": [[36.87063805104199, 69.23020852340784], [36.8701840611167, 69.23137605329885]]}, "properties": {"source": "386618", "target": "332808"}}, {"type": "Feature", "geometry": {"type": "LineString", "coordinates": [[36.87063805104199, 69.23020852340784], [36.87413246334006, 69.23016347560079]]}, "properties": {"source": "386618", "target": "18144154"}}, {"type": "Feature", "geometry": {"type": "LineString", "coordinates": [[36.87701441789156, 69.23042523735182], [36.87445729087554, 69.23050840813633]]}, "properties": {"source": "85308", "target": "87953"}}, {"type": "Feature", "geometry": {"type": "LineString", "coordinates": [[36.87701441789156, 69.23042523735182], [36.874096473806844, 69.23118233839332]]}, "properties": {"source": "85308", "target": "8549518"}}, {"type": "Feature", "geometry": {"type": "LineString", "coordinates": [[36.87701441789156, 69.23042523735182], [36.87812136226657, 69.23247395426651]]}, "properties": {"source": "85308", "target": "607407"}}, {"type": "Feature", "geometry": {"type": "LineString", "coordinates": [[36.87701441789156, 69.23042523735182], [36.87314318423239, 69.23163750839262]]}, "properties": {"source": "85308", "target": "6561654"}}, {"type": "Feature", "geometry": {"type": "LineString", "coordinates": [[36.87348230571595, 69.22994742626304], [36.8701840611167, 69.23137605329885]]}, "properties": {"source": "607410", "target": "332808"}}, {"type": "Feature", "geometry": {"type": "LineString", "coordinates": [[36.8768607357014, 69.23053788974102], [36.87060897118448, 69.23115931004222]]}, "properties": {"source": "386619", "target": "85307"}}, {"type": "Feature", "geometry": {"type": "LineString", "coordinates": [[36.8768607357014, 69.23053788974102], [36.87701441789156, 69.23042523735182]]}, "properties": {"source": "386619", "target": "85308"}}, {"type": "Feature", "geometry": {"type": "LineString", "coordinates": [[36.8768607357014, 69.23053788974102], [36.87348230571595, 69.22994742626304]]}, "properties": {"source": "386619", "target": "607410"}}, {"type": "Feature", "geometry": {"type": "LineString", "coordinates": [[36.8768607357014, 69.23053788974102], [36.876467654981695, 69.22987740807284]]}, "properties": {"source": "386619", "target": "607403"}}, {"type": "Feature", "geometry": {"type": "LineString", "coordinates": [[36.876467654981695, 69.22987740807284], [36.8701840611167, 69.23137605329885]]}, "properties": {"source": "607403", "target": "332808"}}, {"type": "Feature", "geometry": {"type": "LineString", "coordinates": [[36.876467654981695, 69.22987740807284], [36.87314318423239, 69.23163750839262]]}, "properties": {"source": "607403", "target": "6561654"}}, {"type": "Feature", "geometry": {"type": "LineString", "coordinates": [[36.876467654981695, 69.22987740807284], [36.87413246334006, 69.23016347560079]]}, "properties": {"source": "607403", "target": "18144154"}}, {"type": "Feature", "geometry": {"type": "LineString", "coordinates": [[36.87437969598071, 69.23218393975469], [36.87060897118448, 69.23115931004222]]}, "properties": {"source": "85366", "target": "85307"}}, {"type": "Feature", "geometry": {"type": "LineString", "coordinates": [[36.87437969598071, 69.23218393975469], [36.87701441789156, 69.23042523735182]]}, "properties": {"source": "85366", "target": "85308"}}, {"type": "Feature", "geometry": {"type": "LineString", "coordinates": [[36.87437969598071, 69.23218393975469], [36.87149420362829, 69.23259846484763]]}, "properties": {"source": "85366", "target": "85336"}}, {"type": "Feature", "geometry": {"type": "LineString", "coordinates": [[36.87437969598071, 69.23218393975469], [36.871904107414224, 69.23031968121194]]}, "properties": {"source": "85366", "target": "85345"}}, {"type": "Feature", "geometry": {"type": "LineString", "coordinates": [[36.87069463987342, 69.23009694369443], [36.87544634720942, 69.22976881671406]]}, "properties": {"source": "85342", "target": "2177670"}}, {"type": "Feature", "geometry": {"type": "LineString", "coordinates": [[36.87069463987342, 69.23009694369443], [36.876237501659034, 69.23007529629842]]}, "properties": {"source": "85342", "target": "902042"}}, {"type": "Feature", "geometry": {"type": "LineString", "coordinates": [[36.87149420362829, 69.23259846484763], [36.87060897118448, 69.23115931004222]]}, "properties": {"source": "85336", "target": "85307"}}, {"type": "Feature", "geometry": {"type": "LineString", "coordinates": [[36.87149420362829, 69.23259846484763], [36.87701441789156, 69.23042523735182]]}, "properties": {"source": "85336", "target": "85308"}}, {"type": "Feature", "geometry": {"type": "LineString", "coordinates": [[36.87149420362829, 69.23259846484763], [36.871904107414224, 69.23031968121194]]}, "properties": {"source": "85336", "target": "85345"}}, {"type": "Feature", "geometry": {"type": "LineString", "coordinates": [[36.87149420362829, 69.23259846484763], [36.87107191512342, 69.23071312974665]]}, "properties": {"source": "85336", "target": "85338"}}, {"type": "Feature", "geometry": {"type": "LineString", "coordinates": [[36.87149420362829, 69.23259846484763], [36.87155726102057, 69.23194881616041]]}, "properties": {"source": "85336", "target": "85341"}}, {"type": "Feature", "geometry": {"type": "LineString", "coordinates": [[36.87149420362829, 69.23259846484763], [36.876151463176626, 69.23007611905751]]}, "properties": {"source": "85336", "target": "85344"}}, {"type": "Feature", "geometry": {"type": "LineString", "coordinates": [[36.87149420362829, 69.23259846484763], [36.87112538557594, 69.2307391027201]]}, "properties": {"source": "85336", "target": "85335"}}, {"type": "Feature", "geometry": {"type": "LineString", "coordinates": [[36.8768607357014, 69.23053788974102], [36.877019970568, 69.2297945991169]]}, "properties": {"source": "386619", "target": "386620"}}, {"type": "Feature", "geometry": {"type": "LineString", "coordinates": [[36.8768607357014, 69.23053788974102], [36.87063805104199, 69.23020852340784]]}, "properties": {"source": "386619", "target": "386618"}}, {"type": "Feature", "geometry": {"type": "LineString", "coordinates": [[36.8768607357014, 69.23053788974102], [36.87063909900979, 69.23171194517079]]}, "properties": {"source": "386619", "target": "78670"}}, {"type": "Feature", "geometry": {"type": "LineString", "coordinates": [[36.8768607357014, 69.23053788974102], [36.8742089239434, 69.23079190446023]]}, "properties": {"source": "386619", "target": "341587"}}, {"type": "Feature", "geometry": {"type": "LineString", "coordinates": [[36.8768607357014, 69.23053788974102], [36.872824814795024, 69.23068991025087]]}, "properties": {"source": "386619", "target": "319631"}}, {"type": "Feature", "geometry": {"type": "LineString", "coordinates": [[36.8768607357014, 69.23053788974102], [36.8701840611167, 69.23137605329885]]}, "properties": {"source": "386619", "target": "332808"}}, {"type": "Feature", "geometry": {"type": "LineString", "coordinates": [[36.8768607357014, 69.23053788974102], [36.87513897153016, 69.23108088988843]]}, "properties": {"source": "386619", "target": "5802612"}}, {"type": "Feature", "geometry": {"type": "LineString", "coordinates": [[36.87063805104199, 69.23020852340784], [36.87632195053223, 69.23202697829058]]}, "properties": {"source": "386618", "target": "12958346"}}, {"type": "Feature", "geometry": {"type": "LineString", "coordinates": [[36.87069463987342, 69.23009694369443], [36.87701441789156, 69.23042523735182]]}, "properties": {"source": "85342", "target": "85308"}}, {"type": "Feature", "geometry": {"type": "LineString", "coordinates": [[36.87069463987342, 69.23009694369443], [36.87437969598071, 69.23218393975469]]}, "properties": {"source": "85342", "target": "85366"}}, {"type": "Feature", "geometry": {"type": "LineString", "coordinates": [[36.87069463987342, 69.23009694369443], [36.87149420362829, 69.23259846484763]]}, "properties": {"source": "85342", "target": "85336"}}, {"type": "Feature", "geometry": {"type": "LineString", "coordinates": [[36.87069463987342, 69.23009694369443], [36.871904107414224, 69.23031968121194]]}, "properties": {"source": "85342", "target": "85345"}}, {"type": "Feature", "geometry": {"type": "LineString", "coordinates": [[36.87069463987342, 69.23009694369443], [36.87107191512342, 69.23071312974665]]}, "properties": {"source": "85342", "target": "85338"}}, {"type": "Feature", "geometry": {"type": "LineString", "coordinates": [[36.87069463987342, 69.23009694369443], [36.87155726102057, 69.23194881616041]]}, "properties": {"source": "85342", "target": "85341"}}, {"type": "Feature", "geometry": {"type": "LineString", "coordinates": [[36.87069463987342, 69.23009694369443], [36.876151463176626, 69.23007611905751]]}, "properties": {"source": "85342", "target": "85344"}}, {"type": "Feature", "geometry": {"type": "LineString", "coordinates": [[36.87069463987342, 69.23009694369443], [36.87112538557594, 69.2307391027201]]}, "properties": {"source": "85342", "target": "85335"}}, {"type": "Feature", "geometry": {"type": "LineString", "coordinates": [[36.87069463987342, 69.23009694369443], [36.87445729087554, 69.23050840813633]]}, "properties": {"source": "85342", "target": "87953"}}, {"type": "Feature", "geometry": {"type": "LineString", "coordinates": [[36.87069463987342, 69.23009694369443], [36.871389563681646, 69.22998858380413]]}, "properties": {"source": "85342", "target": "85339"}}, {"type": "Feature", "geometry": {"type": "LineString", "coordinates": [[36.87069463987342, 69.23009694369443], [36.87490610220536, 69.23238030006536]]}, "properties": {"source": "85342", "target": "834879"}}, {"type": "Feature", "geometry": {"type": "LineString", "coordinates": [[36.87069463987342, 69.23009694369443], [36.869589995622874, 69.23167859538003]]}, "properties": {"source": "85342", "target": "85337"}}, {"type": "Feature", "geometry": {"type": "LineString", "coordinates": [[36.87069463987342, 69.23009694369443], [36.874038484079705, 69.2312711474406]]}, "properties": {"source": "85342", "target": "6561743"}}, {"type": "Feature", "geometry": {"type": "LineString", "coordinates": [[36.87069463987342, 69.23009694369443], [36.87281927471858, 69.23247033979368]]}, "properties": {"source": "85342", "target": "2950951"}}, {"type": "Feature", "geometry": {"type": "LineString", "coordinates": [[36.87069463987342, 69.23009694369443], [36.86961820973792, 69.23206238242634]]}, "properties": {"source": "85342", "target": "1604853"}}, {"type": "Feature", "geometry": {"type": "LineString", "coordinates": [[36.8768607357014, 69.23053788974102], [36.874096473806844, 69.23118233839332]]}, "properties": {"source": "386619", "target": "8549518"}}, {"type": "Feature", "geometry": {"type": "LineString", "coordinates": [[36.8768607357014, 69.23053788974102], [36.87120692895138, 69.22996116554586]]}, "properties": {"source": "386619", "target": "17319"}}, {"type": "Feature", "geometry": {"type": "LineString", "coordinates": [[36.8768607357014, 69.23053788974102], [36.87812136226657, 69.23247395426651]]}, "properties": {"source": "386619", "target": "607407"}}, {"type": "Feature", "geometry": {"type": "LineString", "coordinates": [[36.8768607357014, 69.23053788974102], [36.876384921915616, 69.23232339853647]]}, "properties": {"source": "386619", "target": "29205"}}, {"type": "Feature", "geometry": {"type": "LineString", "coordinates": [[36.8768607357014, 69.23053788974102], [36.87413246334006, 69.23016347560079]]}, "properties": {"source": "386619", "target": "18144154"}}, {"type": "Feature", "geometry": {"type": "LineString", "coordinates": [[36.8768607357014, 69.23053788974102], [36.87090145721481, 69.23253704164489]]}, "properties": {"source": "386619", "target": "15803163"}}, {"type": "Feature", "geometry": {"type": "LineString", "coordinates": [[36.8768607357014, 69.23053788974102], [36.876419979706554, 69.23030388876032]]}, "properties": {"source": "386619", "target": "22609483"}}, {"type": "Feature", "geometry": {"type": "LineString", "coordinates": [[36.876467654981695, 69.22987740807284], [36.87060897118448, 69.23115931004222]]}, "properties": {"source": "607403", "target": "85307"}}, {"type": "Feature", "geometry": {"type": "LineString", "coordinates": [[36.876467654981695, 69.22987740807284], [36.87348230571595, 69.22994742626304]]}, "properties": {"source": "607403", "target": "607410"}}, {"type": "Feature", "geometry": {"type": "LineString", "coordinates": [[36.87513897153016, 69.23108088988843], [36.87632195053223, 69.23202697829058]]}, "properties": {"source": "5802612", "target": "12958346"}}, {"type": "Feature", "geometry": {"type": "LineString", "coordinates": [[36.87445729087554, 69.23050840813633], [36.87155726102057, 69.23194881616041]]}, "properties": {"source": "87953", "target": "85341"}}, {"type": "Feature", "geometry": {"type": "LineString", "coordinates": [[36.87445729087554, 69.23050840813633], [36.87112538557594, 69.2307391027201]]}, "properties": {"source": "87953", "target": "85335"}}, {"type": "Feature", "geometry": {"type": "LineString", "coordinates": [[36.87445729087554, 69.23050840813633], [36.871389563681646, 69.22998858380413]]}, "properties": {"source": "87953", "target": "85339"}}, {"type": "Feature", "geometry": {"type": "LineString", "coordinates": [[36.87445729087554, 69.23050840813633], [36.86961820973792, 69.23206238242634]]}, "properties": {"source": "87953", "target": "1604853"}}, {"type": "Feature", "geometry": {"type": "LineString", "coordinates": [[36.87445729087554, 69.23050840813633], [36.87544634720942, 69.22976881671406]]}, "properties": {"source": "87953", "target": "2177670"}}, {"type": "Feature", "geometry": {"type": "LineString", "coordinates": [[36.87490610220536, 69.23238030006536], [36.87149420362829, 69.23259846484763]]}, "properties": {"source": "834879", "target": "85336"}}, {"type": "Feature", "geometry": {"type": "LineString", "coordinates": [[36.87490610220536, 69.23238030006536], [36.871904107414224, 69.23031968121194]]}, "properties": {"source": "834879", "target": "85345"}}, {"type": "Feature", "geometry": {"type": "LineString", "coordinates": [[36.87490610220536, 69.23238030006536], [36.87107191512342, 69.23071312974665]]}, "properties": {"source": "834879", "target": "85338"}}, {"type": "Feature", "geometry": {"type": "LineString", "coordinates": [[36.87490610220536, 69.23238030006536], [36.87155726102057, 69.23194881616041]]}, "properties": {"source": "834879", "target": "85341"}}, {"type": "Feature", "geometry": {"type": "LineString", "coordinates": [[36.87490610220536, 69.23238030006536], [36.876151463176626, 69.23007611905751]]}, "properties": {"source": "834879", "target": "85344"}}, {"type": "Feature", "geometry": {"type": "LineString", "coordinates": [[36.87490610220536, 69.23238030006536], [36.87112538557594, 69.2307391027201]]}, "properties": {"source": "834879", "target": "85335"}}, {"type": "Feature", "geometry": {"type": "LineString", "coordinates": [[36.87490610220536, 69.23238030006536], [36.87445729087554, 69.23050840813633]]}, "properties": {"source": "834879", "target": "87953"}}, {"type": "Feature", "geometry": {"type": "LineString", "coordinates": [[36.87490610220536, 69.23238030006536], [36.871389563681646, 69.22998858380413]]}, "properties": {"source": "834879", "target": "85339"}}, {"type": "Feature", "geometry": {"type": "LineString", "coordinates": [[36.87490610220536, 69.23238030006536], [36.874038484079705, 69.2312711474406]]}, "properties": {"source": "834879", "target": "6561743"}}, {"type": "Feature", "geometry": {"type": "LineString", "coordinates": [[36.87490610220536, 69.23238030006536], [36.87281927471858, 69.23247033979368]]}, "properties": {"source": "834879", "target": "2950951"}}, {"type": "Feature", "geometry": {"type": "LineString", "coordinates": [[36.87490610220536, 69.23238030006536], [36.86961820973792, 69.23206238242634]]}, "properties": {"source": "834879", "target": "1604853"}}, {"type": "Feature", "geometry": {"type": "LineString", "coordinates": [[36.87490610220536, 69.23238030006536], [36.87544634720942, 69.22976881671406]]}, "properties": {"source": "834879", "target": "2177670"}}, {"type": "Feature", "geometry": {"type": "LineString", "coordinates": [[36.874096473806844, 69.23118233839332], [36.87060897118448, 69.23115931004222]]}, "properties": {"source": "8549518", "target": "85307"}}, {"type": "Feature", "geometry": {"type": "LineString", "coordinates": [[36.874096473806844, 69.23118233839332], [36.87348230571595, 69.22994742626304]]}, "properties": {"source": "8549518", "target": "607410"}}, {"type": "Feature", "geometry": {"type": "LineString", "coordinates": [[36.874096473806844, 69.23118233839332], [36.876467654981695, 69.22987740807284]]}, "properties": {"source": "8549518", "target": "607403"}}, {"type": "Feature", "geometry": {"type": "LineString", "coordinates": [[36.874096473806844, 69.23118233839332], [36.877019970568, 69.2297945991169]]}, "properties": {"source": "8549518", "target": "386620"}}, {"type": "Feature", "geometry": {"type": "LineString", "coordinates": [[36.874096473806844, 69.23118233839332], [36.87063805104199, 69.23020852340784]]}, "properties": {"source": "8549518", "target": "386618"}}, {"type": "Feature", "geometry": {"type": "LineString", "coordinates": [[36.874096473806844, 69.23118233839332], [36.87063909900979, 69.23171194517079]]}, "properties": {"source": "8549518", "target": "78670"}}, {"type": "Feature", "geometry": {"type": "LineString", "coordinates": [[36.874096473806844, 69.23118233839332], [36.87812136226657, 69.23247395426651]]}, "properties": {"source": "8549518", "target": "607407"}}, {"type": "Feature", "geometry": {"type": "LineString", "coordinates": [[36.874096473806844, 69.23118233839332], [36.87314318423239, 69.23163750839262]]}, "properties": {"source": "8549518", "target": "6561654"}}, {"type": "Feature", "geometry": {"type": "LineString", "coordinates": [[36.874096473806844, 69.23118233839332], [36.87632195053223, 69.23202697829058]]}, "properties": {"source": "8549518", "target": "12958346"}}, {"type": "Feature", "geometry": {"type": "LineString", "coordinates": [[36.87628968558849, 69.23186953851379], [36.87060897118448, 69.23115931004222]]}, "properties": {"source": "1589272", "target": "85307"}}, {"type": "Feature", "geometry": {"type": "LineString", "coordinates": [[36.87628968558849, 69.23186953851379], [36.87701441789156, 69.23042523735182]]}, "properties": {"source": "1589272", "target": "85308"}}, {"type": "Feature", "geometry": {"type": "LineString", "coordinates": [[36.87628968558849, 69.23186953851379], [36.87348230571595, 69.22994742626304]]}, "properties": {"source": "1589272", "target": "607410"}}, {"type": "Feature", "geometry": {"type": "LineString", "coordinates": [[36.87628968558849, 69.23186953851379], [36.8768607357014, 69.23053788974102]]}, "properties": {"source": "1589272", "target": "386619"}}, {"type": "Feature", "geometry": {"type": "LineString", "coordinates": [[36.87628968558849, 69.23186953851379], [36.876467654981695, 69.22987740807284]]}, "properties": {"source": "1589272", "target": "607403"}}, {"type": "Feature", "geometry": {"type": "LineString", "coordinates": [[36.87628968558849, 69.23186953851379], [36.87063805104199, 69.23020852340784]]}, "properties": {"source": "1589272", "target": "386618"}}, {"type": "Feature", "geometry": {"type": "LineString", "coordinates": [[36.87628968558849, 69.23186953851379], [36.87063909900979, 69.23171194517079]]}, "properties": {"source": "1589272", "target": "78670"}}, {"type": "Feature", "geometry": {"type": "LineString", "coordinates": [[36.87628968558849, 69.23186953851379], [36.872824814795024, 69.23068991025087]]}, "properties": {"source": "1589272", "target": "319631"}}, {"type": "Feature", "geometry": {"type": "LineString", "coordinates": [[36.87628968558849, 69.23186953851379], [36.8701840611167, 69.23137605329885]]}, "properties": {"source": "1589272", "target": "332808"}}, {"type": "Feature", "geometry": {"type": "LineString", "coordinates": [[36.87628968558849, 69.23186953851379], [36.87120692895138, 69.22996116554586]]}, "properties": {"source": "1589272", "target": "17319"}}, {"type": "Feature", "geometry": {"type": "LineString", "coordinates": [[36.87628968558849, 69.23186953851379], [36.87090145721481, 69.23253704164489]]}, "properties": {"source": "1589272", "target": "15803163"}}, {"type": "Feature", "geometry": {"type": "LineString", "coordinates": [[36.87628968558849, 69.23186953851379], [36.87632195053223, 69.23202697829058]]}, "properties": {"source": "1589272", "target": "12958346"}}, {"type": "Feature", "geometry": {"type": "LineString", "coordinates": [[36.87060897118448, 69.23115931004222], [36.87348230571595, 69.22994742626304]]}, "properties": {"source": "85307", "target": "607410"}}, {"type": "Feature", "geometry": {"type": "LineString", "coordinates": [[36.87060897118448, 69.23115931004222], [36.8701840611167, 69.23137605329885]]}, "properties": {"source": "85307", "target": "332808"}}, {"type": "Feature", "geometry": {"type": "LineString", "coordinates": [[36.87060897118448, 69.23115931004222], [36.871389563681646, 69.22998858380413]]}, "properties": {"source": "85307", "target": "85339"}}, {"type": "Feature", "geometry": {"type": "LineString", "coordinates": [[36.87701441789156, 69.23042523735182], [36.87060897118448, 69.23115931004222]]}, "properties": {"source": "85308", "target": "85307"}}, {"type": "Feature", "geometry": {"type": "LineString", "coordinates": [[36.87701441789156, 69.23042523735182], [36.87348230571595, 69.22994742626304]]}, "properties": {"source": "85308", "target": "607410"}}, {"type": "Feature", "geometry": {"type": "LineString", "coordinates": [[36.87701441789156, 69.23042523735182], [36.876467654981695, 69.22987740807284]]}, "properties": {"source": "85308", "target": "607403"}}, {"type": "Feature", "geometry": {"type": "LineString", "coordinates": [[36.87701441789156, 69.23042523735182], [36.877019970568, 69.2297945991169]]}, "properties": {"source": "85308", "target": "386620"}}, {"type": "Feature", "geometry": {"type": "LineString", "coordinates": [[36.87701441789156, 69.23042523735182], [36.87063805104199, 69.23020852340784]]}, "properties": {"source": "85308", "target": "386618"}}, {"type": "Feature", "geometry": {"type": "LineString", "coordinates": [[36.87701441789156, 69.23042523735182], [36.87107191512342, 69.23071312974665]]}, "properties": {"source": "85308", "target": "85338"}}, {"type": "Feature", "geometry": {"type": "LineString", "coordinates": [[36.87701441789156, 69.23042523735182], [36.87063909900979, 69.23171194517079]]}, "properties": {"source": "85308", "target": "78670"}}, {"type": "Feature", "geometry": {"type": "LineString", "coordinates": [[36.87701441789156, 69.23042523735182], [36.87155726102057, 69.23194881616041]]}, "properties": {"source": "85308", "target": "85341"}}, {"type": "Feature", "geometry": {"type": "LineString", "coordinates": [[36.87701441789156, 69.23042523735182], [36.876151463176626, 69.23007611905751]]}, "properties": {"source": "85308", "target": "85344"}}, {"type": "Feature", "geometry": {"type": "LineString", "coordinates": [[36.87701441789156, 69.23042523735182], [36.8742089239434, 69.23079190446023]]}, "properties": {"source": "85308", "target": "341587"}}, {"type": "Feature", "geometry": {"type": "LineString", "coordinates": [[36.87701441789156, 69.23042523735182], [36.87112538557594, 69.2307391027201]]}, "properties": {"source": "85308", "target": "85335"}}, {"type": "Feature", "geometry": {"type": "LineString", "coordinates": [[36.87701441789156, 69.23042523735182], [36.872824814795024, 69.23068991025087]]}, "properties": {"source": "85308", "target": "319631"}}, {"type": "Feature", "geometry": {"type": "LineString", "coordinates": [[36.87701441789156, 69.23042523735182], [36.8701840611167, 69.23137605329885]]}, "properties": {"source": "85308", "target": "332808"}}, {"type": "Feature", "geometry": {"type": "LineString", "coordinates": [[36.877019970568, 69.2297945991169], [36.87063805104199, 69.23020852340784]]}, "properties": {"source": "386620", "target": "386618"}}, {"type": "Feature", "geometry": {"type": "LineString", "coordinates": [[36.877019970568, 69.2297945991169], [36.87063909900979, 69.23171194517079]]}, "properties": {"source": "386620", "target": "78670"}}, {"type": "Feature", "geometry": {"type": "LineString", "coordinates": [[36.877019970568, 69.2297945991169], [36.8742089239434, 69.23079190446023]]}, "properties": {"source": "386620", "target": "341587"}}, {"type": "Feature", "geometry": {"type": "LineString", "coordinates": [[36.877019970568, 69.2297945991169], [36.872824814795024, 69.23068991025087]]}, "properties": {"source": "386620", "target": "319631"}}, {"type": "Feature", "geometry": {"type": "LineString", "coordinates": [[36.877019970568, 69.2297945991169], [36.8701840611167, 69.23137605329885]]}, "properties": {"source": "386620", "target": "332808"}}, {"type": "Feature", "geometry": {"type": "LineString", "coordinates": [[36.877019970568, 69.2297945991169], [36.87812136226657, 69.23247395426651]]}, "properties": {"source": "386620", "target": "607407"}}, {"type": "Feature", "geometry": {"type": "LineString", "coordinates": [[36.877019970568, 69.2297945991169], [36.87314318423239, 69.23163750839262]]}, "properties": {"source": "386620", "target": "6561654"}}, {"type": "Feature", "geometry": {"type": "LineString", "coordinates": [[36.877019970568, 69.2297945991169], [36.876384921915616, 69.23232339853647]]}, "properties": {"source": "386620", "target": "29205"}}, {"type": "Feature", "geometry": {"type": "LineString", "coordinates": [[36.877019970568, 69.2297945991169], [36.87413246334006, 69.23016347560079]]}, "properties": {"source": "386620", "target": "18144154"}}, {"type": "Feature", "geometry": {"type": "LineString", "coordinates": [[36.87437969598071, 69.23218393975469], [36.87281927471858, 69.23247033979368]]}, "properties": {"source": "85366", "target": "2950951"}}, {"type": "Feature", "geometry": {"type": "LineString", "coordinates": [[36.87437969598071, 69.23218393975469], [36.86961820973792, 69.23206238242634]]}, "properties": {"source": "85366", "target": "1604853"}}, {"type": "Feature", "geometry": {"type": "LineString", "coordinates": [[36.87437969598071, 69.23218393975469], [36.87544634720942, 69.22976881671406]]}, "properties": {"source": "85366", "target": "2177670"}}, {"type": "Feature", "geometry": {"type": "LineString", "coordinates": [[36.87437969598071, 69.23218393975469], [36.876237501659034, 69.23007529629842]]}, "properties": {"source": "85366", "target": "902042"}}, {"type": "Feature", "geometry": {"type": "LineString", "coordinates": [[36.877019970568, 69.2297945991169], [36.87060897118448, 69.23115931004222]]}, "properties": {"source": "386620", "target": "85307"}}, {"type": "Feature", "geometry": {"type": "LineString", "coordinates": [[36.877019970568, 69.2297945991169], [36.87348230571595, 69.22994742626304]]}, "properties": {"source": "386620", "target": "607410"}}, {"type": "Feature", "geometry": {"type": "LineString", "coordinates": [[36.877019970568, 69.2297945991169], [36.876467654981695, 69.22987740807284]]}, "properties": {"source": "386620", "target": "607403"}}, {"type": "Feature", "geometry": {"type": "LineString", "coordinates": [[36.871904107414224, 69.23031968121194], [36.87060897118448, 69.23115931004222]]}, "properties": {"source": "85345", "target": "85307"}}, {"type": "Feature", "geometry": {"type": "LineString", "coordinates": [[36.871904107414224, 69.23031968121194], [36.87701441789156, 69.23042523735182]]}, "properties": {"source": "85345", "target": "85308"}}, {"type": "Feature", "geometry": {"type": "LineString", "coordinates": [[36.871904107414224, 69.23031968121194], [36.87107191512342, 69.23071312974665]]}, "properties": {"source": "85345", "target": "85338"}}, {"type": "Feature", "geometry": {"type": "LineString", "coordinates": [[36.871904107414224, 69.23031968121194], [36.87155726102057, 69.23194881616041]]}, "properties": {"source": "85345", "target": "85341"}}, {"type": "Feature", "geometry": {"type": "LineString", "coordinates": [[36.871904107414224, 69.23031968121194], [36.876151463176626, 69.23007611905751]]}, "properties": {"source": "85345", "target": "85344"}}, {"type": "Feature", "geometry": {"type": "LineString", "coordinates": [[36.871904107414224, 69.23031968121194], [36.87112538557594, 69.2307391027201]]}, "properties": {"source": "85345", "target": "85335"}}, {"type": "Feature", "geometry": {"type": "LineString", "coordinates": [[36.871904107414224, 69.23031968121194], [36.87445729087554, 69.23050840813633]]}, "properties": {"source": "85345", "target": "87953"}}, {"type": "Feature", "geometry": {"type": "LineString", "coordinates": [[36.871904107414224, 69.23031968121194], [36.871389563681646, 69.22998858380413]]}, "properties": {"source": "85345", "target": "85339"}}, {"type": "Feature", "geometry": {"type": "LineString", "coordinates": [[36.871904107414224, 69.23031968121194], [36.869589995622874, 69.23167859538003]]}, "properties": {"source": "85345", "target": "85337"}}, {"type": "Feature", "geometry": {"type": "LineString", "coordinates": [[36.87149420362829, 69.23259846484763], [36.87445729087554, 69.23050840813633]]}, "properties": {"source": "85336", "target": "87953"}}, {"type": "Feature", "geometry": {"type": "LineString", "coordinates": [[36.87149420362829, 69.23259846484763], [36.871389563681646, 69.22998858380413]]}, "properties": {"source": "85336", "target": "85339"}}, {"type": "Feature", "geometry": {"type": "LineString", "coordinates": [[36.87149420362829, 69.23259846484763], [36.869589995622874, 69.23167859538003]]}, "properties": {"source": "85336", "target": "85337"}}, {"type": "Feature", "geometry": {"type": "LineString", "coordinates": [[36.87149420362829, 69.23259846484763], [36.874038484079705, 69.2312711474406]]}, "properties": {"source": "85336", "target": "6561743"}}, {"type": "Feature", "geometry": {"type": "LineString", "coordinates": [[36.87149420362829, 69.23259846484763], [36.87281927471858, 69.23247033979368]]}, "properties": {"source": "85336", "target": "2950951"}}, {"type": "Feature", "geometry": {"type": "LineString", "coordinates": [[36.87149420362829, 69.23259846484763], [36.86961820973792, 69.23206238242634]]}, "properties": {"source": "85336", "target": "1604853"}}, {"type": "Feature", "geometry": {"type": "LineString", "coordinates": [[36.87149420362829, 69.23259846484763], [36.87544634720942, 69.22976881671406]]}, "properties": {"source": "85336", "target": "2177670"}}, {"type": "Feature", "geometry": {"type": "LineString", "coordinates": [[36.87437969598071, 69.23218393975469], [36.87107191512342, 69.23071312974665]]}, "properties": {"source": "85366", "target": "85338"}}, {"type": "Feature", "geometry": {"type": "LineString", "coordinates": [[36.87437969598071, 69.23218393975469], [36.87155726102057, 69.23194881616041]]}, "properties": {"source": "85366", "target": "85341"}}, {"type": "Feature", "geometry": {"type": "LineString", "coordinates": [[36.87437969598071, 69.23218393975469], [36.876151463176626, 69.23007611905751]]}, "properties": {"source": "85366", "target": "85344"}}, {"type": "Feature", "geometry": {"type": "LineString", "coordinates": [[36.87437969598071, 69.23218393975469], [36.87112538557594, 69.2307391027201]]}, "properties": {"source": "85366", "target": "85335"}}, {"type": "Feature", "geometry": {"type": "LineString", "coordinates": [[36.87437969598071, 69.23218393975469], [36.87445729087554, 69.23050840813633]]}, "properties": {"source": "85366", "target": "87953"}}, {"type": "Feature", "geometry": {"type": "LineString", "coordinates": [[36.87437969598071, 69.23218393975469], [36.871389563681646, 69.22998858380413]]}, "properties": {"source": "85366", "target": "85339"}}, {"type": "Feature", "geometry": {"type": "LineString", "coordinates": [[36.87437969598071, 69.23218393975469], [36.87490610220536, 69.23238030006536]]}, "properties": {"source": "85366", "target": "834879"}}, {"type": "Feature", "geometry": {"type": "LineString", "coordinates": [[36.87437969598071, 69.23218393975469], [36.869589995622874, 69.23167859538003]]}, "properties": {"source": "85366", "target": "85337"}}, {"type": "Feature", "geometry": {"type": "LineString", "coordinates": [[36.87437969598071, 69.23218393975469], [36.874038484079705, 69.2312711474406]]}, "properties": {"source": "85366", "target": "6561743"}}, {"type": "Feature", "geometry": {"type": "LineString", "coordinates": [[36.86961820973792, 69.23206238242634], [36.87155726102057, 69.23194881616041]]}, "properties": {"source": "1604853", "target": "85341"}}, {"type": "Feature", "geometry": {"type": "LineString", "coordinates": [[36.86961820973792, 69.23206238242634], [36.87112538557594, 69.2307391027201]]}, "properties": {"source": "1604853", "target": "85335"}}, {"type": "Feature", "geometry": {"type": "LineString", "coordinates": [[36.87544634720942, 69.22976881671406], [36.871389563681646, 69.22998858380413]]}, "properties": {"source": "2177670", "target": "85339"}}, {"type": "Feature", "geometry": {"type": "LineString", "coordinates": [[36.87632195053223, 69.23202697829058], [36.87314318423239, 69.23163750839262]]}, "properties": {"source": "12958346", "target": "6561654"}}, {"type": "Feature", "geometry": {"type": "LineString", "coordinates": [[36.876419979706554, 69.23030388876032], [36.87348230571595, 69.22994742626304]]}, "properties": {"source": "22609483", "target": "607410"}}, {"type": "Feature", "geometry": {"type": "LineString", "coordinates": [[36.876237501659034, 69.23007529629842], [36.87445729087554, 69.23050840813633]]}, "properties": {"source": "902042", "target": "87953"}}, {"type": "Feature", "geometry": {"type": "LineString", "coordinates": [[36.87040398636552, 69.23046613972352], [36.872824814795024, 69.23068991025087]]}, "properties": {"source": "1803358", "target": "319631"}}, {"type": "Feature", "geometry": {"type": "LineString", "coordinates": [[36.87107191512342, 69.23071312974665], [36.87445729087554, 69.23050840813633]]}, "properties": {"source": "85338", "target": "87953"}}, {"type": "Feature", "geometry": {"type": "LineString", "coordinates": [[36.87107191512342, 69.23071312974665], [36.871389563681646, 69.22998858380413]]}, "properties": {"source": "85338", "target": "85339"}}, {"type": "Feature", "geometry": {"type": "LineString", "coordinates": [[36.87107191512342, 69.23071312974665], [36.874096473806844, 69.23118233839332]]}, "properties": {"source": "85338", "target": "8549518"}}, {"type": "Feature", "geometry": {"type": "LineString", "coordinates": [[36.87107191512342, 69.23071312974665], [36.869589995622874, 69.23167859538003]]}, "properties": {"source": "85338", "target": "85337"}}, {"type": "Feature", "geometry": {"type": "LineString", "coordinates": [[36.87107191512342, 69.23071312974665], [36.874038484079705, 69.2312711474406]]}, "properties": {"source": "85338", "target": "6561743"}}, {"type": "Feature", "geometry": {"type": "LineString", "coordinates": [[36.87107191512342, 69.23071312974665], [36.86961820973792, 69.23206238242634]]}, "properties": {"source": "85338", "target": "1604853"}}, {"type": "Feature", "geometry": {"type": "LineString", "coordinates": [[36.87107191512342, 69.23071312974665], [36.87544634720942, 69.22976881671406]]}, "properties": {"source": "85338", "target": "2177670"}}, {"type": "Feature", "geometry": {"type": "LineString", "coordinates": [[36.87063909900979, 69.23171194517079], [36.87060897118448, 69.23115931004222]]}, "properties": {"source": "78670", "target": "85307"}}, {"type": "Feature", "geometry": {"type": "LineString", "coordinates": [[36.87063909900979, 69.23171194517079], [36.87348230571595, 69.22994742626304]]}, "properties": {"source": "78670", "target": "607410"}}, {"type": "Feature", "geometry": {"type": "LineString", "coordinates": [[36.876151463176626, 69.23007611905751], [36.87445729087554, 69.23050840813633]]}, "properties": {"source": "85344", "target": "87953"}}, {"type": "Feature", "geometry": {"type": "LineString", "coordinates": [[36.876151463176626, 69.23007611905751], [36.871389563681646, 69.22998858380413]]}, "properties": {"source": "85344", "target": "85339"}}, {"type": "Feature", "geometry": {"type": "LineString", "coordinates": [[36.876151463176626, 69.23007611905751], [36.869589995622874, 69.23167859538003]]}, "properties": {"source": "85344", "target": "85337"}}, {"type": "Feature", "geometry": {"type": "LineString", "coordinates": [[36.876151463176626, 69.23007611905751], [36.874038484079705, 69.2312711474406]]}, "properties": {"source": "85344", "target": "6561743"}}, {"type": "Feature", "geometry": {"type": "LineString", "coordinates": [[36.876151463176626, 69.23007611905751], [36.87281927471858, 69.23247033979368]]}, "properties": {"source": "85344", "target": "2950951"}}, {"type": "Feature", "geometry": {"type": "LineString", "coordinates": [[36.876151463176626, 69.23007611905751], [36.86961820973792, 69.23206238242634]]}, "properties": {"source": "85344", "target": "1604853"}}, {"type": "Feature", "geometry": {"type": "LineString", "coordinates": [[36.8742089239434, 69.23079190446023], [36.87060897118448, 69.23115931004222]]}, "properties": {"source": "341587", "target": "85307"}}, {"type": "Feature", "geometry": {"type": "LineString", "coordinates": [[36.8742089239434, 69.23079190446023], [36.87348230571595, 69.22994742626304]]}, "properties": {"source": "341587", "target": "607410"}}, {"type": "Feature", "geometry": {"type": "LineString", "coordinates": [[36.8742089239434, 69.23079190446023], [36.876467654981695, 69.22987740807284]]}, "properties": {"source": "341587", "target": "607403"}}, {"type": "Feature", "geometry": {"type": "LineString", "coordinates": [[36.8742089239434, 69.23079190446023], [36.872824814795024, 69.23068991025087]]}, "properties": {"source": "341587", "target": "319631"}}, {"type": "Feature", "geometry": {"type": "LineString", "coordinates": [[36.8742089239434, 69.23079190446023], [36.8701840611167, 69.23137605329885]]}, "properties": {"source": "341587", "target": "332808"}}, {"type": "Feature", "geometry": {"type": "LineString", "coordinates": [[36.8742089239434, 69.23079190446023], [36.87413246334006, 69.23016347560079]]}, "properties": {"source": "341587", "target": "18144154"}}, {"type": "Feature", "geometry": {"type": "LineString", "coordinates": [[36.8742089239434, 69.23079190446023], [36.876419979706554, 69.23030388876032]]}, "properties": {"source": "341587", "target": "22609483"}}, {"type": "Feature", "geometry": {"type": "LineString", "coordinates": [[36.87112538557594, 69.2307391027201], [36.871389563681646, 69.22998858380413]]}, "properties": {"source": "85335", "target": "85339"}}, {"type": "Feature", "geometry": {"type": "LineString", "coordinates": [[36.87112538557594, 69.2307391027201], [36.87544634720942, 69.22976881671406]]}, "properties": {"source": "85335", "target": "2177670"}}, {"type": "Feature", "geometry": {"type": "LineString", "coordinates": [[36.872824814795024, 69.23068991025087], [36.87060897118448, 69.23115931004222]]}, "properties": {"source": "319631", "target": "85307"}}, {"type": "Feature", "geometry": {"type": "LineString", "coordinates": [[36.87063909900979, 69.23171194517079], [36.876467654981695, 69.22987740807284]]}, "properties": {"source": "78670", "target": "607403"}}, {"type": "Feature", "geometry": {"type": "LineString", "coordinates": [[36.87063909900979, 69.23171194517079], [36.87063805104199, 69.23020852340784]]}, "properties": {"source": "78670", "target": "386618"}}, {"type": "Feature", "geometry": {"type": "LineString", "coordinates": [[36.87063909900979, 69.23171194517079], [36.8742089239434, 69.23079190446023]]}, "properties": {"source": "78670", "target": "341587"}}, {"type": "Feature", "geometry": {"type": "LineString", "coordinates": [[36.87063909900979, 69.23171194517079], [36.872824814795024, 69.23068991025087]]}, "properties": {"source": "78670", "target": "319631"}}, {"type": "Feature", "geometry": {"type": "LineString", "coordinates": [[36.87063909900979, 69.23171194517079], [36.8701840611167, 69.23137605329885]]}, "properties": {"source": "78670", "target": "332808"}}, {"type": "Feature", "geometry": {"type": "LineString", "coordinates": [[36.87063909900979, 69.23171194517079], [36.87812136226657, 69.23247395426651]]}, "properties": {"source": "78670", "target": "607407"}}, {"type": "Feature", "geometry": {"type": "LineString", "coordinates": [[36.87063909900979, 69.23171194517079], [36.87314318423239, 69.23163750839262]]}, "properties": {"source": "78670", "target": "6561654"}}, {"type": "Feature", "geometry": {"type": "LineString", "coordinates": [[36.87120692895138, 69.22996116554586], [36.87060897118448, 69.23115931004222]]}, "properties": {"source": "17319", "target": "85307"}}, {"type": "Feature", "geometry": {"type": "LineString", "coordinates": [[36.87120692895138, 69.22996116554586], [36.87701441789156, 69.23042523735182]]}, "properties": {"source": "17319", "target": "85308"}}, {"type": "Feature", "geometry": {"type": "LineString", "coordinates": [[36.87120692895138, 69.22996116554586], [36.87348230571595, 69.22994742626304]]}, "properties": {"source": "17319", "target": "607410"}}, {"type": "Feature", "geometry": {"type": "LineString", "coordinates": [[36.87120692895138, 69.22996116554586], [36.876467654981695, 69.22987740807284]]}, "properties": {"source": "17319", "target": "607403"}}, {"type": "Feature", "geometry": {"type": "LineString", "coordinates": [[36.87120692895138, 69.22996116554586], [36.877019970568, 69.2297945991169]]}, "properties": {"source": "17319", "target": "386620"}}, {"type": "Feature", "geometry": {"type": "LineString", "coordinates": [[36.87120692895138, 69.22996116554586], [36.87063805104199, 69.23020852340784]]}, "properties": {"source": "17319", "target": "386618"}}, {"type": "Feature", "geometry": {"type": "LineString", "coordinates": [[36.87120692895138, 69.22996116554586], [36.8742089239434, 69.23079190446023]]}, "properties": {"source": "17319", "target": "341587"}}, {"type": "Feature", "geometry": {"type": "LineString", "coordinates": [[36.87120692895138, 69.22996116554586], [36.872824814795024, 69.23068991025087]]}, "properties": {"source": "17319", "target": "319631"}}, {"type": "Feature", "geometry": {"type": "LineString", "coordinates": [[36.87120692895138, 69.22996116554586], [36.8701840611167, 69.23137605329885]]}, "properties": {"source": "17319", "target": "332808"}}, {"type": "Feature", "geometry": {"type": "LineString", "coordinates": [[36.87281927471858, 69.23247033979368], [36.874038484079705, 69.2312711474406]]}, "properties": {"source": "2950951", "target": "6561743"}}, {"type": "Feature", "geometry": {"type": "LineString", "coordinates": [[36.87090145721481, 69.23253704164489], [36.87060897118448, 69.23115931004222]]}, "properties": {"source": "15803163", "target": "85307"}}, {"type": "Feature", "geometry": {"type": "LineString", "coordinates": [[36.87090145721481, 69.23253704164489], [36.87348230571595, 69.22994742626304]]}, "properties": {"source": "15803163", "target": "607410"}}, {"type": "Feature", "geometry": {"type": "LineString", "coordinates": [[36.87090145721481, 69.23253704164489], [36.876467654981695, 69.22987740807284]]}, "properties": {"source": "15803163", "target": "607403"}}, {"type": "Feature", "geometry": {"type": "LineString", "coordinates": [[36.87090145721481, 69.23253704164489], [36.872824814795024, 69.23068991025087]]}, "properties": {"source": "15803163", "target": "319631"}}, {"type": "Feature", "geometry": {"type": "LineString", "coordinates": [[36.87090145721481, 69.23253704164489], [36.8701840611167, 69.23137605329885]]}, "properties": {"source": "15803163", "target": "332808"}}, {"type": "Feature", "geometry": {"type": "LineString", "coordinates": [[36.87090145721481, 69.23253704164489], [36.87413246334006, 69.23016347560079]]}, "properties": {"source": "15803163", "target": "18144154"}}, {"type": "Feature", "geometry": {"type": "LineString", "coordinates": [[36.87513897153016, 69.23108088988843], [36.876467654981695, 69.22987740807284]]}, "properties": {"source": "5802612", "target": "607403"}}, {"type": "Feature", "geometry": {"type": "LineString", "coordinates": [[36.87513897153016, 69.23108088988843], [36.877019970568, 69.2297945991169]]}, "properties": {"source": "5802612", "target": "386620"}}, {"type": "Feature", "geometry": {"type": "LineString", "coordinates": [[36.87513897153016, 69.23108088988843], [36.87063805104199, 69.23020852340784]]}, "properties": {"source": "5802612", "target": "386618"}}, {"type": "Feature", "geometry": {"type": "LineString", "coordinates": [[36.87513897153016, 69.23108088988843], [36.87063909900979, 69.23171194517079]]}, "properties": {"source": "5802612", "target": "78670"}}, {"type": "Feature", "geometry": {"type": "LineString", "coordinates": [[36.87513897153016, 69.23108088988843], [36.8742089239434, 69.23079190446023]]}, "properties": {"source": "5802612", "target": "341587"}}, {"type": "Feature", "geometry": {"type": "LineString", "coordinates": [[36.87513897153016, 69.23108088988843], [36.874096473806844, 69.23118233839332]]}, "properties": {"source": "5802612", "target": "8549518"}}, {"type": "Feature", "geometry": {"type": "LineString", "coordinates": [[36.87513897153016, 69.23108088988843], [36.87812136226657, 69.23247395426651]]}, "properties": {"source": "5802612", "target": "607407"}}, {"type": "Feature", "geometry": {"type": "LineString", "coordinates": [[36.87513897153016, 69.23108088988843], [36.87314318423239, 69.23163750839262]]}, "properties": {"source": "5802612", "target": "6561654"}}, {"type": "Feature", "geometry": {"type": "LineString", "coordinates": [[36.87513897153016, 69.23108088988843], [36.87090145721481, 69.23253704164489]]}, "properties": {"source": "5802612", "target": "15803163"}}, {"type": "Feature", "geometry": {"type": "LineString", "coordinates": [[36.87120692895138, 69.22996116554586], [36.87090145721481, 69.23253704164489]]}, "properties": {"source": "17319", "target": "15803163"}}, {"type": "Feature", "geometry": {"type": "LineString", "coordinates": [[36.87812136226657, 69.23247395426651], [36.87060897118448, 69.23115931004222]]}, "properties": {"source": "607407", "target": "85307"}}, {"type": "Feature", "geometry": {"type": "LineString", "coordinates": [[36.87812136226657, 69.23247395426651], [36.87348230571595, 69.22994742626304]]}, "properties": {"source": "607407", "target": "607410"}}, {"type": "Feature", "geometry": {"type": "LineString", "coordinates": [[36.87812136226657, 69.23247395426651], [36.876467654981695, 69.22987740807284]]}, "properties": {"source": "607407", "target": "607403"}}, {"type": "Feature", "geometry": {"type": "LineString", "coordinates": [[36.87812136226657, 69.23247395426651], [36.87314318423239, 69.23163750839262]]}, "properties": {"source": "607407", "target": "6561654"}}, {"type": "Feature", "geometry": {"type": "LineString", "coordinates": [[36.87812136226657, 69.23247395426651], [36.87632195053223, 69.23202697829058]]}, "properties": {"source": "607407", "target": "12958346"}}, {"type": "Feature", "geometry": {"type": "LineString", "coordinates": [[36.87314318423239, 69.23163750839262], [36.87060897118448, 69.23115931004222]]}, "properties": {"source": "6561654", "target": "85307"}}, {"type": "Feature", "geometry": {"type": "LineString", "coordinates": [[36.87063909900979, 69.23171194517079], [36.87632195053223, 69.23202697829058]]}, "properties": {"source": "78670", "target": "12958346"}}, {"type": "Feature", "geometry": {"type": "LineString", "coordinates": [[36.87155726102057, 69.23194881616041], [36.87060897118448, 69.23115931004222]]}, "properties": {"source": "85341", "target": "85307"}}, {"type": "Feature", "geometry": {"type": "LineString", "coordinates": [[36.87155726102057, 69.23194881616041], [36.87112538557594, 69.2307391027201]]}, "properties": {"source": "85341", "target": "85335"}}, {"type": "Feature", "geometry": {"type": "LineString", "coordinates": [[36.87155726102057, 69.23194881616041], [36.871389563681646, 69.22998858380413]]}, "properties": {"source": "85341", "target": "85339"}}, {"type": "Feature", "geometry": {"type": "LineString", "coordinates": [[36.87155726102057, 69.23194881616041], [36.87544634720942, 69.22976881671406]]}, "properties": {"source": "85341", "target": "2177670"}}, {"type": "Feature", "geometry": {"type": "LineString", "coordinates": [[36.869473515829526, 69.23185367186451], [36.87060897118448, 69.23115931004222]]}, "properties": {"source": "386621", "target": "85307"}}, {"type": "Feature", "geometry": {"type": "LineString", "coordinates": [[36.869473515829526, 69.23185367186451], [36.87701441789156, 69.23042523735182]]}, "properties": {"source": "386621", "target": "85308"}}, {"type": "Feature", "geometry": {"type": "LineString", "coordinates": [[36.869473515829526, 69.23185367186451], [36.87348230571595, 69.22994742626304]]}, "properties": {"source": "386621", "target": "607410"}}, {"type": "Feature", "geometry": {"type": "LineString", "coordinates": [[36.869473515829526, 69.23185367186451], [36.8768607357014, 69.23053788974102]]}, "properties": {"source": "386621", "target": "386619"}}, {"type": "Feature", "geometry": {"type": "LineString", "coordinates": [[36.876384921915616, 69.23232339853647], [36.876419979706554, 69.23030388876032]]}, "properties": {"source": "29205", "target": "22609483"}}, {"type": "Feature", "geometry": {"type": "LineString", "coordinates": [[36.869589995622874, 69.23167859538003], [36.87155726102057, 69.23194881616041]]}, "properties": {"source": "85337", "target": "85341"}}, {"type": "Feature", "geometry": {"type": "LineString", "coordinates": [[36.869589995622874, 69.23167859538003], [36.87112538557594, 69.2307391027201]]}, "properties": {"source": "85337", "target": "85335"}}, {"type": "Feature", "geometry": {"type": "LineString", "coordinates": [[36.869589995622874, 69.23167859538003], [36.87445729087554, 69.23050840813633]]}, "properties": {"source": "85337", "target": "87953"}}, {"type": "Feature", "geometry": {"type": "LineString", "coordinates": [[36.869589995622874, 69.23167859538003], [36.871389563681646, 69.22998858380413]]}, "properties": {"source": "85337", "target": "85339"}}, {"type": "Feature", "geometry": {"type": "LineString", "coordinates": [[36.869589995622874, 69.23167859538003], [36.87544634720942, 69.22976881671406]]}, "properties": {"source": "85337", "target": "2177670"}}, {"type": "Feature", "geometry": {"type": "LineString", "coordinates": [[36.874038484079705, 69.2312711474406], [36.87155726102057, 69.23194881616041]]}, "properties": {"source": "6561743", "target": "85341"}}, {"type": "Feature", "geometry": {"type": "LineString", "coordinates": [[36.874038484079705, 69.2312711474406], [36.87112538557594, 69.2307391027201]]}, "properties": {"source": "6561743", "target": "85335"}}, {"type": "Feature", "geometry": {"type": "LineString", "coordinates": [[36.874038484079705, 69.2312711474406], [36.871389563681646, 69.22998858380413]]}, "properties": {"source": "6561743", "target": "85339"}}, {"type": "Feature", "geometry": {"type": "LineString", "coordinates": [[36.87413246334006, 69.23016347560079], [36.87060897118448, 69.23115931004222]]}, "properties": {"source": "18144154", "target": "85307"}}, {"type": "Feature", "geometry": {"type": "LineString", "coordinates": [[36.87413246334006, 69.23016347560079], [36.87348230571595, 69.22994742626304]]}, "properties": {"source": "18144154", "target": "607410"}}, {"type": "Feature", "geometry": {"type": "LineString", "coordinates": [[36.87413246334006, 69.23016347560079], [36.8701840611167, 69.23137605329885]]}, "properties": {"source": "18144154", "target": "332808"}}, {"type": "Feature", "geometry": {"type": "LineString", "coordinates": [[36.87413246334006, 69.23016347560079], [36.876419979706554, 69.23030388876032]]}, "properties": {"source": "18144154", "target": "22609483"}}, {"type": "Feature", "geometry": {"type": "LineString", "coordinates": [[36.87281927471858, 69.23247033979368], [36.87155726102057, 69.23194881616041]]}, "properties": {"source": "2950951", "target": "85341"}}, {"type": "Feature", "geometry": {"type": "LineString", "coordinates": [[36.87281927471858, 69.23247033979368], [36.87112538557594, 69.2307391027201]]}, "properties": {"source": "2950951", "target": "85335"}}, {"type": "Feature", "geometry": {"type": "LineString", "coordinates": [[36.87281927471858, 69.23247033979368], [36.871389563681646, 69.22998858380413]]}, "properties": {"source": "2950951", "target": "85339"}}, {"type": "Feature", "geometry": {"type": "LineString", "coordinates": [[36.869473515829526, 69.23185367186451], [36.876467654981695, 69.22987740807284]]}, "properties": {"source": "386621", "target": "607403"}}, {"type": "Feature", "geometry": {"type": "LineString", "coordinates": [[36.869473515829526, 69.23185367186451], [36.877019970568, 69.2297945991169]]}, "properties": {"source": "386621", "target": "386620"}}, {"type": "Feature", "geometry": {"type": "LineString", "coordinates": [[36.869473515829526, 69.23185367186451], [36.87063805104199, 69.23020852340784]]}, "properties": {"source": "386621", "target": "386618"}}, {"type": "Feature", "geometry": {"type": "LineString", "coordinates": [[36.869473515829526, 69.23185367186451], [36.87063909900979, 69.23171194517079]]}, "properties": {"source": "386621", "target": "78670"}}, {"type": "Feature", "geometry": {"type": "LineString", "coordinates": [[36.869473515829526, 69.23185367186451], [36.8742089239434, 69.23079190446023]]}, "properties": {"source": "386621", "target": "341587"}}, {"type": "Feature", "geometry": {"type": "LineString", "coordinates": [[36.869473515829526, 69.23185367186451], [36.8701840611167, 69.23137605329885]]}, "properties": {"source": "386621", "target": "332808"}}, {"type": "Feature", "geometry": {"type": "LineString", "coordinates": [[36.869473515829526, 69.23185367186451], [36.87513897153016, 69.23108088988843]]}, "properties": {"source": "386621", "target": "5802612"}}, {"type": "Feature", "geometry": {"type": "LineString", "coordinates": [[36.869473515829526, 69.23185367186451], [36.874096473806844, 69.23118233839332]]}, "properties": {"source": "386621", "target": "8549518"}}, {"type": "Feature", "geometry": {"type": "LineString", "coordinates": [[36.869473515829526, 69.23185367186451], [36.87812136226657, 69.23247395426651]]}, "properties": {"source": "386621", "target": "607407"}}, {"type": "Feature", "geometry": {"type": "LineString", "coordinates": [[36.869473515829526, 69.23185367186451], [36.87314318423239, 69.23163750839262]]}, "properties": {"source": "386621", "target": "6561654"}}, {"type": "Feature", "geometry": {"type": "LineString", "coordinates": [[36.869473515829526, 69.23185367186451], [36.876384921915616, 69.23232339853647]]}, "properties": {"source": "386621", "target": "29205"}}, {"type": "Feature", "geometry": {"type": "LineString", "coordinates": [[36.869473515829526, 69.23185367186451], [36.876419979706554, 69.23030388876032]]}, "properties": {"source": "386621", "target": "22609483"}}, {"type": "Feature", "geometry": {"type": "LineString", "coordinates": [[36.876151463176626, 69.23007611905751], [36.87060897118448, 69.23115931004222]]}, "properties": {"source": "85344", "target": "85307"}}, {"type": "Feature", "geometry": {"type": "LineString", "coordinates": [[36.876151463176626, 69.23007611905751], [36.87107191512342, 69.23071312974665]]}, "properties": {"source": "85344", "target": "85338"}}, {"type": "Feature", "geometry": {"type": "LineString", "coordinates": [[36.876151463176626, 69.23007611905751], [36.87155726102057, 69.23194881616041]]}, "properties": {"source": "85344", "target": "85341"}}, {"type": "Feature", "geometry": {"type": "LineString", "coordinates": [[36.876151463176626, 69.23007611905751], [36.87112538557594, 69.2307391027201]]}, "properties": {"source": "85344", "target": "85335"}}, {"type": "Feature", "geometry": {"type": "LineString", "coordinates": [[36.872824814795024, 69.23068991025087], [36.87348230571595, 69.22994742626304]]}, "properties": {"source": "319631", "target": "607410"}}, {"type": "Feature", "geometry": {"type": "LineString", "coordinates": [[36.872824814795024, 69.23068991025087], [36.876467654981695, 69.22987740807284]]}, "properties": {"source": "319631", "target": "607403"}}, {"type": "Feature", "geometry": {"type": "LineString", "coordinates": [[36.872824814795024, 69.23068991025087], [36.8701840611167, 69.23137605329885]]}, "properties": {"source": "319631", "target": "332808"}}, {"type": "Feature", "geometry": {"type": "LineString", "coordinates": [[36.872824814795024, 69.23068991025087], [36.87413246334006, 69.23016347560079]]}, "properties": {"source": "319631", "target": "18144154"}}, {"type": "Feature", "geometry": {"type": "LineString", "coordinates": [[36.87513897153016, 69.23108088988843], [36.87060897118448, 69.23115931004222]]}, "properties": {"source": "5802612", "target": "85307"}}, {"type": "Feature", "geometry": {"type": "LineString", "coordinates": [[36.87513897153016, 69.23108088988843], [36.87701441789156, 69.23042523735182]]}, "properties": {"source": "5802612", "target": "85308"}}, {"type": "Feature", "geometry": {"type": "LineString", "coordinates": [[36.87513897153016, 69.23108088988843], [36.87348230571595, 69.22994742626304]]}, "properties": {"source": "5802612", "target": "607410"}}, {"type": "Feature", "geometry": {"type": "LineString", "coordinates": [[36.87314318423239, 69.23163750839262], [36.87348230571595, 69.22994742626304]]}, "properties": {"source": "6561654", "target": "607410"}}, {"type": "Feature", "geometry": {"type": "LineString", "coordinates": [[36.87314318423239, 69.23163750839262], [36.876419979706554, 69.23030388876032]]}, "properties": {"source": "6561654", "target": "22609483"}}, {"type": "Feature", "geometry": {"type": "LineString", "coordinates": [[36.876384921915616, 69.23232339853647], [36.87060897118448, 69.23115931004222]]}, "properties": {"source": "29205", "target": "85307"}}, {"type": "Feature", "geometry": {"type": "LineString", "coordinates": [[36.876384921915616, 69.23232339853647], [36.87348230571595, 69.22994742626304]]}, "properties": {"source": "29205", "target": "607410"}}, {"type": "Feature", "geometry": {"type": "LineString", "coordinates": [[36.876384921915616, 69.23232339853647], [36.876467654981695, 69.22987740807284]]}, "properties": {"source": "29205", "target": "607403"}}, {"type": "Feature", "geometry": {"type": "LineString", "coordinates": [[36.876384921915616, 69.23232339853647], [36.87063805104199, 69.23020852340784]]}, "properties": {"source": "29205", "target": "386618"}}, {"type": "Feature", "geometry": {"type": "LineString", "coordinates": [[36.876384921915616, 69.23232339853647], [36.8742089239434, 69.23079190446023]]}, "properties": {"source": "29205", "target": "341587"}}, {"type": "Feature", "geometry": {"type": "LineString", "coordinates": [[36.876384921915616, 69.23232339853647], [36.872824814795024, 69.23068991025087]]}, "properties": {"source": "29205", "target": "319631"}}, {"type": "Feature", "geometry": {"type": "LineString", "coordinates": [[36.876384921915616, 69.23232339853647], [36.8701840611167, 69.23137605329885]]}, "properties": {"source": "29205", "target": "332808"}}]}