{"type": "FeatureCollection", "features": [{"type": "Feature", "geometry": {"type": "LineString", "coordinates": [[124.34752461617398, 69.0383298578592], [124.3524632251657, 69.03795857996104]]}, "properties": {"source": "7636021", "target": "1223542"}}, {"type": "Feature", "geometry": {"type": "LineString", "coordinates": [[124.35080388400269, 69.03803039622449], [124.34734574864115, 69.04200217337569]]}, "properties": {"source": "13024652", "target": "4506748"}}, {"type": "Feature", "geometry": {"type": "LineString", "coordinates": [[124.34953907375694, 69.04085325354163], [124.34379201678695, 69.04087507760948]]}, "properties": {"source": "25005552", "target": "7071235"}}, {"type": "Feature", "geometry": {"type": "LineString", "coordinates": [[124.3425912749666, 69.04128157581573], [124.35080388400269, 69.03803039622449]]}, "properties": {"source": "13131891", "target": "13024652"}}, {"type": "Feature", "geometry": {"type": "LineString", "coordinates": [[124.35049779171896, 69.04092094662005], [124.345287765369, 69.03916220565688]]}, "properties": {"source": "13508255", "target": "4505143"}}, {"type": "Feature", "geometry": {"type": "LineString", "coordinates": [[124.35049779171896, 69.04092094662005], [124.34279989807868, 69.04169721297893]]}, "properties": {"source": "13508255", "target": "22023159"}}, {"type": "Feature", "geometry": {"type": "LineString", "coordinates": [[124.35049779171896, 69.04092094662005], [124.34384144946148, 69.03864208150412]]}, "properties": {"source": "13508255", "target": "3359515"}}, {"type": "Feature", "geometry": {"type": "LineString", "coordinates": [[124.35049779171896, 69.04092094662005], [124.3524632251657, 69.03795857996104]]}, "properties": {"source": "13508255", "target": "1223542"}}, {"type": "Feature", "geometry": {"type": "LineString", "coordinates": [[124.34547591259542, 69.03918066167685], [124.34932589120467, 69.03826024835016]]}, "properties": {"source": "4384757", "target": "17262564"}}, {"type": "Feature", "geometry": {"type": "LineString", "coordinates": [[124.34547591259542, 69.03918066167685], [124.34229688972448, 69.03873269229129]]}, "properties": {"source": "4384757", "target": "16380263"}}, {"type": "Feature", "geometry": {"type": "LineString", "coordinates": [[124.34547591259542, 69.03918066167685], [124.34349909362658, 69.03752630317305]]}, "properties": {"source": "4384757", "target": "398586"}}, {"type": "Feature", "geometry": {"type": "LineString", "coordinates": [[124.34547591259542, 69.03918066167685], [124.34690964569626, 69.04079064405474]]}, "properties": {"source": "4384757", "target": "554219"}}, {"type": "Feature", "geometry": {"type": "LineString", "coordinates": [[124.35281346328878, 69.04012772214082], [124.34734574864115, 69.04200217337569]]}, "properties": {"source": "13425997", "target": "4506748"}}, {"type": "Feature", "geometry": {"type": "LineString", "coordinates": [[124.35281346328878, 69.04012772214082], [124.35280037152444, 69.04044685306891]]}, "properties": {"source": "13425997", "target": "12597717"}}, {"type": "Feature", "geometry": {"type": "LineString", "coordinates": [[124.35281346328878, 69.04012772214082], [124.34911922248716, 69.04046212195908]]}, "properties": {"source": "13425997", "target": "18142363"}}, {"type": "Feature", "geometry": {"type": "LineString", "coordinates": [[124.35281346328878, 69.04012772214082], [124.3550827826798, 69.04132933049058]]}, "properties": {"source": "13425997", "target": "4701387"}}, {"type": "Feature", "geometry": {"type": "LineString", "coordinates": [[124.35281346328878, 69.04012772214082], [124.34854771122559, 69.04180536203847]]}, "properties": {"source": "13425997", "target": "3188607"}}, {"type": "Feature", "geometry": {"type": "LineString", "coordinates": [[124.35281346328878, 69.04012772214082], [124.3516823351136, 69.04056205505196]]}, "properties": {"source": "13425997", "target": "16251158"}}, {"type": "Feature", "geometry": {"type": "LineString", "coordinates": [[124.35281346328878, 69.04012772214082], [124.35143159281989, 69.03940084704368]]}, "properties": {"source": "13425997", "target": "13435753"}}, {"type": "Feature", "geometry": {"type": "LineString", "coordinates": [[124.35281346328878, 69.04012772214082], [124.34985419231015, 69.0381922894675]]}, "properties": {"source": "13425997", "target": "1214540"}}, {"type": "Feature", "geometry": {"type": "LineString", "coordinates": [[124.34386996613637, 69.04196599852409], [124.34734574864115, 69.04200217337569]]}, "properties": {"source": "6067410", "target": "4506748"}}, {"type": "Feature", "geometry": {"type": "LineString", "coordinates": [[124.34386996613637, 69.04196599852409], [124.34797164224949, 69.03798679517189]]}, "properties": {"source": "6067410", "target": "4506747"}}, {"type": "Feature", "geometry": {"type": "LineString", "coordinates": [[124.34386996613637, 69.04196599852409], [124.34772620228858, 69.03929417573798]]}, "properties": {"source": "6067410", "target": "906109"}}, {"type": "Feature", "geometry": {"type": "LineString", "coordinates": [[124.34386996613637, 69.04196599852409], [124.35409314721994, 69.03825015580873]]}, "properties": {"source": "6067410", "target": "382642"}}, {"type": "Feature", "geometry": {"type": "LineString", "coordinates": [[124.34592993235157, 69.03983007651053], [124.35280037152444, 69.04044685306891]]}, "properties": {"source": "12633841", "target": "12597717"}}, {"type": "Feature", "geometry": {"type": "LineString", "coordinates": [[124.34592993235157, 69.03983007651053], [124.34911922248716, 69.04046212195908]]}, "properties": {"source": "12633841", "target": "18142363"}}, {"type": "Feature", "geometry": {"type": "LineString", "coordinates": [[124.34592993235157, 69.03983007651053], [124.3550827826798, 69.04132933049058]]}, "properties": {"source": "12633841", "target": "4701387"}}, {"type": "Feature", "geometry": {"type": "LineString", "coordinates": [[124.34592993235157, 69.03983007651053], [124.34854771122559, 69.04180536203847]]}, "properties": {"source": "12633841", "target": "3188607"}}, {"type": "Feature", "geometry": {"type": "LineString", "coordinates": [[124.34592993235157, 69.03983007651053], [124.3516823351136, 69.04056205505196]]}, "properties": {"source": "12633841", "target": "16251158"}}, {"type": "Feature", "geometry": {"type": "LineString", "coordinates": [[124.35047641766226, 69.04029950008288], [124.34930480656891, 69.0385189826302]]}, "properties": {"source": "988642", "target": "6123556"}}, {"type": "Feature", "geometry": {"type": "LineString", "coordinates": [[124.35047641766226, 69.04029950008288], [124.35049779171896, 69.04092094662005]]}, "properties": {"source": "988642", "target": "13508255"}}, {"type": "Feature", "geometry": {"type": "LineString", "coordinates": [[124.35047641766226, 69.04029950008288], [124.34386996613637, 69.04196599852409]]}, "properties": {"source": "988642", "target": "6067410"}}, {"type": "Feature", "geometry": {"type": "LineString", "coordinates": [[124.35047641766226, 69.04029950008288], [124.34772620228858, 69.03929417573798]]}, "properties": {"source": "988642", "target": "906109"}}, {"type": "Feature", "geometry": {"type": "LineString", "coordinates": [[124.35047641766226, 69.04029950008288], [124.34932589120467, 69.03826024835016]]}, "properties": {"source": "988642", "target": "17262564"}}, {"type": "Feature", "geometry": {"type": "LineString", "coordinates": [[124.35047641766226, 69.04029950008288], [124.34229688972448, 69.03873269229129]]}, "properties": {"source": "988642", "target": "16380263"}}, {"type": "Feature", "geometry": {"type": "LineString", "coordinates": [[124.35047641766226, 69.04029950008288], [124.34690964569626, 69.04079064405474]]}, "properties": {"source": "988642", "target": "554219"}}, {"type": "Feature", "geometry": {"type": "LineString", "coordinates": [[124.34797164224949, 69.03798679517189], [124.34772620228858, 69.03929417573798]]}, "properties": {"source": "4506747", "target": "906109"}}, {"type": "Feature", "geometry": {"type": "LineString", "coordinates": [[124.34797164224949, 69.03798679517189], [124.34349909362658, 69.03752630317305]]}, "properties": {"source": "4506747", "target": "398586"}}, {"type": "Feature", "geometry": {"type": "LineString", "coordinates": [[124.34782077796041, 69.03958543499519], [124.34734574864115, 69.04200217337569]]}, "properties": {"source": "2449280", "target": "4506748"}}, {"type": "Feature", "geometry": {"type": "LineString", "coordinates": [[124.34782077796041, 69.03958543499519], [124.35281346328878, 69.04012772214082]]}, "properties": {"source": "2449280", "target": "13425997"}}, {"type": "Feature", "geometry": {"type": "LineString", "coordinates": [[124.34398302778766, 69.04048842540269], [124.34547591259542, 69.03918066167685]]}, "properties": {"source": "13421439", "target": "4384757"}}, {"type": "Feature", "geometry": {"type": "LineString", "coordinates": [[124.34398302778766, 69.04048842540269], [124.35047641766226, 69.04029950008288]]}, "properties": {"source": "13421439", "target": "988642"}}, {"type": "Feature", "geometry": {"type": "LineString", "coordinates": [[124.35618025938078, 69.04033497155893], [124.34279569057901, 69.04062920894177]]}, "properties": {"source": "1568739", "target": "126515"}}, {"type": "Feature", "geometry": {"type": "LineString", "coordinates": [[124.35339516001926, 69.03772621322202], [124.35009274573355, 69.04181829103203]]}, "properties": {"source": "23116387", "target": "8595954"}}, {"type": "Feature", "geometry": {"type": "LineString", "coordinates": [[124.35168243771585, 69.03865951971818], [124.34420577902398, 69.03957194740875]]}, "properties": {"source": "3305935", "target": "349566"}}, {"type": "Feature", "geometry": {"type": "LineString", "coordinates": [[124.35401128984131, 69.03954576328863], [124.34279569057901, 69.04062920894177]]}, "properties": {"source": "20664011", "target": "126515"}}, {"type": "Feature", "geometry": {"type": "LineString", "coordinates": [[124.34680179389562, 69.04129889858848], [124.3476541555114, 69.0411416702533]]}, "properties": {"source": "2564154", "target": "320201"}}, {"type": "Feature", "geometry": {"type": "LineString", "coordinates": [[124.34648963933495, 69.0394022649086], [124.34379201678695, 69.04087507760948]]}, "properties": {"source": "400010", "target": "7071235"}}, {"type": "Feature", "geometry": {"type": "LineString", "coordinates": [[124.34656556708944, 69.03855941405214], [124.34435809425031, 69.03839670445436]]}, "properties": {"source": "1770518", "target": "2219438"}}, {"type": "Feature", "geometry": {"type": "LineString", "coordinates": [[124.3425912749666, 69.04128157581573], [124.34734574864115, 69.04200217337569]]}, "properties": {"source": "13131891", "target": "4506748"}}, {"type": "Feature", "geometry": {"type": "LineString", "coordinates": [[124.34680179389562, 69.04129889858848], [124.35528972997656, 69.03981206638156]]}, "properties": {"source": "2564154", "target": "32180305"}}, {"type": "Feature", "geometry": {"type": "LineString", "coordinates": [[124.34648963933495, 69.0394022649086], [124.34953907375694, 69.04085325354163]]}, "properties": {"source": "400010", "target": "25005552"}}, {"type": "Feature", "geometry": {"type": "LineString", "coordinates": [[124.3524632251657, 69.03795857996104], [124.34379201678695, 69.04087507760948]]}, "properties": {"source": "1223542", "target": "7071235"}}, {"type": "Feature", "geometry": {"type": "LineString", "coordinates": [[124.3524632251657, 69.03795857996104], [124.35009274573355, 69.04181829103203]]}, "properties": {"source": "1223542", "target": "8595954"}}, {"type": "Feature", "geometry": {"type": "LineString", "coordinates": [[124.3524632251657, 69.03795857996104], [124.35340639110387, 69.04102606799395]]}, "properties": {"source": "1223542", "target": "705166"}}, {"type": "Feature", "geometry": {"type": "LineString", "coordinates": [[124.34726095990288, 69.03802331326597], [124.34854771122559, 69.04180536203847]]}, "properties": {"source": "13429625", "target": "3188607"}}, {"type": "Feature", "geometry": {"type": "LineString", "coordinates": [[124.34474227677799, 69.03987265706246], [124.35009274573355, 69.04181829103203]]}, "properties": {"source": "604045", "target": "8595954"}}, {"type": "Feature", "geometry": {"type": "LineString", "coordinates": [[124.34474227677799, 69.03987265706246], [124.35339516001926, 69.03772621322202]]}, "properties": {"source": "604045", "target": "23116387"}}, {"type": "Feature", "geometry": {"type": "LineString", "coordinates": [[124.34474227677799, 69.03987265706246], [124.35005251206422, 69.0418931326563]]}, "properties": {"source": "604045", "target": "25656946"}}, {"type": "Feature", "geometry": {"type": "LineString", "coordinates": [[124.34524114156699, 69.03968202547824], [124.34962729165898, 69.04100884807141]]}, "properties": {"source": "139769", "target": "565154"}}, {"type": "Feature", "geometry": {"type": "LineString", "coordinates": [[124.34524114156699, 69.03968202547824], [124.3517684609181, 69.04077333036221]]}, "properties": {"source": "139769", "target": "139766"}}, {"type": "Feature", "geometry": {"type": "LineString", "coordinates": [[124.34524114156699, 69.03968202547824], [124.34478959171054, 69.03886921189547]]}, "properties": {"source": "139769", "target": "139765"}}, {"type": "Feature", "geometry": {"type": "LineString", "coordinates": [[124.3517684609181, 69.04077333036221], [124.34478959171054, 69.03886921189547]]}, "properties": {"source": "139766", "target": "139765"}}, {"type": "Feature", "geometry": {"type": "LineString", "coordinates": [[124.3523447796266, 69.04011295665376], [124.3423592734602, 69.03930351136674]]}, "properties": {"source": "1599647", "target": "643520"}}, {"type": "Feature", "geometry": {"type": "LineString", "coordinates": [[124.35143159281989, 69.03940084704368], [124.34279569057901, 69.04062920894177]]}, "properties": {"source": "13435753", "target": "126515"}}, {"type": "Feature", "geometry": {"type": "LineString", "coordinates": [[124.35143159281989, 69.03940084704368], [124.34985419231015, 69.0381922894675]]}, "properties": {"source": "13435753", "target": "1214540"}}, {"type": "Feature", "geometry": {"type": "LineString", "coordinates": [[124.34690964569626, 69.04079064405474], [124.34772620228858, 69.03929417573798]]}, "properties": {"source": "554219", "target": "906109"}}, {"type": "Feature", "geometry": {"type": "LineString", "coordinates": [[124.3476541555114, 69.0411416702533], [124.34559461050401, 69.03989783209951]]}, "properties": {"source": "320201", "target": "34839742"}}, {"type": "Feature", "geometry": {"type": "LineString", "coordinates": [[124.3558264201368, 69.03903330029692], [124.3523447796266, 69.04011295665376]]}, "properties": {"source": "989960", "target": "1599647"}}, {"type": "Feature", "geometry": {"type": "LineString", "coordinates": [[124.34867209263473, 69.04005545974127], [124.35618025938078, 69.04033497155893]]}, "properties": {"source": "1584875", "target": "1568739"}}, {"type": "Feature", "geometry": {"type": "LineString", "coordinates": [[124.35541293904873, 69.03730957243579], [124.35049779171896, 69.04092094662005]]}, "properties": {"source": "3971973", "target": "13508255"}}, {"type": "Feature", "geometry": {"type": "LineString", "coordinates": [[124.35408582976083, 69.04063834462397], [124.34930480656891, 69.0385189826302]]}, "properties": {"source": "5074994", "target": "6123556"}}, {"type": "Feature", "geometry": {"type": "LineString", "coordinates": [[124.3550827826798, 69.04132933049058], [124.34854771122559, 69.04180536203847]]}, "properties": {"source": "4701387", "target": "3188607"}}, {"type": "Feature", "geometry": {"type": "LineString", "coordinates": [[124.3550827826798, 69.04132933049058], [124.34726095990288, 69.03802331326597]]}, "properties": {"source": "4701387", "target": "13429625"}}, {"type": "Feature", "geometry": {"type": "LineString", "coordinates": [[124.3550827826798, 69.04132933049058], [124.34622182984731, 69.03769140637624]]}, "properties": {"source": "4701387", "target": "13591213"}}, {"type": "Feature", "geometry": {"type": "LineString", "coordinates": [[124.34854771122559, 69.04180536203847], [124.34622182984731, 69.03769140637624]]}, "properties": {"source": "3188607", "target": "13591213"}}, {"type": "Feature", "geometry": {"type": "LineString", "coordinates": [[124.34635461748553, 69.04131763540377], [124.34734574864115, 69.04200217337569]]}, "properties": {"source": "24329700", "target": "4506748"}}, {"type": "Feature", "geometry": {"type": "LineString", "coordinates": [[124.34635461748553, 69.04131763540377], [124.345287765369, 69.03916220565688]]}, "properties": {"source": "24329700", "target": "4505143"}}, {"type": "Feature", "geometry": {"type": "LineString", "coordinates": [[124.34635461748553, 69.04131763540377], [124.34547591259542, 69.03918066167685]]}, "properties": {"source": "24329700", "target": "4384757"}}, {"type": "Feature", "geometry": {"type": "LineString", "coordinates": [[124.34635461748553, 69.04131763540377], [124.34797164224949, 69.03798679517189]]}, "properties": {"source": "24329700", "target": "4506747"}}, {"type": "Feature", "geometry": {"type": "LineString", "coordinates": [[124.34635461748553, 69.04131763540377], [124.34279989807868, 69.04169721297893]]}, "properties": {"source": "24329700", "target": "22023159"}}, {"type": "Feature", "geometry": {"type": "LineString", "coordinates": [[124.34635461748553, 69.04131763540377], [124.34932589120467, 69.03826024835016]]}, "properties": {"source": "24329700", "target": "17262564"}}, {"type": "Feature", "geometry": {"type": "LineString", "coordinates": [[124.34635461748553, 69.04131763540377], [124.34229688972448, 69.03873269229129]]}, "properties": {"source": "24329700", "target": "16380263"}}, {"type": "Feature", "geometry": {"type": "LineString", "coordinates": [[124.35315335379153, 69.04063176798871], [124.34734574864115, 69.04200217337569]]}, "properties": {"source": "10422471", "target": "4506748"}}, {"type": "Feature", "geometry": {"type": "LineString", "coordinates": [[124.35315335379153, 69.04063176798871], [124.35280037152444, 69.04044685306891]]}, "properties": {"source": "10422471", "target": "12597717"}}, {"type": "Feature", "geometry": {"type": "LineString", "coordinates": [[124.35315335379153, 69.04063176798871], [124.34911922248716, 69.04046212195908]]}, "properties": {"source": "10422471", "target": "18142363"}}, {"type": "Feature", "geometry": {"type": "LineString", "coordinates": [[124.35315335379153, 69.04063176798871], [124.3550827826798, 69.04132933049058]]}, "properties": {"source": "10422471", "target": "4701387"}}, {"type": "Feature", "geometry": {"type": "LineString", "coordinates": [[124.35315335379153, 69.04063176798871], [124.34656556708944, 69.03855941405214]]}, "properties": {"source": "10422471", "target": "1770518"}}, {"type": "Feature", "geometry": {"type": "LineString", "coordinates": [[124.34932589120467, 69.03826024835016], [124.34279989807868, 69.04169721297893]]}, "properties": {"source": "17262564", "target": "22023159"}}, {"type": "Feature", "geometry": {"type": "LineString", "coordinates": [[124.34962729165898, 69.04100884807141], [124.3517684609181, 69.04077333036221]]}, "properties": {"source": "565154", "target": "139766"}}, {"type": "Feature", "geometry": {"type": "LineString", "coordinates": [[124.34962729165898, 69.04100884807141], [124.3523447796266, 69.04011295665376]]}, "properties": {"source": "565154", "target": "1599647"}}, {"type": "Feature", "geometry": {"type": "LineString", "coordinates": [[124.34962729165898, 69.04100884807141], [124.3423592734602, 69.03930351136674]]}, "properties": {"source": "565154", "target": "643520"}}, {"type": "Feature", "geometry": {"type": "LineString", "coordinates": [[124.35227080342867, 69.03762385220165], [124.35618025938078, 69.04033497155893]]}, "properties": {"source": "1017914", "target": "1568739"}}, {"type": "Feature", "geometry": {"type": "LineString", "coordinates": [[124.35227080342867, 69.03762385220165], [124.35168243771585, 69.03865951971818]]}, "properties": {"source": "1017914", "target": "3305935"}}, {"type": "Feature", "geometry": {"type": "LineString", "coordinates": [[124.35227080342867, 69.03762385220165], [124.34420577902398, 69.03957194740875]]}, "properties": {"source": "1017914", "target": "349566"}}, {"type": "Feature", "geometry": {"type": "LineString", "coordinates": [[124.35227080342867, 69.03762385220165], [124.35401128984131, 69.03954576328863]]}, "properties": {"source": "1017914", "target": "20664011"}}, {"type": "Feature", "geometry": {"type": "LineString", "coordinates": [[124.34502527797753, 69.04129630970203], [124.35281346328878, 69.04012772214082]]}, "properties": {"source": "12054353", "target": "13425997"}}, {"type": "Feature", "geometry": {"type": "LineString", "coordinates": [[124.34502527797753, 69.04129630970203], [124.34279569057901, 69.04062920894177]]}, "properties": {"source": "12054353", "target": "126515"}}, {"type": "Feature", "geometry": {"type": "LineString", "coordinates": [[124.34502527797753, 69.04129630970203], [124.35143159281989, 69.03940084704368]]}, "properties": {"source": "12054353", "target": "13435753"}}, {"type": "Feature", "geometry": {"type": "LineString", "coordinates": [[124.34502527797753, 69.04129630970203], [124.34985419231015, 69.0381922894675]]}, "properties": {"source": "12054353", "target": "1214540"}}, {"type": "Feature", "geometry": {"type": "LineString", "coordinates": [[124.35280037152444, 69.04044685306891], [124.3550827826798, 69.04132933049058]]}, "properties": {"source": "12597717", "target": "4701387"}}, {"type": "Feature", "geometry": {"type": "LineString", "coordinates": [[124.35280037152444, 69.04044685306891], [124.34854771122559, 69.04180536203847]]}, "properties": {"source": "12597717", "target": "3188607"}}, {"type": "Feature", "geometry": {"type": "LineString", "coordinates": [[124.34592993235157, 69.03983007651053], [124.34734574864115, 69.04200217337569]]}, "properties": {"source": "12633841", "target": "4506748"}}, {"type": "Feature", "geometry": {"type": "LineString", "coordinates": [[124.34592993235157, 69.03983007651053], [124.35281346328878, 69.04012772214082]]}, "properties": {"source": "12633841", "target": "13425997"}}, {"type": "Feature", "geometry": {"type": "LineString", "coordinates": [[124.35315335379153, 69.04063176798871], [124.34435809425031, 69.03839670445436]]}, "properties": {"source": "10422471", "target": "2219438"}}, {"type": "Feature", "geometry": {"type": "LineString", "coordinates": [[124.34384144946148, 69.03864208150412], [124.34734574864115, 69.04200217337569]]}, "properties": {"source": "3359515", "target": "4506748"}}, {"type": "Feature", "geometry": {"type": "LineString", "coordinates": [[124.34384144946148, 69.03864208150412], [124.34797164224949, 69.03798679517189]]}, "properties": {"source": "3359515", "target": "4506747"}}, {"type": "Feature", "geometry": {"type": "LineString", "coordinates": [[124.34384144946148, 69.03864208150412], [124.34930480656891, 69.0385189826302]]}, "properties": {"source": "3359515", "target": "6123556"}}, {"type": "Feature", "geometry": {"type": "LineString", "coordinates": [[124.34384144946148, 69.03864208150412], [124.34279989807868, 69.04169721297893]]}, "properties": {"source": "3359515", "target": "22023159"}}, {"type": "Feature", "geometry": {"type": "LineString", "coordinates": [[124.34279569057901, 69.04062920894177], [124.34985419231015, 69.0381922894675]]}, "properties": {"source": "126515", "target": "1214540"}}, {"type": "Feature", "geometry": {"type": "LineString", "coordinates": [[124.34279569057901, 69.04062920894177], [124.35168243771585, 69.03865951971818]]}, "properties": {"source": "126515", "target": "3305935"}}, {"type": "Feature", "geometry": {"type": "LineString", "coordinates": [[124.34279569057901, 69.04062920894177], [124.34420577902398, 69.03957194740875]]}, "properties": {"source": "126515", "target": "349566"}}, {"type": "Feature", "geometry": {"type": "LineString", "coordinates": [[124.3516823351136, 69.04056205505196], [124.35280037152444, 69.04044685306891]]}, "properties": {"source": "16251158", "target": "12597717"}}, {"type": "Feature", "geometry": {"type": "LineString", "coordinates": [[124.3516823351136, 69.04056205505196], [124.34911922248716, 69.04046212195908]]}, "properties": {"source": "16251158", "target": "18142363"}}, {"type": "Feature", "geometry": {"type": "LineString", "coordinates": [[124.3516823351136, 69.04056205505196], [124.34726095990288, 69.03802331326597]]}, "properties": {"source": "16251158", "target": "13429625"}}, {"type": "Feature", "geometry": {"type": "LineString", "coordinates": [[124.3516823351136, 69.04056205505196], [124.34622182984731, 69.03769140637624]]}, "properties": {"source": "16251158", "target": "13591213"}}, {"type": "Feature", "geometry": {"type": "LineString", "coordinates": [[124.3432972266263, 69.0403201580911], [124.3524632251657, 69.03795857996104]]}, "properties": {"source": "8537371", "target": "1223542"}}, {"type": "Feature", "geometry": {"type": "LineString", "coordinates": [[124.3432972266263, 69.0403201580911], [124.34474227677799, 69.03987265706246]]}, "properties": {"source": "8537371", "target": "604045"}}, {"type": "Feature", "geometry": {"type": "LineString", "coordinates": [[124.3432972266263, 69.0403201580911], [124.35009274573355, 69.04181829103203]]}, "properties": {"source": "8537371", "target": "8595954"}}, {"type": "Feature", "geometry": {"type": "LineString", "coordinates": [[124.3432972266263, 69.0403201580911], [124.35339516001926, 69.03772621322202]]}, "properties": {"source": "8537371", "target": "23116387"}}, {"type": "Feature", "geometry": {"type": "LineString", "coordinates": [[124.34782077796041, 69.03958543499519], [124.35280037152444, 69.04044685306891]]}, "properties": {"source": "2449280", "target": "12597717"}}, {"type": "Feature", "geometry": {"type": "LineString", "coordinates": [[124.34782077796041, 69.03958543499519], [124.34592993235157, 69.03983007651053]]}, "properties": {"source": "2449280", "target": "12633841"}}, {"type": "Feature", "geometry": {"type": "LineString", "coordinates": [[124.34782077796041, 69.03958543499519], [124.34911922248716, 69.04046212195908]]}, "properties": {"source": "2449280", "target": "18142363"}}, {"type": "Feature", "geometry": {"type": "LineString", "coordinates": [[124.34782077796041, 69.03958543499519], [124.34854771122559, 69.04180536203847]]}, "properties": {"source": "2449280", "target": "3188607"}}, {"type": "Feature", "geometry": {"type": "LineString", "coordinates": [[124.34782077796041, 69.03958543499519], [124.35315335379153, 69.04063176798871]]}, "properties": {"source": "2449280", "target": "10422471"}}, {"type": "Feature", "geometry": {"type": "LineString", "coordinates": [[124.34782077796041, 69.03958543499519], [124.34726095990288, 69.03802331326597]]}, "properties": {"source": "2449280", "target": "13429625"}}, {"type": "Feature", "geometry": {"type": "LineString", "coordinates": [[124.34782077796041, 69.03958543499519], [124.34622182984731, 69.03769140637624]]}, "properties": {"source": "2449280", "target": "13591213"}}, {"type": "Feature", "geometry": {"type": "LineString", "coordinates": [[124.34930480656891, 69.0385189826302], [124.34734574864115, 69.04200217337569]]}, "properties": {"source": "6123556", "target": "4506748"}}, {"type": "Feature", "geometry": {"type": "LineString", "coordinates": [[124.34930480656891, 69.0385189826302], [124.34797164224949, 69.03798679517189]]}, "properties": {"source": "6123556", "target": "4506747"}}, {"type": "Feature", "geometry": {"type": "LineString", "coordinates": [[124.34930480656891, 69.0385189826302], [124.34386996613637, 69.04196599852409]]}, "properties": {"source": "6123556", "target": "6067410"}}, {"type": "Feature", "geometry": {"type": "LineString", "coordinates": [[124.34930480656891, 69.0385189826302], [124.34772620228858, 69.03929417573798]]}, "properties": {"source": "6123556", "target": "906109"}}, {"type": "Feature", "geometry": {"type": "LineString", "coordinates": [[124.35280037152444, 69.04044685306891], [124.34734574864115, 69.04200217337569]]}, "properties": {"source": "12597717", "target": "4506748"}}, {"type": "Feature", "geometry": {"type": "LineString", "coordinates": [[124.345287765369, 69.03916220565688], [124.34229688972448, 69.03873269229129]]}, "properties": {"source": "4505143", "target": "16380263"}}, {"type": "Feature", "geometry": {"type": "LineString", "coordinates": [[124.345287765369, 69.03916220565688], [124.34349909362658, 69.03752630317305]]}, "properties": {"source": "4505143", "target": "398586"}}, {"type": "Feature", "geometry": {"type": "LineString", "coordinates": [[124.345287765369, 69.03916220565688], [124.34524114156699, 69.03968202547824]]}, "properties": {"source": "4505143", "target": "139769"}}, {"type": "Feature", "geometry": {"type": "LineString", "coordinates": [[124.345287765369, 69.03916220565688], [124.3517684609181, 69.04077333036221]]}, "properties": {"source": "4505143", "target": "139766"}}, {"type": "Feature", "geometry": {"type": "LineString", "coordinates": [[124.345287765369, 69.03916220565688], [124.3523447796266, 69.04011295665376]]}, "properties": {"source": "4505143", "target": "1599647"}}, {"type": "Feature", "geometry": {"type": "LineString", "coordinates": [[124.345287765369, 69.03916220565688], [124.34690964569626, 69.04079064405474]]}, "properties": {"source": "4505143", "target": "554219"}}, {"type": "Feature", "geometry": {"type": "LineString", "coordinates": [[124.345287765369, 69.03916220565688], [124.3423592734602, 69.03930351136674]]}, "properties": {"source": "4505143", "target": "643520"}}, {"type": "Feature", "geometry": {"type": "LineString", "coordinates": [[124.34547591259542, 69.03918066167685], [124.34734574864115, 69.04200217337569]]}, "properties": {"source": "4384757", "target": "4506748"}}, {"type": "Feature", "geometry": {"type": "LineString", "coordinates": [[124.34547591259542, 69.03918066167685], [124.345287765369, 69.03916220565688]]}, "properties": {"source": "4384757", "target": "4505143"}}, {"type": "Feature", "geometry": {"type": "LineString", "coordinates": [[124.34547591259542, 69.03918066167685], [124.34797164224949, 69.03798679517189]]}, "properties": {"source": "4384757", "target": "4506747"}}, {"type": "Feature", "geometry": {"type": "LineString", "coordinates": [[124.34547591259542, 69.03918066167685], [124.34930480656891, 69.0385189826302]]}, "properties": {"source": "4384757", "target": "6123556"}}, {"type": "Feature", "geometry": {"type": "LineString", "coordinates": [[124.34547591259542, 69.03918066167685], [124.35049779171896, 69.04092094662005]]}, "properties": {"source": "4384757", "target": "13508255"}}, {"type": "Feature", "geometry": {"type": "LineString", "coordinates": [[124.34547591259542, 69.03918066167685], [124.34293730566623, 69.04135664856153]]}, "properties": {"source": "4384757", "target": "4607089"}}, {"type": "Feature", "geometry": {"type": "LineString", "coordinates": [[124.34547591259542, 69.03918066167685], [124.34279989807868, 69.04169721297893]]}, "properties": {"source": "4384757", "target": "22023159"}}, {"type": "Feature", "geometry": {"type": "LineString", "coordinates": [[124.34547591259542, 69.03918066167685], [124.34386996613637, 69.04196599852409]]}, "properties": {"source": "4384757", "target": "6067410"}}, {"type": "Feature", "geometry": {"type": "LineString", "coordinates": [[124.34547591259542, 69.03918066167685], [124.34384144946148, 69.03864208150412]]}, "properties": {"source": "4384757", "target": "3359515"}}, {"type": "Feature", "geometry": {"type": "LineString", "coordinates": [[124.34734574864115, 69.04200217337569], [124.34797164224949, 69.03798679517189]]}, "properties": {"source": "4506748", "target": "4506747"}}, {"type": "Feature", "geometry": {"type": "LineString", "coordinates": [[124.34734574864115, 69.04200217337569], [124.3550827826798, 69.04132933049058]]}, "properties": {"source": "4506748", "target": "4701387"}}, {"type": "Feature", "geometry": {"type": "LineString", "coordinates": [[124.34734574864115, 69.04200217337569], [124.34854771122559, 69.04180536203847]]}, "properties": {"source": "4506748", "target": "3188607"}}, {"type": "Feature", "geometry": {"type": "LineString", "coordinates": [[124.34734574864115, 69.04200217337569], [124.34772620228858, 69.03929417573798]]}, "properties": {"source": "4506748", "target": "906109"}}, {"type": "Feature", "geometry": {"type": "LineString", "coordinates": [[124.34734574864115, 69.04200217337569], [124.34726095990288, 69.03802331326597]]}, "properties": {"source": "4506748", "target": "13429625"}}, {"type": "Feature", "geometry": {"type": "LineString", "coordinates": [[124.34734574864115, 69.04200217337569], [124.34622182984731, 69.03769140637624]]}, "properties": {"source": "4506748", "target": "13591213"}}, {"type": "Feature", "geometry": {"type": "LineString", "coordinates": [[124.34734574864115, 69.04200217337569], [124.34349909362658, 69.03752630317305]]}, "properties": {"source": "4506748", "target": "398586"}}, {"type": "Feature", "geometry": {"type": "LineString", "coordinates": [[124.345287765369, 69.03916220565688], [124.34734574864115, 69.04200217337569]]}, "properties": {"source": "4505143", "target": "4506748"}}, {"type": "Feature", "geometry": {"type": "LineString", "coordinates": [[124.345287765369, 69.03916220565688], [124.34797164224949, 69.03798679517189]]}, "properties": {"source": "4505143", "target": "4506747"}}, {"type": "Feature", "geometry": {"type": "LineString", "coordinates": [[124.345287765369, 69.03916220565688], [124.34930480656891, 69.0385189826302]]}, "properties": {"source": "4505143", "target": "6123556"}}, {"type": "Feature", "geometry": {"type": "LineString", "coordinates": [[124.345287765369, 69.03916220565688], [124.34293730566623, 69.04135664856153]]}, "properties": {"source": "4505143", "target": "4607089"}}, {"type": "Feature", "geometry": {"type": "LineString", "coordinates": [[124.345287765369, 69.03916220565688], [124.34279989807868, 69.04169721297893]]}, "properties": {"source": "4505143", "target": "22023159"}}, {"type": "Feature", "geometry": {"type": "LineString", "coordinates": [[124.345287765369, 69.03916220565688], [124.34386996613637, 69.04196599852409]]}, "properties": {"source": "4505143", "target": "6067410"}}, {"type": "Feature", "geometry": {"type": "LineString", "coordinates": [[124.345287765369, 69.03916220565688], [124.34384144946148, 69.03864208150412]]}, "properties": {"source": "4505143", "target": "3359515"}}, {"type": "Feature", "geometry": {"type": "LineString", "coordinates": [[124.345287765369, 69.03916220565688], [124.34932589120467, 69.03826024835016]]}, "properties": {"source": "4505143", "target": "17262564"}}, {"type": "Feature", "geometry": {"type": "LineString", "coordinates": [[124.345287765369, 69.03916220565688], [124.34962729165898, 69.04100884807141]]}, "properties": {"source": "4505143", "target": "565154"}}, {"type": "Feature", "geometry": {"type": "LineString", "coordinates": [[124.34379201678695, 69.04087507760948], [124.35340639110387, 69.04102606799395]]}, "properties": {"source": "7071235", "target": "705166"}}, {"type": "Feature", "geometry": {"type": "LineString", "coordinates": [[124.34398302778766, 69.04048842540269], [124.345287765369, 69.03916220565688]]}, "properties": {"source": "13421439", "target": "4505143"}}, {"type": "Feature", "geometry": {"type": "LineString", "coordinates": [[124.35528972997656, 69.03981206638156], [124.3476541555114, 69.0411416702533]]}, "properties": {"source": "32180305", "target": "320201"}}, {"type": "Feature", "geometry": {"type": "LineString", "coordinates": [[124.35528972997656, 69.03981206638156], [124.34559461050401, 69.03989783209951]]}, "properties": {"source": "32180305", "target": "34839742"}}, {"type": "Feature", "geometry": {"type": "LineString", "coordinates": [[124.34911922248716, 69.04046212195908], [124.35280037152444, 69.04044685306891]]}, "properties": {"source": "18142363", "target": "12597717"}}, {"type": "Feature", "geometry": {"type": "LineString", "coordinates": [[124.34911922248716, 69.04046212195908], [124.34726095990288, 69.03802331326597]]}, "properties": {"source": "18142363", "target": "13429625"}}, {"type": "Feature", "geometry": {"type": "LineString", "coordinates": [[124.34911922248716, 69.04046212195908], [124.34622182984731, 69.03769140637624]]}, "properties": {"source": "18142363", "target": "13591213"}}, {"type": "Feature", "geometry": {"type": "LineString", "coordinates": [[124.34293730566623, 69.04135664856153], [124.34734574864115, 69.04200217337569]]}, "properties": {"source": "4607089", "target": "4506748"}}, {"type": "Feature", "geometry": {"type": "LineString", "coordinates": [[124.34293730566623, 69.04135664856153], [124.34797164224949, 69.03798679517189]]}, "properties": {"source": "4607089", "target": "4506747"}}, {"type": "Feature", "geometry": {"type": "LineString", "coordinates": [[124.34293730566623, 69.04135664856153], [124.34349909362658, 69.03752630317305]]}, "properties": {"source": "4607089", "target": "398586"}}, {"type": "Feature", "geometry": {"type": "LineString", "coordinates": [[124.34293730566623, 69.04135664856153], [124.3476541555114, 69.0411416702533]]}, "properties": {"source": "4607089", "target": "320201"}}, {"type": "Feature", "geometry": {"type": "LineString", "coordinates": [[124.34293730566623, 69.04135664856153], [124.34559461050401, 69.03989783209951]]}, "properties": {"source": "4607089", "target": "34839742"}}, {"type": "Feature", "geometry": {"type": "LineString", "coordinates": [[124.34279989807868, 69.04169721297893], [124.34797164224949, 69.03798679517189]]}, "properties": {"source": "22023159", "target": "4506747"}}, {"type": "Feature", "geometry": {"type": "LineString", "coordinates": [[124.34279989807868, 69.04169721297893], [124.34229688972448, 69.03873269229129]]}, "properties": {"source": "22023159", "target": "16380263"}}, {"type": "Feature", "geometry": {"type": "LineString", "coordinates": [[124.35049779171896, 69.04092094662005], [124.34752461617398, 69.0383298578592]]}, "properties": {"source": "13508255", "target": "7636021"}}, {"type": "Feature", "geometry": {"type": "LineString", "coordinates": [[124.34293730566623, 69.04135664856153], [124.35528972997656, 69.03981206638156]]}, "properties": {"source": "4607089", "target": "32180305"}}]}