{"type": "FeatureCollection", "features": [{"type": "Feature", "geometry": {"type": "LineString", "coordinates": [[-84.47698421814586, 69.23328034988538], [-84.48264895671979, 69.23101904191688]]}, "properties": {"source": "17161084", "target": "16000649"}}, {"type": "Feature", "geometry": {"type": "LineString", "coordinates": [[-84.47698421814586, 69.23328034988538], [-84.47994724721543, 69.23142223085708]]}, "properties": {"source": "17161084", "target": "15930541"}}, {"type": "Feature", "geometry": {"type": "LineString", "coordinates": [[-84.47698421814586, 69.23328034988538], [-84.48214879835757, 69.23048208553794]]}, "properties": {"source": "17161084", "target": "17724482"}}, {"type": "Feature", "geometry": {"type": "LineString", "coordinates": [[-84.47698421814586, 69.23328034988538], [-84.4729172021298, 69.22999778567007]]}, "properties": {"source": "17161084", "target": "22606262"}}, {"type": "Feature", "geometry": {"type": "LineString", "coordinates": [[-84.47698421814586, 69.23328034988538], [-84.48013947385394, 69.23210724666018]]}, "properties": {"source": "17161084", "target": "16000626"}}, {"type": "Feature", "geometry": {"type": "LineString", "coordinates": [[-84.47698421814586, 69.23328034988538], [-84.47899582956966, 69.23043694019171]]}, "properties": {"source": "17161084", "target": "15757477"}}, {"type": "Feature", "geometry": {"type": "LineString", "coordinates": [[-84.47698421814586, 69.23328034988538], [-84.4805266221809, 69.23271734061296]]}, "properties": {"source": "17161084", "target": "17315647"}}, {"type": "Feature", "geometry": {"type": "LineString", "coordinates": [[-84.47698421814586, 69.23328034988538], [-84.47772628149342, 69.23275280722916]]}, "properties": {"source": "17161084", "target": "15986379"}}, {"type": "Feature", "geometry": {"type": "LineString", "coordinates": [[-84.4792229771485, 69.23312414654325], [-84.48340942671544, 69.23196301430394]]}, "properties": {"source": "22465239", "target": "18241679"}}, {"type": "Feature", "geometry": {"type": "LineString", "coordinates": [[-84.4792229771485, 69.23312414654325], [-84.47592356475727, 69.23354174961955]]}, "properties": {"source": "22465239", "target": "17884829"}}, {"type": "Feature", "geometry": {"type": "LineString", "coordinates": [[-84.4792229771485, 69.23312414654325], [-84.47566831895875, 69.23151508195386]]}, "properties": {"source": "22465239", "target": "22565433"}}, {"type": "Feature", "geometry": {"type": "LineString", "coordinates": [[-84.47860328540257, 69.23120346669796], [-84.47592356475727, 69.23354174961955]]}, "properties": {"source": "12810623", "target": "17884829"}}, {"type": "Feature", "geometry": {"type": "LineString", "coordinates": [[-84.47860328540257, 69.23120346669796], [-84.47566831895875, 69.23151508195386]]}, "properties": {"source": "12810623", "target": "22565433"}}, {"type": "Feature", "geometry": {"type": "LineString", "coordinates": [[-84.47860328540257, 69.23120346669796], [-84.48089481328462, 69.2300956757403]]}, "properties": {"source": "12810623", "target": "16044562"}}, {"type": "Feature", "geometry": {"type": "LineString", "coordinates": [[-84.47860328540257, 69.23120346669796], [-84.48264895671979, 69.23101904191688]]}, "properties": {"source": "12810623", "target": "16000649"}}, {"type": "Feature", "geometry": {"type": "LineString", "coordinates": [[-84.47860328540257, 69.23120346669796], [-84.47994724721543, 69.23142223085708]]}, "properties": {"source": "12810623", "target": "15930541"}}, {"type": "Feature", "geometry": {"type": "LineString", "coordinates": [[-84.47860328540257, 69.23120346669796], [-84.48338086315168, 69.2328772609273]]}, "properties": {"source": "12810623", "target": "16129823"}}, {"type": "Feature", "geometry": {"type": "LineString", "coordinates": [[-84.47840160074634, 69.23243013445443], [-84.48340942671544, 69.23196301430394]]}, "properties": {"source": "13700528", "target": "18241679"}}, {"type": "Feature", "geometry": {"type": "LineString", "coordinates": [[-84.47840160074634, 69.23243013445443], [-84.47592356475727, 69.23354174961955]]}, "properties": {"source": "13700528", "target": "17884829"}}, {"type": "Feature", "geometry": {"type": "LineString", "coordinates": [[-84.47840160074634, 69.23243013445443], [-84.47566831895875, 69.23151508195386]]}, "properties": {"source": "13700528", "target": "22565433"}}, {"type": "Feature", "geometry": {"type": "LineString", "coordinates": [[-84.47840160074634, 69.23243013445443], [-84.48264895671979, 69.23101904191688]]}, "properties": {"source": "13700528", "target": "16000649"}}, {"type": "Feature", "geometry": {"type": "LineString", "coordinates": [[-84.47840160074634, 69.23243013445443], [-84.47994724721543, 69.23142223085708]]}, "properties": {"source": "13700528", "target": "15930541"}}, {"type": "Feature", "geometry": {"type": "LineString", "coordinates": [[-84.48264895671979, 69.23101904191688], [-84.48318282436877, 69.23080844689065]]}, "properties": {"source": "16000649", "target": "15986357"}}, {"type": "Feature", "geometry": {"type": "LineString", "coordinates": [[-84.47698421814586, 69.23328034988538], [-84.48340942671544, 69.23196301430394]]}, "properties": {"source": "17161084", "target": "18241679"}}, {"type": "Feature", "geometry": {"type": "LineString", "coordinates": [[-84.47698421814586, 69.23328034988538], [-84.47592356475727, 69.23354174961955]]}, "properties": {"source": "17161084", "target": "17884829"}}, {"type": "Feature", "geometry": {"type": "LineString", "coordinates": [[-84.47698421814586, 69.23328034988538], [-84.47566831895875, 69.23151508195386]]}, "properties": {"source": "17161084", "target": "22565433"}}, {"type": "Feature", "geometry": {"type": "LineString", "coordinates": [[-84.47698421814586, 69.23328034988538], [-84.48232443977115, 69.23049040072561]]}, "properties": {"source": "17161084", "target": "22931318"}}, {"type": "Feature", "geometry": {"type": "LineString", "coordinates": [[-84.47312851243768, 69.22971180333735], [-84.47698421814586, 69.23328034988538]]}, "properties": {"source": "15989527", "target": "17161084"}}, {"type": "Feature", "geometry": {"type": "LineString", "coordinates": [[-84.47312851243768, 69.22971180333735], [-84.47994724721543, 69.23142223085708]]}, "properties": {"source": "15989527", "target": "15930541"}}, {"type": "Feature", "geometry": {"type": "LineString", "coordinates": [[-84.47312851243768, 69.22971180333735], [-84.48214879835757, 69.23048208553794]]}, "properties": {"source": "15989527", "target": "17724482"}}, {"type": "Feature", "geometry": {"type": "LineString", "coordinates": [[-84.47312851243768, 69.22971180333735], [-84.474610621421, 69.23208075280985]]}, "properties": {"source": "15989527", "target": "17264088"}}, {"type": "Feature", "geometry": {"type": "LineString", "coordinates": [[-84.47312851243768, 69.22971180333735], [-84.48013947385394, 69.23210724666018]]}, "properties": {"source": "15989527", "target": "16000626"}}, {"type": "Feature", "geometry": {"type": "LineString", "coordinates": [[-84.47312851243768, 69.22971180333735], [-84.4805266221809, 69.23271734061296]]}, "properties": {"source": "15989527", "target": "17315647"}}, {"type": "Feature", "geometry": {"type": "LineString", "coordinates": [[-84.47312851243768, 69.22971180333735], [-84.47772628149342, 69.23275280722916]]}, "properties": {"source": "15989527", "target": "15986379"}}, {"type": "Feature", "geometry": {"type": "LineString", "coordinates": [[-84.47312851243768, 69.22971180333735], [-84.4742606598819, 69.23107823939654]]}, "properties": {"source": "15989527", "target": "15902623"}}, {"type": "Feature", "geometry": {"type": "LineString", "coordinates": [[-84.47312851243768, 69.22971180333735], [-84.47438023999376, 69.23188963284693]]}, "properties": {"source": "15989527", "target": "15981204"}}, {"type": "Feature", "geometry": {"type": "LineString", "coordinates": [[-84.47312851243768, 69.22971180333735], [-84.48318282436877, 69.23080844689065]]}, "properties": {"source": "15989527", "target": "15986357"}}, {"type": "Feature", "geometry": {"type": "LineString", "coordinates": [[-84.48013947385394, 69.23210724666018], [-84.48264895671979, 69.23101904191688]]}, "properties": {"source": "16000626", "target": "16000649"}}, {"type": "Feature", "geometry": {"type": "LineString", "coordinates": [[-84.47414236700433, 69.23096952938391], [-84.474610621421, 69.23208075280985]]}, "properties": {"source": "17410126", "target": "17264088"}}, {"type": "Feature", "geometry": {"type": "LineString", "coordinates": [[-84.47414236700433, 69.23096952938391], [-84.4743425337746, 69.23009914490962]]}, "properties": {"source": "17410126", "target": "17379896"}}, {"type": "Feature", "geometry": {"type": "LineString", "coordinates": [[-84.47867652366757, 69.23300478009517], [-84.48340942671544, 69.23196301430394]]}, "properties": {"source": "17344997", "target": "18241679"}}, {"type": "Feature", "geometry": {"type": "LineString", "coordinates": [[-84.47867652366757, 69.23300478009517], [-84.47592356475727, 69.23354174961955]]}, "properties": {"source": "17344997", "target": "17884829"}}, {"type": "Feature", "geometry": {"type": "LineString", "coordinates": [[-84.47867652366757, 69.23300478009517], [-84.47566831895875, 69.23151508195386]]}, "properties": {"source": "17344997", "target": "22565433"}}, {"type": "Feature", "geometry": {"type": "LineString", "coordinates": [[-84.4742606598819, 69.23107823939654], [-84.48013947385394, 69.23210724666018]]}, "properties": {"source": "15902623", "target": "16000626"}}, {"type": "Feature", "geometry": {"type": "LineString", "coordinates": [[-84.4742606598819, 69.23107823939654], [-84.47772628149342, 69.23275280722916]]}, "properties": {"source": "15902623", "target": "15986379"}}, {"type": "Feature", "geometry": {"type": "LineString", "coordinates": [[-84.47442450004414, 69.2309535516747], [-84.48340942671544, 69.23196301430394]]}, "properties": {"source": "1110520", "target": "18241679"}}, {"type": "Feature", "geometry": {"type": "LineString", "coordinates": [[-84.47442450004414, 69.2309535516747], [-84.47592356475727, 69.23354174961955]]}, "properties": {"source": "1110520", "target": "17884829"}}, {"type": "Feature", "geometry": {"type": "LineString", "coordinates": [[-84.47442450004414, 69.2309535516747], [-84.47566831895875, 69.23151508195386]]}, "properties": {"source": "1110520", "target": "22565433"}}, {"type": "Feature", "geometry": {"type": "LineString", "coordinates": [[-84.47442450004414, 69.2309535516747], [-84.47451221499611, 69.23118303649392]]}, "properties": {"source": "1110520", "target": "22841576"}}, {"type": "Feature", "geometry": {"type": "LineString", "coordinates": [[-84.47442450004414, 69.2309535516747], [-84.48089481328462, 69.2300956757403]]}, "properties": {"source": "1110520", "target": "16044562"}}, {"type": "Feature", "geometry": {"type": "LineString", "coordinates": [[-84.47442450004414, 69.2309535516747], [-84.48232443977115, 69.23049040072561]]}, "properties": {"source": "1110520", "target": "22931318"}}, {"type": "Feature", "geometry": {"type": "LineString", "coordinates": [[-84.47442450004414, 69.2309535516747], [-84.48264895671979, 69.23101904191688]]}, "properties": {"source": "1110520", "target": "16000649"}}, {"type": "Feature", "geometry": {"type": "LineString", "coordinates": [[-84.47442450004414, 69.2309535516747], [-84.47698421814586, 69.23328034988538]]}, "properties": {"source": "1110520", "target": "17161084"}}, {"type": "Feature", "geometry": {"type": "LineString", "coordinates": [[-84.47442450004414, 69.2309535516747], [-84.47994724721543, 69.23142223085708]]}, "properties": {"source": "1110520", "target": "15930541"}}, {"type": "Feature", "geometry": {"type": "LineString", "coordinates": [[-84.4743425337746, 69.23009914490962], [-84.48340942671544, 69.23196301430394]]}, "properties": {"source": "17379896", "target": "18241679"}}, {"type": "Feature", "geometry": {"type": "LineString", "coordinates": [[-84.4743425337746, 69.23009914490962], [-84.47592356475727, 69.23354174961955]]}, "properties": {"source": "17379896", "target": "17884829"}}, {"type": "Feature", "geometry": {"type": "LineString", "coordinates": [[-84.4743425337746, 69.23009914490962], [-84.47566831895875, 69.23151508195386]]}, "properties": {"source": "17379896", "target": "22565433"}}, {"type": "Feature", "geometry": {"type": "LineString", "coordinates": [[-84.4743425337746, 69.23009914490962], [-84.48214879835757, 69.23048208553794]]}, "properties": {"source": "17379896", "target": "17724482"}}, {"type": "Feature", "geometry": {"type": "LineString", "coordinates": [[-84.47860328540257, 69.23120346669796], [-84.48340942671544, 69.23196301430394]]}, "properties": {"source": "12810623", "target": "18241679"}}, {"type": "Feature", "geometry": {"type": "LineString", "coordinates": [[-84.48375297553794, 69.23032544528212], [-84.48214879835757, 69.23048208553794]]}, "properties": {"source": "16148195", "target": "17724482"}}, {"type": "Feature", "geometry": {"type": "LineString", "coordinates": [[-84.48375297553794, 69.23032544528212], [-84.4729172021298, 69.22999778567007]]}, "properties": {"source": "16148195", "target": "22606262"}}, {"type": "Feature", "geometry": {"type": "LineString", "coordinates": [[-84.47446164895476, 69.23116350757212], [-84.48340942671544, 69.23196301430394]]}, "properties": {"source": "26176394", "target": "18241679"}}, {"type": "Feature", "geometry": {"type": "LineString", "coordinates": [[-84.47446164895476, 69.23116350757212], [-84.47592356475727, 69.23354174961955]]}, "properties": {"source": "26176394", "target": "17884829"}}, {"type": "Feature", "geometry": {"type": "LineString", "coordinates": [[-84.47446164895476, 69.23116350757212], [-84.47566831895875, 69.23151508195386]]}, "properties": {"source": "26176394", "target": "22565433"}}, {"type": "Feature", "geometry": {"type": "LineString", "coordinates": [[-84.47446164895476, 69.23116350757212], [-84.48232443977115, 69.23049040072561]]}, "properties": {"source": "26176394", "target": "22931318"}}, {"type": "Feature", "geometry": {"type": "LineString", "coordinates": [[-84.47446164895476, 69.23116350757212], [-84.4729172021298, 69.22999778567007]]}, "properties": {"source": "26176394", "target": "22606262"}}, {"type": "Feature", "geometry": {"type": "LineString", "coordinates": [[-84.47446164895476, 69.23116350757212], [-84.47873064762162, 69.2309773634735]]}, "properties": {"source": "26176394", "target": "279919"}}, {"type": "Feature", "geometry": {"type": "LineString", "coordinates": [[-84.48079412556184, 69.23070856970972], [-84.48340942671544, 69.23196301430394]]}, "properties": {"source": "15756067", "target": "18241679"}}, {"type": "Feature", "geometry": {"type": "LineString", "coordinates": [[-84.48079412556184, 69.23070856970972], [-84.47592356475727, 69.23354174961955]]}, "properties": {"source": "15756067", "target": "17884829"}}, {"type": "Feature", "geometry": {"type": "LineString", "coordinates": [[-84.48079412556184, 69.23070856970972], [-84.47566831895875, 69.23151508195386]]}, "properties": {"source": "15756067", "target": "22565433"}}, {"type": "Feature", "geometry": {"type": "LineString", "coordinates": [[-84.48089481328462, 69.2300956757403], [-84.4729172021298, 69.22999778567007]]}, "properties": {"source": "16044562", "target": "22606262"}}, {"type": "Feature", "geometry": {"type": "LineString", "coordinates": [[-84.48089481328462, 69.2300956757403], [-84.48013947385394, 69.23210724666018]]}, "properties": {"source": "16044562", "target": "16000626"}}, {"type": "Feature", "geometry": {"type": "LineString", "coordinates": [[-84.48089481328462, 69.2300956757403], [-84.47899582956966, 69.23043694019171]]}, "properties": {"source": "16044562", "target": "15757477"}}, {"type": "Feature", "geometry": {"type": "LineString", "coordinates": [[-84.48089481328462, 69.2300956757403], [-84.4805266221809, 69.23271734061296]]}, "properties": {"source": "16044562", "target": "17315647"}}, {"type": "Feature", "geometry": {"type": "LineString", "coordinates": [[-84.48089481328462, 69.2300956757403], [-84.47772628149342, 69.23275280722916]]}, "properties": {"source": "16044562", "target": "15986379"}}, {"type": "Feature", "geometry": {"type": "LineString", "coordinates": [[-84.47559058037974, 69.23200653987436], [-84.48214879835757, 69.23048208553794]]}, "properties": {"source": "16106962", "target": "17724482"}}, {"type": "Feature", "geometry": {"type": "LineString", "coordinates": [[-84.47559058037974, 69.23200653987436], [-84.474610621421, 69.23208075280985]]}, "properties": {"source": "16106962", "target": "17264088"}}, {"type": "Feature", "geometry": {"type": "LineString", "coordinates": [[-84.47559058037974, 69.23200653987436], [-84.47312851243768, 69.22971180333735]]}, "properties": {"source": "16106962", "target": "15989527"}}, {"type": "Feature", "geometry": {"type": "LineString", "coordinates": [[-84.47559058037974, 69.23200653987436], [-84.48013947385394, 69.23210724666018]]}, "properties": {"source": "16106962", "target": "16000626"}}, {"type": "Feature", "geometry": {"type": "LineString", "coordinates": [[-84.47559058037974, 69.23200653987436], [-84.4742606598819, 69.23107823939654]]}, "properties": {"source": "16106962", "target": "15902623"}}, {"type": "Feature", "geometry": {"type": "LineString", "coordinates": [[-84.47559058037974, 69.23200653987436], [-84.47746210999215, 69.23340550203105]]}, "properties": {"source": "16106962", "target": "15853832"}}, {"type": "Feature", "geometry": {"type": "LineString", "coordinates": [[-84.47559058037974, 69.23200653987436], [-84.48318282436877, 69.23080844689065]]}, "properties": {"source": "16106962", "target": "15986357"}}, {"type": "Feature", "geometry": {"type": "LineString", "coordinates": [[-84.4729172021298, 69.22999778567007], [-84.48340942671544, 69.23196301430394]]}, "properties": {"source": "22606262", "target": "18241679"}}, {"type": "Feature", "geometry": {"type": "LineString", "coordinates": [[-84.4729172021298, 69.22999778567007], [-84.47592356475727, 69.23354174961955]]}, "properties": {"source": "22606262", "target": "17884829"}}, {"type": "Feature", "geometry": {"type": "LineString", "coordinates": [[-84.4729172021298, 69.22999778567007], [-84.47566831895875, 69.23151508195386]]}, "properties": {"source": "22606262", "target": "22565433"}}, {"type": "Feature", "geometry": {"type": "LineString", "coordinates": [[-84.4729172021298, 69.22999778567007], [-84.48232443977115, 69.23049040072561]]}, "properties": {"source": "22606262", "target": "22931318"}}, {"type": "Feature", "geometry": {"type": "LineString", "coordinates": [[-84.48375297553794, 69.23032544528212], [-84.48340942671544, 69.23196301430394]]}, "properties": {"source": "16148195", "target": "18241679"}}, {"type": "Feature", "geometry": {"type": "LineString", "coordinates": [[-84.48375297553794, 69.23032544528212], [-84.47592356475727, 69.23354174961955]]}, "properties": {"source": "16148195", "target": "17884829"}}, {"type": "Feature", "geometry": {"type": "LineString", "coordinates": [[-84.48375297553794, 69.23032544528212], [-84.47566831895875, 69.23151508195386]]}, "properties": {"source": "16148195", "target": "22565433"}}, {"type": "Feature", "geometry": {"type": "LineString", "coordinates": [[-84.48375297553794, 69.23032544528212], [-84.48232443977115, 69.23049040072561]]}, "properties": {"source": "16148195", "target": "22931318"}}, {"type": "Feature", "geometry": {"type": "LineString", "coordinates": [[-84.48375297553794, 69.23032544528212], [-84.47698421814586, 69.23328034988538]]}, "properties": {"source": "16148195", "target": "17161084"}}, {"type": "Feature", "geometry": {"type": "LineString", "coordinates": [[-84.4792229771485, 69.23312414654325], [-84.4729172021298, 69.22999778567007]]}, "properties": {"source": "22465239", "target": "22606262"}}, {"type": "Feature", "geometry": {"type": "LineString", "coordinates": [[-84.4792229771485, 69.23312414654325], [-84.48013947385394, 69.23210724666018]]}, "properties": {"source": "22465239", "target": "16000626"}}, {"type": "Feature", "geometry": {"type": "LineString", "coordinates": [[-84.4792229771485, 69.23312414654325], [-84.4805266221809, 69.23271734061296]]}, "properties": {"source": "22465239", "target": "17315647"}}, {"type": "Feature", "geometry": {"type": "LineString", "coordinates": [[-84.4792229771485, 69.23312414654325], [-84.47446164895476, 69.23116350757212]]}, "properties": {"source": "22465239", "target": "26176394"}}, {"type": "Feature", "geometry": {"type": "LineString", "coordinates": [[-84.4792229771485, 69.23312414654325], [-84.48132817263779, 69.23332486917593]]}, "properties": {"source": "22465239", "target": "17679251"}}, {"type": "Feature", "geometry": {"type": "LineString", "coordinates": [[-84.4792229771485, 69.23312414654325], [-84.47873064762162, 69.2309773634735]]}, "properties": {"source": "22465239", "target": "279919"}}, {"type": "Feature", "geometry": {"type": "LineString", "coordinates": [[-84.4792229771485, 69.23312414654325], [-84.4743425337746, 69.23009914490962]]}, "properties": {"source": "22465239", "target": "17379896"}}, {"type": "Feature", "geometry": {"type": "LineString", "coordinates": [[-84.4792229771485, 69.23312414654325], [-84.4755587274247, 69.23115371559348]]}, "properties": {"source": "22465239", "target": "18928189"}}, {"type": "Feature", "geometry": {"type": "LineString", "coordinates": [[-84.4792229771485, 69.23312414654325], [-84.48190369966916, 69.23048847130198]]}, "properties": {"source": "22465239", "target": "18137499"}}, {"type": "Feature", "geometry": {"type": "LineString", "coordinates": [[-84.4792229771485, 69.23312414654325], [-84.47587442291126, 69.23179815381576]]}, "properties": {"source": "22465239", "target": "206539"}}, {"type": "Feature", "geometry": {"type": "LineString", "coordinates": [[-84.4792229771485, 69.23312414654325], [-84.48129426127214, 69.233250261275]]}, "properties": {"source": "22465239", "target": "22060184"}}, {"type": "Feature", "geometry": {"type": "LineString", "coordinates": [[-84.47592356475727, 69.23354174961955], [-84.47676361400372, 69.23223898695576]]}, "properties": {"source": "17884829", "target": "13637881"}}, {"type": "Feature", "geometry": {"type": "LineString", "coordinates": [[-84.47592356475727, 69.23354174961955], [-84.47873064762162, 69.2309773634735]]}, "properties": {"source": "17884829", "target": "279919"}}, {"type": "Feature", "geometry": {"type": "LineString", "coordinates": [[-84.47592356475727, 69.23354174961955], [-84.48190369966916, 69.23048847130198]]}, "properties": {"source": "17884829", "target": "18137499"}}, {"type": "Feature", "geometry": {"type": "LineString", "coordinates": [[-84.47451221499611, 69.23118303649392], [-84.48340942671544, 69.23196301430394]]}, "properties": {"source": "22841576", "target": "18241679"}}, {"type": "Feature", "geometry": {"type": "LineString", "coordinates": [[-84.47451221499611, 69.23118303649392], [-84.47592356475727, 69.23354174961955]]}, "properties": {"source": "22841576", "target": "17884829"}}, {"type": "Feature", "geometry": {"type": "LineString", "coordinates": [[-84.48340942671544, 69.23196301430394], [-84.48013947385394, 69.23210724666018]]}, "properties": {"source": "18241679", "target": "16000626"}}, {"type": "Feature", "geometry": {"type": "LineString", "coordinates": [[-84.48340942671544, 69.23196301430394], [-84.4805266221809, 69.23271734061296]]}, "properties": {"source": "18241679", "target": "17315647"}}, {"type": "Feature", "geometry": {"type": "LineString", "coordinates": [[-84.48340942671544, 69.23196301430394], [-84.47772628149342, 69.23275280722916]]}, "properties": {"source": "18241679", "target": "15986379"}}, {"type": "Feature", "geometry": {"type": "LineString", "coordinates": [[-84.48340942671544, 69.23196301430394], [-84.47676361400372, 69.23223898695576]]}, "properties": {"source": "18241679", "target": "13637881"}}, {"type": "Feature", "geometry": {"type": "LineString", "coordinates": [[-84.48340942671544, 69.23196301430394], [-84.47746210999215, 69.23340550203105]]}, "properties": {"source": "18241679", "target": "15853832"}}, {"type": "Feature", "geometry": {"type": "LineString", "coordinates": [[-84.48340942671544, 69.23196301430394], [-84.47873064762162, 69.2309773634735]]}, "properties": {"source": "18241679", "target": "279919"}}, {"type": "Feature", "geometry": {"type": "LineString", "coordinates": [[-84.48340942671544, 69.23196301430394], [-84.48190369966916, 69.23048847130198]]}, "properties": {"source": "18241679", "target": "18137499"}}, {"type": "Feature", "geometry": {"type": "LineString", "coordinates": [[-84.47592356475727, 69.23354174961955], [-84.47566831895875, 69.23151508195386]]}, "properties": {"source": "17884829", "target": "22565433"}}, {"type": "Feature", "geometry": {"type": "LineString", "coordinates": [[-84.47592356475727, 69.23354174961955], [-84.48264895671979, 69.23101904191688]]}, "properties": {"source": "17884829", "target": "16000649"}}, {"type": "Feature", "geometry": {"type": "LineString", "coordinates": [[-84.47592356475727, 69.23354174961955], [-84.48214879835757, 69.23048208553794]]}, "properties": {"source": "17884829", "target": "17724482"}}, {"type": "Feature", "geometry": {"type": "LineString", "coordinates": [[-84.47592356475727, 69.23354174961955], [-84.48013947385394, 69.23210724666018]]}, "properties": {"source": "17884829", "target": "16000626"}}, {"type": "Feature", "geometry": {"type": "LineString", "coordinates": [[-84.4729172021298, 69.22999778567007], [-84.47873064762162, 69.2309773634735]]}, "properties": {"source": "22606262", "target": "279919"}}, {"type": "Feature", "geometry": {"type": "LineString", "coordinates": [[-84.47312851243768, 69.22971180333735], [-84.48340942671544, 69.23196301430394]]}, "properties": {"source": "15989527", "target": "18241679"}}, {"type": "Feature", "geometry": {"type": "LineString", "coordinates": [[-84.47312851243768, 69.22971180333735], [-84.47592356475727, 69.23354174961955]]}, "properties": {"source": "15989527", "target": "17884829"}}, {"type": "Feature", "geometry": {"type": "LineString", "coordinates": [[-84.47312851243768, 69.22971180333735], [-84.48089481328462, 69.2300956757403]]}, "properties": {"source": "15989527", "target": "16044562"}}, {"type": "Feature", "geometry": {"type": "LineString", "coordinates": [[-84.47312851243768, 69.22971180333735], [-84.48264895671979, 69.23101904191688]]}, "properties": {"source": "15989527", "target": "16000649"}}, {"type": "Feature", "geometry": {"type": "LineString", "coordinates": [[-84.48089481328462, 69.2300956757403], [-84.47676361400372, 69.23223898695576]]}, "properties": {"source": "16044562", "target": "13637881"}}, {"type": "Feature", "geometry": {"type": "LineString", "coordinates": [[-84.48089481328462, 69.2300956757403], [-84.47438023999376, 69.23188963284693]]}, "properties": {"source": "16044562", "target": "15981204"}}, {"type": "Feature", "geometry": {"type": "LineString", "coordinates": [[-84.48089481328462, 69.2300956757403], [-84.47746210999215, 69.23340550203105]]}, "properties": {"source": "16044562", "target": "15853832"}}, {"type": "Feature", "geometry": {"type": "LineString", "coordinates": [[-84.48089481328462, 69.2300956757403], [-84.48377267854643, 69.23331143498214]]}, "properties": {"source": "16044562", "target": "10851346"}}, {"type": "Feature", "geometry": {"type": "LineString", "coordinates": [[-84.48089481328462, 69.2300956757403], [-84.48224179071795, 69.22988860786782]]}, "properties": {"source": "16044562", "target": "13406761"}}, {"type": "Feature", "geometry": {"type": "LineString", "coordinates": [[-84.48089481328462, 69.2300956757403], [-84.47840160074634, 69.23243013445443]]}, "properties": {"source": "16044562", "target": "13700528"}}, {"type": "Feature", "geometry": {"type": "LineString", "coordinates": [[-84.48089481328462, 69.2300956757403], [-84.48318282436877, 69.23080844689065]]}, "properties": {"source": "16044562", "target": "15986357"}}, {"type": "Feature", "geometry": {"type": "LineString", "coordinates": [[-84.48232443977115, 69.23049040072561], [-84.47592356475727, 69.23354174961955]]}, "properties": {"source": "22931318", "target": "17884829"}}, {"type": "Feature", "geometry": {"type": "LineString", "coordinates": [[-84.48232443977115, 69.23049040072561], [-84.47566831895875, 69.23151508195386]]}, "properties": {"source": "22931318", "target": "22565433"}}, {"type": "Feature", "geometry": {"type": "LineString", "coordinates": [[-84.48232443977115, 69.23049040072561], [-84.47873064762162, 69.2309773634735]]}, "properties": {"source": "22931318", "target": "279919"}}, {"type": "Feature", "geometry": {"type": "LineString", "coordinates": [[-84.48264895671979, 69.23101904191688], [-84.47566831895875, 69.23151508195386]]}, "properties": {"source": "16000649", "target": "22565433"}}, {"type": "Feature", "geometry": {"type": "LineString", "coordinates": [[-84.4742606598819, 69.23107823939654], [-84.48089481328462, 69.2300956757403]]}, "properties": {"source": "15902623", "target": "16044562"}}, {"type": "Feature", "geometry": {"type": "LineString", "coordinates": [[-84.4742606598819, 69.23107823939654], [-84.48264895671979, 69.23101904191688]]}, "properties": {"source": "15902623", "target": "16000649"}}, {"type": "Feature", "geometry": {"type": "LineString", "coordinates": [[-84.4742606598819, 69.23107823939654], [-84.47698421814586, 69.23328034988538]]}, "properties": {"source": "15902623", "target": "17161084"}}, {"type": "Feature", "geometry": {"type": "LineString", "coordinates": [[-84.4742606598819, 69.23107823939654], [-84.47994724721543, 69.23142223085708]]}, "properties": {"source": "15902623", "target": "15930541"}}, {"type": "Feature", "geometry": {"type": "LineString", "coordinates": [[-84.4742606598819, 69.23107823939654], [-84.474610621421, 69.23208075280985]]}, "properties": {"source": "15902623", "target": "17264088"}}, {"type": "Feature", "geometry": {"type": "LineString", "coordinates": [[-84.48224179071795, 69.22988860786782], [-84.48340942671544, 69.23196301430394]]}, "properties": {"source": "13406761", "target": "18241679"}}, {"type": "Feature", "geometry": {"type": "LineString", "coordinates": [[-84.48224179071795, 69.22988860786782], [-84.47592356475727, 69.23354174961955]]}, "properties": {"source": "13406761", "target": "17884829"}}, {"type": "Feature", "geometry": {"type": "LineString", "coordinates": [[-84.48224179071795, 69.22988860786782], [-84.47566831895875, 69.23151508195386]]}, "properties": {"source": "13406761", "target": "22565433"}}, {"type": "Feature", "geometry": {"type": "LineString", "coordinates": [[-84.48224179071795, 69.22988860786782], [-84.48232443977115, 69.23049040072561]]}, "properties": {"source": "13406761", "target": "22931318"}}, {"type": "Feature", "geometry": {"type": "LineString", "coordinates": [[-84.48224179071795, 69.22988860786782], [-84.48264895671979, 69.23101904191688]]}, "properties": {"source": "13406761", "target": "16000649"}}, {"type": "Feature", "geometry": {"type": "LineString", "coordinates": [[-84.47873064762162, 69.2309773634735], [-84.47566831895875, 69.23151508195386]]}, "properties": {"source": "279919", "target": "22565433"}}, {"type": "Feature", "geometry": {"type": "LineString", "coordinates": [[-84.47414236700433, 69.23096952938391], [-84.48340942671544, 69.23196301430394]]}, "properties": {"source": "17410126", "target": "18241679"}}, {"type": "Feature", "geometry": {"type": "LineString", "coordinates": [[-84.47414236700433, 69.23096952938391], [-84.47592356475727, 69.23354174961955]]}, "properties": {"source": "17410126", "target": "17884829"}}, {"type": "Feature", "geometry": {"type": "LineString", "coordinates": [[-84.47414236700433, 69.23096952938391], [-84.47566831895875, 69.23151508195386]]}, "properties": {"source": "17410126", "target": "22565433"}}, {"type": "Feature", "geometry": {"type": "LineString", "coordinates": [[-84.47414236700433, 69.23096952938391], [-84.4792229771485, 69.23312414654325]]}, "properties": {"source": "17410126", "target": "22465239"}}, {"type": "Feature", "geometry": {"type": "LineString", "coordinates": [[-84.47414236700433, 69.23096952938391], [-84.48214879835757, 69.23048208553794]]}, "properties": {"source": "17410126", "target": "17724482"}}, {"type": "Feature", "geometry": {"type": "LineString", "coordinates": [[-84.47559058037974, 69.23200653987436], [-84.48232443977115, 69.23049040072561]]}, "properties": {"source": "16106962", "target": "22931318"}}, {"type": "Feature", "geometry": {"type": "LineString", "coordinates": [[-84.47559058037974, 69.23200653987436], [-84.48264895671979, 69.23101904191688]]}, "properties": {"source": "16106962", "target": "16000649"}}, {"type": "Feature", "geometry": {"type": "LineString", "coordinates": [[-84.47559058037974, 69.23200653987436], [-84.47698421814586, 69.23328034988538]]}, "properties": {"source": "16106962", "target": "17161084"}}, {"type": "Feature", "geometry": {"type": "LineString", "coordinates": [[-84.47559058037974, 69.23200653987436], [-84.4792229771485, 69.23312414654325]]}, "properties": {"source": "16106962", "target": "22465239"}}, {"type": "Feature", "geometry": {"type": "LineString", "coordinates": [[-84.47559058037974, 69.23200653987436], [-84.47994724721543, 69.23142223085708]]}, "properties": {"source": "16106962", "target": "15930541"}}, {"type": "Feature", "geometry": {"type": "LineString", "coordinates": [[-84.4781867842019, 69.23186803214008], [-84.47446164895476, 69.23116350757212]]}, "properties": {"source": "6327349", "target": "26176394"}}, {"type": "Feature", "geometry": {"type": "LineString", "coordinates": [[-84.48320394322687, 69.22983324068443], [-84.47566831895875, 69.23151508195386]]}, "properties": {"source": "7568491", "target": "22565433"}}, {"type": "Feature", "geometry": {"type": "LineString", "coordinates": [[-84.48320394322687, 69.22983324068443], [-84.48232443977115, 69.23049040072561]]}, "properties": {"source": "7568491", "target": "22931318"}}, {"type": "Feature", "geometry": {"type": "LineString", "coordinates": [[-84.48320394322687, 69.22983324068443], [-84.4729172021298, 69.22999778567007]]}, "properties": {"source": "7568491", "target": "22606262"}}, {"type": "Feature", "geometry": {"type": "LineString", "coordinates": [[-84.48320394322687, 69.22983324068443], [-84.47446164895476, 69.23116350757212]]}, "properties": {"source": "7568491", "target": "26176394"}}, {"type": "Feature", "geometry": {"type": "LineString", "coordinates": [[-84.4755587274247, 69.23115371559348], [-84.48340942671544, 69.23196301430394]]}, "properties": {"source": "18928189", "target": "18241679"}}, {"type": "Feature", "geometry": {"type": "LineString", "coordinates": [[-84.4755587274247, 69.23115371559348], [-84.47592356475727, 69.23354174961955]]}, "properties": {"source": "18928189", "target": "17884829"}}, {"type": "Feature", "geometry": {"type": "LineString", "coordinates": [[-84.4755587274247, 69.23115371559348], [-84.47566831895875, 69.23151508195386]]}, "properties": {"source": "18928189", "target": "22565433"}}, {"type": "Feature", "geometry": {"type": "LineString", "coordinates": [[-84.4755587274247, 69.23115371559348], [-84.48232443977115, 69.23049040072561]]}, "properties": {"source": "18928189", "target": "22931318"}}, {"type": "Feature", "geometry": {"type": "LineString", "coordinates": [[-84.47897946355017, 69.23061299197167], [-84.48340942671544, 69.23196301430394]]}, "properties": {"source": "16176811", "target": "18241679"}}, {"type": "Feature", "geometry": {"type": "LineString", "coordinates": [[-84.47897946355017, 69.23061299197167], [-84.47592356475727, 69.23354174961955]]}, "properties": {"source": "16176811", "target": "17884829"}}, {"type": "Feature", "geometry": {"type": "LineString", "coordinates": [[-84.48079412556184, 69.23070856970972], [-84.47451221499611, 69.23118303649392]]}, "properties": {"source": "15756067", "target": "22841576"}}, {"type": "Feature", "geometry": {"type": "LineString", "coordinates": [[-84.48079412556184, 69.23070856970972], [-84.48089481328462, 69.2300956757403]]}, "properties": {"source": "15756067", "target": "16044562"}}, {"type": "Feature", "geometry": {"type": "LineString", "coordinates": [[-84.48079412556184, 69.23070856970972], [-84.48264895671979, 69.23101904191688]]}, "properties": {"source": "15756067", "target": "16000649"}}, {"type": "Feature", "geometry": {"type": "LineString", "coordinates": [[-84.48079412556184, 69.23070856970972], [-84.47994724721543, 69.23142223085708]]}, "properties": {"source": "15756067", "target": "15930541"}}, {"type": "Feature", "geometry": {"type": "LineString", "coordinates": [[-84.48079412556184, 69.23070856970972], [-84.47899582956966, 69.23043694019171]]}, "properties": {"source": "15756067", "target": "15757477"}}, {"type": "Feature", "geometry": {"type": "LineString", "coordinates": [[-84.47867652366757, 69.23300478009517], [-84.47451221499611, 69.23118303649392]]}, "properties": {"source": "17344997", "target": "22841576"}}, {"type": "Feature", "geometry": {"type": "LineString", "coordinates": [[-84.47867652366757, 69.23300478009517], [-84.48232443977115, 69.23049040072561]]}, "properties": {"source": "17344997", "target": "22931318"}}, {"type": "Feature", "geometry": {"type": "LineString", "coordinates": [[-84.47867652366757, 69.23300478009517], [-84.48214879835757, 69.23048208553794]]}, "properties": {"source": "17344997", "target": "17724482"}}, {"type": "Feature", "geometry": {"type": "LineString", "coordinates": [[-84.47867652366757, 69.23300478009517], [-84.4743425337746, 69.23009914490962]]}, "properties": {"source": "17344997", "target": "17379896"}}, {"type": "Feature", "geometry": {"type": "LineString", "coordinates": [[-84.48268980303607, 69.23305747853496], [-84.47566831895875, 69.23151508195386]]}, "properties": {"source": "9530847", "target": "22565433"}}, {"type": "Feature", "geometry": {"type": "LineString", "coordinates": [[-84.48268980303607, 69.23305747853496], [-84.47451221499611, 69.23118303649392]]}, "properties": {"source": "9530847", "target": "22841576"}}, {"type": "Feature", "geometry": {"type": "LineString", "coordinates": [[-84.48268980303607, 69.23305747853496], [-84.48232443977115, 69.23049040072561]]}, "properties": {"source": "9530847", "target": "22931318"}}, {"type": "Feature", "geometry": {"type": "LineString", "coordinates": [[-84.48268980303607, 69.23305747853496], [-84.4729172021298, 69.22999778567007]]}, "properties": {"source": "9530847", "target": "22606262"}}, {"type": "Feature", "geometry": {"type": "LineString", "coordinates": [[-84.48268980303607, 69.23305747853496], [-84.47446164895476, 69.23116350757212]]}, "properties": {"source": "9530847", "target": "26176394"}}, {"type": "Feature", "geometry": {"type": "LineString", "coordinates": [[-84.48268980303607, 69.23305747853496], [-84.4771831489191, 69.23275084060396]]}, "properties": {"source": "9530847", "target": "539388"}}, {"type": "Feature", "geometry": {"type": "LineString", "coordinates": [[-84.48268980303607, 69.23305747853496], [-84.48320394322687, 69.22983324068443]]}, "properties": {"source": "9530847", "target": "7568491"}}, {"type": "Feature", "geometry": {"type": "LineString", "coordinates": [[-84.4781867842019, 69.23186803214008], [-84.48340942671544, 69.23196301430394]]}, "properties": {"source": "6327349", "target": "18241679"}}, {"type": "Feature", "geometry": {"type": "LineString", "coordinates": [[-84.4781867842019, 69.23186803214008], [-84.47566831895875, 69.23151508195386]]}, "properties": {"source": "6327349", "target": "22565433"}}, {"type": "Feature", "geometry": {"type": "LineString", "coordinates": [[-84.4781867842019, 69.23186803214008], [-84.47451221499611, 69.23118303649392]]}, "properties": {"source": "6327349", "target": "22841576"}}, {"type": "Feature", "geometry": {"type": "LineString", "coordinates": [[-84.4781867842019, 69.23186803214008], [-84.48232443977115, 69.23049040072561]]}, "properties": {"source": "6327349", "target": "22931318"}}, {"type": "Feature", "geometry": {"type": "LineString", "coordinates": [[-84.4781867842019, 69.23186803214008], [-84.4729172021298, 69.22999778567007]]}, "properties": {"source": "6327349", "target": "22606262"}}, {"type": "Feature", "geometry": {"type": "LineString", "coordinates": [[-84.47451221499611, 69.23118303649392], [-84.47566831895875, 69.23151508195386]]}, "properties": {"source": "22841576", "target": "22565433"}}, {"type": "Feature", "geometry": {"type": "LineString", "coordinates": [[-84.47451221499611, 69.23118303649392], [-84.48232443977115, 69.23049040072561]]}, "properties": {"source": "22841576", "target": "22931318"}}, {"type": "Feature", "geometry": {"type": "LineString", "coordinates": [[-84.47451221499611, 69.23118303649392], [-84.47698421814586, 69.23328034988538]]}, "properties": {"source": "22841576", "target": "17161084"}}, {"type": "Feature", "geometry": {"type": "LineString", "coordinates": [[-84.47451221499611, 69.23118303649392], [-84.4729172021298, 69.22999778567007]]}, "properties": {"source": "22841576", "target": "22606262"}}, {"type": "Feature", "geometry": {"type": "LineString", "coordinates": [[-84.47451221499611, 69.23118303649392], [-84.47899582956966, 69.23043694019171]]}, "properties": {"source": "22841576", "target": "15757477"}}, {"type": "Feature", "geometry": {"type": "LineString", "coordinates": [[-84.47451221499611, 69.23118303649392], [-84.4805266221809, 69.23271734061296]]}, "properties": {"source": "22841576", "target": "17315647"}}, {"type": "Feature", "geometry": {"type": "LineString", "coordinates": [[-84.47451221499611, 69.23118303649392], [-84.48375297553794, 69.23032544528212]]}, "properties": {"source": "22841576", "target": "16148195"}}, {"type": "Feature", "geometry": {"type": "LineString", "coordinates": [[-84.47451221499611, 69.23118303649392], [-84.47446164895476, 69.23116350757212]]}, "properties": {"source": "22841576", "target": "26176394"}}, {"type": "Feature", "geometry": {"type": "LineString", "coordinates": [[-84.47451221499611, 69.23118303649392], [-84.47676361400372, 69.23223898695576]]}, "properties": {"source": "22841576", "target": "13637881"}}, {"type": "Feature", "geometry": {"type": "LineString", "coordinates": [[-84.47451221499611, 69.23118303649392], [-84.48338086315168, 69.2328772609273]]}, "properties": {"source": "22841576", "target": "16129823"}}, {"type": "Feature", "geometry": {"type": "LineString", "coordinates": [[-84.47451221499611, 69.23118303649392], [-84.48132817263779, 69.23332486917593]]}, "properties": {"source": "22841576", "target": "17679251"}}, {"type": "Feature", "geometry": {"type": "LineString", "coordinates": [[-84.48340942671544, 69.23196301430394], [-84.47592356475727, 69.23354174961955]]}, "properties": {"source": "18241679", "target": "17884829"}}, {"type": "Feature", "geometry": {"type": "LineString", "coordinates": [[-84.48340942671544, 69.23196301430394], [-84.47566831895875, 69.23151508195386]]}, "properties": {"source": "18241679", "target": "22565433"}}, {"type": "Feature", "geometry": {"type": "LineString", "coordinates": [[-84.48340942671544, 69.23196301430394], [-84.48232443977115, 69.23049040072561]]}, "properties": {"source": "18241679", "target": "22931318"}}, {"type": "Feature", "geometry": {"type": "LineString", "coordinates": [[-84.48340942671544, 69.23196301430394], [-84.48264895671979, 69.23101904191688]]}, "properties": {"source": "18241679", "target": "16000649"}}, {"type": "Feature", "geometry": {"type": "LineString", "coordinates": [[-84.48340942671544, 69.23196301430394], [-84.48214879835757, 69.23048208553794]]}, "properties": {"source": "18241679", "target": "17724482"}}, {"type": "Feature", "geometry": {"type": "LineString", "coordinates": [[-84.48079412556184, 69.23070856970972], [-84.48375297553794, 69.23032544528212]]}, "properties": {"source": "15756067", "target": "16148195"}}, {"type": "Feature", "geometry": {"type": "LineString", "coordinates": [[-84.48079412556184, 69.23070856970972], [-84.47676361400372, 69.23223898695576]]}, "properties": {"source": "15756067", "target": "13637881"}}, {"type": "Feature", "geometry": {"type": "LineString", "coordinates": [[-84.48079412556184, 69.23070856970972], [-84.47331305024464, 69.23119291978185]]}, "properties": {"source": "15756067", "target": "13553135"}}, {"type": "Feature", "geometry": {"type": "LineString", "coordinates": [[-84.47772628149342, 69.23275280722916], [-84.47592356475727, 69.23354174961955]]}, "properties": {"source": "15986379", "target": "17884829"}}, {"type": "Feature", "geometry": {"type": "LineString", "coordinates": [[-84.47772628149342, 69.23275280722916], [-84.48264895671979, 69.23101904191688]]}, "properties": {"source": "15986379", "target": "16000649"}}, {"type": "Feature", "geometry": {"type": "LineString", "coordinates": [[-84.47772628149342, 69.23275280722916], [-84.48214879835757, 69.23048208553794]]}, "properties": {"source": "15986379", "target": "17724482"}}, {"type": "Feature", "geometry": {"type": "LineString", "coordinates": [[-84.47772628149342, 69.23275280722916], [-84.48013947385394, 69.23210724666018]]}, "properties": {"source": "15986379", "target": "16000626"}}, {"type": "Feature", "geometry": {"type": "LineString", "coordinates": [[-84.47676361400372, 69.23223898695576], [-84.47566831895875, 69.23151508195386]]}, "properties": {"source": "13637881", "target": "22565433"}}, {"type": "Feature", "geometry": {"type": "LineString", "coordinates": [[-84.47676361400372, 69.23223898695576], [-84.48264895671979, 69.23101904191688]]}, "properties": {"source": "13637881", "target": "16000649"}}, {"type": "Feature", "geometry": {"type": "LineString", "coordinates": [[-84.47676361400372, 69.23223898695576], [-84.47331305024464, 69.23119291978185]]}, "properties": {"source": "13637881", "target": "13553135"}}, {"type": "Feature", "geometry": {"type": "LineString", "coordinates": [[-84.48338086315168, 69.2328772609273], [-84.48340942671544, 69.23196301430394]]}, "properties": {"source": "16129823", "target": "18241679"}}, {"type": "Feature", "geometry": {"type": "LineString", "coordinates": [[-84.48377267854643, 69.23331143498214], [-84.47592356475727, 69.23354174961955]]}, "properties": {"source": "10851346", "target": "17884829"}}, {"type": "Feature", "geometry": {"type": "LineString", "coordinates": [[-84.48377267854643, 69.23331143498214], [-84.47566831895875, 69.23151508195386]]}, "properties": {"source": "10851346", "target": "22565433"}}, {"type": "Feature", "geometry": {"type": "LineString", "coordinates": [[-84.48377267854643, 69.23331143498214], [-84.48232443977115, 69.23049040072561]]}, "properties": {"source": "10851346", "target": "22931318"}}, {"type": "Feature", "geometry": {"type": "LineString", "coordinates": [[-84.48377267854643, 69.23331143498214], [-84.48264895671979, 69.23101904191688]]}, "properties": {"source": "10851346", "target": "16000649"}}, {"type": "Feature", "geometry": {"type": "LineString", "coordinates": [[-84.48377267854643, 69.23331143498214], [-84.47994724721543, 69.23142223085708]]}, "properties": {"source": "10851346", "target": "15930541"}}, {"type": "Feature", "geometry": {"type": "LineString", "coordinates": [[-84.474610621421, 69.23208075280985], [-84.48375297553794, 69.23032544528212]]}, "properties": {"source": "17264088", "target": "16148195"}}, {"type": "Feature", "geometry": {"type": "LineString", "coordinates": [[-84.474610621421, 69.23208075280985], [-84.47772628149342, 69.23275280722916]]}, "properties": {"source": "17264088", "target": "15986379"}}, {"type": "Feature", "geometry": {"type": "LineString", "coordinates": [[-84.474610621421, 69.23208075280985], [-84.47438023999376, 69.23188963284693]]}, "properties": {"source": "17264088", "target": "15981204"}}, {"type": "Feature", "geometry": {"type": "LineString", "coordinates": [[-84.474610621421, 69.23208075280985], [-84.48132817263779, 69.23332486917593]]}, "properties": {"source": "17264088", "target": "17679251"}}, {"type": "Feature", "geometry": {"type": "LineString", "coordinates": [[-84.474610621421, 69.23208075280985], [-84.48190369966916, 69.23048847130198]]}, "properties": {"source": "17264088", "target": "18137499"}}, {"type": "Feature", "geometry": {"type": "LineString", "coordinates": [[-84.474610621421, 69.23208075280985], [-84.48422745999481, 69.23272605089178]]}, "properties": {"source": "17264088", "target": "18306410"}}, {"type": "Feature", "geometry": {"type": "LineString", "coordinates": [[-84.47559058037974, 69.23200653987436], [-84.48340942671544, 69.23196301430394]]}, "properties": {"source": "16106962", "target": "18241679"}}, {"type": "Feature", "geometry": {"type": "LineString", "coordinates": [[-84.47559058037974, 69.23200653987436], [-84.47592356475727, 69.23354174961955]]}, "properties": {"source": "16106962", "target": "17884829"}}, {"type": "Feature", "geometry": {"type": "LineString", "coordinates": [[-84.47559058037974, 69.23200653987436], [-84.47566831895875, 69.23151508195386]]}, "properties": {"source": "16106962", "target": "22565433"}}, {"type": "Feature", "geometry": {"type": "LineString", "coordinates": [[-84.47559058037974, 69.23200653987436], [-84.47451221499611, 69.23118303649392]]}, "properties": {"source": "16106962", "target": "22841576"}}, {"type": "Feature", "geometry": {"type": "LineString", "coordinates": [[-84.47559058037974, 69.23200653987436], [-84.48089481328462, 69.2300956757403]]}, "properties": {"source": "16106962", "target": "16044562"}}, {"type": "Feature", "geometry": {"type": "LineString", "coordinates": [[-84.47451221499611, 69.23118303649392], [-84.47746210999215, 69.23340550203105]]}, "properties": {"source": "22841576", "target": "15853832"}}, {"type": "Feature", "geometry": {"type": "LineString", "coordinates": [[-84.47451221499611, 69.23118303649392], [-84.48377267854643, 69.23331143498214]]}, "properties": {"source": "22841576", "target": "10851346"}}, {"type": "Feature", "geometry": {"type": "LineString", "coordinates": [[-84.47451221499611, 69.23118303649392], [-84.48224179071795, 69.22988860786782]]}, "properties": {"source": "22841576", "target": "13406761"}}, {"type": "Feature", "geometry": {"type": "LineString", "coordinates": [[-84.47451221499611, 69.23118303649392], [-84.47873064762162, 69.2309773634735]]}, "properties": {"source": "22841576", "target": "279919"}}, {"type": "Feature", "geometry": {"type": "LineString", "coordinates": [[-84.47451221499611, 69.23118303649392], [-84.47840160074634, 69.23243013445443]]}, "properties": {"source": "22841576", "target": "13700528"}}, {"type": "Feature", "geometry": {"type": "LineString", "coordinates": [[-84.47994724721543, 69.23142223085708], [-84.47676361400372, 69.23223898695576]]}, "properties": {"source": "15930541", "target": "13637881"}}, {"type": "Feature", "geometry": {"type": "LineString", "coordinates": [[-84.47994724721543, 69.23142223085708], [-84.47746210999215, 69.23340550203105]]}, "properties": {"source": "15930541", "target": "15853832"}}, {"type": "Feature", "geometry": {"type": "LineString", "coordinates": [[-84.47994724721543, 69.23142223085708], [-84.48224179071795, 69.22988860786782]]}, "properties": {"source": "15930541", "target": "13406761"}}, {"type": "Feature", "geometry": {"type": "LineString", "coordinates": [[-84.48214879835757, 69.23048208553794], [-84.48264895671979, 69.23101904191688]]}, "properties": {"source": "17724482", "target": "16000649"}}, {"type": "Feature", "geometry": {"type": "LineString", "coordinates": [[-84.48214879835757, 69.23048208553794], [-84.48190369966916, 69.23048847130198]]}, "properties": {"source": "17724482", "target": "18137499"}}, {"type": "Feature", "geometry": {"type": "LineString", "coordinates": [[-84.48214879835757, 69.23048208553794], [-84.48001735331084, 69.23180380119612]]}, "properties": {"source": "17724482", "target": "18277224"}}, {"type": "Feature", "geometry": {"type": "LineString", "coordinates": [[-84.474610621421, 69.23208075280985], [-84.48340942671544, 69.23196301430394]]}, "properties": {"source": "17264088", "target": "18241679"}}, {"type": "Feature", "geometry": {"type": "LineString", "coordinates": [[-84.474610621421, 69.23208075280985], [-84.47592356475727, 69.23354174961955]]}, "properties": {"source": "17264088", "target": "17884829"}}, {"type": "Feature", "geometry": {"type": "LineString", "coordinates": [[-84.474610621421, 69.23208075280985], [-84.48089481328462, 69.2300956757403]]}, "properties": {"source": "17264088", "target": "16044562"}}, {"type": "Feature", "geometry": {"type": "LineString", "coordinates": [[-84.474610621421, 69.23208075280985], [-84.48264895671979, 69.23101904191688]]}, "properties": {"source": "17264088", "target": "16000649"}}, {"type": "Feature", "geometry": {"type": "LineString", "coordinates": [[-84.474610621421, 69.23208075280985], [-84.47698421814586, 69.23328034988538]]}, "properties": {"source": "17264088", "target": "17161084"}}, {"type": "Feature", "geometry": {"type": "LineString", "coordinates": [[-84.474610621421, 69.23208075280985], [-84.47994724721543, 69.23142223085708]]}, "properties": {"source": "17264088", "target": "15930541"}}, {"type": "Feature", "geometry": {"type": "LineString", "coordinates": [[-84.474610621421, 69.23208075280985], [-84.48214879835757, 69.23048208553794]]}, "properties": {"source": "17264088", "target": "17724482"}}, {"type": "Feature", "geometry": {"type": "LineString", "coordinates": [[-84.474610621421, 69.23208075280985], [-84.48013947385394, 69.23210724666018]]}, "properties": {"source": "17264088", "target": "16000626"}}, {"type": "Feature", "geometry": {"type": "LineString", "coordinates": [[-84.474610621421, 69.23208075280985], [-84.47899582956966, 69.23043694019171]]}, "properties": {"source": "17264088", "target": "15757477"}}, {"type": "Feature", "geometry": {"type": "LineString", "coordinates": [[-84.474610621421, 69.23208075280985], [-84.4805266221809, 69.23271734061296]]}, "properties": {"source": "17264088", "target": "17315647"}}, {"type": "Feature", "geometry": {"type": "LineString", "coordinates": [[-84.47897946355017, 69.23061299197167], [-84.47566831895875, 69.23151508195386]]}, "properties": {"source": "16176811", "target": "22565433"}}, {"type": "Feature", "geometry": {"type": "LineString", "coordinates": [[-84.47897946355017, 69.23061299197167], [-84.48232443977115, 69.23049040072561]]}, "properties": {"source": "16176811", "target": "22931318"}}, {"type": "Feature", "geometry": {"type": "LineString", "coordinates": [[-84.48422745999481, 69.23272605089178], [-84.48214879835757, 69.23048208553794]]}, "properties": {"source": "18306410", "target": "17724482"}}, {"type": "Feature", "geometry": {"type": "LineString", "coordinates": [[-84.48422745999481, 69.23272605089178], [-84.48001735331084, 69.23180380119612]]}, "properties": {"source": "18306410", "target": "18277224"}}, {"type": "Feature", "geometry": {"type": "LineString", "coordinates": [[-84.48422745999481, 69.23272605089178], [-84.47750166342449, 69.2304041590335]]}, "properties": {"source": "18306410", "target": "18135901"}}, {"type": "Feature", "geometry": {"type": "LineString", "coordinates": [[-84.47587442291126, 69.23179815381576], [-84.47566831895875, 69.23151508195386]]}, "properties": {"source": "206539", "target": "22565433"}}, {"type": "Feature", "geometry": {"type": "LineString", "coordinates": [[-84.47587442291126, 69.23179815381576], [-84.48232443977115, 69.23049040072561]]}, "properties": {"source": "206539", "target": "22931318"}}, {"type": "Feature", "geometry": {"type": "LineString", "coordinates": [[-84.47750166342449, 69.2304041590335], [-84.48214879835757, 69.23048208553794]]}, "properties": {"source": "18135901", "target": "17724482"}}, {"type": "Feature", "geometry": {"type": "LineString", "coordinates": [[-84.47750166342449, 69.2304041590335], [-84.48001735331084, 69.23180380119612]]}, "properties": {"source": "18135901", "target": "18277224"}}, {"type": "Feature", "geometry": {"type": "LineString", "coordinates": [[-84.4834509896138, 69.23018961142779], [-84.48001735331084, 69.23180380119612]]}, "properties": {"source": "17381351", "target": "18277224"}}, {"type": "Feature", "geometry": {"type": "LineString", "coordinates": [[-84.48445491156109, 69.23206465006461], [-84.47772628149342, 69.23275280722916]]}, "properties": {"source": "13047820", "target": "15986379"}}, {"type": "Feature", "geometry": {"type": "LineString", "coordinates": [[-84.48338086315168, 69.2328772609273], [-84.47592356475727, 69.23354174961955]]}, "properties": {"source": "16129823", "target": "17884829"}}, {"type": "Feature", "geometry": {"type": "LineString", "coordinates": [[-84.48338086315168, 69.2328772609273], [-84.47566831895875, 69.23151508195386]]}, "properties": {"source": "16129823", "target": "22565433"}}, {"type": "Feature", "geometry": {"type": "LineString", "coordinates": [[-84.48338086315168, 69.2328772609273], [-84.48232443977115, 69.23049040072561]]}, "properties": {"source": "16129823", "target": "22931318"}}, {"type": "Feature", "geometry": {"type": "LineString", "coordinates": [[-84.48338086315168, 69.2328772609273], [-84.47698421814586, 69.23328034988538]]}, "properties": {"source": "16129823", "target": "17161084"}}, {"type": "Feature", "geometry": {"type": "LineString", "coordinates": [[-84.48338086315168, 69.2328772609273], [-84.48375297553794, 69.23032544528212]]}, "properties": {"source": "16129823", "target": "16148195"}}, {"type": "Feature", "geometry": {"type": "LineString", "coordinates": [[-84.47438023999376, 69.23188963284693], [-84.48375297553794, 69.23032544528212]]}, "properties": {"source": "15981204", "target": "16148195"}}, {"type": "Feature", "geometry": {"type": "LineString", "coordinates": [[-84.48132817263779, 69.23332486917593], [-84.48340942671544, 69.23196301430394]]}, "properties": {"source": "17679251", "target": "18241679"}}, {"type": "Feature", "geometry": {"type": "LineString", "coordinates": [[-84.48132817263779, 69.23332486917593], [-84.47592356475727, 69.23354174961955]]}, "properties": {"source": "17679251", "target": "17884829"}}, {"type": "Feature", "geometry": {"type": "LineString", "coordinates": [[-84.48132817263779, 69.23332486917593], [-84.47566831895875, 69.23151508195386]]}, "properties": {"source": "17679251", "target": "22565433"}}, {"type": "Feature", "geometry": {"type": "LineString", "coordinates": [[-84.48132817263779, 69.23332486917593], [-84.48232443977115, 69.23049040072561]]}, "properties": {"source": "17679251", "target": "22931318"}}, {"type": "Feature", "geometry": {"type": "LineString", "coordinates": [[-84.48132817263779, 69.23332486917593], [-84.48214879835757, 69.23048208553794]]}, "properties": {"source": "17679251", "target": "17724482"}}, {"type": "Feature", "geometry": {"type": "LineString", "coordinates": [[-84.48132817263779, 69.23332486917593], [-84.4729172021298, 69.22999778567007]]}, "properties": {"source": "17679251", "target": "22606262"}}, {"type": "Feature", "geometry": {"type": "LineString", "coordinates": [[-84.47746210999215, 69.23340550203105], [-84.47592356475727, 69.23354174961955]]}, "properties": {"source": "15853832", "target": "17884829"}}, {"type": "Feature", "geometry": {"type": "LineString", "coordinates": [[-84.47746210999215, 69.23340550203105], [-84.47566831895875, 69.23151508195386]]}, "properties": {"source": "15853832", "target": "22565433"}}, {"type": "Feature", "geometry": {"type": "LineString", "coordinates": [[-84.47746210999215, 69.23340550203105], [-84.48232443977115, 69.23049040072561]]}, "properties": {"source": "15853832", "target": "22931318"}}, {"type": "Feature", "geometry": {"type": "LineString", "coordinates": [[-84.47746210999215, 69.23340550203105], [-84.48264895671979, 69.23101904191688]]}, "properties": {"source": "15853832", "target": "16000649"}}, {"type": "Feature", "geometry": {"type": "LineString", "coordinates": [[-84.48013947385394, 69.23210724666018], [-84.48214879835757, 69.23048208553794]]}, "properties": {"source": "16000626", "target": "17724482"}}, {"type": "Feature", "geometry": {"type": "LineString", "coordinates": [[-84.48013947385394, 69.23210724666018], [-84.48318282436877, 69.23080844689065]]}, "properties": {"source": "16000626", "target": "15986357"}}, {"type": "Feature", "geometry": {"type": "LineString", "coordinates": [[-84.47899582956966, 69.23043694019171], [-84.48340942671544, 69.23196301430394]]}, "properties": {"source": "15757477", "target": "18241679"}}, {"type": "Feature", "geometry": {"type": "LineString", "coordinates": [[-84.47899582956966, 69.23043694019171], [-84.47592356475727, 69.23354174961955]]}, "properties": {"source": "15757477", "target": "17884829"}}, {"type": "Feature", "geometry": {"type": "LineString", "coordinates": [[-84.47899582956966, 69.23043694019171], [-84.47566831895875, 69.23151508195386]]}, "properties": {"source": "15757477", "target": "22565433"}}, {"type": "Feature", "geometry": {"type": "LineString", "coordinates": [[-84.47451221499611, 69.23118303649392], [-84.48320394322687, 69.22983324068443]]}, "properties": {"source": "22841576", "target": "7568491"}}, {"type": "Feature", "geometry": {"type": "LineString", "coordinates": [[-84.47451221499611, 69.23118303649392], [-84.4755587274247, 69.23115371559348]]}, "properties": {"source": "22841576", "target": "18928189"}}, {"type": "Feature", "geometry": {"type": "LineString", "coordinates": [[-84.47451221499611, 69.23118303649392], [-84.47897946355017, 69.23061299197167]]}, "properties": {"source": "22841576", "target": "16176811"}}, {"type": "Feature", "geometry": {"type": "LineString", "coordinates": [[-84.47451221499611, 69.23118303649392], [-84.47587442291126, 69.23179815381576]]}, "properties": {"source": "22841576", "target": "206539"}}, {"type": "Feature", "geometry": {"type": "LineString", "coordinates": [[-84.48089481328462, 69.2300956757403], [-84.48340942671544, 69.23196301430394]]}, "properties": {"source": "16044562", "target": "18241679"}}, {"type": "Feature", "geometry": {"type": "LineString", "coordinates": [[-84.48089481328462, 69.2300956757403], [-84.47592356475727, 69.23354174961955]]}, "properties": {"source": "16044562", "target": "17884829"}}, {"type": "Feature", "geometry": {"type": "LineString", "coordinates": [[-84.48089481328462, 69.2300956757403], [-84.47566831895875, 69.23151508195386]]}, "properties": {"source": "16044562", "target": "22565433"}}, {"type": "Feature", "geometry": {"type": "LineString", "coordinates": [[-84.48089481328462, 69.2300956757403], [-84.48264895671979, 69.23101904191688]]}, "properties": {"source": "16044562", "target": "16000649"}}, {"type": "Feature", "geometry": {"type": "LineString", "coordinates": [[-84.48089481328462, 69.2300956757403], [-84.47698421814586, 69.23328034988538]]}, "properties": {"source": "16044562", "target": "17161084"}}, {"type": "Feature", "geometry": {"type": "LineString", "coordinates": [[-84.48089481328462, 69.2300956757403], [-84.47994724721543, 69.23142223085708]]}, "properties": {"source": "16044562", "target": "15930541"}}, {"type": "Feature", "geometry": {"type": "LineString", "coordinates": [[-84.48089481328462, 69.2300956757403], [-84.48214879835757, 69.23048208553794]]}, "properties": {"source": "16044562", "target": "17724482"}}, {"type": "Feature", "geometry": {"type": "LineString", "coordinates": [[-84.4792229771485, 69.23312414654325], [-84.47451221499611, 69.23118303649392]]}, "properties": {"source": "22465239", "target": "22841576"}}, {"type": "Feature", "geometry": {"type": "LineString", "coordinates": [[-84.4792229771485, 69.23312414654325], [-84.48089481328462, 69.2300956757403]]}, "properties": {"source": "22465239", "target": "16044562"}}, {"type": "Feature", "geometry": {"type": "LineString", "coordinates": [[-84.4792229771485, 69.23312414654325], [-84.48232443977115, 69.23049040072561]]}, "properties": {"source": "22465239", "target": "22931318"}}, {"type": "Feature", "geometry": {"type": "LineString", "coordinates": [[-84.4792229771485, 69.23312414654325], [-84.48264895671979, 69.23101904191688]]}, "properties": {"source": "22465239", "target": "16000649"}}, {"type": "Feature", "geometry": {"type": "LineString", "coordinates": [[-84.4792229771485, 69.23312414654325], [-84.47698421814586, 69.23328034988538]]}, "properties": {"source": "22465239", "target": "17161084"}}, {"type": "Feature", "geometry": {"type": "LineString", "coordinates": [[-84.48338086315168, 69.2328772609273], [-84.47676361400372, 69.23223898695576]]}, "properties": {"source": "16129823", "target": "13637881"}}, {"type": "Feature", "geometry": {"type": "LineString", "coordinates": [[-84.48338086315168, 69.2328772609273], [-84.47331305024464, 69.23119291978185]]}, "properties": {"source": "16129823", "target": "13553135"}}, {"type": "Feature", "geometry": {"type": "LineString", "coordinates": [[-84.48185956665763, 69.23245833450616], [-84.48340942671544, 69.23196301430394]]}, "properties": {"source": "13381255", "target": "18241679"}}, {"type": "Feature", "geometry": {"type": "LineString", "coordinates": [[-84.48185956665763, 69.23245833450616], [-84.47592356475727, 69.23354174961955]]}, "properties": {"source": "13381255", "target": "17884829"}}, {"type": "Feature", "geometry": {"type": "LineString", "coordinates": [[-84.48185956665763, 69.23245833450616], [-84.47566831895875, 69.23151508195386]]}, "properties": {"source": "13381255", "target": "22565433"}}, {"type": "Feature", "geometry": {"type": "LineString", "coordinates": [[-84.48185956665763, 69.23245833450616], [-84.47451221499611, 69.23118303649392]]}, "properties": {"source": "13381255", "target": "22841576"}}, {"type": "Feature", "geometry": {"type": "LineString", "coordinates": [[-84.48185956665763, 69.23245833450616], [-84.48089481328462, 69.2300956757403]]}, "properties": {"source": "13381255", "target": "16044562"}}, {"type": "Feature", "geometry": {"type": "LineString", "coordinates": [[-84.48185956665763, 69.23245833450616], [-84.48232443977115, 69.23049040072561]]}, "properties": {"source": "13381255", "target": "22931318"}}, {"type": "Feature", "geometry": {"type": "LineString", "coordinates": [[-84.48185956665763, 69.23245833450616], [-84.48264895671979, 69.23101904191688]]}, "properties": {"source": "13381255", "target": "16000649"}}, {"type": "Feature", "geometry": {"type": "LineString", "coordinates": [[-84.48185956665763, 69.23245833450616], [-84.47698421814586, 69.23328034988538]]}, "properties": {"source": "13381255", "target": "17161084"}}, {"type": "Feature", "geometry": {"type": "LineString", "coordinates": [[-84.48185956665763, 69.23245833450616], [-84.47994724721543, 69.23142223085708]]}, "properties": {"source": "13381255", "target": "15930541"}}, {"type": "Feature", "geometry": {"type": "LineString", "coordinates": [[-84.47398208467311, 69.23061802106176], [-84.48340942671544, 69.23196301430394]]}, "properties": {"source": "13036558", "target": "18241679"}}, {"type": "Feature", "geometry": {"type": "LineString", "coordinates": [[-84.47398208467311, 69.23061802106176], [-84.47592356475727, 69.23354174961955]]}, "properties": {"source": "13036558", "target": "17884829"}}, {"type": "Feature", "geometry": {"type": "LineString", "coordinates": [[-84.47398208467311, 69.23061802106176], [-84.47566831895875, 69.23151508195386]]}, "properties": {"source": "13036558", "target": "22565433"}}, {"type": "Feature", "geometry": {"type": "LineString", "coordinates": [[-84.47398208467311, 69.23061802106176], [-84.47451221499611, 69.23118303649392]]}, "properties": {"source": "13036558", "target": "22841576"}}, {"type": "Feature", "geometry": {"type": "LineString", "coordinates": [[-84.47398208467311, 69.23061802106176], [-84.48089481328462, 69.2300956757403]]}, "properties": {"source": "13036558", "target": "16044562"}}, {"type": "Feature", "geometry": {"type": "LineString", "coordinates": [[-84.47899582956966, 69.23043694019171], [-84.48232443977115, 69.23049040072561]]}, "properties": {"source": "15757477", "target": "22931318"}}, {"type": "Feature", "geometry": {"type": "LineString", "coordinates": [[-84.47899582956966, 69.23043694019171], [-84.48264895671979, 69.23101904191688]]}, "properties": {"source": "15757477", "target": "16000649"}}, {"type": "Feature", "geometry": {"type": "LineString", "coordinates": [[-84.47899582956966, 69.23043694019171], [-84.47994724721543, 69.23142223085708]]}, "properties": {"source": "15757477", "target": "15930541"}}, {"type": "Feature", "geometry": {"type": "LineString", "coordinates": [[-84.47899582956966, 69.23043694019171], [-84.47676361400372, 69.23223898695576]]}, "properties": {"source": "15757477", "target": "13637881"}}, {"type": "Feature", "geometry": {"type": "LineString", "coordinates": [[-84.47899582956966, 69.23043694019171], [-84.47331305024464, 69.23119291978185]]}, "properties": {"source": "15757477", "target": "13553135"}}, {"type": "Feature", "geometry": {"type": "LineString", "coordinates": [[-84.4805266221809, 69.23271734061296], [-84.47592356475727, 69.23354174961955]]}, "properties": {"source": "17315647", "target": "17884829"}}, {"type": "Feature", "geometry": {"type": "LineString", "coordinates": [[-84.4805266221809, 69.23271734061296], [-84.47566831895875, 69.23151508195386]]}, "properties": {"source": "17315647", "target": "22565433"}}, {"type": "Feature", "geometry": {"type": "LineString", "coordinates": [[-84.4805266221809, 69.23271734061296], [-84.48232443977115, 69.23049040072561]]}, "properties": {"source": "17315647", "target": "22931318"}}, {"type": "Feature", "geometry": {"type": "LineString", "coordinates": [[-84.4805266221809, 69.23271734061296], [-84.48264895671979, 69.23101904191688]]}, "properties": {"source": "17315647", "target": "16000649"}}, {"type": "Feature", "geometry": {"type": "LineString", "coordinates": [[-84.4805266221809, 69.23271734061296], [-84.48214879835757, 69.23048208553794]]}, "properties": {"source": "17315647", "target": "17724482"}}, {"type": "Feature", "geometry": {"type": "LineString", "coordinates": [[-84.4805266221809, 69.23271734061296], [-84.48013947385394, 69.23210724666018]]}, "properties": {"source": "17315647", "target": "16000626"}}, {"type": "Feature", "geometry": {"type": "LineString", "coordinates": [[-84.47994724721543, 69.23142223085708], [-84.48340942671544, 69.23196301430394]]}, "properties": {"source": "15930541", "target": "18241679"}}, {"type": "Feature", "geometry": {"type": "LineString", "coordinates": [[-84.47994724721543, 69.23142223085708], [-84.47592356475727, 69.23354174961955]]}, "properties": {"source": "15930541", "target": "17884829"}}, {"type": "Feature", "geometry": {"type": "LineString", "coordinates": [[-84.47994724721543, 69.23142223085708], [-84.48264895671979, 69.23101904191688]]}, "properties": {"source": "15930541", "target": "16000649"}}, {"type": "Feature", "geometry": {"type": "LineString", "coordinates": [[-84.47994724721543, 69.23142223085708], [-84.48214879835757, 69.23048208553794]]}, "properties": {"source": "15930541", "target": "17724482"}}, {"type": "Feature", "geometry": {"type": "LineString", "coordinates": [[-84.47994724721543, 69.23142223085708], [-84.48013947385394, 69.23210724666018]]}, "properties": {"source": "15930541", "target": "16000626"}}, {"type": "Feature", "geometry": {"type": "LineString", "coordinates": [[-84.47398208467311, 69.23061802106176], [-84.48232443977115, 69.23049040072561]]}, "properties": {"source": "13036558", "target": "22931318"}}, {"type": "Feature", "geometry": {"type": "LineString", "coordinates": [[-84.47398208467311, 69.23061802106176], [-84.48264895671979, 69.23101904191688]]}, "properties": {"source": "13036558", "target": "16000649"}}, {"type": "Feature", "geometry": {"type": "LineString", "coordinates": [[-84.47398208467311, 69.23061802106176], [-84.47994724721543, 69.23142223085708]]}, "properties": {"source": "13036558", "target": "15930541"}}, {"type": "Feature", "geometry": {"type": "LineString", "coordinates": [[-84.4771831489191, 69.23275084060396], [-84.48340942671544, 69.23196301430394]]}, "properties": {"source": "539388", "target": "18241679"}}, {"type": "Feature", "geometry": {"type": "LineString", "coordinates": [[-84.4771831489191, 69.23275084060396], [-84.47566831895875, 69.23151508195386]]}, "properties": {"source": "539388", "target": "22565433"}}, {"type": "Feature", "geometry": {"type": "LineString", "coordinates": [[-84.4771831489191, 69.23275084060396], [-84.47451221499611, 69.23118303649392]]}, "properties": {"source": "539388", "target": "22841576"}}, {"type": "Feature", "geometry": {"type": "LineString", "coordinates": [[-84.4771831489191, 69.23275084060396], [-84.48232443977115, 69.23049040072561]]}, "properties": {"source": "539388", "target": "22931318"}}, {"type": "Feature", "geometry": {"type": "LineString", "coordinates": [[-84.4771831489191, 69.23275084060396], [-84.4792229771485, 69.23312414654325]]}, "properties": {"source": "539388", "target": "22465239"}}, {"type": "Feature", "geometry": {"type": "LineString", "coordinates": [[-84.4771831489191, 69.23275084060396], [-84.4729172021298, 69.22999778567007]]}, "properties": {"source": "539388", "target": "22606262"}}, {"type": "Feature", "geometry": {"type": "LineString", "coordinates": [[-84.4771831489191, 69.23275084060396], [-84.47446164895476, 69.23116350757212]]}, "properties": {"source": "539388", "target": "26176394"}}, {"type": "Feature", "geometry": {"type": "LineString", "coordinates": [[-84.48377267854643, 69.23331143498214], [-84.48340942671544, 69.23196301430394]]}, "properties": {"source": "10851346", "target": "18241679"}}, {"type": "Feature", "geometry": {"type": "LineString", "coordinates": [[-84.47438023999376, 69.23188963284693], [-84.48340942671544, 69.23196301430394]]}, "properties": {"source": "15981204", "target": "18241679"}}, {"type": "Feature", "geometry": {"type": "LineString", "coordinates": [[-84.47438023999376, 69.23188963284693], [-84.47592356475727, 69.23354174961955]]}, "properties": {"source": "15981204", "target": "17884829"}}, {"type": "Feature", "geometry": {"type": "LineString", "coordinates": [[-84.47438023999376, 69.23188963284693], [-84.48264895671979, 69.23101904191688]]}, "properties": {"source": "15981204", "target": "16000649"}}, {"type": "Feature", "geometry": {"type": "LineString", "coordinates": [[-84.47438023999376, 69.23188963284693], [-84.47698421814586, 69.23328034988538]]}, "properties": {"source": "15981204", "target": "17161084"}}, {"type": "Feature", "geometry": {"type": "LineString", "coordinates": [[-84.47438023999376, 69.23188963284693], [-84.48214879835757, 69.23048208553794]]}, "properties": {"source": "15981204", "target": "17724482"}}]}