{"type": "FeatureCollection", "features": [{"type": "Feature", "geometry": {"type": "LineString", "coordinates": [[95.50283260270555, 69.04170165319002], [95.49132449571852, 69.03955082378081]]}, "properties": {"source": "18110082", "target": "17993646"}}, {"type": "Feature", "geometry": {"type": "LineString", "coordinates": [[95.49449008294192, 69.03995350728329], [95.49991291698313, 69.04019657243202]]}, "properties": {"source": "12865488", "target": "31743542"}}, {"type": "Feature", "geometry": {"type": "LineString", "coordinates": [[95.49449008294192, 69.03995350728329], [95.4951149640491, 69.04145273893542]]}, "properties": {"source": "12865488", "target": "28093766"}}, {"type": "Feature", "geometry": {"type": "LineString", "coordinates": [[95.49449008294192, 69.03995350728329], [95.49352600916433, 69.03971257069668]]}, "properties": {"source": "12865488", "target": "12865554"}}, {"type": "Feature", "geometry": {"type": "LineString", "coordinates": [[95.49449008294192, 69.03995350728329], [95.49788496678059, 69.03971356581388]]}, "properties": {"source": "12865488", "target": "12865469"}}, {"type": "Feature", "geometry": {"type": "LineString", "coordinates": [[95.49449008294192, 69.03995350728329], [95.49574878545798, 69.0387742439554]]}, "properties": {"source": "12865488", "target": "15992740"}}, {"type": "Feature", "geometry": {"type": "LineString", "coordinates": [[95.4945530649519, 69.03996664149378], [95.49991291698313, 69.04019657243202]]}, "properties": {"source": "34427803", "target": "31743542"}}, {"type": "Feature", "geometry": {"type": "LineString", "coordinates": [[95.49640304140371, 69.03957568963273], [95.49991291698313, 69.04019657243202]]}, "properties": {"source": "13437209", "target": "31743542"}}, {"type": "Feature", "geometry": {"type": "LineString", "coordinates": [[95.49640304140371, 69.03957568963273], [95.4951149640491, 69.04145273893542]]}, "properties": {"source": "13437209", "target": "28093766"}}, {"type": "Feature", "geometry": {"type": "LineString", "coordinates": [[95.49293979412249, 69.04108178468789], [95.49991291698313, 69.04019657243202]]}, "properties": {"source": "1350966", "target": "31743542"}}, {"type": "Feature", "geometry": {"type": "LineString", "coordinates": [[95.49293979412249, 69.04108178468789], [95.4951149640491, 69.04145273893542]]}, "properties": {"source": "1350966", "target": "28093766"}}, {"type": "Feature", "geometry": {"type": "LineString", "coordinates": [[95.4916364453581, 69.03914646023964], [95.49139864281057, 69.041724748149]]}, "properties": {"source": "17399306", "target": "23263649"}}, {"type": "Feature", "geometry": {"type": "LineString", "coordinates": [[95.49371102851842, 69.03977685601598], [95.48819179484912, 69.04166748960853]]}, "properties": {"source": "18656817", "target": "17373583"}}, {"type": "Feature", "geometry": {"type": "LineString", "coordinates": [[95.49371102851842, 69.03977685601598], [95.49698133650935, 69.03931496394972]]}, "properties": {"source": "18656817", "target": "22885408"}}, {"type": "Feature", "geometry": {"type": "LineString", "coordinates": [[95.49371102851842, 69.03977685601598], [95.50122247144157, 69.03865179853432]]}, "properties": {"source": "18656817", "target": "1877648"}}, {"type": "Feature", "geometry": {"type": "LineString", "coordinates": [[95.49698133650935, 69.03931496394972], [95.50122247144157, 69.03865179853432]]}, "properties": {"source": "22885408", "target": "1877648"}}, {"type": "Feature", "geometry": {"type": "LineString", "coordinates": [[95.49108767049933, 69.04217690315429], [95.49640304140371, 69.03957568963273]]}, "properties": {"source": "23278229", "target": "13437209"}}, {"type": "Feature", "geometry": {"type": "LineString", "coordinates": [[95.49108767049933, 69.04217690315429], [95.49293979412249, 69.04108178468789]]}, "properties": {"source": "23278229", "target": "1350966"}}, {"type": "Feature", "geometry": {"type": "LineString", "coordinates": [[95.49108767049933, 69.04217690315429], [95.49788496678059, 69.03971356581388]]}, "properties": {"source": "23278229", "target": "12865469"}}, {"type": "Feature", "geometry": {"type": "LineString", "coordinates": [[95.49108767049933, 69.04217690315429], [95.50102536447974, 69.04110839864717]]}, "properties": {"source": "23278229", "target": "25184986"}}, {"type": "Feature", "geometry": {"type": "LineString", "coordinates": [[95.49108767049933, 69.04217690315429], [95.50263586068502, 69.03914081894908]]}, "properties": {"source": "23278229", "target": "18342835"}}, {"type": "Feature", "geometry": {"type": "LineString", "coordinates": [[95.49108767049933, 69.04217690315429], [95.49109608787398, 69.03788937922818]]}, "properties": {"source": "23278229", "target": "1942572"}}, {"type": "Feature", "geometry": {"type": "LineString", "coordinates": [[95.49108767049933, 69.04217690315429], [95.496704423408, 69.03853410592848]]}, "properties": {"source": "23278229", "target": "25791373"}}, {"type": "Feature", "geometry": {"type": "LineString", "coordinates": [[95.49108767049933, 69.04217690315429], [95.50192598094395, 69.04177404070057]]}, "properties": {"source": "23278229", "target": "20046120"}}, {"type": "Feature", "geometry": {"type": "LineString", "coordinates": [[95.49047179772333, 69.03888811443923], [95.48788690905758, 69.03729332514229]]}, "properties": {"source": "18260194", "target": "12865582"}}, {"type": "Feature", "geometry": {"type": "LineString", "coordinates": [[95.49047179772333, 69.03888811443923], [95.49352600916433, 69.03971257069668]]}, "properties": {"source": "18260194", "target": "12865554"}}, {"type": "Feature", "geometry": {"type": "LineString", "coordinates": [[95.49047179772333, 69.03888811443923], [95.49139864281057, 69.041724748149]]}, "properties": {"source": "18260194", "target": "23263649"}}, {"type": "Feature", "geometry": {"type": "LineString", "coordinates": [[95.49047179772333, 69.03888811443923], [95.49148924334906, 69.03925514485152]]}, "properties": {"source": "18260194", "target": "12865532"}}, {"type": "Feature", "geometry": {"type": "LineString", "coordinates": [[95.49848497597316, 69.04187409530363], [95.4927367707013, 69.04091338280489]]}, "properties": {"source": "33138178", "target": "399533"}}, {"type": "Feature", "geometry": {"type": "LineString", "coordinates": [[95.4951149640491, 69.04145273893542], [95.49991291698313, 69.04019657243202]]}, "properties": {"source": "28093766", "target": "31743542"}}, {"type": "Feature", "geometry": {"type": "LineString", "coordinates": [[95.4951149640491, 69.04145273893542], [95.49634989602856, 69.03848241612914]]}, "properties": {"source": "28093766", "target": "28098643"}}, {"type": "Feature", "geometry": {"type": "LineString", "coordinates": [[95.4951149640491, 69.04145273893542], [95.49352600916433, 69.03971257069668]]}, "properties": {"source": "28093766", "target": "12865554"}}, {"type": "Feature", "geometry": {"type": "LineString", "coordinates": [[95.49716218678606, 69.04108788492812], [95.49371102851842, 69.03977685601598]]}, "properties": {"source": "16151450", "target": "18656817"}}, {"type": "Feature", "geometry": {"type": "LineString", "coordinates": [[95.49716218678606, 69.04108788492812], [95.48819179484912, 69.04166748960853]]}, "properties": {"source": "16151450", "target": "17373583"}}, {"type": "Feature", "geometry": {"type": "LineString", "coordinates": [[95.49716218678606, 69.04108788492812], [95.49698133650935, 69.03931496394972]]}, "properties": {"source": "16151450", "target": "22885408"}}, {"type": "Feature", "geometry": {"type": "LineString", "coordinates": [[95.49716218678606, 69.04108788492812], [95.50263586068502, 69.03914081894908]]}, "properties": {"source": "16151450", "target": "18342835"}}, {"type": "Feature", "geometry": {"type": "LineString", "coordinates": [[95.49716218678606, 69.04108788492812], [95.49574878545798, 69.0387742439554]]}, "properties": {"source": "16151450", "target": "15992740"}}, {"type": "Feature", "geometry": {"type": "LineString", "coordinates": [[95.49716218678606, 69.04108788492812], [95.50122247144157, 69.03865179853432]]}, "properties": {"source": "16151450", "target": "1877648"}}, {"type": "Feature", "geometry": {"type": "LineString", "coordinates": [[95.49716218678606, 69.04108788492812], [95.49424270532501, 69.03941332640088]]}, "properties": {"source": "16151450", "target": "17332808"}}, {"type": "Feature", "geometry": {"type": "LineString", "coordinates": [[95.49788496678059, 69.03971356581388], [95.4951149640491, 69.04145273893542]]}, "properties": {"source": "12865469", "target": "28093766"}}, {"type": "Feature", "geometry": {"type": "LineString", "coordinates": [[95.49788496678059, 69.03971356581388], [95.49352600916433, 69.03971257069668]]}, "properties": {"source": "12865469", "target": "12865554"}}, {"type": "Feature", "geometry": {"type": "LineString", "coordinates": [[95.49788496678059, 69.03971356581388], [95.49574878545798, 69.0387742439554]]}, "properties": {"source": "12865469", "target": "15992740"}}, {"type": "Feature", "geometry": {"type": "LineString", "coordinates": [[95.49172873843486, 69.04044392209028], [95.50213188936533, 69.04166129190673]]}, "properties": {"source": "17158673", "target": "17703659"}}, {"type": "Feature", "geometry": {"type": "LineString", "coordinates": [[95.49172873843486, 69.04044392209028], [95.49915038911217, 69.03835106179693]]}, "properties": {"source": "17158673", "target": "1423223"}}, {"type": "Feature", "geometry": {"type": "LineString", "coordinates": [[95.49094792907044, 69.04118039919541], [95.49388482567451, 69.04062996208239]]}, "properties": {"source": "31365024", "target": "33960287"}}, {"type": "Feature", "geometry": {"type": "LineString", "coordinates": [[95.50251921547243, 69.03822455202067], [95.49139864281057, 69.041724748149]]}, "properties": {"source": "22553608", "target": "23263649"}}, {"type": "Feature", "geometry": {"type": "LineString", "coordinates": [[95.50251921547243, 69.03822455202067], [95.4916364453581, 69.03914646023964]]}, "properties": {"source": "22553608", "target": "17399306"}}, {"type": "Feature", "geometry": {"type": "LineString", "coordinates": [[95.49094792907044, 69.04118039919541], [95.48948943386932, 69.03724095540227]]}, "properties": {"source": "31365024", "target": "29876198"}}, {"type": "Feature", "geometry": {"type": "LineString", "coordinates": [[95.50251921547243, 69.03822455202067], [95.49172873843486, 69.04044392209028]]}, "properties": {"source": "22553608", "target": "17158673"}}, {"type": "Feature", "geometry": {"type": "LineString", "coordinates": [[95.50251921547243, 69.03822455202067], [95.50213188936533, 69.04166129190673]]}, "properties": {"source": "22553608", "target": "17703659"}}, {"type": "Feature", "geometry": {"type": "LineString", "coordinates": [[95.50251921547243, 69.03822455202067], [95.49029132928808, 69.04101041268453]]}, "properties": {"source": "22553608", "target": "22493369"}}, {"type": "Feature", "geometry": {"type": "LineString", "coordinates": [[95.50251921547243, 69.03822455202067], [95.49915038911217, 69.03835106179693]]}, "properties": {"source": "22553608", "target": "1423223"}}, {"type": "Feature", "geometry": {"type": "LineString", "coordinates": [[95.50251921547243, 69.03822455202067], [95.49013264442215, 69.04012015865624]]}, "properties": {"source": "22553608", "target": "24758177"}}, {"type": "Feature", "geometry": {"type": "LineString", "coordinates": [[95.50251921547243, 69.03822455202067], [95.5001210612453, 69.03839387854768]]}, "properties": {"source": "22553608", "target": "18513988"}}, {"type": "Feature", "geometry": {"type": "LineString", "coordinates": [[95.50251921547243, 69.03822455202067], [95.49392297899902, 69.03902324690623]]}, "properties": {"source": "22553608", "target": "10443834"}}, {"type": "Feature", "geometry": {"type": "LineString", "coordinates": [[95.49665447360468, 69.03763665835555], [95.49621955711137, 69.04026745632757]]}, "properties": {"source": "28684299", "target": "32854720"}}, {"type": "Feature", "geometry": {"type": "LineString", "coordinates": [[95.49665447360468, 69.03763665835555], [95.49654781262979, 69.04183064211404]]}, "properties": {"source": "28684299", "target": "32616950"}}, {"type": "Feature", "geometry": {"type": "LineString", "coordinates": [[95.49665447360468, 69.03763665835555], [95.49991291698313, 69.04019657243202]]}, "properties": {"source": "28684299", "target": "31743542"}}, {"type": "Feature", "geometry": {"type": "LineString", "coordinates": [[95.49665447360468, 69.03763665835555], [95.49796102209223, 69.03959047275362]]}, "properties": {"source": "28684299", "target": "32871069"}}, {"type": "Feature", "geometry": {"type": "LineString", "coordinates": [[95.49848497597316, 69.04187409530363], [95.49991291698313, 69.04019657243202]]}, "properties": {"source": "33138178", "target": "31743542"}}, {"type": "Feature", "geometry": {"type": "LineString", "coordinates": [[95.49848497597316, 69.04187409530363], [95.4951149640491, 69.04145273893542]]}, "properties": {"source": "33138178", "target": "28093766"}}, {"type": "Feature", "geometry": {"type": "LineString", "coordinates": [[95.49848497597316, 69.04187409530363], [95.49634989602856, 69.03848241612914]]}, "properties": {"source": "33138178", "target": "28098643"}}, {"type": "Feature", "geometry": {"type": "LineString", "coordinates": [[95.49665447360468, 69.03763665835555], [95.49874043617535, 69.04152942986866]]}, "properties": {"source": "28684299", "target": "33138120"}}, {"type": "Feature", "geometry": {"type": "LineString", "coordinates": [[95.49848497597316, 69.04187409530363], [95.4945530649519, 69.03996664149378]]}, "properties": {"source": "33138178", "target": "34427803"}}, {"type": "Feature", "geometry": {"type": "LineString", "coordinates": [[95.49148924334906, 69.03925514485152], [95.49991291698313, 69.04019657243202]]}, "properties": {"source": "12865532", "target": "31743542"}}, {"type": "Feature", "geometry": {"type": "LineString", "coordinates": [[95.49148924334906, 69.03925514485152], [95.4951149640491, 69.04145273893542]]}, "properties": {"source": "12865532", "target": "28093766"}}, {"type": "Feature", "geometry": {"type": "LineString", "coordinates": [[95.49148924334906, 69.03925514485152], [95.48788690905758, 69.03729332514229]]}, "properties": {"source": "12865532", "target": "12865582"}}, {"type": "Feature", "geometry": {"type": "LineString", "coordinates": [[95.49148924334906, 69.03925514485152], [95.49352600916433, 69.03971257069668]]}, "properties": {"source": "12865532", "target": "12865554"}}, {"type": "Feature", "geometry": {"type": "LineString", "coordinates": [[95.49148924334906, 69.03925514485152], [95.49449008294192, 69.03995350728329]]}, "properties": {"source": "12865532", "target": "12865488"}}, {"type": "Feature", "geometry": {"type": "LineString", "coordinates": [[95.49148924334906, 69.03925514485152], [95.49788496678059, 69.03971356581388]]}, "properties": {"source": "12865532", "target": "12865469"}}, {"type": "Feature", "geometry": {"type": "LineString", "coordinates": [[95.49148924334906, 69.03925514485152], [95.49574878545798, 69.0387742439554]]}, "properties": {"source": "12865532", "target": "15992740"}}, {"type": "Feature", "geometry": {"type": "LineString", "coordinates": [[95.49148924334906, 69.03925514485152], [95.49360551450292, 69.04049221337115]]}, "properties": {"source": "12865532", "target": "13380613"}}, {"type": "Feature", "geometry": {"type": "LineString", "coordinates": [[95.50283260270555, 69.04170165319002], [95.49172873843486, 69.04044392209028]]}, "properties": {"source": "18110082", "target": "17158673"}}, {"type": "Feature", "geometry": {"type": "LineString", "coordinates": [[95.49151888366401, 69.04101307091761], [95.49991291698313, 69.04019657243202]]}, "properties": {"source": "33004978", "target": "31743542"}}, {"type": "Feature", "geometry": {"type": "LineString", "coordinates": [[95.49151888366401, 69.04101307091761], [95.49848497597316, 69.04187409530363]]}, "properties": {"source": "33004978", "target": "33138178"}}, {"type": "Feature", "geometry": {"type": "LineString", "coordinates": [[95.4916364453581, 69.03914646023964], [95.50283260270555, 69.04170165319002]]}, "properties": {"source": "17399306", "target": "18110082"}}, {"type": "Feature", "geometry": {"type": "LineString", "coordinates": [[95.4916364453581, 69.03914646023964], [95.49172873843486, 69.04044392209028]]}, "properties": {"source": "17399306", "target": "17158673"}}, {"type": "Feature", "geometry": {"type": "LineString", "coordinates": [[95.4916364453581, 69.03914646023964], [95.50213188936533, 69.04166129190673]]}, "properties": {"source": "17399306", "target": "17703659"}}, {"type": "Feature", "geometry": {"type": "LineString", "coordinates": [[95.4916364453581, 69.03914646023964], [95.5001210612453, 69.03839387854768]]}, "properties": {"source": "17399306", "target": "18513988"}}, {"type": "Feature", "geometry": {"type": "LineString", "coordinates": [[95.49151888366401, 69.04101307091761], [95.4945530649519, 69.03996664149378]]}, "properties": {"source": "33004978", "target": "34427803"}}, {"type": "Feature", "geometry": {"type": "LineString", "coordinates": [[95.49047179772333, 69.03888811443923], [95.49788496678059, 69.03971356581388]]}, "properties": {"source": "18260194", "target": "12865469"}}, {"type": "Feature", "geometry": {"type": "LineString", "coordinates": [[95.49047179772333, 69.03888811443923], [95.50263586068502, 69.03914081894908]]}, "properties": {"source": "18260194", "target": "18342835"}}, {"type": "Feature", "geometry": {"type": "LineString", "coordinates": [[95.49047179772333, 69.03888811443923], [95.49109608787398, 69.03788937922818]]}, "properties": {"source": "18260194", "target": "1942572"}}, {"type": "Feature", "geometry": {"type": "LineString", "coordinates": [[95.49047179772333, 69.03888811443923], [95.50192598094395, 69.04177404070057]]}, "properties": {"source": "18260194", "target": "20046120"}}, {"type": "Feature", "geometry": {"type": "LineString", "coordinates": [[95.49047179772333, 69.03888811443923], [95.49424270532501, 69.03941332640088]]}, "properties": {"source": "18260194", "target": "17332808"}}, {"type": "Feature", "geometry": {"type": "LineString", "coordinates": [[95.49388482567451, 69.04062996208239], [95.49621955711137, 69.04026745632757]]}, "properties": {"source": "33960287", "target": "32854720"}}, {"type": "Feature", "geometry": {"type": "LineString", "coordinates": [[95.49388482567451, 69.04062996208239], [95.49654781262979, 69.04183064211404]]}, "properties": {"source": "33960287", "target": "32616950"}}, {"type": "Feature", "geometry": {"type": "LineString", "coordinates": [[95.49388482567451, 69.04062996208239], [95.49991291698313, 69.04019657243202]]}, "properties": {"source": "33960287", "target": "31743542"}}, {"type": "Feature", "geometry": {"type": "LineString", "coordinates": [[95.49388482567451, 69.04062996208239], [95.49796102209223, 69.03959047275362]]}, "properties": {"source": "33960287", "target": "32871069"}}, {"type": "Feature", "geometry": {"type": "LineString", "coordinates": [[95.49388482567451, 69.04062996208239], [95.49848497597316, 69.04187409530363]]}, "properties": {"source": "33960287", "target": "33138178"}}, {"type": "Feature", "geometry": {"type": "LineString", "coordinates": [[95.49388482567451, 69.04062996208239], [95.48818712776159, 69.03870696734711]]}, "properties": {"source": "33960287", "target": "33281970"}}, {"type": "Feature", "geometry": {"type": "LineString", "coordinates": [[95.50283260270555, 69.04170165319002], [95.50213188936533, 69.04166129190673]]}, "properties": {"source": "18110082", "target": "17703659"}}, {"type": "Feature", "geometry": {"type": "LineString", "coordinates": [[95.50283260270555, 69.04170165319002], [95.49915038911217, 69.03835106179693]]}, "properties": {"source": "18110082", "target": "1423223"}}, {"type": "Feature", "geometry": {"type": "LineString", "coordinates": [[95.50283260270555, 69.04170165319002], [95.5001210612453, 69.03839387854768]]}, "properties": {"source": "18110082", "target": "18513988"}}, {"type": "Feature", "geometry": {"type": "LineString", "coordinates": [[95.50283260270555, 69.04170165319002], [95.50244665997167, 69.03824371027582]]}, "properties": {"source": "18110082", "target": "18281295"}}, {"type": "Feature", "geometry": {"type": "LineString", "coordinates": [[95.49388482567451, 69.04062996208239], [95.49874043617535, 69.04152942986866]]}, "properties": {"source": "33960287", "target": "33138120"}}, {"type": "Feature", "geometry": {"type": "LineString", "coordinates": [[95.49029132928808, 69.04101041268453], [95.49139864281057, 69.041724748149]]}, "properties": {"source": "22493369", "target": "23263649"}}, {"type": "Feature", "geometry": {"type": "LineString", "coordinates": [[95.49029132928808, 69.04101041268453], [95.50283260270555, 69.04170165319002]]}, "properties": {"source": "22493369", "target": "18110082"}}, {"type": "Feature", "geometry": {"type": "LineString", "coordinates": [[95.49029132928808, 69.04101041268453], [95.4916364453581, 69.03914646023964]]}, "properties": {"source": "22493369", "target": "17399306"}}, {"type": "Feature", "geometry": {"type": "LineString", "coordinates": [[95.49029132928808, 69.04101041268453], [95.49172873843486, 69.04044392209028]]}, "properties": {"source": "22493369", "target": "17158673"}}, {"type": "Feature", "geometry": {"type": "LineString", "coordinates": [[95.49029132928808, 69.04101041268453], [95.50244665997167, 69.03824371027582]]}, "properties": {"source": "22493369", "target": "18281295"}}, {"type": "Feature", "geometry": {"type": "LineString", "coordinates": [[95.50263586068502, 69.03914081894908], [95.49139864281057, 69.041724748149]]}, "properties": {"source": "18342835", "target": "23263649"}}, {"type": "Feature", "geometry": {"type": "LineString", "coordinates": [[95.50263586068502, 69.03914081894908], [95.50192598094395, 69.04177404070057]]}, "properties": {"source": "18342835", "target": "20046120"}}, {"type": "Feature", "geometry": {"type": "LineString", "coordinates": [[95.49574878545798, 69.0387742439554], [95.49352600916433, 69.03971257069668]]}, "properties": {"source": "15992740", "target": "12865554"}}, {"type": "Feature", "geometry": {"type": "LineString", "coordinates": [[95.49030435735318, 69.04016102309333], [95.49139864281057, 69.041724748149]]}, "properties": {"source": "20803389", "target": "23263649"}}, {"type": "Feature", "geometry": {"type": "LineString", "coordinates": [[95.49030435735318, 69.04016102309333], [95.50251921547243, 69.03822455202067]]}, "properties": {"source": "20803389", "target": "22553608"}}, {"type": "Feature", "geometry": {"type": "LineString", "coordinates": [[95.48819179484912, 69.04166748960853], [95.49698133650935, 69.03931496394972]]}, "properties": {"source": "17373583", "target": "22885408"}}, {"type": "Feature", "geometry": {"type": "LineString", "coordinates": [[95.48819179484912, 69.04166748960853], [95.50122247144157, 69.03865179853432]]}, "properties": {"source": "17373583", "target": "1877648"}}, {"type": "Feature", "geometry": {"type": "LineString", "coordinates": [[95.49796102209223, 69.03959047275362], [95.49848497597316, 69.04187409530363]]}, "properties": {"source": "32871069", "target": "33138178"}}, {"type": "Feature", "geometry": {"type": "LineString", "coordinates": [[95.49796102209223, 69.03959047275362], [95.4951149640491, 69.04145273893542]]}, "properties": {"source": "32871069", "target": "28093766"}}, {"type": "Feature", "geometry": {"type": "LineString", "coordinates": [[95.49796102209223, 69.03959047275362], [95.48818712776159, 69.03870696734711]]}, "properties": {"source": "32871069", "target": "33281970"}}, {"type": "Feature", "geometry": {"type": "LineString", "coordinates": [[95.49796102209223, 69.03959047275362], [95.49874043617535, 69.04152942986866]]}, "properties": {"source": "32871069", "target": "33138120"}}, {"type": "Feature", "geometry": {"type": "LineString", "coordinates": [[95.49168424023651, 69.03830911317402], [95.48897704868165, 69.03803708608976]]}, "properties": {"source": "16247499", "target": "18487437"}}, {"type": "Feature", "geometry": {"type": "LineString", "coordinates": [[95.49872545314275, 69.04070648849151], [95.50283260270555, 69.04170165319002]]}, "properties": {"source": "14732932", "target": "18110082"}}, {"type": "Feature", "geometry": {"type": "LineString", "coordinates": [[95.49872545314275, 69.04070648849151], [95.4916364453581, 69.03914646023964]]}, "properties": {"source": "14732932", "target": "17399306"}}, {"type": "Feature", "geometry": {"type": "LineString", "coordinates": [[95.49872545314275, 69.04070648849151], [95.49172873843486, 69.04044392209028]]}, "properties": {"source": "14732932", "target": "17158673"}}, {"type": "Feature", "geometry": {"type": "LineString", "coordinates": [[95.49872545314275, 69.04070648849151], [95.50213188936533, 69.04166129190673]]}, "properties": {"source": "14732932", "target": "17703659"}}, {"type": "Feature", "geometry": {"type": "LineString", "coordinates": [[95.49638929553424, 69.04201061551788], [95.49371102851842, 69.03977685601598]]}, "properties": {"source": "2530391", "target": "18656817"}}, {"type": "Feature", "geometry": {"type": "LineString", "coordinates": [[95.49638929553424, 69.04201061551788], [95.48819179484912, 69.04166748960853]]}, "properties": {"source": "2530391", "target": "17373583"}}, {"type": "Feature", "geometry": {"type": "LineString", "coordinates": [[95.49638929553424, 69.04201061551788], [95.49698133650935, 69.03931496394972]]}, "properties": {"source": "2530391", "target": "22885408"}}, {"type": "Feature", "geometry": {"type": "LineString", "coordinates": [[95.49638929553424, 69.04201061551788], [95.50122247144157, 69.03865179853432]]}, "properties": {"source": "2530391", "target": "1877648"}}, {"type": "Feature", "geometry": {"type": "LineString", "coordinates": [[95.4983645932951, 69.04024785852653], [95.50177104463654, 69.03751180593889]]}, "properties": {"source": "8006515", "target": "28012539"}}, {"type": "Feature", "geometry": {"type": "LineString", "coordinates": [[95.49951729885203, 69.03884824274036], [95.49634989602856, 69.03848241612914]]}, "properties": {"source": "21004065", "target": "28098643"}}, {"type": "Feature", "geometry": {"type": "LineString", "coordinates": [[95.49951729885203, 69.03884824274036], [95.50177104463654, 69.03751180593889]]}, "properties": {"source": "21004065", "target": "28012539"}}, {"type": "Feature", "geometry": {"type": "LineString", "coordinates": [[95.49030435735318, 69.04016102309333], [95.50283260270555, 69.04170165319002]]}, "properties": {"source": "20803389", "target": "18110082"}}, {"type": "Feature", "geometry": {"type": "LineString", "coordinates": [[95.49030435735318, 69.04016102309333], [95.4916364453581, 69.03914646023964]]}, "properties": {"source": "20803389", "target": "17399306"}}, {"type": "Feature", "geometry": {"type": "LineString", "coordinates": [[95.49030435735318, 69.04016102309333], [95.49172873843486, 69.04044392209028]]}, "properties": {"source": "20803389", "target": "17158673"}}, {"type": "Feature", "geometry": {"type": "LineString", "coordinates": [[95.49030435735318, 69.04016102309333], [95.49013264442215, 69.04012015865624]]}, "properties": {"source": "20803389", "target": "24758177"}}, {"type": "Feature", "geometry": {"type": "LineString", "coordinates": [[95.49109608787398, 69.03788937922818], [95.49139864281057, 69.041724748149]]}, "properties": {"source": "1942572", "target": "23263649"}}, {"type": "Feature", "geometry": {"type": "LineString", "coordinates": [[95.49109608787398, 69.03788937922818], [95.50263586068502, 69.03914081894908]]}, "properties": {"source": "1942572", "target": "18342835"}}, {"type": "Feature", "geometry": {"type": "LineString", "coordinates": [[95.49109608787398, 69.03788937922818], [95.49424270532501, 69.03941332640088]]}, "properties": {"source": "1942572", "target": "17332808"}}, {"type": "Feature", "geometry": {"type": "LineString", "coordinates": [[95.48897704868165, 69.03803708608976], [95.49716218678606, 69.04108788492812]]}, "properties": {"source": "18487437", "target": "16151450"}}, {"type": "Feature", "geometry": {"type": "LineString", "coordinates": [[95.48897704868165, 69.03803708608976], [95.49371102851842, 69.03977685601598]]}, "properties": {"source": "18487437", "target": "18656817"}}, {"type": "Feature", "geometry": {"type": "LineString", "coordinates": [[95.48897704868165, 69.03803708608976], [95.48819179484912, 69.04166748960853]]}, "properties": {"source": "18487437", "target": "17373583"}}, {"type": "Feature", "geometry": {"type": "LineString", "coordinates": [[95.48897704868165, 69.03803708608976], [95.49698133650935, 69.03931496394972]]}, "properties": {"source": "18487437", "target": "22885408"}}, {"type": "Feature", "geometry": {"type": "LineString", "coordinates": [[95.48897704868165, 69.03803708608976], [95.50122247144157, 69.03865179853432]]}, "properties": {"source": "18487437", "target": "1877648"}}, {"type": "Feature", "geometry": {"type": "LineString", "coordinates": [[95.496704423408, 69.03853410592848], [95.4951149640491, 69.04145273893542]]}, "properties": {"source": "25791373", "target": "28093766"}}, {"type": "Feature", "geometry": {"type": "LineString", "coordinates": [[95.496704423408, 69.03853410592848], [95.49634989602856, 69.03848241612914]]}, "properties": {"source": "25791373", "target": "28098643"}}, {"type": "Feature", "geometry": {"type": "LineString", "coordinates": [[95.50192598094395, 69.04177404070057], [95.49139864281057, 69.041724748149]]}, "properties": {"source": "20046120", "target": "23263649"}}, {"type": "Feature", "geometry": {"type": "LineString", "coordinates": [[95.4938153053522, 69.03786327145056], [95.49634989602856, 69.03848241612914]]}, "properties": {"source": "27310948", "target": "28098643"}}, {"type": "Feature", "geometry": {"type": "LineString", "coordinates": [[95.49108767049933, 69.04217690315429], [95.49352600916433, 69.03971257069668]]}, "properties": {"source": "23278229", "target": "12865554"}}, {"type": "Feature", "geometry": {"type": "LineString", "coordinates": [[95.49108767049933, 69.04217690315429], [95.49139864281057, 69.041724748149]]}, "properties": {"source": "23278229", "target": "23263649"}}, {"type": "Feature", "geometry": {"type": "LineString", "coordinates": [[95.49108767049933, 69.04217690315429], [95.49148924334906, 69.03925514485152]]}, "properties": {"source": "23278229", "target": "12865532"}}, {"type": "Feature", "geometry": {"type": "LineString", "coordinates": [[95.49108767049933, 69.04217690315429], [95.49449008294192, 69.03995350728329]]}, "properties": {"source": "23278229", "target": "12865488"}}, {"type": "Feature", "geometry": {"type": "LineString", "coordinates": [[95.48818712776159, 69.03870696734711], [95.49621955711137, 69.04026745632757]]}, "properties": {"source": "33281970", "target": "32854720"}}, {"type": "Feature", "geometry": {"type": "LineString", "coordinates": [[95.48818712776159, 69.03870696734711], [95.49654781262979, 69.04183064211404]]}, "properties": {"source": "33281970", "target": "32616950"}}, {"type": "Feature", "geometry": {"type": "LineString", "coordinates": [[95.48818712776159, 69.03870696734711], [95.49991291698313, 69.04019657243202]]}, "properties": {"source": "33281970", "target": "31743542"}}, {"type": "Feature", "geometry": {"type": "LineString", "coordinates": [[95.48818712776159, 69.03870696734711], [95.49848497597316, 69.04187409530363]]}, "properties": {"source": "33281970", "target": "33138178"}}, {"type": "Feature", "geometry": {"type": "LineString", "coordinates": [[95.48818712776159, 69.03870696734711], [95.4951149640491, 69.04145273893542]]}, "properties": {"source": "33281970", "target": "28093766"}}, {"type": "Feature", "geometry": {"type": "LineString", "coordinates": [[95.48818712776159, 69.03870696734711], [95.49634989602856, 69.03848241612914]]}, "properties": {"source": "33281970", "target": "28098643"}}, {"type": "Feature", "geometry": {"type": "LineString", "coordinates": [[95.48818712776159, 69.03870696734711], [95.4927367707013, 69.04091338280489]]}, "properties": {"source": "33281970", "target": "399533"}}, {"type": "Feature", "geometry": {"type": "LineString", "coordinates": [[95.49634989602856, 69.03848241612914], [95.49991291698313, 69.04019657243202]]}, "properties": {"source": "28098643", "target": "31743542"}}, {"type": "Feature", "geometry": {"type": "LineString", "coordinates": [[95.49108767049933, 69.04217690315429], [95.49047179772333, 69.03888811443923]]}, "properties": {"source": "23278229", "target": "18260194"}}, {"type": "Feature", "geometry": {"type": "LineString", "coordinates": [[95.49108767049933, 69.04217690315429], [95.48788690905758, 69.03729332514229]]}, "properties": {"source": "23278229", "target": "12865582"}}, {"type": "Feature", "geometry": {"type": "LineString", "coordinates": [[95.49172873843486, 69.04044392209028], [95.5001210612453, 69.03839387854768]]}, "properties": {"source": "17158673", "target": "18513988"}}, {"type": "Feature", "geometry": {"type": "LineString", "coordinates": [[95.50213188936533, 69.04166129190673], [95.49139864281057, 69.041724748149]]}, "properties": {"source": "17703659", "target": "23263649"}}, {"type": "Feature", "geometry": {"type": "LineString", "coordinates": [[95.50213188936533, 69.04166129190673], [95.49915038911217, 69.03835106179693]]}, "properties": {"source": "17703659", "target": "1423223"}}, {"type": "Feature", "geometry": {"type": "LineString", "coordinates": [[95.48938970158662, 69.03830355310396], [95.49621955711137, 69.04026745632757]]}, "properties": {"source": "440320", "target": "32854720"}}, {"type": "Feature", "geometry": {"type": "LineString", "coordinates": [[95.48818712776159, 69.03870696734711], [95.4945530649519, 69.03996664149378]]}, "properties": {"source": "33281970", "target": "34427803"}}, {"type": "Feature", "geometry": {"type": "LineString", "coordinates": [[95.48818712776159, 69.03870696734711], [95.49151888366401, 69.04101307091761]]}, "properties": {"source": "33281970", "target": "33004978"}}, {"type": "Feature", "geometry": {"type": "LineString", "coordinates": [[95.49848497597316, 69.04187409530363], [95.49640304140371, 69.03957568963273]]}, "properties": {"source": "33138178", "target": "13437209"}}, {"type": "Feature", "geometry": {"type": "LineString", "coordinates": [[95.49848497597316, 69.04187409530363], [95.49293979412249, 69.04108178468789]]}, "properties": {"source": "33138178", "target": "1350966"}}, {"type": "Feature", "geometry": {"type": "LineString", "coordinates": [[95.49874043617535, 69.04152942986866], [95.49848497597316, 69.04187409530363]]}, "properties": {"source": "33138120", "target": "33138178"}}, {"type": "Feature", "geometry": {"type": "LineString", "coordinates": [[95.49874043617535, 69.04152942986866], [95.4951149640491, 69.04145273893542]]}, "properties": {"source": "33138120", "target": "28093766"}}, {"type": "Feature", "geometry": {"type": "LineString", "coordinates": [[95.49874043617535, 69.04152942986866], [95.48818712776159, 69.03870696734711]]}, "properties": {"source": "33138120", "target": "33281970"}}, {"type": "Feature", "geometry": {"type": "LineString", "coordinates": [[95.49874043617535, 69.04152942986866], [95.49634989602856, 69.03848241612914]]}, "properties": {"source": "33138120", "target": "28098643"}}, {"type": "Feature", "geometry": {"type": "LineString", "coordinates": [[95.49874043617535, 69.04152942986866], [95.48788690905758, 69.03729332514229]]}, "properties": {"source": "33138120", "target": "12865582"}}, {"type": "Feature", "geometry": {"type": "LineString", "coordinates": [[95.49874043617535, 69.04152942986866], [95.49640304140371, 69.03957568963273]]}, "properties": {"source": "33138120", "target": "13437209"}}, {"type": "Feature", "geometry": {"type": "LineString", "coordinates": [[95.49874043617535, 69.04152942986866], [95.49293979412249, 69.04108178468789]]}, "properties": {"source": "33138120", "target": "1350966"}}, {"type": "Feature", "geometry": {"type": "LineString", "coordinates": [[95.49874043617535, 69.04152942986866], [95.4927367707013, 69.04091338280489]]}, "properties": {"source": "33138120", "target": "399533"}}, {"type": "Feature", "geometry": {"type": "LineString", "coordinates": [[95.49874043617535, 69.04152942986866], [95.4945530649519, 69.03996664149378]]}, "properties": {"source": "33138120", "target": "34427803"}}, {"type": "Feature", "geometry": {"type": "LineString", "coordinates": [[95.49874043617535, 69.04152942986866], [95.49151888366401, 69.04101307091761]]}, "properties": {"source": "33138120", "target": "33004978"}}, {"type": "Feature", "geometry": {"type": "LineString", "coordinates": [[95.49366056075667, 69.04187940273789], [95.49621955711137, 69.04026745632757]]}, "properties": {"source": "31823240", "target": "32854720"}}, {"type": "Feature", "geometry": {"type": "LineString", "coordinates": [[95.49366056075667, 69.04187940273789], [95.49654781262979, 69.04183064211404]]}, "properties": {"source": "31823240", "target": "32616950"}}, {"type": "Feature", "geometry": {"type": "LineString", "coordinates": [[95.49366056075667, 69.04187940273789], [95.49991291698313, 69.04019657243202]]}, "properties": {"source": "31823240", "target": "31743542"}}, {"type": "Feature", "geometry": {"type": "LineString", "coordinates": [[95.49366056075667, 69.04187940273789], [95.49796102209223, 69.03959047275362]]}, "properties": {"source": "31823240", "target": "32871069"}}, {"type": "Feature", "geometry": {"type": "LineString", "coordinates": [[95.49366056075667, 69.04187940273789], [95.49848497597316, 69.04187409530363]]}, "properties": {"source": "31823240", "target": "33138178"}}, {"type": "Feature", "geometry": {"type": "LineString", "coordinates": [[95.49366056075667, 69.04187940273789], [95.4951149640491, 69.04145273893542]]}, "properties": {"source": "31823240", "target": "28093766"}}, {"type": "Feature", "geometry": {"type": "LineString", "coordinates": [[95.49366056075667, 69.04187940273789], [95.48818712776159, 69.03870696734711]]}, "properties": {"source": "31823240", "target": "33281970"}}, {"type": "Feature", "geometry": {"type": "LineString", "coordinates": [[95.49366056075667, 69.04187940273789], [95.49634989602856, 69.03848241612914]]}, "properties": {"source": "31823240", "target": "28098643"}}, {"type": "Feature", "geometry": {"type": "LineString", "coordinates": [[95.49366056075667, 69.04187940273789], [95.49388482567451, 69.04062996208239]]}, "properties": {"source": "31823240", "target": "33960287"}}, {"type": "Feature", "geometry": {"type": "LineString", "coordinates": [[95.49366056075667, 69.04187940273789], [95.48788690905758, 69.03729332514229]]}, "properties": {"source": "31823240", "target": "12865582"}}, {"type": "Feature", "geometry": {"type": "LineString", "coordinates": [[95.49366056075667, 69.04187940273789], [95.49352600916433, 69.03971257069668]]}, "properties": {"source": "31823240", "target": "12865554"}}, {"type": "Feature", "geometry": {"type": "LineString", "coordinates": [[95.49366056075667, 69.04187940273789], [95.50121294480823, 69.04059847214532]]}, "properties": {"source": "31823240", "target": "30739001"}}, {"type": "Feature", "geometry": {"type": "LineString", "coordinates": [[95.49366056075667, 69.04187940273789], [95.49094792907044, 69.04118039919541]]}, "properties": {"source": "31823240", "target": "31365024"}}, {"type": "Feature", "geometry": {"type": "LineString", "coordinates": [[95.49366056075667, 69.04187940273789], [95.49665447360468, 69.03763665835555]]}, "properties": {"source": "31823240", "target": "28684299"}}, {"type": "Feature", "geometry": {"type": "LineString", "coordinates": [[95.49366056075667, 69.04187940273789], [95.49148924334906, 69.03925514485152]]}, "properties": {"source": "31823240", "target": "12865532"}}, {"type": "Feature", "geometry": {"type": "LineString", "coordinates": [[95.49366056075667, 69.04187940273789], [95.49874043617535, 69.04152942986866]]}, "properties": {"source": "31823240", "target": "33138120"}}, {"type": "Feature", "geometry": {"type": "LineString", "coordinates": [[95.49478911798934, 69.03802946756474], [95.49371102851842, 69.03977685601598]]}, "properties": {"source": "18170190", "target": "18656817"}}, {"type": "Feature", "geometry": {"type": "LineString", "coordinates": [[95.49478911798934, 69.03802946756474], [95.48819179484912, 69.04166748960853]]}, "properties": {"source": "18170190", "target": "17373583"}}, {"type": "Feature", "geometry": {"type": "LineString", "coordinates": [[95.49478911798934, 69.03802946756474], [95.49698133650935, 69.03931496394972]]}, "properties": {"source": "18170190", "target": "22885408"}}, {"type": "Feature", "geometry": {"type": "LineString", "coordinates": [[95.5021933146237, 69.03884340220253], [95.49915038911217, 69.03835106179693]]}, "properties": {"source": "28530756", "target": "1423223"}}, {"type": "Feature", "geometry": {"type": "LineString", "coordinates": [[95.5021933146237, 69.03884340220253], [95.49013264442215, 69.04012015865624]]}, "properties": {"source": "28530756", "target": "24758177"}}, {"type": "Feature", "geometry": {"type": "LineString", "coordinates": [[95.49176831861945, 69.03941055818618], [95.50251921547243, 69.03822455202067]]}, "properties": {"source": "22883031", "target": "22553608"}}, {"type": "Feature", "geometry": {"type": "LineString", "coordinates": [[95.49176831861945, 69.03941055818618], [95.49392297899902, 69.03902324690623]]}, "properties": {"source": "22883031", "target": "10443834"}}, {"type": "Feature", "geometry": {"type": "LineString", "coordinates": [[95.4946917208768, 69.03871239416853], [95.50213188936533, 69.04166129190673]]}, "properties": {"source": "270022", "target": "17703659"}}, {"type": "Feature", "geometry": {"type": "LineString", "coordinates": [[95.4946917208768, 69.03871239416853], [95.49480363033632, 69.04013445027513]]}, "properties": {"source": "270022", "target": "14800146"}}, {"type": "Feature", "geometry": {"type": "LineString", "coordinates": [[95.49480363033632, 69.04013445027513], [95.50213188936533, 69.04166129190673]]}, "properties": {"source": "14800146", "target": "17703659"}}, {"type": "Feature", "geometry": {"type": "LineString", "coordinates": [[95.48893607382564, 69.03838743189598], [95.49029132928808, 69.04101041268453]]}, "properties": {"source": "12073833", "target": "22493369"}}, {"type": "Feature", "geometry": {"type": "LineString", "coordinates": [[95.49118423475124, 69.04029986958719], [95.50121294480823, 69.04059847214532]]}, "properties": {"source": "25538899", "target": "30739001"}}, {"type": "Feature", "geometry": {"type": "LineString", "coordinates": [[95.4938153053522, 69.03786327145056], [95.50177104463654, 69.03751180593889]]}, "properties": {"source": "27310948", "target": "28012539"}}, {"type": "Feature", "geometry": {"type": "LineString", "coordinates": [[95.4938153053522, 69.03786327145056], [95.4983645932951, 69.04024785852653]]}, "properties": {"source": "27310948", "target": "8006515"}}, {"type": "Feature", "geometry": {"type": "LineString", "coordinates": [[95.4938153053522, 69.03786327145056], [95.49951729885203, 69.03884824274036]]}, "properties": {"source": "27310948", "target": "21004065"}}, {"type": "Feature", "geometry": {"type": "LineString", "coordinates": [[95.49360551450292, 69.04049221337115], [95.49352600916433, 69.03971257069668]]}, "properties": {"source": "13380613", "target": "12865554"}}, {"type": "Feature", "geometry": {"type": "LineString", "coordinates": [[95.49796102209223, 69.03959047275362], [95.49634989602856, 69.03848241612914]]}, "properties": {"source": "32871069", "target": "28098643"}}, {"type": "Feature", "geometry": {"type": "LineString", "coordinates": [[95.49796102209223, 69.03959047275362], [95.48788690905758, 69.03729332514229]]}, "properties": {"source": "32871069", "target": "12865582"}}, {"type": "Feature", "geometry": {"type": "LineString", "coordinates": [[95.49796102209223, 69.03959047275362], [95.49640304140371, 69.03957568963273]]}, "properties": {"source": "32871069", "target": "13437209"}}, {"type": "Feature", "geometry": {"type": "LineString", "coordinates": [[95.49796102209223, 69.03959047275362], [95.49293979412249, 69.04108178468789]]}, "properties": {"source": "32871069", "target": "1350966"}}, {"type": "Feature", "geometry": {"type": "LineString", "coordinates": [[95.49796102209223, 69.03959047275362], [95.48938970158662, 69.03830355310396]]}, "properties": {"source": "32871069", "target": "440320"}}, {"type": "Feature", "geometry": {"type": "LineString", "coordinates": [[95.49796102209223, 69.03959047275362], [95.4927367707013, 69.04091338280489]]}, "properties": {"source": "32871069", "target": "399533"}}, {"type": "Feature", "geometry": {"type": "LineString", "coordinates": [[95.49874043617535, 69.04152942986866], [95.49621955711137, 69.04026745632757]]}, "properties": {"source": "33138120", "target": "32854720"}}, {"type": "Feature", "geometry": {"type": "LineString", "coordinates": [[95.49874043617535, 69.04152942986866], [95.49654781262979, 69.04183064211404]]}, "properties": {"source": "33138120", "target": "32616950"}}, {"type": "Feature", "geometry": {"type": "LineString", "coordinates": [[95.49874043617535, 69.04152942986866], [95.49991291698313, 69.04019657243202]]}, "properties": {"source": "33138120", "target": "31743542"}}, {"type": "Feature", "geometry": {"type": "LineString", "coordinates": [[95.49665447360468, 69.03763665835555], [95.49848497597316, 69.04187409530363]]}, "properties": {"source": "28684299", "target": "33138178"}}, {"type": "Feature", "geometry": {"type": "LineString", "coordinates": [[95.49665447360468, 69.03763665835555], [95.48818712776159, 69.03870696734711]]}, "properties": {"source": "28684299", "target": "33281970"}}, {"type": "Feature", "geometry": {"type": "LineString", "coordinates": [[95.49665447360468, 69.03763665835555], [95.50102536447974, 69.04110839864717]]}, "properties": {"source": "28684299", "target": "25184986"}}, {"type": "Feature", "geometry": {"type": "LineString", "coordinates": [[95.49665447360468, 69.03763665835555], [95.496704423408, 69.03853410592848]]}, "properties": {"source": "28684299", "target": "25791373"}}, {"type": "Feature", "geometry": {"type": "LineString", "coordinates": [[95.49796102209223, 69.03959047275362], [95.4945530649519, 69.03996664149378]]}, "properties": {"source": "32871069", "target": "34427803"}}, {"type": "Feature", "geometry": {"type": "LineString", "coordinates": [[95.49796102209223, 69.03959047275362], [95.48948943386932, 69.03724095540227]]}, "properties": {"source": "32871069", "target": "29876198"}}, {"type": "Feature", "geometry": {"type": "LineString", "coordinates": [[95.49796102209223, 69.03959047275362], [95.49151888366401, 69.04101307091761]]}, "properties": {"source": "32871069", "target": "33004978"}}, {"type": "Feature", "geometry": {"type": "LineString", "coordinates": [[95.49360551450292, 69.04049221337115], [95.49449008294192, 69.03995350728329]]}, "properties": {"source": "13380613", "target": "12865488"}}, {"type": "Feature", "geometry": {"type": "LineString", "coordinates": [[95.49360551450292, 69.04049221337115], [95.49788496678059, 69.03971356581388]]}, "properties": {"source": "13380613", "target": "12865469"}}, {"type": "Feature", "geometry": {"type": "LineString", "coordinates": [[95.49360551450292, 69.04049221337115], [95.49574878545798, 69.0387742439554]]}, "properties": {"source": "13380613", "target": "15992740"}}, {"type": "Feature", "geometry": {"type": "LineString", "coordinates": [[95.49424270532501, 69.03941332640088], [95.50263586068502, 69.03914081894908]]}, "properties": {"source": "17332808", "target": "18342835"}}, {"type": "Feature", "geometry": {"type": "LineString", "coordinates": [[95.49424270532501, 69.03941332640088], [95.50192598094395, 69.04177404070057]]}, "properties": {"source": "17332808", "target": "20046120"}}, {"type": "Feature", "geometry": {"type": "LineString", "coordinates": [[95.50177104463654, 69.03751180593889], [95.49634989602856, 69.03848241612914]]}, "properties": {"source": "28012539", "target": "28098643"}}, {"type": "Feature", "geometry": {"type": "LineString", "coordinates": [[95.49013264442215, 69.04012015865624], [95.49139864281057, 69.041724748149]]}, "properties": {"source": "24758177", "target": "23263649"}}, {"type": "Feature", "geometry": {"type": "LineString", "coordinates": [[95.49013264442215, 69.04012015865624], [95.49915038911217, 69.03835106179693]]}, "properties": {"source": "24758177", "target": "1423223"}}, {"type": "Feature", "geometry": {"type": "LineString", "coordinates": [[95.5001210612453, 69.03839387854768], [95.49139864281057, 69.041724748149]]}, "properties": {"source": "18513988", "target": "23263649"}}, {"type": "Feature", "geometry": {"type": "LineString", "coordinates": [[95.49948245397229, 69.04202449196288], [95.49634989602856, 69.03848241612914]]}, "properties": {"source": "27845024", "target": "28098643"}}, {"type": "Feature", "geometry": {"type": "LineString", "coordinates": [[95.49948245397229, 69.04202449196288], [95.4938153053522, 69.03786327145056]]}, "properties": {"source": "27845024", "target": "27310948"}}, {"type": "Feature", "geometry": {"type": "LineString", "coordinates": [[95.49948245397229, 69.04202449196288], [95.50177104463654, 69.03751180593889]]}, "properties": {"source": "27845024", "target": "28012539"}}, {"type": "Feature", "geometry": {"type": "LineString", "coordinates": [[95.49621955711137, 69.04026745632757], [95.4927367707013, 69.04091338280489]]}, "properties": {"source": "32854720", "target": "399533"}}, {"type": "Feature", "geometry": {"type": "LineString", "coordinates": [[95.49654781262979, 69.04183064211404], [95.49991291698313, 69.04019657243202]]}, "properties": {"source": "32616950", "target": "31743542"}}, {"type": "Feature", "geometry": {"type": "LineString", "coordinates": [[95.49654781262979, 69.04183064211404], [95.49848497597316, 69.04187409530363]]}, "properties": {"source": "32616950", "target": "33138178"}}, {"type": "Feature", "geometry": {"type": "LineString", "coordinates": [[95.49621955711137, 69.04026745632757], [95.48948943386932, 69.03724095540227]]}, "properties": {"source": "32854720", "target": "29876198"}}, {"type": "Feature", "geometry": {"type": "LineString", "coordinates": [[95.48938970158662, 69.03830355310396], [95.49654781262979, 69.04183064211404]]}, "properties": {"source": "440320", "target": "32616950"}}, {"type": "Feature", "geometry": {"type": "LineString", "coordinates": [[95.48938970158662, 69.03830355310396], [95.49848497597316, 69.04187409530363]]}, "properties": {"source": "440320", "target": "33138178"}}, {"type": "Feature", "geometry": {"type": "LineString", "coordinates": [[95.48938970158662, 69.03830355310396], [95.48818712776159, 69.03870696734711]]}, "properties": {"source": "440320", "target": "33281970"}}, {"type": "Feature", "geometry": {"type": "LineString", "coordinates": [[95.50102536447974, 69.04110839864717], [95.4951149640491, 69.04145273893542]]}, "properties": {"source": "25184986", "target": "28093766"}}, {"type": "Feature", "geometry": {"type": "LineString", "coordinates": [[95.50102536447974, 69.04110839864717], [95.49634989602856, 69.03848241612914]]}, "properties": {"source": "25184986", "target": "28098643"}}, {"type": "Feature", "geometry": {"type": "LineString", "coordinates": [[95.50102536447974, 69.04110839864717], [95.49139864281057, 69.041724748149]]}, "properties": {"source": "25184986", "target": "23263649"}}, {"type": "Feature", "geometry": {"type": "LineString", "coordinates": [[95.50102536447974, 69.04110839864717], [95.49109608787398, 69.03788937922818]]}, "properties": {"source": "25184986", "target": "1942572"}}, {"type": "Feature", "geometry": {"type": "LineString", "coordinates": [[95.50102536447974, 69.04110839864717], [95.496704423408, 69.03853410592848]]}, "properties": {"source": "25184986", "target": "25791373"}}, {"type": "Feature", "geometry": {"type": "LineString", "coordinates": [[95.50102536447974, 69.04110839864717], [95.50192598094395, 69.04177404070057]]}, "properties": {"source": "25184986", "target": "20046120"}}, {"type": "Feature", "geometry": {"type": "LineString", "coordinates": [[95.48948943386932, 69.03724095540227], [95.49991291698313, 69.04019657243202]]}, "properties": {"source": "29876198", "target": "31743542"}}, {"type": "Feature", "geometry": {"type": "LineString", "coordinates": [[95.48948943386932, 69.03724095540227], [95.496704423408, 69.03853410592848]]}, "properties": {"source": "29876198", "target": "25791373"}}, {"type": "Feature", "geometry": {"type": "LineString", "coordinates": [[95.49366056075667, 69.04187940273789], [95.49640304140371, 69.03957568963273]]}, "properties": {"source": "31823240", "target": "13437209"}}, {"type": "Feature", "geometry": {"type": "LineString", "coordinates": [[95.49366056075667, 69.04187940273789], [95.49293979412249, 69.04108178468789]]}, "properties": {"source": "31823240", "target": "1350966"}}, {"type": "Feature", "geometry": {"type": "LineString", "coordinates": [[95.48938970158662, 69.03830355310396], [95.49874043617535, 69.04152942986866]]}, "properties": {"source": "440320", "target": "33138120"}}, {"type": "Feature", "geometry": {"type": "LineString", "coordinates": [[95.49366056075667, 69.04187940273789], [95.4945530649519, 69.03996664149378]]}, "properties": {"source": "31823240", "target": "34427803"}}, {"type": "Feature", "geometry": {"type": "LineString", "coordinates": [[95.49366056075667, 69.04187940273789], [95.49151888366401, 69.04101307091761]]}, "properties": {"source": "31823240", "target": "33004978"}}, {"type": "Feature", "geometry": {"type": "LineString", "coordinates": [[95.49366056075667, 69.04187940273789], [95.48938970158662, 69.03830355310396]]}, "properties": {"source": "31823240", "target": "440320"}}, {"type": "Feature", "geometry": {"type": "LineString", "coordinates": [[95.49621955711137, 69.04026745632757], [95.49654781262979, 69.04183064211404]]}, "properties": {"source": "32854720", "target": "32616950"}}, {"type": "Feature", "geometry": {"type": "LineString", "coordinates": [[95.49621955711137, 69.04026745632757], [95.49991291698313, 69.04019657243202]]}, "properties": {"source": "32854720", "target": "31743542"}}, {"type": "Feature", "geometry": {"type": "LineString", "coordinates": [[95.49621955711137, 69.04026745632757], [95.49848497597316, 69.04187409530363]]}, "properties": {"source": "32854720", "target": "33138178"}}, {"type": "Feature", "geometry": {"type": "LineString", "coordinates": [[95.49621955711137, 69.04026745632757], [95.4951149640491, 69.04145273893542]]}, "properties": {"source": "32854720", "target": "28093766"}}, {"type": "Feature", "geometry": {"type": "LineString", "coordinates": [[95.49621955711137, 69.04026745632757], [95.49634989602856, 69.03848241612914]]}, "properties": {"source": "32854720", "target": "28098643"}}, {"type": "Feature", "geometry": {"type": "LineString", "coordinates": [[95.49621955711137, 69.04026745632757], [95.49352600916433, 69.03971257069668]]}, "properties": {"source": "32854720", "target": "12865554"}}, {"type": "Feature", "geometry": {"type": "LineString", "coordinates": [[95.49621955711137, 69.04026745632757], [95.49640304140371, 69.03957568963273]]}, "properties": {"source": "32854720", "target": "13437209"}}, {"type": "Feature", "geometry": {"type": "LineString", "coordinates": [[95.49621955711137, 69.04026745632757], [95.49293979412249, 69.04108178468789]]}, "properties": {"source": "32854720", "target": "1350966"}}, {"type": "Feature", "geometry": {"type": "LineString", "coordinates": [[95.49047179772333, 69.03888811443923], [95.49449008294192, 69.03995350728329]]}, "properties": {"source": "18260194", "target": "12865488"}}, {"type": "Feature", "geometry": {"type": "LineString", "coordinates": [[95.49047179772333, 69.03888811443923], [95.49640304140371, 69.03957568963273]]}, "properties": {"source": "18260194", "target": "13437209"}}, {"type": "Feature", "geometry": {"type": "LineString", "coordinates": [[95.49047179772333, 69.03888811443923], [95.49293979412249, 69.04108178468789]]}, "properties": {"source": "18260194", "target": "1350966"}}, {"type": "Feature", "geometry": {"type": "LineString", "coordinates": [[95.49047179772333, 69.03888811443923], [95.49716218678606, 69.04108788492812]]}, "properties": {"source": "18260194", "target": "16151450"}}, {"type": "Feature", "geometry": {"type": "LineString", "coordinates": [[95.49366056075667, 69.04187940273789], [95.48948943386932, 69.03724095540227]]}, "properties": {"source": "31823240", "target": "29876198"}}, {"type": "Feature", "geometry": {"type": "LineString", "coordinates": [[95.49621955711137, 69.04026745632757], [95.4945530649519, 69.03996664149378]]}, "properties": {"source": "32854720", "target": "34427803"}}, {"type": "Feature", "geometry": {"type": "LineString", "coordinates": [[95.49621955711137, 69.04026745632757], [95.49151888366401, 69.04101307091761]]}, "properties": {"source": "32854720", "target": "33004978"}}, {"type": "Feature", "geometry": {"type": "LineString", "coordinates": [[95.50121294480823, 69.04059847214532], [95.49991291698313, 69.04019657243202]]}, "properties": {"source": "30739001", "target": "31743542"}}, {"type": "Feature", "geometry": {"type": "LineString", "coordinates": [[95.50121294480823, 69.04059847214532], [95.49796102209223, 69.03959047275362]]}, "properties": {"source": "30739001", "target": "32871069"}}, {"type": "Feature", "geometry": {"type": "LineString", "coordinates": [[95.50121294480823, 69.04059847214532], [95.49848497597316, 69.04187409530363]]}, "properties": {"source": "30739001", "target": "33138178"}}, {"type": "Feature", "geometry": {"type": "LineString", "coordinates": [[95.50121294480823, 69.04059847214532], [95.4951149640491, 69.04145273893542]]}, "properties": {"source": "30739001", "target": "28093766"}}, {"type": "Feature", "geometry": {"type": "LineString", "coordinates": [[95.50121294480823, 69.04059847214532], [95.48818712776159, 69.03870696734711]]}, "properties": {"source": "30739001", "target": "33281970"}}, {"type": "Feature", "geometry": {"type": "LineString", "coordinates": [[95.50121294480823, 69.04059847214532], [95.49634989602856, 69.03848241612914]]}, "properties": {"source": "30739001", "target": "28098643"}}, {"type": "Feature", "geometry": {"type": "LineString", "coordinates": [[95.49094792907044, 69.04118039919541], [95.49621955711137, 69.04026745632757]]}, "properties": {"source": "31365024", "target": "32854720"}}, {"type": "Feature", "geometry": {"type": "LineString", "coordinates": [[95.49094792907044, 69.04118039919541], [95.49654781262979, 69.04183064211404]]}, "properties": {"source": "31365024", "target": "32616950"}}, {"type": "Feature", "geometry": {"type": "LineString", "coordinates": [[95.49094792907044, 69.04118039919541], [95.49991291698313, 69.04019657243202]]}, "properties": {"source": "31365024", "target": "31743542"}}, {"type": "Feature", "geometry": {"type": "LineString", "coordinates": [[95.49094792907044, 69.04118039919541], [95.49796102209223, 69.03959047275362]]}, "properties": {"source": "31365024", "target": "32871069"}}, {"type": "Feature", "geometry": {"type": "LineString", "coordinates": [[95.49094792907044, 69.04118039919541], [95.49848497597316, 69.04187409530363]]}, "properties": {"source": "31365024", "target": "33138178"}}, {"type": "Feature", "geometry": {"type": "LineString", "coordinates": [[95.49094792907044, 69.04118039919541], [95.48818712776159, 69.03870696734711]]}, "properties": {"source": "31365024", "target": "33281970"}}, {"type": "Feature", "geometry": {"type": "LineString", "coordinates": [[95.49094792907044, 69.04118039919541], [95.49634989602856, 69.03848241612914]]}, "properties": {"source": "31365024", "target": "28098643"}}, {"type": "Feature", "geometry": {"type": "LineString", "coordinates": [[95.50121294480823, 69.04059847214532], [95.49874043617535, 69.04152942986866]]}, "properties": {"source": "30739001", "target": "33138120"}}, {"type": "Feature", "geometry": {"type": "LineString", "coordinates": [[95.50121294480823, 69.04059847214532], [95.48948943386932, 69.03724095540227]]}, "properties": {"source": "30739001", "target": "29876198"}}, {"type": "Feature", "geometry": {"type": "LineString", "coordinates": [[95.49094792907044, 69.04118039919541], [95.49874043617535, 69.04152942986866]]}, "properties": {"source": "31365024", "target": "33138120"}}, {"type": "Feature", "geometry": {"type": "LineString", "coordinates": [[95.49388482567451, 69.04062996208239], [95.49665447360468, 69.03763665835555]]}, "properties": {"source": "33960287", "target": "28684299"}}, {"type": "Feature", "geometry": {"type": "LineString", "coordinates": [[95.49388482567451, 69.04062996208239], [95.48938970158662, 69.03830355310396]]}, "properties": {"source": "33960287", "target": "440320"}}, {"type": "Feature", "geometry": {"type": "LineString", "coordinates": [[95.49388482567451, 69.04062996208239], [95.4927367707013, 69.04091338280489]]}, "properties": {"source": "33960287", "target": "399533"}}, {"type": "Feature", "geometry": {"type": "LineString", "coordinates": [[95.48788690905758, 69.03729332514229], [95.49621955711137, 69.04026745632757]]}, "properties": {"source": "12865582", "target": "32854720"}}, {"type": "Feature", "geometry": {"type": "LineString", "coordinates": [[95.48788690905758, 69.03729332514229], [95.49654781262979, 69.04183064211404]]}, "properties": {"source": "12865582", "target": "32616950"}}, {"type": "Feature", "geometry": {"type": "LineString", "coordinates": [[95.48788690905758, 69.03729332514229], [95.49991291698313, 69.04019657243202]]}, "properties": {"source": "12865582", "target": "31743542"}}, {"type": "Feature", "geometry": {"type": "LineString", "coordinates": [[95.48788690905758, 69.03729332514229], [95.4951149640491, 69.04145273893542]]}, "properties": {"source": "12865582", "target": "28093766"}}, {"type": "Feature", "geometry": {"type": "LineString", "coordinates": [[95.48788690905758, 69.03729332514229], [95.49352600916433, 69.03971257069668]]}, "properties": {"source": "12865582", "target": "12865554"}}, {"type": "Feature", "geometry": {"type": "LineString", "coordinates": [[95.48788690905758, 69.03729332514229], [95.49449008294192, 69.03995350728329]]}, "properties": {"source": "12865582", "target": "12865488"}}, {"type": "Feature", "geometry": {"type": "LineString", "coordinates": [[95.48788690905758, 69.03729332514229], [95.49788496678059, 69.03971356581388]]}, "properties": {"source": "12865582", "target": "12865469"}}, {"type": "Feature", "geometry": {"type": "LineString", "coordinates": [[95.48788690905758, 69.03729332514229], [95.49574878545798, 69.0387742439554]]}, "properties": {"source": "12865582", "target": "15992740"}}, {"type": "Feature", "geometry": {"type": "LineString", "coordinates": [[95.49352600916433, 69.03971257069668], [95.49991291698313, 69.04019657243202]]}, "properties": {"source": "12865554", "target": "31743542"}}, {"type": "Feature", "geometry": {"type": "LineString", "coordinates": [[95.50121294480823, 69.04059847214532], [95.49621955711137, 69.04026745632757]]}, "properties": {"source": "30739001", "target": "32854720"}}, {"type": "Feature", "geometry": {"type": "LineString", "coordinates": [[95.50121294480823, 69.04059847214532], [95.49654781262979, 69.04183064211404]]}, "properties": {"source": "30739001", "target": "32616950"}}, {"type": "Feature", "geometry": {"type": "LineString", "coordinates": [[95.49388482567451, 69.04062996208239], [95.4945530649519, 69.03996664149378]]}, "properties": {"source": "33960287", "target": "34427803"}}, {"type": "Feature", "geometry": {"type": "LineString", "coordinates": [[95.49388482567451, 69.04062996208239], [95.49151888366401, 69.04101307091761]]}, "properties": {"source": "33960287", "target": "33004978"}}, {"type": "Feature", "geometry": {"type": "LineString", "coordinates": [[95.49654781262979, 69.04183064211404], [95.4951149640491, 69.04145273893542]]}, "properties": {"source": "32616950", "target": "28093766"}}, {"type": "Feature", "geometry": {"type": "LineString", "coordinates": [[95.49654781262979, 69.04183064211404], [95.49634989602856, 69.03848241612914]]}, "properties": {"source": "32616950", "target": "28098643"}}, {"type": "Feature", "geometry": {"type": "LineString", "coordinates": [[95.49654781262979, 69.04183064211404], [95.49352600916433, 69.03971257069668]]}, "properties": {"source": "32616950", "target": "12865554"}}, {"type": "Feature", "geometry": {"type": "LineString", "coordinates": [[95.49654781262979, 69.04183064211404], [95.49640304140371, 69.03957568963273]]}, "properties": {"source": "32616950", "target": "13437209"}}, {"type": "Feature", "geometry": {"type": "LineString", "coordinates": [[95.49654781262979, 69.04183064211404], [95.49293979412249, 69.04108178468789]]}, "properties": {"source": "32616950", "target": "1350966"}}, {"type": "Feature", "geometry": {"type": "LineString", "coordinates": [[95.49654781262979, 69.04183064211404], [95.4927367707013, 69.04091338280489]]}, "properties": {"source": "32616950", "target": "399533"}}, {"type": "Feature", "geometry": {"type": "LineString", "coordinates": [[95.49796102209223, 69.03959047275362], [95.49621955711137, 69.04026745632757]]}, "properties": {"source": "32871069", "target": "32854720"}}, {"type": "Feature", "geometry": {"type": "LineString", "coordinates": [[95.49796102209223, 69.03959047275362], [95.49654781262979, 69.04183064211404]]}, "properties": {"source": "32871069", "target": "32616950"}}, {"type": "Feature", "geometry": {"type": "LineString", "coordinates": [[95.49796102209223, 69.03959047275362], [95.49991291698313, 69.04019657243202]]}, "properties": {"source": "32871069", "target": "31743542"}}, {"type": "Feature", "geometry": {"type": "LineString", "coordinates": [[95.49948245397229, 69.04202449196288], [95.4983645932951, 69.04024785852653]]}, "properties": {"source": "27845024", "target": "8006515"}}, {"type": "Feature", "geometry": {"type": "LineString", "coordinates": [[95.49168424023651, 69.03830911317402], [95.49371102851842, 69.03977685601598]]}, "properties": {"source": "16247499", "target": "18656817"}}, {"type": "Feature", "geometry": {"type": "LineString", "coordinates": [[95.49168424023651, 69.03830911317402], [95.48819179484912, 69.04166748960853]]}, "properties": {"source": "16247499", "target": "17373583"}}, {"type": "Feature", "geometry": {"type": "LineString", "coordinates": [[95.49168424023651, 69.03830911317402], [95.49698133650935, 69.03931496394972]]}, "properties": {"source": "16247499", "target": "22885408"}}, {"type": "Feature", "geometry": {"type": "LineString", "coordinates": [[95.49654781262979, 69.04183064211404], [95.4945530649519, 69.03996664149378]]}, "properties": {"source": "32616950", "target": "34427803"}}, {"type": "Feature", "geometry": {"type": "LineString", "coordinates": [[95.49654781262979, 69.04183064211404], [95.48948943386932, 69.03724095540227]]}, "properties": {"source": "32616950", "target": "29876198"}}, {"type": "Feature", "geometry": {"type": "LineString", "coordinates": [[95.49654781262979, 69.04183064211404], [95.49151888366401, 69.04101307091761]]}, "properties": {"source": "32616950", "target": "33004978"}}]}