{"type": "FeatureCollection", "features": [{"type": "Feature", "geometry": {"type": "LineString", "coordinates": [[57.50248747154558, 69.23197240730582], [57.502965177194, 69.23085632263604]]}, "properties": {"source": "18339889", "target": "16280121"}}, {"type": "Feature", "geometry": {"type": "LineString", "coordinates": [[57.50248747154558, 69.23197240730582], [57.504619982491874, 69.23075116397538]]}, "properties": {"source": "18339889", "target": "16099211"}}, {"type": "Feature", "geometry": {"type": "LineString", "coordinates": [[57.50248747154558, 69.23197240730582], [57.503017992125876, 69.23219011932827]]}, "properties": {"source": "18339889", "target": "18525859"}}, {"type": "Feature", "geometry": {"type": "LineString", "coordinates": [[57.50248747154558, 69.23197240730582], [57.50404839340652, 69.23172431290755]]}, "properties": {"source": "18339889", "target": "17568821"}}, {"type": "Feature", "geometry": {"type": "LineString", "coordinates": [[57.50248747154558, 69.23197240730582], [57.50347791005211, 69.23090413941199]]}, "properties": {"source": "18339889", "target": "1797329"}}, {"type": "Feature", "geometry": {"type": "LineString", "coordinates": [[57.50248747154558, 69.23197240730582], [57.501491002931175, 69.23200034841216]]}, "properties": {"source": "18339889", "target": "19315235"}}, {"type": "Feature", "geometry": {"type": "LineString", "coordinates": [[57.504546194321875, 69.23075677099277], [57.50641761216511, 69.23197951618687]]}, "properties": {"source": "12838558", "target": "13536604"}}, {"type": "Feature", "geometry": {"type": "LineString", "coordinates": [[57.504546194321875, 69.23075677099277], [57.506065645579866, 69.2310263388743]]}, "properties": {"source": "12838558", "target": "13570803"}}, {"type": "Feature", "geometry": {"type": "LineString", "coordinates": [[57.504546194321875, 69.23075677099277], [57.50482732173117, 69.23055797598408]]}, "properties": {"source": "12838558", "target": "13414495"}}, {"type": "Feature", "geometry": {"type": "LineString", "coordinates": [[57.50402358845088, 69.2309501044459], [57.501545274019435, 69.23128541725191]]}, "properties": {"source": "13277750", "target": "16085538"}}, {"type": "Feature", "geometry": {"type": "LineString", "coordinates": [[57.50402358845088, 69.2309501044459], [57.50642539452667, 69.23066825791491]]}, "properties": {"source": "13277750", "target": "16127288"}}, {"type": "Feature", "geometry": {"type": "LineString", "coordinates": [[57.50402358845088, 69.2309501044459], [57.504619982491874, 69.23075116397538]]}, "properties": {"source": "13277750", "target": "16099211"}}, {"type": "Feature", "geometry": {"type": "LineString", "coordinates": [[57.50402358845088, 69.2309501044459], [57.50613965965533, 69.23209905160985]]}, "properties": {"source": "13277750", "target": "12924479"}}, {"type": "Feature", "geometry": {"type": "LineString", "coordinates": [[57.50402358845088, 69.2309501044459], [57.504546194321875, 69.23075677099277]]}, "properties": {"source": "13277750", "target": "12838558"}}, {"type": "Feature", "geometry": {"type": "LineString", "coordinates": [[57.50402358845088, 69.2309501044459], [57.50716790051783, 69.2313296523883]]}, "properties": {"source": "13277750", "target": "11708978"}}, {"type": "Feature", "geometry": {"type": "LineString", "coordinates": [[57.50402358845088, 69.2309501044459], [57.50688200698826, 69.23204040664154]]}, "properties": {"source": "13277750", "target": "11708974"}}, {"type": "Feature", "geometry": {"type": "LineString", "coordinates": [[57.506065645579866, 69.2310263388743], [57.50482732173117, 69.23055797598408]]}, "properties": {"source": "13570803", "target": "13414495"}}, {"type": "Feature", "geometry": {"type": "LineString", "coordinates": [[57.506065645579866, 69.2310263388743], [57.502965177194, 69.23085632263604]]}, "properties": {"source": "13570803", "target": "16280121"}}, {"type": "Feature", "geometry": {"type": "LineString", "coordinates": [[57.507243720430154, 69.23209385129485], [57.502965177194, 69.23085632263604]]}, "properties": {"source": "18209524", "target": "16280121"}}, {"type": "Feature", "geometry": {"type": "LineString", "coordinates": [[57.507243720430154, 69.23209385129485], [57.504619982491874, 69.23075116397538]]}, "properties": {"source": "18209524", "target": "16099211"}}, {"type": "Feature", "geometry": {"type": "LineString", "coordinates": [[57.507243720430154, 69.23209385129485], [57.50248747154558, 69.23197240730582]]}, "properties": {"source": "18209524", "target": "18339889"}}, {"type": "Feature", "geometry": {"type": "LineString", "coordinates": [[57.507243720430154, 69.23209385129485], [57.503017992125876, 69.23219011932827]]}, "properties": {"source": "18209524", "target": "18525859"}}, {"type": "Feature", "geometry": {"type": "LineString", "coordinates": [[57.507243720430154, 69.23209385129485], [57.50404839340652, 69.23172431290755]]}, "properties": {"source": "18209524", "target": "17568821"}}, {"type": "Feature", "geometry": {"type": "LineString", "coordinates": [[57.507243720430154, 69.23209385129485], [57.50347791005211, 69.23090413941199]]}, "properties": {"source": "18209524", "target": "1797329"}}, {"type": "Feature", "geometry": {"type": "LineString", "coordinates": [[57.507243720430154, 69.23209385129485], [57.501491002931175, 69.23200034841216]]}, "properties": {"source": "18209524", "target": "19315235"}}, {"type": "Feature", "geometry": {"type": "LineString", "coordinates": [[57.504913649105816, 69.23043960399673], [57.50248747154558, 69.23197240730582]]}, "properties": {"source": "15798168", "target": "18339889"}}, {"type": "Feature", "geometry": {"type": "LineString", "coordinates": [[57.504913649105816, 69.23043960399673], [57.504546194321875, 69.23075677099277]]}, "properties": {"source": "15798168", "target": "12838558"}}, {"type": "Feature", "geometry": {"type": "LineString", "coordinates": [[57.504913649105816, 69.23043960399673], [57.50716790051783, 69.2313296523883]]}, "properties": {"source": "15798168", "target": "11708978"}}, {"type": "Feature", "geometry": {"type": "LineString", "coordinates": [[57.504913649105816, 69.23043960399673], [57.50688200698826, 69.23204040664154]]}, "properties": {"source": "15798168", "target": "11708974"}}, {"type": "Feature", "geometry": {"type": "LineString", "coordinates": [[57.504913649105816, 69.23043960399673], [57.50404839340652, 69.23172431290755]]}, "properties": {"source": "15798168", "target": "17568821"}}, {"type": "Feature", "geometry": {"type": "LineString", "coordinates": [[57.50641761216511, 69.23197951618687], [57.506065645579866, 69.2310263388743]]}, "properties": {"source": "13536604", "target": "13570803"}}, {"type": "Feature", "geometry": {"type": "LineString", "coordinates": [[57.50641761216511, 69.23197951618687], [57.50482732173117, 69.23055797598408]]}, "properties": {"source": "13536604", "target": "13414495"}}, {"type": "Feature", "geometry": {"type": "LineString", "coordinates": [[57.50641761216511, 69.23197951618687], [57.502965177194, 69.23085632263604]]}, "properties": {"source": "13536604", "target": "16280121"}}, {"type": "Feature", "geometry": {"type": "LineString", "coordinates": [[57.50641761216511, 69.23197951618687], [57.50613965965533, 69.23209905160985]]}, "properties": {"source": "13536604", "target": "12924479"}}, {"type": "Feature", "geometry": {"type": "LineString", "coordinates": [[57.50641761216511, 69.23197951618687], [57.50716790051783, 69.2313296523883]]}, "properties": {"source": "13536604", "target": "11708978"}}, {"type": "Feature", "geometry": {"type": "LineString", "coordinates": [[57.50641761216511, 69.23197951618687], [57.50688200698826, 69.23204040664154]]}, "properties": {"source": "13536604", "target": "11708974"}}, {"type": "Feature", "geometry": {"type": "LineString", "coordinates": [[57.50402358845088, 69.2309501044459], [57.50641761216511, 69.23197951618687]]}, "properties": {"source": "13277750", "target": "13536604"}}, {"type": "Feature", "geometry": {"type": "LineString", "coordinates": [[57.50402358845088, 69.2309501044459], [57.506065645579866, 69.2310263388743]]}, "properties": {"source": "13277750", "target": "13570803"}}, {"type": "Feature", "geometry": {"type": "LineString", "coordinates": [[57.50402358845088, 69.2309501044459], [57.50482732173117, 69.23055797598408]]}, "properties": {"source": "13277750", "target": "13414495"}}, {"type": "Feature", "geometry": {"type": "LineString", "coordinates": [[57.50402358845088, 69.2309501044459], [57.502965177194, 69.23085632263604]]}, "properties": {"source": "13277750", "target": "16280121"}}, {"type": "Feature", "geometry": {"type": "LineString", "coordinates": [[57.50402358845088, 69.2309501044459], [57.504913649105816, 69.23043960399673]]}, "properties": {"source": "13277750", "target": "15798168"}}, {"type": "Feature", "geometry": {"type": "LineString", "coordinates": [[57.5012644180743, 69.23220018741503], [57.506986222185986, 69.23139328600462]]}, "properties": {"source": "13152935", "target": "13643023"}}, {"type": "Feature", "geometry": {"type": "LineString", "coordinates": [[57.5012644180743, 69.23220018741503], [57.501545274019435, 69.23128541725191]]}, "properties": {"source": "13152935", "target": "16085538"}}, {"type": "Feature", "geometry": {"type": "LineString", "coordinates": [[57.5012644180743, 69.23220018741503], [57.50642539452667, 69.23066825791491]]}, "properties": {"source": "13152935", "target": "16127288"}}, {"type": "Feature", "geometry": {"type": "LineString", "coordinates": [[57.5012644180743, 69.23220018741503], [57.50613965965533, 69.23209905160985]]}, "properties": {"source": "13152935", "target": "12924479"}}, {"type": "Feature", "geometry": {"type": "LineString", "coordinates": [[57.5012644180743, 69.23220018741503], [57.504546194321875, 69.23075677099277]]}, "properties": {"source": "13152935", "target": "12838558"}}, {"type": "Feature", "geometry": {"type": "LineString", "coordinates": [[57.5012644180743, 69.23220018741503], [57.50716790051783, 69.2313296523883]]}, "properties": {"source": "13152935", "target": "11708978"}}, {"type": "Feature", "geometry": {"type": "LineString", "coordinates": [[57.5012644180743, 69.23220018741503], [57.50688200698826, 69.23204040664154]]}, "properties": {"source": "13152935", "target": "11708974"}}, {"type": "Feature", "geometry": {"type": "LineString", "coordinates": [[57.506986222185986, 69.23139328600462], [57.50641761216511, 69.23197951618687]]}, "properties": {"source": "13643023", "target": "13536604"}}, {"type": "Feature", "geometry": {"type": "LineString", "coordinates": [[57.504913649105816, 69.23043960399673], [57.50641761216511, 69.23197951618687]]}, "properties": {"source": "15798168", "target": "13536604"}}, {"type": "Feature", "geometry": {"type": "LineString", "coordinates": [[57.504913649105816, 69.23043960399673], [57.506065645579866, 69.2310263388743]]}, "properties": {"source": "15798168", "target": "13570803"}}, {"type": "Feature", "geometry": {"type": "LineString", "coordinates": [[57.504913649105816, 69.23043960399673], [57.50482732173117, 69.23055797598408]]}, "properties": {"source": "15798168", "target": "13414495"}}, {"type": "Feature", "geometry": {"type": "LineString", "coordinates": [[57.504913649105816, 69.23043960399673], [57.502965177194, 69.23085632263604]]}, "properties": {"source": "15798168", "target": "16280121"}}, {"type": "Feature", "geometry": {"type": "LineString", "coordinates": [[57.504913649105816, 69.23043960399673], [57.504619982491874, 69.23075116397538]]}, "properties": {"source": "15798168", "target": "16099211"}}, {"type": "Feature", "geometry": {"type": "LineString", "coordinates": [[57.504913649105816, 69.23043960399673], [57.50613965965533, 69.23209905160985]]}, "properties": {"source": "15798168", "target": "12924479"}}, {"type": "Feature", "geometry": {"type": "LineString", "coordinates": [[57.504913649105816, 69.23043960399673], [57.507243720430154, 69.23209385129485]]}, "properties": {"source": "15798168", "target": "18209524"}}, {"type": "Feature", "geometry": {"type": "LineString", "coordinates": [[57.506986222185986, 69.23139328600462], [57.504913649105816, 69.23043960399673]]}, "properties": {"source": "13643023", "target": "15798168"}}, {"type": "Feature", "geometry": {"type": "LineString", "coordinates": [[57.50251412875738, 69.2317812625669], [57.504000628880874, 69.23059397225293]]}, "properties": {"source": "2745816", "target": "23309297"}}, {"type": "Feature", "geometry": {"type": "LineString", "coordinates": [[57.499834195995476, 69.23099948942911], [57.50641761216511, 69.23197951618687]]}, "properties": {"source": "26217439", "target": "13536604"}}, {"type": "Feature", "geometry": {"type": "LineString", "coordinates": [[57.499834195995476, 69.23099948942911], [57.506065645579866, 69.2310263388743]]}, "properties": {"source": "26217439", "target": "13570803"}}, {"type": "Feature", "geometry": {"type": "LineString", "coordinates": [[57.50688784172431, 69.23031492257556], [57.50009273405655, 69.22997909012145]]}, "properties": {"source": "25138266", "target": "23453743"}}, {"type": "Feature", "geometry": {"type": "LineString", "coordinates": [[57.50688784172431, 69.23031492257556], [57.504000628880874, 69.23059397225293]]}, "properties": {"source": "25138266", "target": "23309297"}}, {"type": "Feature", "geometry": {"type": "LineString", "coordinates": [[57.50680292448084, 69.23037202549577], [57.501997790184845, 69.23151327354239]]}, "properties": {"source": "20945117", "target": "24820185"}}, {"type": "Feature", "geometry": {"type": "LineString", "coordinates": [[57.50498408870291, 69.23141046562273], [57.50641761216511, 69.23197951618687]]}, "properties": {"source": "32783559", "target": "13536604"}}, {"type": "Feature", "geometry": {"type": "LineString", "coordinates": [[57.50498408870291, 69.23141046562273], [57.506065645579866, 69.2310263388743]]}, "properties": {"source": "32783559", "target": "13570803"}}, {"type": "Feature", "geometry": {"type": "LineString", "coordinates": [[57.50498408870291, 69.23141046562273], [57.499834195995476, 69.23099948942911]]}, "properties": {"source": "32783559", "target": "26217439"}}, {"type": "Feature", "geometry": {"type": "LineString", "coordinates": [[57.504546194321875, 69.23075677099277], [57.50613965965533, 69.23209905160985]]}, "properties": {"source": "12838558", "target": "12924479"}}, {"type": "Feature", "geometry": {"type": "LineString", "coordinates": [[57.504546194321875, 69.23075677099277], [57.50716790051783, 69.2313296523883]]}, "properties": {"source": "12838558", "target": "11708978"}}, {"type": "Feature", "geometry": {"type": "LineString", "coordinates": [[57.50716790051783, 69.2313296523883], [57.506065645579866, 69.2310263388743]]}, "properties": {"source": "11708978", "target": "13570803"}}, {"type": "Feature", "geometry": {"type": "LineString", "coordinates": [[57.50716790051783, 69.2313296523883], [57.50482732173117, 69.23055797598408]]}, "properties": {"source": "11708978", "target": "13414495"}}, {"type": "Feature", "geometry": {"type": "LineString", "coordinates": [[57.50688200698826, 69.23204040664154], [57.506065645579866, 69.2310263388743]]}, "properties": {"source": "11708974", "target": "13570803"}}, {"type": "Feature", "geometry": {"type": "LineString", "coordinates": [[57.50688200698826, 69.23204040664154], [57.50482732173117, 69.23055797598408]]}, "properties": {"source": "11708974", "target": "13414495"}}, {"type": "Feature", "geometry": {"type": "LineString", "coordinates": [[57.50688200698826, 69.23204040664154], [57.50716790051783, 69.2313296523883]]}, "properties": {"source": "11708974", "target": "11708978"}}, {"type": "Feature", "geometry": {"type": "LineString", "coordinates": [[57.504619982491874, 69.23075116397538], [57.506065645579866, 69.2310263388743]]}, "properties": {"source": "16099211", "target": "13570803"}}, {"type": "Feature", "geometry": {"type": "LineString", "coordinates": [[57.504619982491874, 69.23075116397538], [57.50482732173117, 69.23055797598408]]}, "properties": {"source": "16099211", "target": "13414495"}}, {"type": "Feature", "geometry": {"type": "LineString", "coordinates": [[57.504619982491874, 69.23075116397538], [57.502965177194, 69.23085632263604]]}, "properties": {"source": "16099211", "target": "16280121"}}, {"type": "Feature", "geometry": {"type": "LineString", "coordinates": [[57.504619982491874, 69.23075116397538], [57.50404839340652, 69.23172431290755]]}, "properties": {"source": "16099211", "target": "17568821"}}, {"type": "Feature", "geometry": {"type": "LineString", "coordinates": [[57.50613965965533, 69.23209905160985], [57.506065645579866, 69.2310263388743]]}, "properties": {"source": "12924479", "target": "13570803"}}, {"type": "Feature", "geometry": {"type": "LineString", "coordinates": [[57.50613965965533, 69.23209905160985], [57.50482732173117, 69.23055797598408]]}, "properties": {"source": "12924479", "target": "13414495"}}, {"type": "Feature", "geometry": {"type": "LineString", "coordinates": [[57.50613965965533, 69.23209905160985], [57.502965177194, 69.23085632263604]]}, "properties": {"source": "12924479", "target": "16280121"}}, {"type": "Feature", "geometry": {"type": "LineString", "coordinates": [[57.50613965965533, 69.23209905160985], [57.50716790051783, 69.2313296523883]]}, "properties": {"source": "12924479", "target": "11708978"}}, {"type": "Feature", "geometry": {"type": "LineString", "coordinates": [[57.50613965965533, 69.23209905160985], [57.50688200698826, 69.23204040664154]]}, "properties": {"source": "12924479", "target": "11708974"}}, {"type": "Feature", "geometry": {"type": "LineString", "coordinates": [[57.501250934734855, 69.231062505094], [57.5012644180743, 69.23220018741503]]}, "properties": {"source": "17262718", "target": "13152935"}}, {"type": "Feature", "geometry": {"type": "LineString", "coordinates": [[57.501250934734855, 69.231062505094], [57.506986222185986, 69.23139328600462]]}, "properties": {"source": "17262718", "target": "13643023"}}, {"type": "Feature", "geometry": {"type": "LineString", "coordinates": [[57.501250934734855, 69.231062505094], [57.501545274019435, 69.23128541725191]]}, "properties": {"source": "17262718", "target": "16085538"}}, {"type": "Feature", "geometry": {"type": "LineString", "coordinates": [[57.501250934734855, 69.231062505094], [57.50642539452667, 69.23066825791491]]}, "properties": {"source": "17262718", "target": "16127288"}}, {"type": "Feature", "geometry": {"type": "LineString", "coordinates": [[57.501250934734855, 69.231062505094], [57.504619982491874, 69.23075116397538]]}, "properties": {"source": "17262718", "target": "16099211"}}, {"type": "Feature", "geometry": {"type": "LineString", "coordinates": [[57.501250934734855, 69.231062505094], [57.507243720430154, 69.23209385129485]]}, "properties": {"source": "17262718", "target": "18209524"}}, {"type": "Feature", "geometry": {"type": "LineString", "coordinates": [[57.501250934734855, 69.231062505094], [57.50248747154558, 69.23197240730582]]}, "properties": {"source": "17262718", "target": "18339889"}}, {"type": "Feature", "geometry": {"type": "LineString", "coordinates": [[57.501250934734855, 69.231062505094], [57.50404839340652, 69.23172431290755]]}, "properties": {"source": "17262718", "target": "17568821"}}, {"type": "Feature", "geometry": {"type": "LineString", "coordinates": [[57.50057912177803, 69.2301449797844], [57.50641761216511, 69.23197951618687]]}, "properties": {"source": "13071297", "target": "13536604"}}, {"type": "Feature", "geometry": {"type": "LineString", "coordinates": [[57.50057912177803, 69.2301449797844], [57.506065645579866, 69.2310263388743]]}, "properties": {"source": "13071297", "target": "13570803"}}, {"type": "Feature", "geometry": {"type": "LineString", "coordinates": [[57.50057912177803, 69.2301449797844], [57.50402358845088, 69.2309501044459]]}, "properties": {"source": "13071297", "target": "13277750"}}, {"type": "Feature", "geometry": {"type": "LineString", "coordinates": [[57.50057912177803, 69.2301449797844], [57.50482732173117, 69.23055797598408]]}, "properties": {"source": "13071297", "target": "13414495"}}, {"type": "Feature", "geometry": {"type": "LineString", "coordinates": [[57.50057912177803, 69.2301449797844], [57.502965177194, 69.23085632263604]]}, "properties": {"source": "13071297", "target": "16280121"}}, {"type": "Feature", "geometry": {"type": "LineString", "coordinates": [[57.50057912177803, 69.2301449797844], [57.5012644180743, 69.23220018741503]]}, "properties": {"source": "13071297", "target": "13152935"}}, {"type": "Feature", "geometry": {"type": "LineString", "coordinates": [[57.50057912177803, 69.2301449797844], [57.506986222185986, 69.23139328600462]]}, "properties": {"source": "13071297", "target": "13643023"}}, {"type": "Feature", "geometry": {"type": "LineString", "coordinates": [[57.50732706256201, 69.2310651963283], [57.50680292448084, 69.23037202549577]]}, "properties": {"source": "19286612", "target": "20945117"}}, {"type": "Feature", "geometry": {"type": "LineString", "coordinates": [[57.50732706256201, 69.2310651963283], [57.501997790184845, 69.23151327354239]]}, "properties": {"source": "19286612", "target": "24820185"}}, {"type": "Feature", "geometry": {"type": "LineString", "coordinates": [[57.50347791005211, 69.23090413941199], [57.50404839340652, 69.23172431290755]]}, "properties": {"source": "1797329", "target": "17568821"}}, {"type": "Feature", "geometry": {"type": "LineString", "coordinates": [[57.50347791005211, 69.23090413941199], [57.50680292448084, 69.23037202549577]]}, "properties": {"source": "1797329", "target": "20945117"}}, {"type": "Feature", "geometry": {"type": "LineString", "coordinates": [[57.50694449756685, 69.23192856726072], [57.507243720430154, 69.23209385129485]]}, "properties": {"source": "13155874", "target": "18209524"}}, {"type": "Feature", "geometry": {"type": "LineString", "coordinates": [[57.50694449756685, 69.23192856726072], [57.50248747154558, 69.23197240730582]]}, "properties": {"source": "13155874", "target": "18339889"}}, {"type": "Feature", "geometry": {"type": "LineString", "coordinates": [[57.50694449756685, 69.23192856726072], [57.503017992125876, 69.23219011932827]]}, "properties": {"source": "13155874", "target": "18525859"}}, {"type": "Feature", "geometry": {"type": "LineString", "coordinates": [[57.50057912177803, 69.2301449797844], [57.504913649105816, 69.23043960399673]]}, "properties": {"source": "13071297", "target": "15798168"}}, {"type": "Feature", "geometry": {"type": "LineString", "coordinates": [[57.50694449756685, 69.23192856726072], [57.501491002931175, 69.23200034841216]]}, "properties": {"source": "13155874", "target": "19315235"}}, {"type": "Feature", "geometry": {"type": "LineString", "coordinates": [[57.50694449756685, 69.23192856726072], [57.499834195995476, 69.23099948942911]]}, "properties": {"source": "13155874", "target": "26217439"}}, {"type": "Feature", "geometry": {"type": "LineString", "coordinates": [[57.50164066652033, 69.23099862318901], [57.505207163289214, 69.23071344435746]]}, "properties": {"source": "27276183", "target": "23296354"}}, {"type": "Feature", "geometry": {"type": "LineString", "coordinates": [[57.50164066652033, 69.23099862318901], [57.50009273405655, 69.22997909012145]]}, "properties": {"source": "27276183", "target": "23453743"}}, {"type": "Feature", "geometry": {"type": "LineString", "coordinates": [[57.50164066652033, 69.23099862318901], [57.504000628880874, 69.23059397225293]]}, "properties": {"source": "27276183", "target": "23309297"}}, {"type": "Feature", "geometry": {"type": "LineString", "coordinates": [[57.50164066652033, 69.23099862318901], [57.50406291533827, 69.23190726730562]]}, "properties": {"source": "27276183", "target": "1136980"}}, {"type": "Feature", "geometry": {"type": "LineString", "coordinates": [[57.50406291533827, 69.23190726730562], [57.504000628880874, 69.23059397225293]]}, "properties": {"source": "1136980", "target": "23309297"}}, {"type": "Feature", "geometry": {"type": "LineString", "coordinates": [[57.50251412875738, 69.2317812625669], [57.505207163289214, 69.23071344435746]]}, "properties": {"source": "2745816", "target": "23296354"}}, {"type": "Feature", "geometry": {"type": "LineString", "coordinates": [[57.50251412875738, 69.2317812625669], [57.50009273405655, 69.22997909012145]]}, "properties": {"source": "2745816", "target": "23453743"}}, {"type": "Feature", "geometry": {"type": "LineString", "coordinates": [[57.503017992125876, 69.23219011932827], [57.504619982491874, 69.23075116397538]]}, "properties": {"source": "18525859", "target": "16099211"}}, {"type": "Feature", "geometry": {"type": "LineString", "coordinates": [[57.503017992125876, 69.23219011932827], [57.50404839340652, 69.23172431290755]]}, "properties": {"source": "18525859", "target": "17568821"}}, {"type": "Feature", "geometry": {"type": "LineString", "coordinates": [[57.503017992125876, 69.23219011932827], [57.50347791005211, 69.23090413941199]]}, "properties": {"source": "18525859", "target": "1797329"}}, {"type": "Feature", "geometry": {"type": "LineString", "coordinates": [[57.503017992125876, 69.23219011932827], [57.501491002931175, 69.23200034841216]]}, "properties": {"source": "18525859", "target": "19315235"}}, {"type": "Feature", "geometry": {"type": "LineString", "coordinates": [[57.503017992125876, 69.23219011932827], [57.50680292448084, 69.23037202549577]]}, "properties": {"source": "18525859", "target": "20945117"}}, {"type": "Feature", "geometry": {"type": "LineString", "coordinates": [[57.50404839340652, 69.23172431290755], [57.502965177194, 69.23085632263604]]}, "properties": {"source": "17568821", "target": "16280121"}}, {"type": "Feature", "geometry": {"type": "LineString", "coordinates": [[57.505207163289214, 69.23071344435746], [57.50009273405655, 69.22997909012145]]}, "properties": {"source": "23296354", "target": "23453743"}}, {"type": "Feature", "geometry": {"type": "LineString", "coordinates": [[57.506986222185986, 69.23139328600462], [57.504546194321875, 69.23075677099277]]}, "properties": {"source": "13643023", "target": "12838558"}}, {"type": "Feature", "geometry": {"type": "LineString", "coordinates": [[57.506986222185986, 69.23139328600462], [57.50716790051783, 69.2313296523883]]}, "properties": {"source": "13643023", "target": "11708978"}}, {"type": "Feature", "geometry": {"type": "LineString", "coordinates": [[57.506986222185986, 69.23139328600462], [57.50688200698826, 69.23204040664154]]}, "properties": {"source": "13643023", "target": "11708974"}}, {"type": "Feature", "geometry": {"type": "LineString", "coordinates": [[57.501250934734855, 69.231062505094], [57.50641761216511, 69.23197951618687]]}, "properties": {"source": "17262718", "target": "13536604"}}, {"type": "Feature", "geometry": {"type": "LineString", "coordinates": [[57.501250934734855, 69.231062505094], [57.506065645579866, 69.2310263388743]]}, "properties": {"source": "17262718", "target": "13570803"}}, {"type": "Feature", "geometry": {"type": "LineString", "coordinates": [[57.501250934734855, 69.231062505094], [57.50402358845088, 69.2309501044459]]}, "properties": {"source": "17262718", "target": "13277750"}}, {"type": "Feature", "geometry": {"type": "LineString", "coordinates": [[57.501250934734855, 69.231062505094], [57.50482732173117, 69.23055797598408]]}, "properties": {"source": "17262718", "target": "13414495"}}, {"type": "Feature", "geometry": {"type": "LineString", "coordinates": [[57.501250934734855, 69.231062505094], [57.502965177194, 69.23085632263604]]}, "properties": {"source": "17262718", "target": "16280121"}}, {"type": "Feature", "geometry": {"type": "LineString", "coordinates": [[57.50057912177803, 69.2301449797844], [57.501545274019435, 69.23128541725191]]}, "properties": {"source": "13071297", "target": "16085538"}}, {"type": "Feature", "geometry": {"type": "LineString", "coordinates": [[57.50057912177803, 69.2301449797844], [57.50642539452667, 69.23066825791491]]}, "properties": {"source": "13071297", "target": "16127288"}}, {"type": "Feature", "geometry": {"type": "LineString", "coordinates": [[57.50057912177803, 69.2301449797844], [57.50613965965533, 69.23209905160985]]}, "properties": {"source": "13071297", "target": "12924479"}}, {"type": "Feature", "geometry": {"type": "LineString", "coordinates": [[57.50057912177803, 69.2301449797844], [57.504546194321875, 69.23075677099277]]}, "properties": {"source": "13071297", "target": "12838558"}}, {"type": "Feature", "geometry": {"type": "LineString", "coordinates": [[57.50057912177803, 69.2301449797844], [57.50716790051783, 69.2313296523883]]}, "properties": {"source": "13071297", "target": "11708978"}}, {"type": "Feature", "geometry": {"type": "LineString", "coordinates": [[57.50057912177803, 69.2301449797844], [57.50688200698826, 69.23204040664154]]}, "properties": {"source": "13071297", "target": "11708974"}}, {"type": "Feature", "geometry": {"type": "LineString", "coordinates": [[57.501250934734855, 69.231062505094], [57.504913649105816, 69.23043960399673]]}, "properties": {"source": "17262718", "target": "15798168"}}, {"type": "Feature", "geometry": {"type": "LineString", "coordinates": [[57.501545274019435, 69.23128541725191], [57.504913649105816, 69.23043960399673]]}, "properties": {"source": "16085538", "target": "15798168"}}, {"type": "Feature", "geometry": {"type": "LineString", "coordinates": [[57.505207163289214, 69.23071344435746], [57.504000628880874, 69.23059397225293]]}, "properties": {"source": "23296354", "target": "23309297"}}, {"type": "Feature", "geometry": {"type": "LineString", "coordinates": [[57.505207163289214, 69.23071344435746], [57.50406291533827, 69.23190726730562]]}, "properties": {"source": "23296354", "target": "1136980"}}, {"type": "Feature", "geometry": {"type": "LineString", "coordinates": [[57.505207163289214, 69.23071344435746], [57.50688784172431, 69.23031492257556]]}, "properties": {"source": "23296354", "target": "25138266"}}, {"type": "Feature", "geometry": {"type": "LineString", "coordinates": [[57.50009273405655, 69.22997909012145], [57.504000628880874, 69.23059397225293]]}, "properties": {"source": "23453743", "target": "23309297"}}, {"type": "Feature", "geometry": {"type": "LineString", "coordinates": [[57.50009273405655, 69.22997909012145], [57.50406291533827, 69.23190726730562]]}, "properties": {"source": "23453743", "target": "1136980"}}, {"type": "Feature", "geometry": {"type": "LineString", "coordinates": [[57.50732706256201, 69.2310651963283], [57.507243720430154, 69.23209385129485]]}, "properties": {"source": "19286612", "target": "18209524"}}, {"type": "Feature", "geometry": {"type": "LineString", "coordinates": [[57.50732706256201, 69.2310651963283], [57.50248747154558, 69.23197240730582]]}, "properties": {"source": "19286612", "target": "18339889"}}, {"type": "Feature", "geometry": {"type": "LineString", "coordinates": [[57.50732706256201, 69.2310651963283], [57.503017992125876, 69.23219011932827]]}, "properties": {"source": "19286612", "target": "18525859"}}, {"type": "Feature", "geometry": {"type": "LineString", "coordinates": [[57.50732706256201, 69.2310651963283], [57.50347791005211, 69.23090413941199]]}, "properties": {"source": "19286612", "target": "1797329"}}, {"type": "Feature", "geometry": {"type": "LineString", "coordinates": [[57.506986222185986, 69.23139328600462], [57.506065645579866, 69.2310263388743]]}, "properties": {"source": "13643023", "target": "13570803"}}, {"type": "Feature", "geometry": {"type": "LineString", "coordinates": [[57.506986222185986, 69.23139328600462], [57.50402358845088, 69.2309501044459]]}, "properties": {"source": "13643023", "target": "13277750"}}, {"type": "Feature", "geometry": {"type": "LineString", "coordinates": [[57.506986222185986, 69.23139328600462], [57.50482732173117, 69.23055797598408]]}, "properties": {"source": "13643023", "target": "13414495"}}, {"type": "Feature", "geometry": {"type": "LineString", "coordinates": [[57.506986222185986, 69.23139328600462], [57.502965177194, 69.23085632263604]]}, "properties": {"source": "13643023", "target": "16280121"}}, {"type": "Feature", "geometry": {"type": "LineString", "coordinates": [[57.506986222185986, 69.23139328600462], [57.501545274019435, 69.23128541725191]]}, "properties": {"source": "13643023", "target": "16085538"}}, {"type": "Feature", "geometry": {"type": "LineString", "coordinates": [[57.506986222185986, 69.23139328600462], [57.50642539452667, 69.23066825791491]]}, "properties": {"source": "13643023", "target": "16127288"}}, {"type": "Feature", "geometry": {"type": "LineString", "coordinates": [[57.506986222185986, 69.23139328600462], [57.50613965965533, 69.23209905160985]]}, "properties": {"source": "13643023", "target": "12924479"}}, {"type": "Feature", "geometry": {"type": "LineString", "coordinates": [[57.50565538940856, 69.230733150422], [57.507243720430154, 69.23209385129485]]}, "properties": {"source": "23208345", "target": "18209524"}}, {"type": "Feature", "geometry": {"type": "LineString", "coordinates": [[57.50565538940856, 69.230733150422], [57.50248747154558, 69.23197240730582]]}, "properties": {"source": "23208345", "target": "18339889"}}, {"type": "Feature", "geometry": {"type": "LineString", "coordinates": [[57.50565538940856, 69.230733150422], [57.505207163289214, 69.23071344435746]]}, "properties": {"source": "23208345", "target": "23296354"}}, {"type": "Feature", "geometry": {"type": "LineString", "coordinates": [[57.50565538940856, 69.230733150422], [57.50009273405655, 69.22997909012145]]}, "properties": {"source": "23208345", "target": "23453743"}}, {"type": "Feature", "geometry": {"type": "LineString", "coordinates": [[57.50565538940856, 69.230733150422], [57.504000628880874, 69.23059397225293]]}, "properties": {"source": "23208345", "target": "23309297"}}, {"type": "Feature", "geometry": {"type": "LineString", "coordinates": [[57.50565538940856, 69.230733150422], [57.50164066652033, 69.23099862318901]]}, "properties": {"source": "23208345", "target": "27276183"}}, {"type": "Feature", "geometry": {"type": "LineString", "coordinates": [[57.50565538940856, 69.230733150422], [57.50406291533827, 69.23190726730562]]}, "properties": {"source": "23208345", "target": "1136980"}}, {"type": "Feature", "geometry": {"type": "LineString", "coordinates": [[57.50565538940856, 69.230733150422], [57.50251412875738, 69.2317812625669]]}, "properties": {"source": "23208345", "target": "2745816"}}, {"type": "Feature", "geometry": {"type": "LineString", "coordinates": [[57.50565538940856, 69.230733150422], [57.50688784172431, 69.23031492257556]]}, "properties": {"source": "23208345", "target": "25138266"}}, {"type": "Feature", "geometry": {"type": "LineString", "coordinates": [[57.50642539452667, 69.23066825791491], [57.506065645579866, 69.2310263388743]]}, "properties": {"source": "16127288", "target": "13570803"}}, {"type": "Feature", "geometry": {"type": "LineString", "coordinates": [[57.50642539452667, 69.23066825791491], [57.50482732173117, 69.23055797598408]]}, "properties": {"source": "16127288", "target": "13414495"}}, {"type": "Feature", "geometry": {"type": "LineString", "coordinates": [[57.50642539452667, 69.23066825791491], [57.502965177194, 69.23085632263604]]}, "properties": {"source": "16127288", "target": "16280121"}}, {"type": "Feature", "geometry": {"type": "LineString", "coordinates": [[57.50642539452667, 69.23066825791491], [57.501545274019435, 69.23128541725191]]}, "properties": {"source": "16127288", "target": "16085538"}}, {"type": "Feature", "geometry": {"type": "LineString", "coordinates": [[57.50642539452667, 69.23066825791491], [57.504619982491874, 69.23075116397538]]}, "properties": {"source": "16127288", "target": "16099211"}}, {"type": "Feature", "geometry": {"type": "LineString", "coordinates": [[57.50642539452667, 69.23066825791491], [57.50404839340652, 69.23172431290755]]}, "properties": {"source": "16127288", "target": "17568821"}}, {"type": "Feature", "geometry": {"type": "LineString", "coordinates": [[57.504619982491874, 69.23075116397538], [57.50641761216511, 69.23197951618687]]}, "properties": {"source": "16099211", "target": "13536604"}}, {"type": "Feature", "geometry": {"type": "LineString", "coordinates": [[57.501545274019435, 69.23128541725191], [57.50641761216511, 69.23197951618687]]}, "properties": {"source": "16085538", "target": "13536604"}}, {"type": "Feature", "geometry": {"type": "LineString", "coordinates": [[57.501545274019435, 69.23128541725191], [57.506065645579866, 69.2310263388743]]}, "properties": {"source": "16085538", "target": "13570803"}}, {"type": "Feature", "geometry": {"type": "LineString", "coordinates": [[57.501545274019435, 69.23128541725191], [57.50482732173117, 69.23055797598408]]}, "properties": {"source": "16085538", "target": "13414495"}}, {"type": "Feature", "geometry": {"type": "LineString", "coordinates": [[57.501545274019435, 69.23128541725191], [57.502965177194, 69.23085632263604]]}, "properties": {"source": "16085538", "target": "16280121"}}, {"type": "Feature", "geometry": {"type": "LineString", "coordinates": [[57.501545274019435, 69.23128541725191], [57.504619982491874, 69.23075116397538]]}, "properties": {"source": "16085538", "target": "16099211"}}, {"type": "Feature", "geometry": {"type": "LineString", "coordinates": [[57.501545274019435, 69.23128541725191], [57.50613965965533, 69.23209905160985]]}, "properties": {"source": "16085538", "target": "12924479"}}, {"type": "Feature", "geometry": {"type": "LineString", "coordinates": [[57.501545274019435, 69.23128541725191], [57.504546194321875, 69.23075677099277]]}, "properties": {"source": "16085538", "target": "12838558"}}, {"type": "Feature", "geometry": {"type": "LineString", "coordinates": [[57.50642539452667, 69.23066825791491], [57.50641761216511, 69.23197951618687]]}, "properties": {"source": "16127288", "target": "13536604"}}, {"type": "Feature", "geometry": {"type": "LineString", "coordinates": [[57.50482732173117, 69.23055797598408], [57.502965177194, 69.23085632263604]]}, "properties": {"source": "13414495", "target": "16280121"}}, {"type": "Feature", "geometry": {"type": "LineString", "coordinates": [[57.5012644180743, 69.23220018741503], [57.50641761216511, 69.23197951618687]]}, "properties": {"source": "13152935", "target": "13536604"}}, {"type": "Feature", "geometry": {"type": "LineString", "coordinates": [[57.5012644180743, 69.23220018741503], [57.506065645579866, 69.2310263388743]]}, "properties": {"source": "13152935", "target": "13570803"}}, {"type": "Feature", "geometry": {"type": "LineString", "coordinates": [[57.5012644180743, 69.23220018741503], [57.50402358845088, 69.2309501044459]]}, "properties": {"source": "13152935", "target": "13277750"}}, {"type": "Feature", "geometry": {"type": "LineString", "coordinates": [[57.5012644180743, 69.23220018741503], [57.50482732173117, 69.23055797598408]]}, "properties": {"source": "13152935", "target": "13414495"}}, {"type": "Feature", "geometry": {"type": "LineString", "coordinates": [[57.5012644180743, 69.23220018741503], [57.502965177194, 69.23085632263604]]}, "properties": {"source": "13152935", "target": "16280121"}}, {"type": "Feature", "geometry": {"type": "LineString", "coordinates": [[57.50642539452667, 69.23066825791491], [57.504913649105816, 69.23043960399673]]}, "properties": {"source": "16127288", "target": "15798168"}}, {"type": "Feature", "geometry": {"type": "LineString", "coordinates": [[57.5012644180743, 69.23220018741503], [57.504913649105816, 69.23043960399673]]}, "properties": {"source": "13152935", "target": "15798168"}}]}