{"type": "FeatureCollection", "features": [{"type": "Feature", "geometry": {"type": "LineString", "coordinates": [[44.35574709571412, 69.03777188252772], [44.3597863775945, 69.03948777210522]]}, "properties": {"source": "54426", "target": "4383331"}}, {"type": "Feature", "geometry": {"type": "LineString", "coordinates": [[44.35574709571412, 69.03777188252772], [44.349292462133775, 69.04004603702523]]}, "properties": {"source": "54426", "target": "4350363"}}, {"type": "Feature", "geometry": {"type": "LineString", "coordinates": [[44.357892824915666, 69.03846692726631], [44.360584539832985, 69.03863803141232]]}, "properties": {"source": "26195544", "target": "5061221"}}, {"type": "Feature", "geometry": {"type": "LineString", "coordinates": [[44.360860109288126, 69.04144222816817], [44.35126773300948, 69.0392063301006]]}, "properties": {"source": "566712", "target": "6061357"}}, {"type": "Feature", "geometry": {"type": "LineString", "coordinates": [[44.360860109288126, 69.04144222816817], [44.35250126180313, 69.03755681201383]]}, "properties": {"source": "566712", "target": "6424892"}}, {"type": "Feature", "geometry": {"type": "LineString", "coordinates": [[44.350231230259254, 69.03906402932034], [44.35433044586492, 69.03726057611652]]}, "properties": {"source": "9569933", "target": "13741133"}}, {"type": "Feature", "geometry": {"type": "LineString", "coordinates": [[44.35335096420371, 69.04026505568541], [44.35653277524443, 69.03976602021214]]}, "properties": {"source": "168172", "target": "17346539"}}, {"type": "Feature", "geometry": {"type": "LineString", "coordinates": [[44.346876568967815, 69.03754932756755], [44.35220913966526, 69.04124408540892]]}, "properties": {"source": "26199926", "target": "23821271"}}, {"type": "Feature", "geometry": {"type": "LineString", "coordinates": [[44.36081944941381, 69.03725173110598], [44.35924062248347, 69.03741568946731]]}, "properties": {"source": "21957148", "target": "22908888"}}, {"type": "Feature", "geometry": {"type": "LineString", "coordinates": [[44.35278336827318, 69.0408170147569], [44.3474287019601, 69.04028212600113]]}, "properties": {"source": "6377613", "target": "6565468"}}, {"type": "Feature", "geometry": {"type": "LineString", "coordinates": [[44.34539156663186, 69.04062253859325], [44.347285832576574, 69.04036895564909]]}, "properties": {"source": "16004872", "target": "6624748"}}, {"type": "Feature", "geometry": {"type": "LineString", "coordinates": [[44.34806751570807, 69.04160829653583], [44.34794882468307, 69.040419650773]]}, "properties": {"source": "1150775", "target": "1820465"}}, {"type": "Feature", "geometry": {"type": "LineString", "coordinates": [[44.351302827460046, 69.04032406030541], [44.347285832576574, 69.04036895564909]]}, "properties": {"source": "68017", "target": "6624748"}}, {"type": "Feature", "geometry": {"type": "LineString", "coordinates": [[44.351302827460046, 69.04032406030541], [44.35250126180313, 69.03755681201383]]}, "properties": {"source": "68017", "target": "6424892"}}, {"type": "Feature", "geometry": {"type": "LineString", "coordinates": [[44.351302827460046, 69.04032406030541], [44.35336023454403, 69.0420787559132]]}, "properties": {"source": "68017", "target": "6613690"}}, {"type": "Feature", "geometry": {"type": "LineString", "coordinates": [[44.34997687887835, 69.03822014029191], [44.34794882468307, 69.040419650773]]}, "properties": {"source": "15886293", "target": "1820465"}}, {"type": "Feature", "geometry": {"type": "LineString", "coordinates": [[44.350642494989614, 69.03935041134127], [44.35922343633729, 69.03866223905169]]}, "properties": {"source": "12472283", "target": "1184237"}}, {"type": "Feature", "geometry": {"type": "LineString", "coordinates": [[44.350642494989614, 69.03935041134127], [44.35435536717006, 69.0400359112769]]}, "properties": {"source": "12472283", "target": "680889"}}, {"type": "Feature", "geometry": {"type": "LineString", "coordinates": [[44.34945209571478, 69.03967938955665], [44.35922343633729, 69.03866223905169]]}, "properties": {"source": "26816202", "target": "1184237"}}, {"type": "Feature", "geometry": {"type": "LineString", "coordinates": [[44.34945209571478, 69.03967938955665], [44.35924062248347, 69.03741568946731]]}, "properties": {"source": "26816202", "target": "22908888"}}, {"type": "Feature", "geometry": {"type": "LineString", "coordinates": [[44.34945209571478, 69.03967938955665], [44.35522701117034, 69.03734367203222]]}, "properties": {"source": "26816202", "target": "1332289"}}, {"type": "Feature", "geometry": {"type": "LineString", "coordinates": [[44.35625245455364, 69.03919775266132], [44.357100411913734, 69.04226398830482]]}, "properties": {"source": "1909306", "target": "341951"}}, {"type": "Feature", "geometry": {"type": "LineString", "coordinates": [[44.35180758883885, 69.04119031524675], [44.360584539832985, 69.03863803141232]]}, "properties": {"source": "60787", "target": "5061221"}}, {"type": "Feature", "geometry": {"type": "LineString", "coordinates": [[44.35180758883885, 69.04119031524675], [44.349292462133775, 69.04004603702523]]}, "properties": {"source": "60787", "target": "4350363"}}, {"type": "Feature", "geometry": {"type": "LineString", "coordinates": [[44.35180758883885, 69.04119031524675], [44.35435536717006, 69.0400359112769]]}, "properties": {"source": "60787", "target": "680889"}}, {"type": "Feature", "geometry": {"type": "LineString", "coordinates": [[44.35180758883885, 69.04119031524675], [44.3474287019601, 69.04028212600113]]}, "properties": {"source": "60787", "target": "6565468"}}, {"type": "Feature", "geometry": {"type": "LineString", "coordinates": [[44.35180758883885, 69.04119031524675], [44.34991811354567, 69.037529028535]]}, "properties": {"source": "60787", "target": "6550528"}}, {"type": "Feature", "geometry": {"type": "LineString", "coordinates": [[44.35180758883885, 69.04119031524675], [44.3457612502703, 69.0389349218577]]}, "properties": {"source": "60787", "target": "13237709"}}, {"type": "Feature", "geometry": {"type": "LineString", "coordinates": [[44.34991811354567, 69.037529028535], [44.35435536717006, 69.0400359112769]]}, "properties": {"source": "6550528", "target": "680889"}}, {"type": "Feature", "geometry": {"type": "LineString", "coordinates": [[44.347285832576574, 69.04036895564909], [44.35250126180313, 69.03755681201383]]}, "properties": {"source": "6624748", "target": "6424892"}}, {"type": "Feature", "geometry": {"type": "LineString", "coordinates": [[44.347285832576574, 69.04036895564909], [44.35336023454403, 69.0420787559132]]}, "properties": {"source": "6624748", "target": "6613690"}}, {"type": "Feature", "geometry": {"type": "LineString", "coordinates": [[44.35378004537725, 69.04195281396869], [44.35653277524443, 69.03976602021214]]}, "properties": {"source": "13438742", "target": "17346539"}}, {"type": "Feature", "geometry": {"type": "LineString", "coordinates": [[44.35378004537725, 69.04195281396869], [44.34945209571478, 69.03967938955665]]}, "properties": {"source": "13438742", "target": "26816202"}}, {"type": "Feature", "geometry": {"type": "LineString", "coordinates": [[44.35224290039943, 69.040242290887], [44.360584539832985, 69.03863803141232]]}, "properties": {"source": "16635", "target": "5061221"}}, {"type": "Feature", "geometry": {"type": "LineString", "coordinates": [[44.35224290039943, 69.040242290887], [44.35435536717006, 69.0400359112769]]}, "properties": {"source": "16635", "target": "680889"}}, {"type": "Feature", "geometry": {"type": "LineString", "coordinates": [[44.352761702664225, 69.04043011646499], [44.35440016162201, 69.04202433557694]]}, "properties": {"source": "2053020", "target": "17465031"}}, {"type": "Feature", "geometry": {"type": "LineString", "coordinates": [[44.352761702664225, 69.04043011646499], [44.34673648887528, 69.04045669251488]]}, "properties": {"source": "2053020", "target": "18763356"}}, {"type": "Feature", "geometry": {"type": "LineString", "coordinates": [[44.36000683001629, 69.03807599040888], [44.347379041441144, 69.03745833123514]]}, "properties": {"source": "16044952", "target": "34628348"}}, {"type": "Feature", "geometry": {"type": "LineString", "coordinates": [[44.35336023454403, 69.0420787559132], [44.35250126180313, 69.03755681201383]]}, "properties": {"source": "6613690", "target": "6424892"}}, {"type": "Feature", "geometry": {"type": "LineString", "coordinates": [[44.360357775033606, 69.04083023719173], [44.3508221432287, 69.03905269080812]]}, "properties": {"source": "27503684", "target": "13572858"}}, {"type": "Feature", "geometry": {"type": "LineString", "coordinates": [[44.360357775033606, 69.04083023719173], [44.36000683001629, 69.03807599040888]]}, "properties": {"source": "27503684", "target": "16044952"}}, {"type": "Feature", "geometry": {"type": "LineString", "coordinates": [[44.360357775033606, 69.04083023719173], [44.357892824915666, 69.03846692726631]]}, "properties": {"source": "27503684", "target": "26195544"}}, {"type": "Feature", "geometry": {"type": "LineString", "coordinates": [[44.360357775033606, 69.04083023719173], [44.35135531888932, 69.03784032114493]]}, "properties": {"source": "27503684", "target": "23492789"}}, {"type": "Feature", "geometry": {"type": "LineString", "coordinates": [[44.35224290039943, 69.040242290887], [44.35180758883885, 69.04119031524675]]}, "properties": {"source": "16635", "target": "60787"}}, {"type": "Feature", "geometry": {"type": "LineString", "coordinates": [[44.345142385894434, 69.04188956912793], [44.36003975436239, 69.0423339588406]]}, "properties": {"source": "2165630", "target": "1184003"}}, {"type": "Feature", "geometry": {"type": "LineString", "coordinates": [[44.345142385894434, 69.04188956912793], [44.35000433053813, 69.04117668543026]]}, "properties": {"source": "2165630", "target": "2084132"}}, {"type": "Feature", "geometry": {"type": "LineString", "coordinates": [[44.345142385894434, 69.04188956912793], [44.35839403855732, 69.04228100865848]]}, "properties": {"source": "2165630", "target": "25787117"}}, {"type": "Feature", "geometry": {"type": "LineString", "coordinates": [[44.345142385894434, 69.04188956912793], [44.350944085902455, 69.03796928645272]]}, "properties": {"source": "2165630", "target": "17724812"}}, {"type": "Feature", "geometry": {"type": "LineString", "coordinates": [[44.35863751365682, 69.0376633858769], [44.35589477461039, 69.0399852337577]]}, "properties": {"source": "10068813", "target": "2712880"}}, {"type": "Feature", "geometry": {"type": "LineString", "coordinates": [[44.35863751365682, 69.0376633858769], [44.35653277524443, 69.03976602021214]]}, "properties": {"source": "10068813", "target": "17346539"}}, {"type": "Feature", "geometry": {"type": "LineString", "coordinates": [[44.35863751365682, 69.0376633858769], [44.350642494989614, 69.03935041134127]]}, "properties": {"source": "10068813", "target": "12472283"}}, {"type": "Feature", "geometry": {"type": "LineString", "coordinates": [[44.35863751365682, 69.0376633858769], [44.34945209571478, 69.03967938955665]]}, "properties": {"source": "10068813", "target": "26816202"}}, {"type": "Feature", "geometry": {"type": "LineString", "coordinates": [[44.35863751365682, 69.0376633858769], [44.35922343633729, 69.03866223905169]]}, "properties": {"source": "10068813", "target": "1184237"}}, {"type": "Feature", "geometry": {"type": "LineString", "coordinates": [[44.35863751365682, 69.0376633858769], [44.35924062248347, 69.03741568946731]]}, "properties": {"source": "10068813", "target": "22908888"}}, {"type": "Feature", "geometry": {"type": "LineString", "coordinates": [[44.35863751365682, 69.0376633858769], [44.35330716955889, 69.03793488604072]]}, "properties": {"source": "10068813", "target": "17456201"}}, {"type": "Feature", "geometry": {"type": "LineString", "coordinates": [[44.350642494989614, 69.03935041134127], [44.35653277524443, 69.03976602021214]]}, "properties": {"source": "12472283", "target": "17346539"}}, {"type": "Feature", "geometry": {"type": "LineString", "coordinates": [[44.35625245455364, 69.03919775266132], [44.345142385894434, 69.04188956912793]]}, "properties": {"source": "1909306", "target": "2165630"}}, {"type": "Feature", "geometry": {"type": "LineString", "coordinates": [[44.35625245455364, 69.03919775266132], [44.34794882468307, 69.040419650773]]}, "properties": {"source": "1909306", "target": "1820465"}}, {"type": "Feature", "geometry": {"type": "LineString", "coordinates": [[44.35625245455364, 69.03919775266132], [44.35192288367065, 69.04181959161917]]}, "properties": {"source": "1909306", "target": "129541"}}, {"type": "Feature", "geometry": {"type": "LineString", "coordinates": [[44.35625245455364, 69.03919775266132], [44.35942817740715, 69.0389937310645]]}, "properties": {"source": "1909306", "target": "117133"}}, {"type": "Feature", "geometry": {"type": "LineString", "coordinates": [[44.359965075171914, 69.0397564094279], [44.3508221432287, 69.03905269080812]]}, "properties": {"source": "6610546", "target": "13572858"}}, {"type": "Feature", "geometry": {"type": "LineString", "coordinates": [[44.359965075171914, 69.0397564094279], [44.36000683001629, 69.03807599040888]]}, "properties": {"source": "6610546", "target": "16044952"}}, {"type": "Feature", "geometry": {"type": "LineString", "coordinates": [[44.359965075171914, 69.0397564094279], [44.347379041441144, 69.03745833123514]]}, "properties": {"source": "6610546", "target": "34628348"}}, {"type": "Feature", "geometry": {"type": "LineString", "coordinates": [[44.359965075171914, 69.0397564094279], [44.34960774729237, 69.04119472255562]]}, "properties": {"source": "6610546", "target": "863458"}}, {"type": "Feature", "geometry": {"type": "LineString", "coordinates": [[44.359965075171914, 69.0397564094279], [44.34576456070084, 69.0418383890019]]}, "properties": {"source": "6610546", "target": "7019282"}}, {"type": "Feature", "geometry": {"type": "LineString", "coordinates": [[44.3508221432287, 69.03905269080812], [44.347379041441144, 69.03745833123514]]}, "properties": {"source": "13572858", "target": "34628348"}}, {"type": "Feature", "geometry": {"type": "LineString", "coordinates": [[44.3508221432287, 69.03905269080812], [44.34960774729237, 69.04119472255562]]}, "properties": {"source": "13572858", "target": "863458"}}, {"type": "Feature", "geometry": {"type": "LineString", "coordinates": [[44.3508221432287, 69.03905269080812], [44.34576456070084, 69.0418383890019]]}, "properties": {"source": "13572858", "target": "7019282"}}, {"type": "Feature", "geometry": {"type": "LineString", "coordinates": [[44.360066812441175, 69.0406287465427], [44.360584539832985, 69.03863803141232]]}, "properties": {"source": "637376", "target": "5061221"}}, {"type": "Feature", "geometry": {"type": "LineString", "coordinates": [[44.360066812441175, 69.0406287465427], [44.349292462133775, 69.04004603702523]]}, "properties": {"source": "637376", "target": "4350363"}}, {"type": "Feature", "geometry": {"type": "LineString", "coordinates": [[44.360066812441175, 69.0406287465427], [44.35435536717006, 69.0400359112769]]}, "properties": {"source": "637376", "target": "680889"}}, {"type": "Feature", "geometry": {"type": "LineString", "coordinates": [[44.3597863775945, 69.03948777210522], [44.35224290039943, 69.040242290887]]}, "properties": {"source": "4383331", "target": "16635"}}, {"type": "Feature", "geometry": {"type": "LineString", "coordinates": [[44.3597863775945, 69.03948777210522], [44.3457612502703, 69.0389349218577]]}, "properties": {"source": "4383331", "target": "13237709"}}, {"type": "Feature", "geometry": {"type": "LineString", "coordinates": [[44.345142385894434, 69.04188956912793], [44.357100411913734, 69.04226398830482]]}, "properties": {"source": "2165630", "target": "341951"}}, {"type": "Feature", "geometry": {"type": "LineString", "coordinates": [[44.345142385894434, 69.04188956912793], [44.35192288367065, 69.04181959161917]]}, "properties": {"source": "2165630", "target": "129541"}}, {"type": "Feature", "geometry": {"type": "LineString", "coordinates": [[44.360066812441175, 69.0406287465427], [44.35180758883885, 69.04119031524675]]}, "properties": {"source": "637376", "target": "60787"}}, {"type": "Feature", "geometry": {"type": "LineString", "coordinates": [[44.35625245455364, 69.03919775266132], [44.34535472262132, 69.04034069257582]]}, "properties": {"source": "1909306", "target": "2362595"}}, {"type": "Feature", "geometry": {"type": "LineString", "coordinates": [[44.35625245455364, 69.03919775266132], [44.36003975436239, 69.0423339588406]]}, "properties": {"source": "1909306", "target": "1184003"}}, {"type": "Feature", "geometry": {"type": "LineString", "coordinates": [[44.35625245455364, 69.03919775266132], [44.35000433053813, 69.04117668543026]]}, "properties": {"source": "1909306", "target": "2084132"}}, {"type": "Feature", "geometry": {"type": "LineString", "coordinates": [[44.35625245455364, 69.03919775266132], [44.349523665659405, 69.03818413522546]]}, "properties": {"source": "1909306", "target": "207004"}}, {"type": "Feature", "geometry": {"type": "LineString", "coordinates": [[44.34794882468307, 69.040419650773], [44.357100411913734, 69.04226398830482]]}, "properties": {"source": "1820465", "target": "341951"}}, {"type": "Feature", "geometry": {"type": "LineString", "coordinates": [[44.34794882468307, 69.040419650773], [44.35192288367065, 69.04181959161917]]}, "properties": {"source": "1820465", "target": "129541"}}, {"type": "Feature", "geometry": {"type": "LineString", "coordinates": [[44.34794882468307, 69.040419650773], [44.35989823627256, 69.03895402697978]]}, "properties": {"source": "1820465", "target": "5705811"}}, {"type": "Feature", "geometry": {"type": "LineString", "coordinates": [[44.35718241312978, 69.04237087301428], [44.35863751365682, 69.0376633858769]]}, "properties": {"source": "5611619", "target": "10068813"}}, {"type": "Feature", "geometry": {"type": "LineString", "coordinates": [[44.35718241312978, 69.04237087301428], [44.350642494989614, 69.03935041134127]]}, "properties": {"source": "5611619", "target": "12472283"}}, {"type": "Feature", "geometry": {"type": "LineString", "coordinates": [[44.35718241312978, 69.04237087301428], [44.35922343633729, 69.03866223905169]]}, "properties": {"source": "5611619", "target": "1184237"}}, {"type": "Feature", "geometry": {"type": "LineString", "coordinates": [[44.35718241312978, 69.04237087301428], [44.35522701117034, 69.03734367203222]]}, "properties": {"source": "5611619", "target": "1332289"}}, {"type": "Feature", "geometry": {"type": "LineString", "coordinates": [[44.35718241312978, 69.04237087301428], [44.36027640251197, 69.0384959608842]]}, "properties": {"source": "5611619", "target": "7154732"}}, {"type": "Feature", "geometry": {"type": "LineString", "coordinates": [[44.350642494989614, 69.03935041134127], [44.360584539832985, 69.03863803141232]]}, "properties": {"source": "12472283", "target": "5061221"}}, {"type": "Feature", "geometry": {"type": "LineString", "coordinates": [[44.350642494989614, 69.03935041134127], [44.34945209571478, 69.03967938955665]]}, "properties": {"source": "12472283", "target": "26816202"}}, {"type": "Feature", "geometry": {"type": "LineString", "coordinates": [[44.350642494989614, 69.03935041134127], [44.349292462133775, 69.04004603702523]]}, "properties": {"source": "12472283", "target": "4350363"}}, {"type": "Feature", "geometry": {"type": "LineString", "coordinates": [[44.350642494989614, 69.03935041134127], [44.35180758883885, 69.04119031524675]]}, "properties": {"source": "12472283", "target": "60787"}}, {"type": "Feature", "geometry": {"type": "LineString", "coordinates": [[44.34997687887835, 69.03822014029191], [44.34696399225285, 69.03832232869522]]}, "properties": {"source": "15886293", "target": "21303390"}}, {"type": "Feature", "geometry": {"type": "LineString", "coordinates": [[44.34997687887835, 69.03822014029191], [44.35989823627256, 69.03895402697978]]}, "properties": {"source": "15886293", "target": "5705811"}}, {"type": "Feature", "geometry": {"type": "LineString", "coordinates": [[44.349523665659405, 69.03818413522546], [44.357100411913734, 69.04226398830482]]}, "properties": {"source": "207004", "target": "341951"}}, {"type": "Feature", "geometry": {"type": "LineString", "coordinates": [[44.349523665659405, 69.03818413522546], [44.345142385894434, 69.04188956912793]]}, "properties": {"source": "207004", "target": "2165630"}}, {"type": "Feature", "geometry": {"type": "LineString", "coordinates": [[44.34899001619215, 69.03805169866149], [44.36027640251197, 69.0384959608842]]}, "properties": {"source": "9303595", "target": "7154732"}}, {"type": "Feature", "geometry": {"type": "LineString", "coordinates": [[44.34899001619215, 69.03805169866149], [44.35124439846663, 69.04165212172853]]}, "properties": {"source": "9303595", "target": "96122"}}, {"type": "Feature", "geometry": {"type": "LineString", "coordinates": [[44.34696399225285, 69.03832232869522], [44.34794882468307, 69.040419650773]]}, "properties": {"source": "21303390", "target": "1820465"}}, {"type": "Feature", "geometry": {"type": "LineString", "coordinates": [[44.34696399225285, 69.03832232869522], [44.35989823627256, 69.03895402697978]]}, "properties": {"source": "21303390", "target": "5705811"}}, {"type": "Feature", "geometry": {"type": "LineString", "coordinates": [[44.34960774729237, 69.04119472255562], [44.36000683001629, 69.03807599040888]]}, "properties": {"source": "863458", "target": "16044952"}}, {"type": "Feature", "geometry": {"type": "LineString", "coordinates": [[44.34576456070084, 69.0418383890019], [44.347379041441144, 69.03745833123514]]}, "properties": {"source": "7019282", "target": "34628348"}}, {"type": "Feature", "geometry": {"type": "LineString", "coordinates": [[44.3580059870622, 69.03998316224369], [44.35653277524443, 69.03976602021214]]}, "properties": {"source": "12476", "target": "17346539"}}, {"type": "Feature", "geometry": {"type": "LineString", "coordinates": [[44.3580059870622, 69.03998316224369], [44.34945209571478, 69.03967938955665]]}, "properties": {"source": "12476", "target": "26816202"}}, {"type": "Feature", "geometry": {"type": "LineString", "coordinates": [[44.35839403855732, 69.04228100865848], [44.357100411913734, 69.04226398830482]]}, "properties": {"source": "25787117", "target": "341951"}}, {"type": "Feature", "geometry": {"type": "LineString", "coordinates": [[44.35839403855732, 69.04228100865848], [44.35126773300948, 69.0392063301006]]}, "properties": {"source": "25787117", "target": "6061357"}}, {"type": "Feature", "geometry": {"type": "LineString", "coordinates": [[44.34991811354567, 69.037529028535], [44.360584539832985, 69.03863803141232]]}, "properties": {"source": "6550528", "target": "5061221"}}, {"type": "Feature", "geometry": {"type": "LineString", "coordinates": [[44.34991811354567, 69.037529028535], [44.349292462133775, 69.04004603702523]]}, "properties": {"source": "6550528", "target": "4350363"}}, {"type": "Feature", "geometry": {"type": "LineString", "coordinates": [[44.34913223987073, 69.04013504483325], [44.352761702664225, 69.04043011646499]]}, "properties": {"source": "12420691", "target": "2053020"}}, {"type": "Feature", "geometry": {"type": "LineString", "coordinates": [[44.35220913966526, 69.04124408540892], [44.35589477461039, 69.0399852337577]]}, "properties": {"source": "23821271", "target": "2712880"}}, {"type": "Feature", "geometry": {"type": "LineString", "coordinates": [[44.35220913966526, 69.04124408540892], [44.35149330309949, 69.0405738119492]]}, "properties": {"source": "23821271", "target": "32850593"}}, {"type": "Feature", "geometry": {"type": "LineString", "coordinates": [[44.35220913966526, 69.04124408540892], [44.35440016162201, 69.04202433557694]]}, "properties": {"source": "23821271", "target": "17465031"}}, {"type": "Feature", "geometry": {"type": "LineString", "coordinates": [[44.35220913966526, 69.04124408540892], [44.34673648887528, 69.04045669251488]]}, "properties": {"source": "23821271", "target": "18763356"}}, {"type": "Feature", "geometry": {"type": "LineString", "coordinates": [[44.35220913966526, 69.04124408540892], [44.35647483551142, 69.04111487813171]]}, "properties": {"source": "23821271", "target": "23231687"}}, {"type": "Feature", "geometry": {"type": "LineString", "coordinates": [[44.35220913966526, 69.04124408540892], [44.35393073864992, 69.04035761024451]]}, "properties": {"source": "23821271", "target": "18993361"}}, {"type": "Feature", "geometry": {"type": "LineString", "coordinates": [[44.35149330309949, 69.0405738119492], [44.35589477461039, 69.0399852337577]]}, "properties": {"source": "32850593", "target": "2712880"}}, {"type": "Feature", "geometry": {"type": "LineString", "coordinates": [[44.35149330309949, 69.0405738119492], [44.35440016162201, 69.04202433557694]]}, "properties": {"source": "32850593", "target": "17465031"}}, {"type": "Feature", "geometry": {"type": "LineString", "coordinates": [[44.35149330309949, 69.0405738119492], [44.34673648887528, 69.04045669251488]]}, "properties": {"source": "32850593", "target": "18763356"}}, {"type": "Feature", "geometry": {"type": "LineString", "coordinates": [[44.35149330309949, 69.0405738119492], [44.35393073864992, 69.04035761024451]]}, "properties": {"source": "32850593", "target": "18993361"}}, {"type": "Feature", "geometry": {"type": "LineString", "coordinates": [[44.35149330309949, 69.0405738119492], [44.352761702664225, 69.04043011646499]]}, "properties": {"source": "32850593", "target": "2053020"}}, {"type": "Feature", "geometry": {"type": "LineString", "coordinates": [[44.35440016162201, 69.04202433557694], [44.35589477461039, 69.0399852337577]]}, "properties": {"source": "17465031", "target": "2712880"}}, {"type": "Feature", "geometry": {"type": "LineString", "coordinates": [[44.35440016162201, 69.04202433557694], [44.34673648887528, 69.04045669251488]]}, "properties": {"source": "17465031", "target": "18763356"}}, {"type": "Feature", "geometry": {"type": "LineString", "coordinates": [[44.349292462133775, 69.04004603702523], [44.360584539832985, 69.03863803141232]]}, "properties": {"source": "4350363", "target": "5061221"}}, {"type": "Feature", "geometry": {"type": "LineString", "coordinates": [[44.349292462133775, 69.04004603702523], [44.3474287019601, 69.04028212600113]]}, "properties": {"source": "4350363", "target": "6565468"}}, {"type": "Feature", "geometry": {"type": "LineString", "coordinates": [[44.36069222347595, 69.04002628496215], [44.35863751365682, 69.0376633858769]]}, "properties": {"source": "6193592", "target": "10068813"}}, {"type": "Feature", "geometry": {"type": "LineString", "coordinates": [[44.36069222347595, 69.04002628496215], [44.35718241312978, 69.04237087301428]]}, "properties": {"source": "6193592", "target": "5611619"}}, {"type": "Feature", "geometry": {"type": "LineString", "coordinates": [[44.36069222347595, 69.04002628496215], [44.3593535877728, 69.04215044512361]]}, "properties": {"source": "6193592", "target": "8760751"}}, {"type": "Feature", "geometry": {"type": "LineString", "coordinates": [[44.36069222347595, 69.04002628496215], [44.35922343633729, 69.03866223905169]]}, "properties": {"source": "6193592", "target": "1184237"}}, {"type": "Feature", "geometry": {"type": "LineString", "coordinates": [[44.36069222347595, 69.04002628496215], [44.35522701117034, 69.03734367203222]]}, "properties": {"source": "6193592", "target": "1332289"}}, {"type": "Feature", "geometry": {"type": "LineString", "coordinates": [[44.36069222347595, 69.04002628496215], [44.36027640251197, 69.0384959608842]]}, "properties": {"source": "6193592", "target": "7154732"}}, {"type": "Feature", "geometry": {"type": "LineString", "coordinates": [[44.34535472262132, 69.04034069257582], [44.357100411913734, 69.04226398830482]]}, "properties": {"source": "2362595", "target": "341951"}}, {"type": "Feature", "geometry": {"type": "LineString", "coordinates": [[44.34535472262132, 69.04034069257582], [44.345142385894434, 69.04188956912793]]}, "properties": {"source": "2362595", "target": "2165630"}}, {"type": "Feature", "geometry": {"type": "LineString", "coordinates": [[44.34535472262132, 69.04034069257582], [44.35000433053813, 69.04117668543026]]}, "properties": {"source": "2362595", "target": "2084132"}}, {"type": "Feature", "geometry": {"type": "LineString", "coordinates": [[44.34535472262132, 69.04034069257582], [44.35839403855732, 69.04228100865848]]}, "properties": {"source": "2362595", "target": "25787117"}}, {"type": "Feature", "geometry": {"type": "LineString", "coordinates": [[44.34535472262132, 69.04034069257582], [44.35433044586492, 69.03726057611652]]}, "properties": {"source": "2362595", "target": "13741133"}}, {"type": "Feature", "geometry": {"type": "LineString", "coordinates": [[44.35647483551142, 69.04111487813171], [44.35589477461039, 69.0399852337577]]}, "properties": {"source": "23231687", "target": "2712880"}}, {"type": "Feature", "geometry": {"type": "LineString", "coordinates": [[44.35647483551142, 69.04111487813171], [44.35149330309949, 69.0405738119492]]}, "properties": {"source": "23231687", "target": "32850593"}}, {"type": "Feature", "geometry": {"type": "LineString", "coordinates": [[44.35647483551142, 69.04111487813171], [44.35440016162201, 69.04202433557694]]}, "properties": {"source": "23231687", "target": "17465031"}}, {"type": "Feature", "geometry": {"type": "LineString", "coordinates": [[44.35647483551142, 69.04111487813171], [44.34673648887528, 69.04045669251488]]}, "properties": {"source": "23231687", "target": "18763356"}}, {"type": "Feature", "geometry": {"type": "LineString", "coordinates": [[44.36003975436239, 69.0423339588406], [44.357100411913734, 69.04226398830482]]}, "properties": {"source": "1184003", "target": "341951"}}, {"type": "Feature", "geometry": {"type": "LineString", "coordinates": [[44.36003975436239, 69.0423339588406], [44.34794882468307, 69.040419650773]]}, "properties": {"source": "1184003", "target": "1820465"}}, {"type": "Feature", "geometry": {"type": "LineString", "coordinates": [[44.36003975436239, 69.0423339588406], [44.35192288367065, 69.04181959161917]]}, "properties": {"source": "1184003", "target": "129541"}}, {"type": "Feature", "geometry": {"type": "LineString", "coordinates": [[44.35330716955889, 69.03793488604072], [44.35589477461039, 69.0399852337577]]}, "properties": {"source": "17456201", "target": "2712880"}}, {"type": "Feature", "geometry": {"type": "LineString", "coordinates": [[44.35330716955889, 69.03793488604072], [44.35653277524443, 69.03976602021214]]}, "properties": {"source": "17456201", "target": "17346539"}}, {"type": "Feature", "geometry": {"type": "LineString", "coordinates": [[44.35330716955889, 69.03793488604072], [44.34945209571478, 69.03967938955665]]}, "properties": {"source": "17456201", "target": "26816202"}}, {"type": "Feature", "geometry": {"type": "LineString", "coordinates": [[44.35330716955889, 69.03793488604072], [44.35924062248347, 69.03741568946731]]}, "properties": {"source": "17456201", "target": "22908888"}}, {"type": "Feature", "geometry": {"type": "LineString", "coordinates": [[44.35330716955889, 69.03793488604072], [44.35522701117034, 69.03734367203222]]}, "properties": {"source": "17456201", "target": "1332289"}}, {"type": "Feature", "geometry": {"type": "LineString", "coordinates": [[44.35000433053813, 69.04117668543026], [44.357100411913734, 69.04226398830482]]}, "properties": {"source": "2084132", "target": "341951"}}, {"type": "Feature", "geometry": {"type": "LineString", "coordinates": [[44.35000433053813, 69.04117668543026], [44.35192288367065, 69.04181959161917]]}, "properties": {"source": "2084132", "target": "129541"}}, {"type": "Feature", "geometry": {"type": "LineString", "coordinates": [[44.35000433053813, 69.04117668543026], [44.35839403855732, 69.04228100865848]]}, "properties": {"source": "2084132", "target": "25787117"}}, {"type": "Feature", "geometry": {"type": "LineString", "coordinates": [[44.35393073864992, 69.04035761024451], [44.35589477461039, 69.0399852337577]]}, "properties": {"source": "18993361", "target": "2712880"}}, {"type": "Feature", "geometry": {"type": "LineString", "coordinates": [[44.35393073864992, 69.04035761024451], [44.35440016162201, 69.04202433557694]]}, "properties": {"source": "18993361", "target": "17465031"}}, {"type": "Feature", "geometry": {"type": "LineString", "coordinates": [[44.35393073864992, 69.04035761024451], [44.34673648887528, 69.04045669251488]]}, "properties": {"source": "18993361", "target": "18763356"}}, {"type": "Feature", "geometry": {"type": "LineString", "coordinates": [[44.36027640251197, 69.0384959608842], [44.357100411913734, 69.04226398830482]]}, "properties": {"source": "7154732", "target": "341951"}}, {"type": "Feature", "geometry": {"type": "LineString", "coordinates": [[44.36027640251197, 69.0384959608842], [44.35126773300948, 69.0392063301006]]}, "properties": {"source": "7154732", "target": "6061357"}}, {"type": "Feature", "geometry": {"type": "LineString", "coordinates": [[44.360357775033606, 69.04083023719173], [44.360584539832985, 69.03863803141232]]}, "properties": {"source": "27503684", "target": "5061221"}}, {"type": "Feature", "geometry": {"type": "LineString", "coordinates": [[44.35718241312978, 69.04237087301428], [44.35378004537725, 69.04195281396869]]}, "properties": {"source": "5611619", "target": "13438742"}}, {"type": "Feature", "geometry": {"type": "LineString", "coordinates": [[44.3593535877728, 69.04215044512361], [44.35863751365682, 69.0376633858769]]}, "properties": {"source": "8760751", "target": "10068813"}}, {"type": "Feature", "geometry": {"type": "LineString", "coordinates": [[44.3593535877728, 69.04215044512361], [44.35922343633729, 69.03866223905169]]}, "properties": {"source": "8760751", "target": "1184237"}}, {"type": "Feature", "geometry": {"type": "LineString", "coordinates": [[44.3593535877728, 69.04215044512361], [44.35522701117034, 69.03734367203222]]}, "properties": {"source": "8760751", "target": "1332289"}}, {"type": "Feature", "geometry": {"type": "LineString", "coordinates": [[44.3593535877728, 69.04215044512361], [44.36027640251197, 69.0384959608842]]}, "properties": {"source": "8760751", "target": "7154732"}}, {"type": "Feature", "geometry": {"type": "LineString", "coordinates": [[44.3593535877728, 69.04215044512361], [44.35378004537725, 69.04195281396869]]}, "properties": {"source": "8760751", "target": "13438742"}}, {"type": "Feature", "geometry": {"type": "LineString", "coordinates": [[44.3593535877728, 69.04215044512361], [44.34899001619215, 69.03805169866149]]}, "properties": {"source": "8760751", "target": "9303595"}}, {"type": "Feature", "geometry": {"type": "LineString", "coordinates": [[44.3593535877728, 69.04215044512361], [44.35124439846663, 69.04165212172853]]}, "properties": {"source": "8760751", "target": "96122"}}, {"type": "Feature", "geometry": {"type": "LineString", "coordinates": [[44.34913223987073, 69.04013504483325], [44.35589477461039, 69.0399852337577]]}, "properties": {"source": "12420691", "target": "2712880"}}, {"type": "Feature", "geometry": {"type": "LineString", "coordinates": [[44.34913223987073, 69.04013504483325], [44.35220913966526, 69.04124408540892]]}, "properties": {"source": "12420691", "target": "23821271"}}, {"type": "Feature", "geometry": {"type": "LineString", "coordinates": [[44.34913223987073, 69.04013504483325], [44.35149330309949, 69.0405738119492]]}, "properties": {"source": "12420691", "target": "32850593"}}, {"type": "Feature", "geometry": {"type": "LineString", "coordinates": [[44.34913223987073, 69.04013504483325], [44.35440016162201, 69.04202433557694]]}, "properties": {"source": "12420691", "target": "17465031"}}, {"type": "Feature", "geometry": {"type": "LineString", "coordinates": [[44.34913223987073, 69.04013504483325], [44.34673648887528, 69.04045669251488]]}, "properties": {"source": "12420691", "target": "18763356"}}, {"type": "Feature", "geometry": {"type": "LineString", "coordinates": [[44.34913223987073, 69.04013504483325], [44.35647483551142, 69.04111487813171]]}, "properties": {"source": "12420691", "target": "23231687"}}, {"type": "Feature", "geometry": {"type": "LineString", "coordinates": [[44.34913223987073, 69.04013504483325], [44.35393073864992, 69.04035761024451]]}, "properties": {"source": "12420691", "target": "18993361"}}, {"type": "Feature", "geometry": {"type": "LineString", "coordinates": [[44.35718241312978, 69.04237087301428], [44.3580059870622, 69.03998316224369]]}, "properties": {"source": "5611619", "target": "12476"}}, {"type": "Feature", "geometry": {"type": "LineString", "coordinates": [[44.35192288367065, 69.04181959161917], [44.357100411913734, 69.04226398830482]]}, "properties": {"source": "129541", "target": "341951"}}, {"type": "Feature", "geometry": {"type": "LineString", "coordinates": [[44.35192288367065, 69.04181959161917], [44.35126773300948, 69.0392063301006]]}, "properties": {"source": "129541", "target": "6061357"}}, {"type": "Feature", "geometry": {"type": "LineString", "coordinates": [[44.35126773300948, 69.0392063301006], [44.357100411913734, 69.04226398830482]]}, "properties": {"source": "6061357", "target": "341951"}}, {"type": "Feature", "geometry": {"type": "LineString", "coordinates": [[44.35126773300948, 69.0392063301006], [44.347285832576574, 69.04036895564909]]}, "properties": {"source": "6061357", "target": "6624748"}}, {"type": "Feature", "geometry": {"type": "LineString", "coordinates": [[44.35126773300948, 69.0392063301006], [44.35250126180313, 69.03755681201383]]}, "properties": {"source": "6061357", "target": "6424892"}}, {"type": "Feature", "geometry": {"type": "LineString", "coordinates": [[44.35126773300948, 69.0392063301006], [44.35336023454403, 69.0420787559132]]}, "properties": {"source": "6061357", "target": "6613690"}}, {"type": "Feature", "geometry": {"type": "LineString", "coordinates": [[44.35922343633729, 69.03866223905169], [44.35924062248347, 69.03741568946731]]}, "properties": {"source": "1184237", "target": "22908888"}}, {"type": "Feature", "geometry": {"type": "LineString", "coordinates": [[44.35942817740715, 69.0389937310645], [44.357100411913734, 69.04226398830482]]}, "properties": {"source": "117133", "target": "341951"}}, {"type": "Feature", "geometry": {"type": "LineString", "coordinates": [[44.35942817740715, 69.0389937310645], [44.345142385894434, 69.04188956912793]]}, "properties": {"source": "117133", "target": "2165630"}}, {"type": "Feature", "geometry": {"type": "LineString", "coordinates": [[44.35942817740715, 69.0389937310645], [44.34794882468307, 69.040419650773]]}, "properties": {"source": "117133", "target": "1820465"}}, {"type": "Feature", "geometry": {"type": "LineString", "coordinates": [[44.35942817740715, 69.0389937310645], [44.35192288367065, 69.04181959161917]]}, "properties": {"source": "117133", "target": "129541"}}, {"type": "Feature", "geometry": {"type": "LineString", "coordinates": [[44.35942817740715, 69.0389937310645], [44.36003975436239, 69.0423339588406]]}, "properties": {"source": "117133", "target": "1184003"}}, {"type": "Feature", "geometry": {"type": "LineString", "coordinates": [[44.35435536717006, 69.0400359112769], [44.360584539832985, 69.03863803141232]]}, "properties": {"source": "680889", "target": "5061221"}}, {"type": "Feature", "geometry": {"type": "LineString", "coordinates": [[44.35435536717006, 69.0400359112769], [44.3474287019601, 69.04028212600113]]}, "properties": {"source": "680889", "target": "6565468"}}, {"type": "Feature", "geometry": {"type": "LineString", "coordinates": [[44.35522701117034, 69.03734367203222], [44.35924062248347, 69.03741568946731]]}, "properties": {"source": "1332289", "target": "22908888"}}, {"type": "Feature", "geometry": {"type": "LineString", "coordinates": [[44.35942817740715, 69.0389937310645], [44.34806751570807, 69.04160829653583]]}, "properties": {"source": "117133", "target": "1150775"}}, {"type": "Feature", "geometry": {"type": "LineString", "coordinates": [[44.35589477461039, 69.0399852337577], [44.34945209571478, 69.03967938955665]]}, "properties": {"source": "2712880", "target": "26816202"}}, {"type": "Feature", "geometry": {"type": "LineString", "coordinates": [[44.35589477461039, 69.0399852337577], [44.34673648887528, 69.04045669251488]]}, "properties": {"source": "2712880", "target": "18763356"}}, {"type": "Feature", "geometry": {"type": "LineString", "coordinates": [[44.35589477461039, 69.0399852337577], [44.35924062248347, 69.03741568946731]]}, "properties": {"source": "2712880", "target": "22908888"}}, {"type": "Feature", "geometry": {"type": "LineString", "coordinates": [[44.35653277524443, 69.03976602021214], [44.35589477461039, 69.0399852337577]]}, "properties": {"source": "17346539", "target": "2712880"}}, {"type": "Feature", "geometry": {"type": "LineString", "coordinates": [[44.35653277524443, 69.03976602021214], [44.34945209571478, 69.03967938955665]]}, "properties": {"source": "17346539", "target": "26816202"}}, {"type": "Feature", "geometry": {"type": "LineString", "coordinates": [[44.35653277524443, 69.03976602021214], [44.35922343633729, 69.03866223905169]]}, "properties": {"source": "17346539", "target": "1184237"}}, {"type": "Feature", "geometry": {"type": "LineString", "coordinates": [[44.35653277524443, 69.03976602021214], [44.35924062248347, 69.03741568946731]]}, "properties": {"source": "17346539", "target": "22908888"}}, {"type": "Feature", "geometry": {"type": "LineString", "coordinates": [[44.35653277524443, 69.03976602021214], [44.35522701117034, 69.03734367203222]]}, "properties": {"source": "17346539", "target": "1332289"}}, {"type": "Feature", "geometry": {"type": "LineString", "coordinates": [[44.360584539832985, 69.03863803141232], [44.3474287019601, 69.04028212600113]]}, "properties": {"source": "5061221", "target": "6565468"}}, {"type": "Feature", "geometry": {"type": "LineString", "coordinates": [[44.3597863775945, 69.03948777210522], [44.360584539832985, 69.03863803141232]]}, "properties": {"source": "4383331", "target": "5061221"}}, {"type": "Feature", "geometry": {"type": "LineString", "coordinates": [[44.3597863775945, 69.03948777210522], [44.350642494989614, 69.03935041134127]]}, "properties": {"source": "4383331", "target": "12472283"}}, {"type": "Feature", "geometry": {"type": "LineString", "coordinates": [[44.3597863775945, 69.03948777210522], [44.349292462133775, 69.04004603702523]]}, "properties": {"source": "4383331", "target": "4350363"}}, {"type": "Feature", "geometry": {"type": "LineString", "coordinates": [[44.3597863775945, 69.03948777210522], [44.3474287019601, 69.04028212600113]]}, "properties": {"source": "4383331", "target": "6565468"}}, {"type": "Feature", "geometry": {"type": "LineString", "coordinates": [[44.3597863775945, 69.03948777210522], [44.34991811354567, 69.037529028535]]}, "properties": {"source": "4383331", "target": "6550528"}}, {"type": "Feature", "geometry": {"type": "LineString", "coordinates": [[44.3597863775945, 69.03948777210522], [44.35180758883885, 69.04119031524675]]}, "properties": {"source": "4383331", "target": "60787"}}, {"type": "Feature", "geometry": {"type": "LineString", "coordinates": [[44.3597863775945, 69.03948777210522], [44.360066812441175, 69.0406287465427]]}, "properties": {"source": "4383331", "target": "637376"}}]}