{"type": "FeatureCollection", "features": [{"type": "Feature", "geometry": {"type": "LineString", "coordinates": [[114.87757658902285, 69.03819134053586], [114.88234631463808, 69.0406729699138]]}, "properties": {"source": "19438803", "target": "19411683"}}, {"type": "Feature", "geometry": {"type": "LineString", "coordinates": [[114.87757658902285, 69.03819134053586], [114.88696013704765, 69.0414162770642]]}, "properties": {"source": "19438803", "target": "12045893"}}, {"type": "Feature", "geometry": {"type": "LineString", "coordinates": [[114.87757658902285, 69.03819134053586], [114.88364873234224, 69.03736563966115]]}, "properties": {"source": "19438803", "target": "10648187"}}, {"type": "Feature", "geometry": {"type": "LineString", "coordinates": [[114.8819568851585, 69.03973882208513], [114.88597366145228, 69.0409799492287]]}, "properties": {"source": "19652558", "target": "19140680"}}, {"type": "Feature", "geometry": {"type": "LineString", "coordinates": [[114.8819568851585, 69.03973882208513], [114.88856539697304, 69.04035350299935]]}, "properties": {"source": "19652558", "target": "20101276"}}, {"type": "Feature", "geometry": {"type": "LineString", "coordinates": [[114.8819568851585, 69.03973882208513], [114.88482926556293, 69.04133614142117]]}, "properties": {"source": "19652558", "target": "22015425"}}, {"type": "Feature", "geometry": {"type": "LineString", "coordinates": [[114.8819568851585, 69.03973882208513], [114.88151908320947, 69.03955819689637]]}, "properties": {"source": "19652558", "target": "19738768"}}, {"type": "Feature", "geometry": {"type": "LineString", "coordinates": [[114.88152022255827, 69.03964737833257], [114.88597366145228, 69.0409799492287]]}, "properties": {"source": "19586701", "target": "19140680"}}, {"type": "Feature", "geometry": {"type": "LineString", "coordinates": [[114.88152022255827, 69.03964737833257], [114.88856539697304, 69.04035350299935]]}, "properties": {"source": "19586701", "target": "20101276"}}, {"type": "Feature", "geometry": {"type": "LineString", "coordinates": [[114.88152022255827, 69.03964737833257], [114.8819568851585, 69.03973882208513]]}, "properties": {"source": "19586701", "target": "19652558"}}, {"type": "Feature", "geometry": {"type": "LineString", "coordinates": [[114.88152022255827, 69.03964737833257], [114.88482926556293, 69.04133614142117]]}, "properties": {"source": "19586701", "target": "22015425"}}, {"type": "Feature", "geometry": {"type": "LineString", "coordinates": [[114.88152022255827, 69.03964737833257], [114.88151908320947, 69.03955819689637]]}, "properties": {"source": "19586701", "target": "19738768"}}, {"type": "Feature", "geometry": {"type": "LineString", "coordinates": [[114.88015201972911, 69.03998331357593], [114.88648476476527, 69.04001321657432]]}, "properties": {"source": "18482782", "target": "34181876"}}, {"type": "Feature", "geometry": {"type": "LineString", "coordinates": [[114.88267755239019, 69.04017351959297], [114.88482926556293, 69.04133614142117]]}, "properties": {"source": "18046443", "target": "22015425"}}, {"type": "Feature", "geometry": {"type": "LineString", "coordinates": [[114.88267755239019, 69.04017351959297], [114.8840076166519, 69.03774059396741]]}, "properties": {"source": "18046443", "target": "25283833"}}, {"type": "Feature", "geometry": {"type": "LineString", "coordinates": [[114.88267755239019, 69.04017351959297], [114.88070266093189, 69.03949835313571]]}, "properties": {"source": "18046443", "target": "28496524"}}, {"type": "Feature", "geometry": {"type": "LineString", "coordinates": [[114.88519684448147, 69.04078538259665], [114.87785240627278, 69.03907190558866]]}, "properties": {"source": "6131873", "target": "13281028"}}, {"type": "Feature", "geometry": {"type": "LineString", "coordinates": [[114.89133419079275, 69.04183587679958], [114.87994620749964, 69.04017020322598]]}, "properties": {"source": "9664093", "target": "12160833"}}, {"type": "Feature", "geometry": {"type": "LineString", "coordinates": [[114.89133419079275, 69.04183587679958], [114.88099525582425, 69.03954422864516]]}, "properties": {"source": "9664093", "target": "11490074"}}, {"type": "Feature", "geometry": {"type": "LineString", "coordinates": [[114.88584313154854, 69.0408998439556], [114.88583458560606, 69.0418094229536]]}, "properties": {"source": "13648261", "target": "1275267"}}, {"type": "Feature", "geometry": {"type": "LineString", "coordinates": [[114.88584313154854, 69.0408998439556], [114.88945951909415, 69.03739559595485]]}, "properties": {"source": "13648261", "target": "10518595"}}, {"type": "Feature", "geometry": {"type": "LineString", "coordinates": [[114.88099525582425, 69.03954422864516], [114.87994620749964, 69.04017020322598]]}, "properties": {"source": "11490074", "target": "12160833"}}, {"type": "Feature", "geometry": {"type": "LineString", "coordinates": [[114.88823819529046, 69.04110296238122], [114.88482926556293, 69.04133614142117]]}, "properties": {"source": "20804151", "target": "22015425"}}, {"type": "Feature", "geometry": {"type": "LineString", "coordinates": [[114.88823819529046, 69.04110296238122], [114.87917773452426, 69.03769550121135]]}, "properties": {"source": "20804151", "target": "20896764"}}, {"type": "Feature", "geometry": {"type": "LineString", "coordinates": [[114.89196242513202, 69.0409109548624], [114.87980651627373, 69.03843219527275]]}, "properties": {"source": "117980", "target": "452409"}}, {"type": "Feature", "geometry": {"type": "LineString", "coordinates": [[114.88945951909415, 69.03739559595485], [114.88583458560606, 69.0418094229536]]}, "properties": {"source": "10518595", "target": "1275267"}}, {"type": "Feature", "geometry": {"type": "LineString", "coordinates": [[114.88281907540738, 69.04204222006621], [114.87878837880277, 69.04047755017612]]}, "properties": {"source": "355620", "target": "2095413"}}, {"type": "Feature", "geometry": {"type": "LineString", "coordinates": [[114.88477184308704, 69.04183116079906], [114.87833193956146, 69.04163508400904]]}, "properties": {"source": "1085303", "target": "1391000"}}, {"type": "Feature", "geometry": {"type": "LineString", "coordinates": [[114.87757658902285, 69.03819134053586], [114.8819568851585, 69.03973882208513]]}, "properties": {"source": "19438803", "target": "19652558"}}, {"type": "Feature", "geometry": {"type": "LineString", "coordinates": [[114.87757658902285, 69.03819134053586], [114.88482926556293, 69.04133614142117]]}, "properties": {"source": "19438803", "target": "22015425"}}, {"type": "Feature", "geometry": {"type": "LineString", "coordinates": [[114.87757658902285, 69.03819134053586], [114.88151908320947, 69.03955819689637]]}, "properties": {"source": "19438803", "target": "19738768"}}, {"type": "Feature", "geometry": {"type": "LineString", "coordinates": [[114.87757658902285, 69.03819134053586], [114.88867982710377, 69.03909491725906]]}, "properties": {"source": "19438803", "target": "19434737"}}, {"type": "Feature", "geometry": {"type": "LineString", "coordinates": [[114.87889906388278, 69.04178616695916], [114.88267755239019, 69.04017351959297]]}, "properties": {"source": "25735547", "target": "18046443"}}, {"type": "Feature", "geometry": {"type": "LineString", "coordinates": [[114.87889906388278, 69.04178616695916], [114.88811643514549, 69.04173292237743]]}, "properties": {"source": "25735547", "target": "21947026"}}, {"type": "Feature", "geometry": {"type": "LineString", "coordinates": [[114.88696013704765, 69.0414162770642], [114.88597366145228, 69.0409799492287]]}, "properties": {"source": "12045893", "target": "19140680"}}, {"type": "Feature", "geometry": {"type": "LineString", "coordinates": [[114.88696013704765, 69.0414162770642], [114.8819568851585, 69.03973882208513]]}, "properties": {"source": "12045893", "target": "19652558"}}, {"type": "Feature", "geometry": {"type": "LineString", "coordinates": [[114.88696013704765, 69.0414162770642], [114.88867982710377, 69.03909491725906]]}, "properties": {"source": "12045893", "target": "19434737"}}, {"type": "Feature", "geometry": {"type": "LineString", "coordinates": [[114.88728442298486, 69.0406775731903], [114.87994620749964, 69.04017020322598]]}, "properties": {"source": "14540126", "target": "12160833"}}, {"type": "Feature", "geometry": {"type": "LineString", "coordinates": [[114.88728442298486, 69.0406775731903], [114.88666943233221, 69.03893185506047]]}, "properties": {"source": "14540126", "target": "15779818"}}, {"type": "Feature", "geometry": {"type": "LineString", "coordinates": [[114.87917773452426, 69.03769550121135], [114.88482926556293, 69.04133614142117]]}, "properties": {"source": "20896764", "target": "22015425"}}, {"type": "Feature", "geometry": {"type": "LineString", "coordinates": [[114.87917773452426, 69.03769550121135], [114.88070266093189, 69.03949835313571]]}, "properties": {"source": "20896764", "target": "28496524"}}, {"type": "Feature", "geometry": {"type": "LineString", "coordinates": [[114.87917773452426, 69.03769550121135], [114.88949032349774, 69.04153675279517]]}, "properties": {"source": "20896764", "target": "18528669"}}, {"type": "Feature", "geometry": {"type": "LineString", "coordinates": [[114.87890480971038, 69.03732243140749], [114.88728442298486, 69.0406775731903]]}, "properties": {"source": "15894969", "target": "14540126"}}, {"type": "Feature", "geometry": {"type": "LineString", "coordinates": [[114.87890480971038, 69.03732243140749], [114.88265509730053, 69.04148133067417]]}, "properties": {"source": "15894969", "target": "17305424"}}, {"type": "Feature", "geometry": {"type": "LineString", "coordinates": [[114.87890480971038, 69.03732243140749], [114.87849642865211, 69.03844523078507]]}, "properties": {"source": "15894969", "target": "17339447"}}, {"type": "Feature", "geometry": {"type": "LineString", "coordinates": [[114.88696013704765, 69.0414162770642], [114.88152022255827, 69.03964737833257]]}, "properties": {"source": "12045893", "target": "19586701"}}, {"type": "Feature", "geometry": {"type": "LineString", "coordinates": [[114.88728442298486, 69.0406775731903], [114.88710277488713, 69.04186052679609]]}, "properties": {"source": "14540126", "target": "137598"}}, {"type": "Feature", "geometry": {"type": "LineString", "coordinates": [[114.87890480971038, 69.03732243140749], [114.88710277488713, 69.04186052679609]]}, "properties": {"source": "15894969", "target": "137598"}}, {"type": "Feature", "geometry": {"type": "LineString", "coordinates": [[114.88265509730053, 69.04148133067417], [114.8874776564943, 69.03880996607384]]}, "properties": {"source": "17305424", "target": "10446350"}}, {"type": "Feature", "geometry": {"type": "LineString", "coordinates": [[114.88265509730053, 69.04148133067417], [114.87849642865211, 69.03844523078507]]}, "properties": {"source": "17305424", "target": "17339447"}}, {"type": "Feature", "geometry": {"type": "LineString", "coordinates": [[114.88265509730053, 69.04148133067417], [114.88612753856825, 69.0372362227996]]}, "properties": {"source": "17305424", "target": "15716133"}}, {"type": "Feature", "geometry": {"type": "LineString", "coordinates": [[114.88265509730053, 69.04148133067417], [114.88666943233221, 69.03893185506047]]}, "properties": {"source": "17305424", "target": "15779818"}}, {"type": "Feature", "geometry": {"type": "LineString", "coordinates": [[114.88358684596562, 69.04093219434904], [114.88856539697304, 69.04035350299935]]}, "properties": {"source": "22573562", "target": "20101276"}}, {"type": "Feature", "geometry": {"type": "LineString", "coordinates": [[114.88358684596562, 69.04093219434904], [114.8819568851585, 69.03973882208513]]}, "properties": {"source": "22573562", "target": "19652558"}}, {"type": "Feature", "geometry": {"type": "LineString", "coordinates": [[114.88358684596562, 69.04093219434904], [114.88482926556293, 69.04133614142117]]}, "properties": {"source": "22573562", "target": "22015425"}}, {"type": "Feature", "geometry": {"type": "LineString", "coordinates": [[114.88358684596562, 69.04093219434904], [114.88151908320947, 69.03955819689637]]}, "properties": {"source": "22573562", "target": "19738768"}}, {"type": "Feature", "geometry": {"type": "LineString", "coordinates": [[114.88675478304015, 69.0386363640099], [114.87994620749964, 69.04017020322598]]}, "properties": {"source": "13403591", "target": "12160833"}}, {"type": "Feature", "geometry": {"type": "LineString", "coordinates": [[114.88675478304015, 69.0386363640099], [114.88620766469421, 69.04187772042462]]}, "properties": {"source": "13403591", "target": "11816237"}}, {"type": "Feature", "geometry": {"type": "LineString", "coordinates": [[114.88675478304015, 69.0386363640099], [114.88114032500806, 69.03941553895925]]}, "properties": {"source": "13403591", "target": "13487023"}}, {"type": "Feature", "geometry": {"type": "LineString", "coordinates": [[114.88675478304015, 69.0386363640099], [114.8874776564943, 69.03880996607384]]}, "properties": {"source": "13403591", "target": "10446350"}}, {"type": "Feature", "geometry": {"type": "LineString", "coordinates": [[114.88675478304015, 69.0386363640099], [114.88904497031058, 69.03933936954758]]}, "properties": {"source": "13403591", "target": "13536463"}}, {"type": "Feature", "geometry": {"type": "LineString", "coordinates": [[114.88675478304015, 69.0386363640099], [114.87785240627278, 69.03907190558866]]}, "properties": {"source": "13403591", "target": "13281028"}}, {"type": "Feature", "geometry": {"type": "LineString", "coordinates": [[114.88675478304015, 69.0386363640099], [114.87878837880277, 69.04047755017612]]}, "properties": {"source": "13403591", "target": "2095413"}}, {"type": "Feature", "geometry": {"type": "LineString", "coordinates": [[114.88675478304015, 69.0386363640099], [114.88281907540738, 69.04204222006621]]}, "properties": {"source": "13403591", "target": "355620"}}, {"type": "Feature", "geometry": {"type": "LineString", "coordinates": [[114.8874776564943, 69.03880996607384], [114.88597366145228, 69.0409799492287]]}, "properties": {"source": "10446350", "target": "19140680"}}, {"type": "Feature", "geometry": {"type": "LineString", "coordinates": [[114.8874776564943, 69.03880996607384], [114.87833193956146, 69.04163508400904]]}, "properties": {"source": "10446350", "target": "1391000"}}, {"type": "Feature", "geometry": {"type": "LineString", "coordinates": [[114.88983523139683, 69.03949211582969], [114.8840076166519, 69.03774059396741]]}, "properties": {"source": "17235997", "target": "25283833"}}, {"type": "Feature", "geometry": {"type": "LineString", "coordinates": [[114.88983523139683, 69.03949211582969], [114.88070266093189, 69.03949835313571]]}, "properties": {"source": "17235997", "target": "28496524"}}, {"type": "Feature", "geometry": {"type": "LineString", "coordinates": [[114.88983523139683, 69.03949211582969], [114.88121223470267, 69.04068794372012]]}, "properties": {"source": "17235997", "target": "24369122"}}, {"type": "Feature", "geometry": {"type": "LineString", "coordinates": [[114.88983523139683, 69.03949211582969], [114.88673526612183, 69.04152506583765]]}, "properties": {"source": "17235997", "target": "16037696"}}, {"type": "Feature", "geometry": {"type": "LineString", "coordinates": [[114.88983523139683, 69.03949211582969], [114.88015201972911, 69.03998331357593]]}, "properties": {"source": "17235997", "target": "18482782"}}, {"type": "Feature", "geometry": {"type": "LineString", "coordinates": [[114.88983523139683, 69.03949211582969], [114.88648476476527, 69.04001321657432]]}, "properties": {"source": "17235997", "target": "34181876"}}, {"type": "Feature", "geometry": {"type": "LineString", "coordinates": [[114.88015201972911, 69.03998331357593], [114.8840076166519, 69.03774059396741]]}, "properties": {"source": "18482782", "target": "25283833"}}, {"type": "Feature", "geometry": {"type": "LineString", "coordinates": [[114.88015201972911, 69.03998331357593], [114.88070266093189, 69.03949835313571]]}, "properties": {"source": "18482782", "target": "28496524"}}, {"type": "Feature", "geometry": {"type": "LineString", "coordinates": [[114.88015201972911, 69.03998331357593], [114.88673526612183, 69.04152506583765]]}, "properties": {"source": "18482782", "target": "16037696"}}, {"type": "Feature", "geometry": {"type": "LineString", "coordinates": [[114.87953588016973, 69.03743422763358], [114.88070266093189, 69.03949835313571]]}, "properties": {"source": "31352753", "target": "28496524"}}, {"type": "Feature", "geometry": {"type": "LineString", "coordinates": [[114.87953588016973, 69.03743422763358], [114.87917773452426, 69.03769550121135]]}, "properties": {"source": "31352753", "target": "20896764"}}, {"type": "Feature", "geometry": {"type": "LineString", "coordinates": [[114.87953588016973, 69.03743422763358], [114.88673526612183, 69.04152506583765]]}, "properties": {"source": "31352753", "target": "16037696"}}, {"type": "Feature", "geometry": {"type": "LineString", "coordinates": [[114.87953588016973, 69.03743422763358], [114.88648476476527, 69.04001321657432]]}, "properties": {"source": "31352753", "target": "34181876"}}, {"type": "Feature", "geometry": {"type": "LineString", "coordinates": [[114.88983523139683, 69.03949211582969], [114.87953588016973, 69.03743422763358]]}, "properties": {"source": "17235997", "target": "31352753"}}, {"type": "Feature", "geometry": {"type": "LineString", "coordinates": [[114.88500422907941, 69.0407276088925], [114.88856539697304, 69.04035350299935]]}, "properties": {"source": "19562222", "target": "20101276"}}, {"type": "Feature", "geometry": {"type": "LineString", "coordinates": [[114.88500422907941, 69.0407276088925], [114.87757658902285, 69.03819134053586]]}, "properties": {"source": "19562222", "target": "19438803"}}, {"type": "Feature", "geometry": {"type": "LineString", "coordinates": [[114.88500422907941, 69.0407276088925], [114.8819568851585, 69.03973882208513]]}, "properties": {"source": "19562222", "target": "19652558"}}, {"type": "Feature", "geometry": {"type": "LineString", "coordinates": [[114.88500422907941, 69.0407276088925], [114.88482926556293, 69.04133614142117]]}, "properties": {"source": "19562222", "target": "22015425"}}, {"type": "Feature", "geometry": {"type": "LineString", "coordinates": [[114.88500422907941, 69.0407276088925], [114.88151908320947, 69.03955819689637]]}, "properties": {"source": "19562222", "target": "19738768"}}, {"type": "Feature", "geometry": {"type": "LineString", "coordinates": [[114.88500422907941, 69.0407276088925], [114.88867982710377, 69.03909491725906]]}, "properties": {"source": "19562222", "target": "19434737"}}, {"type": "Feature", "geometry": {"type": "LineString", "coordinates": [[114.88500422907941, 69.0407276088925], [114.88234631463808, 69.0406729699138]]}, "properties": {"source": "19562222", "target": "19411683"}}, {"type": "Feature", "geometry": {"type": "LineString", "coordinates": [[114.88500422907941, 69.0407276088925], [114.88284098111762, 69.03962146472801]]}, "properties": {"source": "19562222", "target": "22018832"}}, {"type": "Feature", "geometry": {"type": "LineString", "coordinates": [[114.88500422907941, 69.0407276088925], [114.88696013704765, 69.0414162770642]]}, "properties": {"source": "19562222", "target": "12045893"}}, {"type": "Feature", "geometry": {"type": "LineString", "coordinates": [[114.88500422907941, 69.0407276088925], [114.88364873234224, 69.03736563966115]]}, "properties": {"source": "19562222", "target": "10648187"}}, {"type": "Feature", "geometry": {"type": "LineString", "coordinates": [[114.88482926556293, 69.04133614142117], [114.88856539697304, 69.04035350299935]]}, "properties": {"source": "22015425", "target": "20101276"}}, {"type": "Feature", "geometry": {"type": "LineString", "coordinates": [[114.87889906388278, 69.04178616695916], [114.8840076166519, 69.03774059396741]]}, "properties": {"source": "25735547", "target": "25283833"}}, {"type": "Feature", "geometry": {"type": "LineString", "coordinates": [[114.87889906388278, 69.04178616695916], [114.88070266093189, 69.03949835313571]]}, "properties": {"source": "25735547", "target": "28496524"}}, {"type": "Feature", "geometry": {"type": "LineString", "coordinates": [[114.87889906388278, 69.04178616695916], [114.87917773452426, 69.03769550121135]]}, "properties": {"source": "25735547", "target": "20896764"}}, {"type": "Feature", "geometry": {"type": "LineString", "coordinates": [[114.87889906388278, 69.04178616695916], [114.89001690137673, 69.03961711408692]]}, "properties": {"source": "25735547", "target": "25271803"}}, {"type": "Feature", "geometry": {"type": "LineString", "coordinates": [[114.88500422907941, 69.0407276088925], [114.88152022255827, 69.03964737833257]]}, "properties": {"source": "19562222", "target": "19586701"}}, {"type": "Feature", "geometry": {"type": "LineString", "coordinates": [[114.87772072635966, 69.04039622551139], [114.87833193956146, 69.04163508400904]]}, "properties": {"source": "11843", "target": "1391000"}}, {"type": "Feature", "geometry": {"type": "LineString", "coordinates": [[114.87772072635966, 69.04039622551139], [114.88231415605617, 69.04070649425398]]}, "properties": {"source": "11843", "target": "11342818"}}, {"type": "Feature", "geometry": {"type": "LineString", "coordinates": [[114.87772072635966, 69.04039622551139], [114.89196242513202, 69.0409109548624]]}, "properties": {"source": "11843", "target": "117980"}}, {"type": "Feature", "geometry": {"type": "LineString", "coordinates": [[114.87772072635966, 69.04039622551139], [114.87980651627373, 69.03843219527275]]}, "properties": {"source": "11843", "target": "452409"}}, {"type": "Feature", "geometry": {"type": "LineString", "coordinates": [[114.88364873234224, 69.03736563966115], [114.88597366145228, 69.0409799492287]]}, "properties": {"source": "10648187", "target": "19140680"}}, {"type": "Feature", "geometry": {"type": "LineString", "coordinates": [[114.88504723619059, 69.03732628455745], [114.88597366145228, 69.0409799492287]]}, "properties": {"source": "17302918", "target": "19140680"}}, {"type": "Feature", "geometry": {"type": "LineString", "coordinates": [[114.88504723619059, 69.03732628455745], [114.87757658902285, 69.03819134053586]]}, "properties": {"source": "17302918", "target": "19438803"}}, {"type": "Feature", "geometry": {"type": "LineString", "coordinates": [[114.88504723619059, 69.03732628455745], [114.88867982710377, 69.03909491725906]]}, "properties": {"source": "17302918", "target": "19434737"}}, {"type": "Feature", "geometry": {"type": "LineString", "coordinates": [[114.88504723619059, 69.03732628455745], [114.88234631463808, 69.0406729699138]]}, "properties": {"source": "17302918", "target": "19411683"}}, {"type": "Feature", "geometry": {"type": "LineString", "coordinates": [[114.88904497031058, 69.03933936954758], [114.88728442298486, 69.0406775731903]]}, "properties": {"source": "13536463", "target": "14540126"}}, {"type": "Feature", "geometry": {"type": "LineString", "coordinates": [[114.88710277488713, 69.04186052679609], [114.88666943233221, 69.03893185506047]]}, "properties": {"source": "137598", "target": "15779818"}}, {"type": "Feature", "geometry": {"type": "LineString", "coordinates": [[114.88364873234224, 69.03736563966115], [114.88152022255827, 69.03964737833257]]}, "properties": {"source": "10648187", "target": "19586701"}}, {"type": "Feature", "geometry": {"type": "LineString", "coordinates": [[114.88284098111762, 69.03962146472801], [114.88636059773711, 69.03990290654971]]}, "properties": {"source": "22018832", "target": "19749416"}}, {"type": "Feature", "geometry": {"type": "LineString", "coordinates": [[114.88284098111762, 69.03962146472801], [114.88856539697304, 69.04035350299935]]}, "properties": {"source": "22018832", "target": "20101276"}}, {"type": "Feature", "geometry": {"type": "LineString", "coordinates": [[114.88284098111762, 69.03962146472801], [114.87757658902285, 69.03819134053586]]}, "properties": {"source": "22018832", "target": "19438803"}}, {"type": "Feature", "geometry": {"type": "LineString", "coordinates": [[114.88284098111762, 69.03962146472801], [114.8819568851585, 69.03973882208513]]}, "properties": {"source": "22018832", "target": "19652558"}}, {"type": "Feature", "geometry": {"type": "LineString", "coordinates": [[114.88284098111762, 69.03962146472801], [114.88151908320947, 69.03955819689637]]}, "properties": {"source": "22018832", "target": "19738768"}}, {"type": "Feature", "geometry": {"type": "LineString", "coordinates": [[114.88284098111762, 69.03962146472801], [114.88867982710377, 69.03909491725906]]}, "properties": {"source": "22018832", "target": "19434737"}}, {"type": "Feature", "geometry": {"type": "LineString", "coordinates": [[114.88284098111762, 69.03962146472801], [114.88358684596562, 69.04093219434904]]}, "properties": {"source": "22018832", "target": "22573562"}}, {"type": "Feature", "geometry": {"type": "LineString", "coordinates": [[114.884439268356, 69.04137439516441], [114.88856539697304, 69.04035350299935]]}, "properties": {"source": "23374320", "target": "20101276"}}, {"type": "Feature", "geometry": {"type": "LineString", "coordinates": [[114.884439268356, 69.04137439516441], [114.88151908320947, 69.03955819689637]]}, "properties": {"source": "23374320", "target": "19738768"}}, {"type": "Feature", "geometry": {"type": "LineString", "coordinates": [[114.884439268356, 69.04137439516441], [114.87889906388278, 69.04178616695916]]}, "properties": {"source": "23374320", "target": "25735547"}}, {"type": "Feature", "geometry": {"type": "LineString", "coordinates": [[114.884439268356, 69.04137439516441], [114.89001690137673, 69.03961711408692]]}, "properties": {"source": "23374320", "target": "25271803"}}, {"type": "Feature", "geometry": {"type": "LineString", "coordinates": [[114.884439268356, 69.04137439516441], [114.88673526612183, 69.04152506583765]]}, "properties": {"source": "23374320", "target": "16037696"}}, {"type": "Feature", "geometry": {"type": "LineString", "coordinates": [[114.884439268356, 69.04137439516441], [114.88015201972911, 69.03998331357593]]}, "properties": {"source": "23374320", "target": "18482782"}}, {"type": "Feature", "geometry": {"type": "LineString", "coordinates": [[114.884439268356, 69.04137439516441], [114.88811643514549, 69.04173292237743]]}, "properties": {"source": "23374320", "target": "21947026"}}, {"type": "Feature", "geometry": {"type": "LineString", "coordinates": [[114.87889906388278, 69.04178616695916], [114.88482926556293, 69.04133614142117]]}, "properties": {"source": "25735547", "target": "22015425"}}, {"type": "Feature", "geometry": {"type": "LineString", "coordinates": [[114.88284098111762, 69.03962146472801], [114.88152022255827, 69.03964737833257]]}, "properties": {"source": "22018832", "target": "19586701"}}, {"type": "Feature", "geometry": {"type": "LineString", "coordinates": [[114.88720335338849, 69.037955437356], [114.88597366145228, 69.0409799492287]]}, "properties": {"source": "20189004", "target": "19140680"}}, {"type": "Feature", "geometry": {"type": "LineString", "coordinates": [[114.88720335338849, 69.037955437356], [114.88914708599708, 69.03894060369814]]}, "properties": {"source": "20189004", "target": "19886571"}}, {"type": "Feature", "geometry": {"type": "LineString", "coordinates": [[114.88720335338849, 69.037955437356], [114.88636059773711, 69.03990290654971]]}, "properties": {"source": "20189004", "target": "19749416"}}, {"type": "Feature", "geometry": {"type": "LineString", "coordinates": [[114.88720335338849, 69.037955437356], [114.88856539697304, 69.04035350299935]]}, "properties": {"source": "20189004", "target": "20101276"}}, {"type": "Feature", "geometry": {"type": "LineString", "coordinates": [[114.88720335338849, 69.037955437356], [114.87757658902285, 69.03819134053586]]}, "properties": {"source": "20189004", "target": "19438803"}}, {"type": "Feature", "geometry": {"type": "LineString", "coordinates": [[114.88720335338849, 69.037955437356], [114.8819568851585, 69.03973882208513]]}, "properties": {"source": "20189004", "target": "19652558"}}, {"type": "Feature", "geometry": {"type": "LineString", "coordinates": [[114.88720335338849, 69.037955437356], [114.88482926556293, 69.04133614142117]]}, "properties": {"source": "20189004", "target": "22015425"}}, {"type": "Feature", "geometry": {"type": "LineString", "coordinates": [[114.88720335338849, 69.037955437356], [114.88151908320947, 69.03955819689637]]}, "properties": {"source": "20189004", "target": "19738768"}}, {"type": "Feature", "geometry": {"type": "LineString", "coordinates": [[114.88720335338849, 69.037955437356], [114.88867982710377, 69.03909491725906]]}, "properties": {"source": "20189004", "target": "19434737"}}, {"type": "Feature", "geometry": {"type": "LineString", "coordinates": [[114.88720335338849, 69.037955437356], [114.88234631463808, 69.0406729699138]]}, "properties": {"source": "20189004", "target": "19411683"}}, {"type": "Feature", "geometry": {"type": "LineString", "coordinates": [[114.88720335338849, 69.037955437356], [114.88284098111762, 69.03962146472801]]}, "properties": {"source": "20189004", "target": "22018832"}}, {"type": "Feature", "geometry": {"type": "LineString", "coordinates": [[114.88720335338849, 69.037955437356], [114.884439268356, 69.04137439516441]]}, "properties": {"source": "20189004", "target": "23374320"}}, {"type": "Feature", "geometry": {"type": "LineString", "coordinates": [[114.88720335338849, 69.037955437356], [114.87889906388278, 69.04178616695916]]}, "properties": {"source": "20189004", "target": "25735547"}}, {"type": "Feature", "geometry": {"type": "LineString", "coordinates": [[114.88720335338849, 69.037955437356], [114.88696013704765, 69.0414162770642]]}, "properties": {"source": "20189004", "target": "12045893"}}, {"type": "Feature", "geometry": {"type": "LineString", "coordinates": [[114.88720335338849, 69.037955437356], [114.89001690137673, 69.03961711408692]]}, "properties": {"source": "20189004", "target": "25271803"}}, {"type": "Feature", "geometry": {"type": "LineString", "coordinates": [[114.88720335338849, 69.037955437356], [114.88152022255827, 69.03964737833257]]}, "properties": {"source": "20189004", "target": "19586701"}}, {"type": "Feature", "geometry": {"type": "LineString", "coordinates": [[114.87994620749964, 69.04017020322598], [114.88597366145228, 69.0409799492287]]}, "properties": {"source": "12160833", "target": "19140680"}}, {"type": "Feature", "geometry": {"type": "LineString", "coordinates": [[114.88620766469421, 69.04187772042462], [114.88597366145228, 69.0409799492287]]}, "properties": {"source": "11816237", "target": "19140680"}}, {"type": "Feature", "geometry": {"type": "LineString", "coordinates": [[114.88620766469421, 69.04187772042462], [114.88728442298486, 69.0406775731903]]}, "properties": {"source": "11816237", "target": "14540126"}}, {"type": "Feature", "geometry": {"type": "LineString", "coordinates": [[114.88620766469421, 69.04187772042462], [114.87994620749964, 69.04017020322598]]}, "properties": {"source": "11816237", "target": "12160833"}}, {"type": "Feature", "geometry": {"type": "LineString", "coordinates": [[114.88620766469421, 69.04187772042462], [114.88114032500806, 69.03941553895925]]}, "properties": {"source": "11816237", "target": "13487023"}}, {"type": "Feature", "geometry": {"type": "LineString", "coordinates": [[114.88620766469421, 69.04187772042462], [114.88265509730053, 69.04148133067417]]}, "properties": {"source": "11816237", "target": "17305424"}}, {"type": "Feature", "geometry": {"type": "LineString", "coordinates": [[114.88620766469421, 69.04187772042462], [114.8874776564943, 69.03880996607384]]}, "properties": {"source": "11816237", "target": "10446350"}}, {"type": "Feature", "geometry": {"type": "LineString", "coordinates": [[114.88620766469421, 69.04187772042462], [114.87849642865211, 69.03844523078507]]}, "properties": {"source": "11816237", "target": "17339447"}}, {"type": "Feature", "geometry": {"type": "LineString", "coordinates": [[114.87886206549996, 69.04096412234227], [114.88720335338849, 69.037955437356]]}, "properties": {"source": "23365536", "target": "20189004"}}, {"type": "Feature", "geometry": {"type": "LineString", "coordinates": [[114.87886206549996, 69.04096412234227], [114.88914708599708, 69.03894060369814]]}, "properties": {"source": "23365536", "target": "19886571"}}, {"type": "Feature", "geometry": {"type": "LineString", "coordinates": [[114.87886206549996, 69.04096412234227], [114.88636059773711, 69.03990290654971]]}, "properties": {"source": "23365536", "target": "19749416"}}, {"type": "Feature", "geometry": {"type": "LineString", "coordinates": [[114.87886206549996, 69.04096412234227], [114.88856539697304, 69.04035350299935]]}, "properties": {"source": "23365536", "target": "20101276"}}, {"type": "Feature", "geometry": {"type": "LineString", "coordinates": [[114.87886206549996, 69.04096412234227], [114.8819568851585, 69.03973882208513]]}, "properties": {"source": "23365536", "target": "19652558"}}, {"type": "Feature", "geometry": {"type": "LineString", "coordinates": [[114.87886206549996, 69.04096412234227], [114.88151908320947, 69.03955819689637]]}, "properties": {"source": "23365536", "target": "19738768"}}, {"type": "Feature", "geometry": {"type": "LineString", "coordinates": [[114.87886206549996, 69.04096412234227], [114.89001690137673, 69.03961711408692]]}, "properties": {"source": "23365536", "target": "25271803"}}, {"type": "Feature", "geometry": {"type": "LineString", "coordinates": [[114.87886206549996, 69.04096412234227], [114.88152022255827, 69.03964737833257]]}, "properties": {"source": "23365536", "target": "19586701"}}, {"type": "Feature", "geometry": {"type": "LineString", "coordinates": [[114.88720335338849, 69.037955437356], [114.88358684596562, 69.04093219434904]]}, "properties": {"source": "20189004", "target": "22573562"}}, {"type": "Feature", "geometry": {"type": "LineString", "coordinates": [[114.88597366145228, 69.0409799492287], [114.88856539697304, 69.04035350299935]]}, "properties": {"source": "19140680", "target": "20101276"}}, {"type": "Feature", "geometry": {"type": "LineString", "coordinates": [[114.88914708599708, 69.03894060369814], [114.88597366145228, 69.0409799492287]]}, "properties": {"source": "19886571", "target": "19140680"}}, {"type": "Feature", "geometry": {"type": "LineString", "coordinates": [[114.88914708599708, 69.03894060369814], [114.88636059773711, 69.03990290654971]]}, "properties": {"source": "19886571", "target": "19749416"}}, {"type": "Feature", "geometry": {"type": "LineString", "coordinates": [[114.88914708599708, 69.03894060369814], [114.88856539697304, 69.04035350299935]]}, "properties": {"source": "19886571", "target": "20101276"}}, {"type": "Feature", "geometry": {"type": "LineString", "coordinates": [[114.88914708599708, 69.03894060369814], [114.87757658902285, 69.03819134053586]]}, "properties": {"source": "19886571", "target": "19438803"}}, {"type": "Feature", "geometry": {"type": "LineString", "coordinates": [[114.88914708599708, 69.03894060369814], [114.8819568851585, 69.03973882208513]]}, "properties": {"source": "19886571", "target": "19652558"}}, {"type": "Feature", "geometry": {"type": "LineString", "coordinates": [[114.88914708599708, 69.03894060369814], [114.88482926556293, 69.04133614142117]]}, "properties": {"source": "19886571", "target": "22015425"}}, {"type": "Feature", "geometry": {"type": "LineString", "coordinates": [[114.88914708599708, 69.03894060369814], [114.88151908320947, 69.03955819689637]]}, "properties": {"source": "19886571", "target": "19738768"}}, {"type": "Feature", "geometry": {"type": "LineString", "coordinates": [[114.88914708599708, 69.03894060369814], [114.88867982710377, 69.03909491725906]]}, "properties": {"source": "19886571", "target": "19434737"}}, {"type": "Feature", "geometry": {"type": "LineString", "coordinates": [[114.88914708599708, 69.03894060369814], [114.88234631463808, 69.0406729699138]]}, "properties": {"source": "19886571", "target": "19411683"}}, {"type": "Feature", "geometry": {"type": "LineString", "coordinates": [[114.88914708599708, 69.03894060369814], [114.88284098111762, 69.03962146472801]]}, "properties": {"source": "19886571", "target": "22018832"}}, {"type": "Feature", "geometry": {"type": "LineString", "coordinates": [[114.88914708599708, 69.03894060369814], [114.884439268356, 69.04137439516441]]}, "properties": {"source": "19886571", "target": "23374320"}}, {"type": "Feature", "geometry": {"type": "LineString", "coordinates": [[114.88914708599708, 69.03894060369814], [114.88696013704765, 69.0414162770642]]}, "properties": {"source": "19886571", "target": "12045893"}}, {"type": "Feature", "geometry": {"type": "LineString", "coordinates": [[114.88914708599708, 69.03894060369814], [114.88358684596562, 69.04093219434904]]}, "properties": {"source": "19886571", "target": "22573562"}}, {"type": "Feature", "geometry": {"type": "LineString", "coordinates": [[114.88914708599708, 69.03894060369814], [114.88152022255827, 69.03964737833257]]}, "properties": {"source": "19886571", "target": "19586701"}}, {"type": "Feature", "geometry": {"type": "LineString", "coordinates": [[114.88636059773711, 69.03990290654971], [114.88597366145228, 69.0409799492287]]}, "properties": {"source": "19749416", "target": "19140680"}}, {"type": "Feature", "geometry": {"type": "LineString", "coordinates": [[114.88636059773711, 69.03990290654971], [114.88856539697304, 69.04035350299935]]}, "properties": {"source": "19749416", "target": "20101276"}}, {"type": "Feature", "geometry": {"type": "LineString", "coordinates": [[114.88636059773711, 69.03990290654971], [114.8819568851585, 69.03973882208513]]}, "properties": {"source": "19749416", "target": "19652558"}}, {"type": "Feature", "geometry": {"type": "LineString", "coordinates": [[114.88636059773711, 69.03990290654971], [114.88482926556293, 69.04133614142117]]}, "properties": {"source": "19749416", "target": "22015425"}}, {"type": "Feature", "geometry": {"type": "LineString", "coordinates": [[114.88636059773711, 69.03990290654971], [114.88151908320947, 69.03955819689637]]}, "properties": {"source": "19749416", "target": "19738768"}}, {"type": "Feature", "geometry": {"type": "LineString", "coordinates": [[114.88636059773711, 69.03990290654971], [114.88867982710377, 69.03909491725906]]}, "properties": {"source": "19749416", "target": "19434737"}}, {"type": "Feature", "geometry": {"type": "LineString", "coordinates": [[114.88636059773711, 69.03990290654971], [114.88234631463808, 69.0406729699138]]}, "properties": {"source": "19749416", "target": "19411683"}}, {"type": "Feature", "geometry": {"type": "LineString", "coordinates": [[114.88636059773711, 69.03990290654971], [114.884439268356, 69.04137439516441]]}, "properties": {"source": "19749416", "target": "23374320"}}, {"type": "Feature", "geometry": {"type": "LineString", "coordinates": [[114.88636059773711, 69.03990290654971], [114.88696013704765, 69.0414162770642]]}, "properties": {"source": "19749416", "target": "12045893"}}, {"type": "Feature", "geometry": {"type": "LineString", "coordinates": [[114.88636059773711, 69.03990290654971], [114.88358684596562, 69.04093219434904]]}, "properties": {"source": "19749416", "target": "22573562"}}, {"type": "Feature", "geometry": {"type": "LineString", "coordinates": [[114.88856539697304, 69.04035350299935], [114.88151908320947, 69.03955819689637]]}, "properties": {"source": "20101276", "target": "19738768"}}, {"type": "Feature", "geometry": {"type": "LineString", "coordinates": [[114.87757658902285, 69.03819134053586], [114.88597366145228, 69.0409799492287]]}, "properties": {"source": "19438803", "target": "19140680"}}, {"type": "Feature", "geometry": {"type": "LineString", "coordinates": [[114.87757658902285, 69.03819134053586], [114.88636059773711, 69.03990290654971]]}, "properties": {"source": "19438803", "target": "19749416"}}, {"type": "Feature", "geometry": {"type": "LineString", "coordinates": [[114.87757658902285, 69.03819134053586], [114.88856539697304, 69.04035350299935]]}, "properties": {"source": "19438803", "target": "20101276"}}, {"type": "Feature", "geometry": {"type": "LineString", "coordinates": [[114.88636059773711, 69.03990290654971], [114.88152022255827, 69.03964737833257]]}, "properties": {"source": "19749416", "target": "19586701"}}, {"type": "Feature", "geometry": {"type": "LineString", "coordinates": [[114.87757658902285, 69.03819134053586], [114.88152022255827, 69.03964737833257]]}, "properties": {"source": "19438803", "target": "19586701"}}, {"type": "Feature", "geometry": {"type": "LineString", "coordinates": [[114.885145478136, 69.03928578312227], [114.8874776564943, 69.03880996607384]]}, "properties": {"source": "2597562", "target": "10446350"}}, {"type": "Feature", "geometry": {"type": "LineString", "coordinates": [[114.885145478136, 69.03928578312227], [114.87772072635966, 69.04039622551139]]}, "properties": {"source": "2597562", "target": "11843"}}, {"type": "Feature", "geometry": {"type": "LineString", "coordinates": [[114.885145478136, 69.03928578312227], [114.88231415605617, 69.04070649425398]]}, "properties": {"source": "2597562", "target": "11342818"}}, {"type": "Feature", "geometry": {"type": "LineString", "coordinates": [[114.885145478136, 69.03928578312227], [114.88477184308704, 69.04183116079906]]}, "properties": {"source": "2597562", "target": "1085303"}}, {"type": "Feature", "geometry": {"type": "LineString", "coordinates": [[114.88612753856825, 69.0372362227996], [114.88728442298486, 69.0406775731903]]}, "properties": {"source": "15716133", "target": "14540126"}}, {"type": "Feature", "geometry": {"type": "LineString", "coordinates": [[114.87785240627278, 69.03907190558866], [114.87878837880277, 69.04047755017612]]}, "properties": {"source": "13281028", "target": "2095413"}}, {"type": "Feature", "geometry": {"type": "LineString", "coordinates": [[114.87833193956146, 69.04163508400904], [114.88231415605617, 69.04070649425398]]}, "properties": {"source": "1391000", "target": "11342818"}}, {"type": "Feature", "geometry": {"type": "LineString", "coordinates": [[114.88733992915502, 69.03927915174074], [114.87994620749964, 69.04017020322598]]}, "properties": {"source": "3037198", "target": "12160833"}}, {"type": "Feature", "geometry": {"type": "LineString", "coordinates": [[114.88733992915502, 69.03927915174074], [114.88620766469421, 69.04187772042462]]}, "properties": {"source": "3037198", "target": "11816237"}}, {"type": "Feature", "geometry": {"type": "LineString", "coordinates": [[114.88733992915502, 69.03927915174074], [114.8874776564943, 69.03880996607384]]}, "properties": {"source": "3037198", "target": "10446350"}}, {"type": "Feature", "geometry": {"type": "LineString", "coordinates": [[114.88811643514549, 69.04173292237743], [114.88358684596562, 69.04093219434904]]}, "properties": {"source": "21947026", "target": "22573562"}}, {"type": "Feature", "geometry": {"type": "LineString", "coordinates": [[114.88583458560606, 69.0418094229536], [114.88231415605617, 69.04070649425398]]}, "properties": {"source": "1275267", "target": "11342818"}}, {"type": "Feature", "geometry": {"type": "LineString", "coordinates": [[114.88359950643684, 69.04014438433245], [114.87785240627278, 69.03907190558866]]}, "properties": {"source": "17430163", "target": "13281028"}}, {"type": "Feature", "geometry": {"type": "LineString", "coordinates": [[114.88359950643684, 69.04014438433245], [114.88519684448147, 69.04078538259665]]}, "properties": {"source": "17430163", "target": "6131873"}}, {"type": "Feature", "geometry": {"type": "LineString", "coordinates": [[114.88904497031058, 69.03933936954758], [114.88710277488713, 69.04186052679609]]}, "properties": {"source": "13536463", "target": "137598"}}, {"type": "Feature", "geometry": {"type": "LineString", "coordinates": [[114.88612753856825, 69.0372362227996], [114.88710277488713, 69.04186052679609]]}, "properties": {"source": "15716133", "target": "137598"}}, {"type": "Feature", "geometry": {"type": "LineString", "coordinates": [[114.87886206549996, 69.04096412234227], [114.88781691439885, 69.03992275427575]]}, "properties": {"source": "23365536", "target": "17616524"}}, {"type": "Feature", "geometry": {"type": "LineString", "coordinates": [[114.88114032500806, 69.03941553895925], [114.88728442298486, 69.0406775731903]]}, "properties": {"source": "13487023", "target": "14540126"}}, {"type": "Feature", "geometry": {"type": "LineString", "coordinates": [[114.88114032500806, 69.03941553895925], [114.87994620749964, 69.04017020322598]]}, "properties": {"source": "13487023", "target": "12160833"}}, {"type": "Feature", "geometry": {"type": "LineString", "coordinates": [[114.88114032500806, 69.03941553895925], [114.87890480971038, 69.03732243140749]]}, "properties": {"source": "13487023", "target": "15894969"}}, {"type": "Feature", "geometry": {"type": "LineString", "coordinates": [[114.88114032500806, 69.03941553895925], [114.88904497031058, 69.03933936954758]]}, "properties": {"source": "13487023", "target": "13536463"}}, {"type": "Feature", "geometry": {"type": "LineString", "coordinates": [[114.88114032500806, 69.03941553895925], [114.88612753856825, 69.0372362227996]]}, "properties": {"source": "13487023", "target": "15716133"}}, {"type": "Feature", "geometry": {"type": "LineString", "coordinates": [[114.88114032500806, 69.03941553895925], [114.88666943233221, 69.03893185506047]]}, "properties": {"source": "13487023", "target": "15779818"}}, {"type": "Feature", "geometry": {"type": "LineString", "coordinates": [[114.89001690137673, 69.03961711408692], [114.88856539697304, 69.04035350299935]]}, "properties": {"source": "25271803", "target": "20101276"}}, {"type": "Feature", "geometry": {"type": "LineString", "coordinates": [[114.89001690137673, 69.03961711408692], [114.88070266093189, 69.03949835313571]]}, "properties": {"source": "25271803", "target": "28496524"}}, {"type": "Feature", "geometry": {"type": "LineString", "coordinates": [[114.89001690137673, 69.03961711408692], [114.88696013704765, 69.0414162770642]]}, "properties": {"source": "25271803", "target": "12045893"}}, {"type": "Feature", "geometry": {"type": "LineString", "coordinates": [[114.89001690137673, 69.03961711408692], [114.88364873234224, 69.03736563966115]]}, "properties": {"source": "25271803", "target": "10648187"}}, {"type": "Feature", "geometry": {"type": "LineString", "coordinates": [[114.89001690137673, 69.03961711408692], [114.88382432261824, 69.03976118636837]]}, "properties": {"source": "25271803", "target": "28765742"}}, {"type": "Feature", "geometry": {"type": "LineString", "coordinates": [[114.88265509730053, 69.04148133067417], [114.88597366145228, 69.0409799492287]]}, "properties": {"source": "17305424", "target": "19140680"}}, {"type": "Feature", "geometry": {"type": "LineString", "coordinates": [[114.88265509730053, 69.04148133067417], [114.88728442298486, 69.0406775731903]]}, "properties": {"source": "17305424", "target": "14540126"}}, {"type": "Feature", "geometry": {"type": "LineString", "coordinates": [[114.88265509730053, 69.04148133067417], [114.87994620749964, 69.04017020322598]]}, "properties": {"source": "17305424", "target": "12160833"}}, {"type": "Feature", "geometry": {"type": "LineString", "coordinates": [[114.88114032500806, 69.03941553895925], [114.88710277488713, 69.04186052679609]]}, "properties": {"source": "13487023", "target": "137598"}}, {"type": "Feature", "geometry": {"type": "LineString", "coordinates": [[114.88482926556293, 69.04133614142117], [114.88151908320947, 69.03955819689637]]}, "properties": {"source": "22015425", "target": "19738768"}}, {"type": "Feature", "geometry": {"type": "LineString", "coordinates": [[114.88867982710377, 69.03909491725906], [114.88597366145228, 69.0409799492287]]}, "properties": {"source": "19434737", "target": "19140680"}}, {"type": "Feature", "geometry": {"type": "LineString", "coordinates": [[114.88867982710377, 69.03909491725906], [114.88856539697304, 69.04035350299935]]}, "properties": {"source": "19434737", "target": "20101276"}}, {"type": "Feature", "geometry": {"type": "LineString", "coordinates": [[114.88867982710377, 69.03909491725906], [114.8819568851585, 69.03973882208513]]}, "properties": {"source": "19434737", "target": "19652558"}}, {"type": "Feature", "geometry": {"type": "LineString", "coordinates": [[114.88867982710377, 69.03909491725906], [114.88151908320947, 69.03955819689637]]}, "properties": {"source": "19434737", "target": "19738768"}}, {"type": "Feature", "geometry": {"type": "LineString", "coordinates": [[114.8840076166519, 69.03774059396741], [114.88070266093189, 69.03949835313571]]}, "properties": {"source": "25283833", "target": "28496524"}}, {"type": "Feature", "geometry": {"type": "LineString", "coordinates": [[114.8840076166519, 69.03774059396741], [114.87917773452426, 69.03769550121135]]}, "properties": {"source": "25283833", "target": "20896764"}}, {"type": "Feature", "geometry": {"type": "LineString", "coordinates": [[114.8840076166519, 69.03774059396741], [114.88673526612183, 69.04152506583765]]}, "properties": {"source": "25283833", "target": "16037696"}}, {"type": "Feature", "geometry": {"type": "LineString", "coordinates": [[114.8840076166519, 69.03774059396741], [114.88648476476527, 69.04001321657432]]}, "properties": {"source": "25283833", "target": "34181876"}}, {"type": "Feature", "geometry": {"type": "LineString", "coordinates": [[114.8840076166519, 69.03774059396741], [114.88382432261824, 69.03976118636837]]}, "properties": {"source": "25283833", "target": "28765742"}}, {"type": "Feature", "geometry": {"type": "LineString", "coordinates": [[114.8840076166519, 69.03774059396741], [114.88949032349774, 69.04153675279517]]}, "properties": {"source": "25283833", "target": "18528669"}}, {"type": "Feature", "geometry": {"type": "LineString", "coordinates": [[114.88070266093189, 69.03949835313571], [114.88673526612183, 69.04152506583765]]}, "properties": {"source": "28496524", "target": "16037696"}}, {"type": "Feature", "geometry": {"type": "LineString", "coordinates": [[114.88070266093189, 69.03949835313571], [114.88382432261824, 69.03976118636837]]}, "properties": {"source": "28496524", "target": "28765742"}}, {"type": "Feature", "geometry": {"type": "LineString", "coordinates": [[114.88867982710377, 69.03909491725906], [114.88152022255827, 69.03964737833257]]}, "properties": {"source": "19434737", "target": "19586701"}}, {"type": "Feature", "geometry": {"type": "LineString", "coordinates": [[114.8840076166519, 69.03774059396741], [114.87953588016973, 69.03743422763358]]}, "properties": {"source": "25283833", "target": "31352753"}}, {"type": "Feature", "geometry": {"type": "LineString", "coordinates": [[114.8840076166519, 69.03774059396741], [114.87824689485177, 69.03875943734027]]}, "properties": {"source": "25283833", "target": "16163914"}}, {"type": "Feature", "geometry": {"type": "LineString", "coordinates": [[114.88267755239019, 69.04017351959297], [114.87917773452426, 69.03769550121135]]}, "properties": {"source": "18046443", "target": "20896764"}}, {"type": "Feature", "geometry": {"type": "LineString", "coordinates": [[114.87849642865211, 69.03844523078507], [114.88597366145228, 69.0409799492287]]}, "properties": {"source": "17339447", "target": "19140680"}}, {"type": "Feature", "geometry": {"type": "LineString", "coordinates": [[114.87849642865211, 69.03844523078507], [114.88728442298486, 69.0406775731903]]}, "properties": {"source": "17339447", "target": "14540126"}}, {"type": "Feature", "geometry": {"type": "LineString", "coordinates": [[114.87849642865211, 69.03844523078507], [114.87994620749964, 69.04017020322598]]}, "properties": {"source": "17339447", "target": "12160833"}}, {"type": "Feature", "geometry": {"type": "LineString", "coordinates": [[114.87849642865211, 69.03844523078507], [114.8874776564943, 69.03880996607384]]}, "properties": {"source": "17339447", "target": "10446350"}}, {"type": "Feature", "geometry": {"type": "LineString", "coordinates": [[114.88648476476527, 69.04001321657432], [114.88070266093189, 69.03949835313571]]}, "properties": {"source": "34181876", "target": "28496524"}}, {"type": "Feature", "geometry": {"type": "LineString", "coordinates": [[114.88648476476527, 69.04001321657432], [114.88673526612183, 69.04152506583765]]}, "properties": {"source": "34181876", "target": "16037696"}}, {"type": "Feature", "geometry": {"type": "LineString", "coordinates": [[114.87824689485177, 69.03875943734027], [114.88482926556293, 69.04133614142117]]}, "properties": {"source": "16163914", "target": "22015425"}}, {"type": "Feature", "geometry": {"type": "LineString", "coordinates": [[114.87824689485177, 69.03875943734027], [114.88070266093189, 69.03949835313571]]}, "properties": {"source": "16163914", "target": "28496524"}}, {"type": "Feature", "geometry": {"type": "LineString", "coordinates": [[114.87824689485177, 69.03875943734027], [114.87917773452426, 69.03769550121135]]}, "properties": {"source": "16163914", "target": "20896764"}}, {"type": "Feature", "geometry": {"type": "LineString", "coordinates": [[114.88500422907941, 69.0407276088925], [114.88720335338849, 69.037955437356]]}, "properties": {"source": "19562222", "target": "20189004"}}, {"type": "Feature", "geometry": {"type": "LineString", "coordinates": [[114.88500422907941, 69.0407276088925], [114.88597366145228, 69.0409799492287]]}, "properties": {"source": "19562222", "target": "19140680"}}, {"type": "Feature", "geometry": {"type": "LineString", "coordinates": [[114.88500422907941, 69.0407276088925], [114.88914708599708, 69.03894060369814]]}, "properties": {"source": "19562222", "target": "19886571"}}, {"type": "Feature", "geometry": {"type": "LineString", "coordinates": [[114.88500422907941, 69.0407276088925], [114.88636059773711, 69.03990290654971]]}, "properties": {"source": "19562222", "target": "19749416"}}, {"type": "Feature", "geometry": {"type": "LineString", "coordinates": [[114.88267755239019, 69.04017351959297], [114.87824689485177, 69.03875943734027]]}, "properties": {"source": "18046443", "target": "16163914"}}, {"type": "Feature", "geometry": {"type": "LineString", "coordinates": [[114.87824689485177, 69.03875943734027], [114.87953588016973, 69.03743422763358]]}, "properties": {"source": "16163914", "target": "31352753"}}, {"type": "Feature", "geometry": {"type": "LineString", "coordinates": [[114.88234631463808, 69.0406729699138], [114.88597366145228, 69.0409799492287]]}, "properties": {"source": "19411683", "target": "19140680"}}, {"type": "Feature", "geometry": {"type": "LineString", "coordinates": [[114.88234631463808, 69.0406729699138], [114.88856539697304, 69.04035350299935]]}, "properties": {"source": "19411683", "target": "20101276"}}, {"type": "Feature", "geometry": {"type": "LineString", "coordinates": [[114.88234631463808, 69.0406729699138], [114.8819568851585, 69.03973882208513]]}, "properties": {"source": "19411683", "target": "19652558"}}, {"type": "Feature", "geometry": {"type": "LineString", "coordinates": [[114.88234631463808, 69.0406729699138], [114.88151908320947, 69.03955819689637]]}, "properties": {"source": "19411683", "target": "19738768"}}, {"type": "Feature", "geometry": {"type": "LineString", "coordinates": [[114.88234631463808, 69.0406729699138], [114.88867982710377, 69.03909491725906]]}, "properties": {"source": "19411683", "target": "19434737"}}, {"type": "Feature", "geometry": {"type": "LineString", "coordinates": [[114.88121223470267, 69.04068794372012], [114.8840076166519, 69.03774059396741]]}, "properties": {"source": "24369122", "target": "25283833"}}, {"type": "Feature", "geometry": {"type": "LineString", "coordinates": [[114.88121223470267, 69.04068794372012], [114.88070266093189, 69.03949835313571]]}, "properties": {"source": "24369122", "target": "28496524"}}, {"type": "Feature", "geometry": {"type": "LineString", "coordinates": [[114.88121223470267, 69.04068794372012], [114.87889906388278, 69.04178616695916]]}, "properties": {"source": "24369122", "target": "25735547"}}, {"type": "Feature", "geometry": {"type": "LineString", "coordinates": [[114.88121223470267, 69.04068794372012], [114.87917773452426, 69.03769550121135]]}, "properties": {"source": "24369122", "target": "20896764"}}, {"type": "Feature", "geometry": {"type": "LineString", "coordinates": [[114.88121223470267, 69.04068794372012], [114.88673526612183, 69.04152506583765]]}, "properties": {"source": "24369122", "target": "16037696"}}, {"type": "Feature", "geometry": {"type": "LineString", "coordinates": [[114.88121223470267, 69.04068794372012], [114.88015201972911, 69.03998331357593]]}, "properties": {"source": "24369122", "target": "18482782"}}, {"type": "Feature", "geometry": {"type": "LineString", "coordinates": [[114.88121223470267, 69.04068794372012], [114.88267755239019, 69.04017351959297]]}, "properties": {"source": "24369122", "target": "18046443"}}, {"type": "Feature", "geometry": {"type": "LineString", "coordinates": [[114.88121223470267, 69.04068794372012], [114.88648476476527, 69.04001321657432]]}, "properties": {"source": "24369122", "target": "34181876"}}, {"type": "Feature", "geometry": {"type": "LineString", "coordinates": [[114.88234631463808, 69.0406729699138], [114.88152022255827, 69.03964737833257]]}, "properties": {"source": "19411683", "target": "19586701"}}, {"type": "Feature", "geometry": {"type": "LineString", "coordinates": [[114.88121223470267, 69.04068794372012], [114.87953588016973, 69.03743422763358]]}, "properties": {"source": "24369122", "target": "31352753"}}, {"type": "Feature", "geometry": {"type": "LineString", "coordinates": [[114.88121223470267, 69.04068794372012], [114.87824689485177, 69.03875943734027]]}, "properties": {"source": "24369122", "target": "16163914"}}]}