{"type": "FeatureCollection", "features": [{"type": "Feature", "geometry": {"type": "LineString", "coordinates": [[-47.43029380805254, 69.23161827640828], [-47.43346563570262, 69.23000029882658]]}, "properties": {"source": "13260670", "target": "17893078"}}, {"type": "Feature", "geometry": {"type": "LineString", "coordinates": [[-47.43029380805254, 69.23161827640828], [-47.42777663838925, 69.23106844364392]]}, "properties": {"source": "13260670", "target": "24885561"}}, {"type": "Feature", "geometry": {"type": "LineString", "coordinates": [[-47.43029380805254, 69.23161827640828], [-47.42798110323238, 69.23291000019495]]}, "properties": {"source": "13260670", "target": "23310670"}}, {"type": "Feature", "geometry": {"type": "LineString", "coordinates": [[-47.428199198512345, 69.23319790474679], [-47.436615175171426, 69.23175681489283]]}, "properties": {"source": "17063691", "target": "12842828"}}, {"type": "Feature", "geometry": {"type": "LineString", "coordinates": [[-47.428199198512345, 69.23319790474679], [-47.43724424271275, 69.23143394364419]]}, "properties": {"source": "17063691", "target": "23497854"}}, {"type": "Feature", "geometry": {"type": "LineString", "coordinates": [[-47.428199198512345, 69.23319790474679], [-47.42829644452763, 69.23073318185385]]}, "properties": {"source": "17063691", "target": "23497890"}}, {"type": "Feature", "geometry": {"type": "LineString", "coordinates": [[-47.428199198512345, 69.23319790474679], [-47.43479187703741, 69.23257952047547]]}, "properties": {"source": "17063691", "target": "9917879"}}, {"type": "Feature", "geometry": {"type": "LineString", "coordinates": [[-47.428199198512345, 69.23319790474679], [-47.43389630805706, 69.23278919183372]]}, "properties": {"source": "17063691", "target": "18801978"}}, {"type": "Feature", "geometry": {"type": "LineString", "coordinates": [[-47.428199198512345, 69.23319790474679], [-47.43542160155755, 69.23043579354129]]}, "properties": {"source": "17063691", "target": "30312806"}}, {"type": "Feature", "geometry": {"type": "LineString", "coordinates": [[-47.428199198512345, 69.23319790474679], [-47.42710721389753, 69.23257372435697]]}, "properties": {"source": "17063691", "target": "13406329"}}, {"type": "Feature", "geometry": {"type": "LineString", "coordinates": [[-47.428199198512345, 69.23319790474679], [-47.434944662930974, 69.23216762924625]]}, "properties": {"source": "17063691", "target": "22546129"}}, {"type": "Feature", "geometry": {"type": "LineString", "coordinates": [[-47.428199198512345, 69.23319790474679], [-47.436216234182154, 69.23292611608659]]}, "properties": {"source": "17063691", "target": "28217757"}}, {"type": "Feature", "geometry": {"type": "LineString", "coordinates": [[-47.428199198512345, 69.23319790474679], [-47.43549725597455, 69.23193948316705]]}, "properties": {"source": "17063691", "target": "17571248"}}, {"type": "Feature", "geometry": {"type": "LineString", "coordinates": [[-47.436615175171426, 69.23175681489283], [-47.437520388763716, 69.23309009114172]]}, "properties": {"source": "12842828", "target": "12452420"}}, {"type": "Feature", "geometry": {"type": "LineString", "coordinates": [[-47.43206061312932, 69.2324092898825], [-47.43029380805254, 69.23161827640828]]}, "properties": {"source": "16074843", "target": "13260670"}}, {"type": "Feature", "geometry": {"type": "LineString", "coordinates": [[-47.43206061312932, 69.2324092898825], [-47.43479187703741, 69.23257952047547]]}, "properties": {"source": "16074843", "target": "9917879"}}, {"type": "Feature", "geometry": {"type": "LineString", "coordinates": [[-47.43206061312932, 69.2324092898825], [-47.43221399730365, 69.23328654492312]]}, "properties": {"source": "16074843", "target": "11594414"}}, {"type": "Feature", "geometry": {"type": "LineString", "coordinates": [[-47.43206061312932, 69.2324092898825], [-47.4362087611986, 69.23016686178718]]}, "properties": {"source": "16074843", "target": "12969596"}}, {"type": "Feature", "geometry": {"type": "LineString", "coordinates": [[-47.43206061312932, 69.2324092898825], [-47.430978166668865, 69.23135099548219]]}, "properties": {"source": "16074843", "target": "16074851"}}, {"type": "Feature", "geometry": {"type": "LineString", "coordinates": [[-47.43206061312932, 69.2324092898825], [-47.437520388763716, 69.23309009114172]]}, "properties": {"source": "16074843", "target": "12452420"}}, {"type": "Feature", "geometry": {"type": "LineString", "coordinates": [[-47.43225979058502, 69.23241529181706], [-47.43029380805254, 69.23161827640828]]}, "properties": {"source": "16071681", "target": "13260670"}}, {"type": "Feature", "geometry": {"type": "LineString", "coordinates": [[-47.43225979058502, 69.23241529181706], [-47.42853892517036, 69.23008206354842]]}, "properties": {"source": "16071681", "target": "12394246"}}, {"type": "Feature", "geometry": {"type": "LineString", "coordinates": [[-47.43225979058502, 69.23241529181706], [-47.43501253585066, 69.23223038003337]]}, "properties": {"source": "16071681", "target": "17904627"}}, {"type": "Feature", "geometry": {"type": "LineString", "coordinates": [[-47.43225979058502, 69.23241529181706], [-47.43655467646988, 69.23012341461535]]}, "properties": {"source": "16071681", "target": "26206561"}}, {"type": "Feature", "geometry": {"type": "LineString", "coordinates": [[-47.43225979058502, 69.23241529181706], [-47.4355121726779, 69.23165244220547]]}, "properties": {"source": "16071681", "target": "6545487"}}, {"type": "Feature", "geometry": {"type": "LineString", "coordinates": [[-47.42967193736007, 69.23180667617774], [-47.43428928346688, 69.23129772826056]]}, "properties": {"source": "7169238", "target": "32762917"}}, {"type": "Feature", "geometry": {"type": "LineString", "coordinates": [[-47.436736202660285, 69.23077282845122], [-47.43655467646988, 69.23012341461535]]}, "properties": {"source": "23473284", "target": "26206561"}}, {"type": "Feature", "geometry": {"type": "LineString", "coordinates": [[-47.436736202660285, 69.23077282845122], [-47.427203448355414, 69.23167972558937]]}, "properties": {"source": "23473284", "target": "23646631"}}, {"type": "Feature", "geometry": {"type": "LineString", "coordinates": [[-47.43029380805254, 69.23161827640828], [-47.43221399730365, 69.23328654492312]]}, "properties": {"source": "13260670", "target": "11594414"}}, {"type": "Feature", "geometry": {"type": "LineString", "coordinates": [[-47.42967193736007, 69.23180667617774], [-47.43479187703741, 69.23257952047547]]}, "properties": {"source": "7169238", "target": "9917879"}}, {"type": "Feature", "geometry": {"type": "LineString", "coordinates": [[-47.42967193736007, 69.23180667617774], [-47.43435886414585, 69.23066701094518]]}, "properties": {"source": "7169238", "target": "10336420"}}, {"type": "Feature", "geometry": {"type": "LineString", "coordinates": [[-47.42967193736007, 69.23180667617774], [-47.42853892517036, 69.23008206354842]]}, "properties": {"source": "7169238", "target": "12394246"}}, {"type": "Feature", "geometry": {"type": "LineString", "coordinates": [[-47.42967193736007, 69.23180667617774], [-47.43501253585066, 69.23223038003337]]}, "properties": {"source": "7169238", "target": "17904627"}}, {"type": "Feature", "geometry": {"type": "LineString", "coordinates": [[-47.42967193736007, 69.23180667617774], [-47.4355121726779, 69.23165244220547]]}, "properties": {"source": "7169238", "target": "6545487"}}, {"type": "Feature", "geometry": {"type": "LineString", "coordinates": [[-47.42967193736007, 69.23180667617774], [-47.427203448355414, 69.23167972558937]]}, "properties": {"source": "7169238", "target": "23646631"}}, {"type": "Feature", "geometry": {"type": "LineString", "coordinates": [[-47.436736202660285, 69.23077282845122], [-47.43428928346688, 69.23129772826056]]}, "properties": {"source": "23473284", "target": "32762917"}}, {"type": "Feature", "geometry": {"type": "LineString", "coordinates": [[-47.436736202660285, 69.23077282845122], [-47.43455154851722, 69.23004101162911]]}, "properties": {"source": "23473284", "target": "27272698"}}, {"type": "Feature", "geometry": {"type": "LineString", "coordinates": [[-47.436736202660285, 69.23077282845122], [-47.43225979058502, 69.23241529181706]]}, "properties": {"source": "23473284", "target": "16071681"}}, {"type": "Feature", "geometry": {"type": "LineString", "coordinates": [[-47.436736202660285, 69.23077282845122], [-47.43029380805254, 69.23161827640828]]}, "properties": {"source": "23473284", "target": "13260670"}}, {"type": "Feature", "geometry": {"type": "LineString", "coordinates": [[-47.436736202660285, 69.23077282845122], [-47.43435886414585, 69.23066701094518]]}, "properties": {"source": "23473284", "target": "10336420"}}, {"type": "Feature", "geometry": {"type": "LineString", "coordinates": [[-47.436736202660285, 69.23077282845122], [-47.42853892517036, 69.23008206354842]]}, "properties": {"source": "23473284", "target": "12394246"}}, {"type": "Feature", "geometry": {"type": "LineString", "coordinates": [[-47.436736202660285, 69.23077282845122], [-47.43501253585066, 69.23223038003337]]}, "properties": {"source": "23473284", "target": "17904627"}}, {"type": "Feature", "geometry": {"type": "LineString", "coordinates": [[-47.436615175171426, 69.23175681489283], [-47.43221399730365, 69.23328654492312]]}, "properties": {"source": "12842828", "target": "11594414"}}, {"type": "Feature", "geometry": {"type": "LineString", "coordinates": [[-47.436615175171426, 69.23175681489283], [-47.43346563570262, 69.23000029882658]]}, "properties": {"source": "12842828", "target": "17893078"}}, {"type": "Feature", "geometry": {"type": "LineString", "coordinates": [[-47.436615175171426, 69.23175681489283], [-47.42777663838925, 69.23106844364392]]}, "properties": {"source": "12842828", "target": "24885561"}}, {"type": "Feature", "geometry": {"type": "LineString", "coordinates": [[-47.43428928346688, 69.23129772826056], [-47.43346563570262, 69.23000029882658]]}, "properties": {"source": "32762917", "target": "17893078"}}, {"type": "Feature", "geometry": {"type": "LineString", "coordinates": [[-47.43428928346688, 69.23129772826056], [-47.42777663838925, 69.23106844364392]]}, "properties": {"source": "32762917", "target": "24885561"}}, {"type": "Feature", "geometry": {"type": "LineString", "coordinates": [[-47.43428928346688, 69.23129772826056], [-47.42798110323238, 69.23291000019495]]}, "properties": {"source": "32762917", "target": "23310670"}}, {"type": "Feature", "geometry": {"type": "LineString", "coordinates": [[-47.43455154851722, 69.23004101162911], [-47.43225979058502, 69.23241529181706]]}, "properties": {"source": "27272698", "target": "16071681"}}, {"type": "Feature", "geometry": {"type": "LineString", "coordinates": [[-47.43455154851722, 69.23004101162911], [-47.43029380805254, 69.23161827640828]]}, "properties": {"source": "27272698", "target": "13260670"}}, {"type": "Feature", "geometry": {"type": "LineString", "coordinates": [[-47.43455154851722, 69.23004101162911], [-47.43346563570262, 69.23000029882658]]}, "properties": {"source": "27272698", "target": "17893078"}}, {"type": "Feature", "geometry": {"type": "LineString", "coordinates": [[-47.43455154851722, 69.23004101162911], [-47.42777663838925, 69.23106844364392]]}, "properties": {"source": "27272698", "target": "24885561"}}, {"type": "Feature", "geometry": {"type": "LineString", "coordinates": [[-47.43455154851722, 69.23004101162911], [-47.42798110323238, 69.23291000019495]]}, "properties": {"source": "27272698", "target": "23310670"}}, {"type": "Feature", "geometry": {"type": "LineString", "coordinates": [[-47.436615175171426, 69.23175681489283], [-47.43428928346688, 69.23129772826056]]}, "properties": {"source": "12842828", "target": "32762917"}}, {"type": "Feature", "geometry": {"type": "LineString", "coordinates": [[-47.436615175171426, 69.23175681489283], [-47.43455154851722, 69.23004101162911]]}, "properties": {"source": "12842828", "target": "27272698"}}, {"type": "Feature", "geometry": {"type": "LineString", "coordinates": [[-47.436615175171426, 69.23175681489283], [-47.43206061312932, 69.2324092898825]]}, "properties": {"source": "12842828", "target": "16074843"}}, {"type": "Feature", "geometry": {"type": "LineString", "coordinates": [[-47.436615175171426, 69.23175681489283], [-47.43029380805254, 69.23161827640828]]}, "properties": {"source": "12842828", "target": "13260670"}}, {"type": "Feature", "geometry": {"type": "LineString", "coordinates": [[-47.436615175171426, 69.23175681489283], [-47.43497910324746, 69.23219083882069]]}, "properties": {"source": "12842828", "target": "22733616"}}, {"type": "Feature", "geometry": {"type": "LineString", "coordinates": [[-47.42967193736007, 69.23180667617774], [-47.43225979058502, 69.23241529181706]]}, "properties": {"source": "7169238", "target": "16071681"}}, {"type": "Feature", "geometry": {"type": "LineString", "coordinates": [[-47.42967193736007, 69.23180667617774], [-47.436736202660285, 69.23077282845122]]}, "properties": {"source": "7169238", "target": "23473284"}}, {"type": "Feature", "geometry": {"type": "LineString", "coordinates": [[-47.42967193736007, 69.23180667617774], [-47.43497910324746, 69.23219083882069]]}, "properties": {"source": "7169238", "target": "22733616"}}, {"type": "Feature", "geometry": {"type": "LineString", "coordinates": [[-47.428502023606825, 69.2319592313612], [-47.43525054582159, 69.230642029644]]}, "properties": {"source": "11594289", "target": "9755855"}}, {"type": "Feature", "geometry": {"type": "LineString", "coordinates": [[-47.428502023606825, 69.2319592313612], [-47.42950699425205, 69.23287961320631]]}, "properties": {"source": "11594289", "target": "17446578"}}, {"type": "Feature", "geometry": {"type": "LineString", "coordinates": [[-47.43655467646988, 69.23012341461535], [-47.42853892517036, 69.23008206354842]]}, "properties": {"source": "26206561", "target": "12394246"}}, {"type": "Feature", "geometry": {"type": "LineString", "coordinates": [[-47.43655467646988, 69.23012341461535], [-47.43501253585066, 69.23223038003337]]}, "properties": {"source": "26206561", "target": "17904627"}}, {"type": "Feature", "geometry": {"type": "LineString", "coordinates": [[-47.43221399730365, 69.23328654492312], [-47.42777663838925, 69.23106844364392]]}, "properties": {"source": "11594414", "target": "24885561"}}, {"type": "Feature", "geometry": {"type": "LineString", "coordinates": [[-47.436216234182154, 69.23292611608659], [-47.43724424271275, 69.23143394364419]]}, "properties": {"source": "28217757", "target": "23497854"}}, {"type": "Feature", "geometry": {"type": "LineString", "coordinates": [[-47.436216234182154, 69.23292611608659], [-47.42829644452763, 69.23073318185385]]}, "properties": {"source": "28217757", "target": "23497890"}}, {"type": "Feature", "geometry": {"type": "LineString", "coordinates": [[-47.436216234182154, 69.23292611608659], [-47.43389630805706, 69.23278919183372]]}, "properties": {"source": "28217757", "target": "18801978"}}, {"type": "Feature", "geometry": {"type": "LineString", "coordinates": [[-47.436216234182154, 69.23292611608659], [-47.43542160155755, 69.23043579354129]]}, "properties": {"source": "28217757", "target": "30312806"}}, {"type": "Feature", "geometry": {"type": "LineString", "coordinates": [[-47.436216234182154, 69.23292611608659], [-47.42710721389753, 69.23257372435697]]}, "properties": {"source": "28217757", "target": "13406329"}}, {"type": "Feature", "geometry": {"type": "LineString", "coordinates": [[-47.436216234182154, 69.23292611608659], [-47.434944662930974, 69.23216762924625]]}, "properties": {"source": "28217757", "target": "22546129"}}, {"type": "Feature", "geometry": {"type": "LineString", "coordinates": [[-47.43169112962147, 69.23080351272796], [-47.43225979058502, 69.23241529181706]]}, "properties": {"source": "17974243", "target": "16071681"}}, {"type": "Feature", "geometry": {"type": "LineString", "coordinates": [[-47.43169112962147, 69.23080351272796], [-47.436736202660285, 69.23077282845122]]}, "properties": {"source": "17974243", "target": "23473284"}}, {"type": "Feature", "geometry": {"type": "LineString", "coordinates": [[-47.43525054582159, 69.230642029644], [-47.43479187703741, 69.23257952047547]]}, "properties": {"source": "9755855", "target": "9917879"}}, {"type": "Feature", "geometry": {"type": "LineString", "coordinates": [[-47.42719887403166, 69.22973941374676], [-47.42967193736007, 69.23180667617774]]}, "properties": {"source": "6976343", "target": "7169238"}}, {"type": "Feature", "geometry": {"type": "LineString", "coordinates": [[-47.42719887403166, 69.22973941374676], [-47.43655467646988, 69.23012341461535]]}, "properties": {"source": "6976343", "target": "26206561"}}, {"type": "Feature", "geometry": {"type": "LineString", "coordinates": [[-47.42719887403166, 69.22973941374676], [-47.4355121726779, 69.23165244220547]]}, "properties": {"source": "6976343", "target": "6545487"}}, {"type": "Feature", "geometry": {"type": "LineString", "coordinates": [[-47.42719887403166, 69.22973941374676], [-47.434833085383275, 69.22993331108754]]}, "properties": {"source": "6976343", "target": "8400669"}}, {"type": "Feature", "geometry": {"type": "LineString", "coordinates": [[-47.437520388763716, 69.23309009114172], [-47.43221399730365, 69.23328654492312]]}, "properties": {"source": "12452420", "target": "11594414"}}, {"type": "Feature", "geometry": {"type": "LineString", "coordinates": [[-47.437520388763716, 69.23309009114172], [-47.4362087611986, 69.23016686178718]]}, "properties": {"source": "12452420", "target": "12969596"}}, {"type": "Feature", "geometry": {"type": "LineString", "coordinates": [[-47.432884935641994, 69.23100179526102], [-47.428502023606825, 69.2319592313612]]}, "properties": {"source": "18089921", "target": "11594289"}}, {"type": "Feature", "geometry": {"type": "LineString", "coordinates": [[-47.432884935641994, 69.23100179526102], [-47.43525054582159, 69.230642029644]]}, "properties": {"source": "18089921", "target": "9755855"}}, {"type": "Feature", "geometry": {"type": "LineString", "coordinates": [[-47.432884935641994, 69.23100179526102], [-47.42950699425205, 69.23287961320631]]}, "properties": {"source": "18089921", "target": "17446578"}}, {"type": "Feature", "geometry": {"type": "LineString", "coordinates": [[-47.43484219552977, 69.23236800489744], [-47.43428928346688, 69.23129772826056]]}, "properties": {"source": "24903914", "target": "32762917"}}, {"type": "Feature", "geometry": {"type": "LineString", "coordinates": [[-47.43484219552977, 69.23236800489744], [-47.43455154851722, 69.23004101162911]]}, "properties": {"source": "24903914", "target": "27272698"}}, {"type": "Feature", "geometry": {"type": "LineString", "coordinates": [[-47.43484219552977, 69.23236800489744], [-47.43004240614326, 69.23159930732086]]}, "properties": {"source": "24903914", "target": "24885878"}}, {"type": "Feature", "geometry": {"type": "LineString", "coordinates": [[-47.43541908750407, 69.23144625693052], [-47.43724424271275, 69.23143394364419]]}, "properties": {"source": "16248123", "target": "23497854"}}, {"type": "Feature", "geometry": {"type": "LineString", "coordinates": [[-47.43541908750407, 69.23144625693052], [-47.42908148967035, 69.2315251085463]]}, "properties": {"source": "16248123", "target": "12969560"}}, {"type": "Feature", "geometry": {"type": "LineString", "coordinates": [[-47.43541908750407, 69.23144625693052], [-47.43723077623682, 69.22981085409916]]}, "properties": {"source": "16248123", "target": "18334269"}}, {"type": "Feature", "geometry": {"type": "LineString", "coordinates": [[-47.43724424271275, 69.23143394364419], [-47.434944662930974, 69.23216762924625]]}, "properties": {"source": "23497854", "target": "22546129"}}, {"type": "Feature", "geometry": {"type": "LineString", "coordinates": [[-47.43724424271275, 69.23143394364419], [-47.42880443188403, 69.23273126291045]]}, "properties": {"source": "23497854", "target": "18764360"}}, {"type": "Feature", "geometry": {"type": "LineString", "coordinates": [[-47.42829644452763, 69.23073318185385], [-47.43479187703741, 69.23257952047547]]}, "properties": {"source": "23497890", "target": "9917879"}}, {"type": "Feature", "geometry": {"type": "LineString", "coordinates": [[-47.42774930897795, 69.23276602210461], [-47.43225979058502, 69.23241529181706]]}, "properties": {"source": "28534579", "target": "16071681"}}, {"type": "Feature", "geometry": {"type": "LineString", "coordinates": [[-47.42774930897795, 69.23276602210461], [-47.42967193736007, 69.23180667617774]]}, "properties": {"source": "28534579", "target": "7169238"}}, {"type": "Feature", "geometry": {"type": "LineString", "coordinates": [[-47.42774930897795, 69.23276602210461], [-47.436736202660285, 69.23077282845122]]}, "properties": {"source": "28534579", "target": "23473284"}}, {"type": "Feature", "geometry": {"type": "LineString", "coordinates": [[-47.42774930897795, 69.23276602210461], [-47.43497910324746, 69.23219083882069]]}, "properties": {"source": "28534579", "target": "22733616"}}, {"type": "Feature", "geometry": {"type": "LineString", "coordinates": [[-47.42774930897795, 69.23276602210461], [-47.43435886414585, 69.23066701094518]]}, "properties": {"source": "28534579", "target": "10336420"}}, {"type": "Feature", "geometry": {"type": "LineString", "coordinates": [[-47.42774930897795, 69.23276602210461], [-47.42853892517036, 69.23008206354842]]}, "properties": {"source": "28534579", "target": "12394246"}}, {"type": "Feature", "geometry": {"type": "LineString", "coordinates": [[-47.42774930897795, 69.23276602210461], [-47.43501253585066, 69.23223038003337]]}, "properties": {"source": "28534579", "target": "17904627"}}, {"type": "Feature", "geometry": {"type": "LineString", "coordinates": [[-47.42774930897795, 69.23276602210461], [-47.43655467646988, 69.23012341461535]]}, "properties": {"source": "28534579", "target": "26206561"}}, {"type": "Feature", "geometry": {"type": "LineString", "coordinates": [[-47.42774930897795, 69.23276602210461], [-47.427203448355414, 69.23167972558937]]}, "properties": {"source": "28534579", "target": "23646631"}}, {"type": "Feature", "geometry": {"type": "LineString", "coordinates": [[-47.43724424271275, 69.23143394364419], [-47.42829644452763, 69.23073318185385]]}, "properties": {"source": "23497854", "target": "23497890"}}, {"type": "Feature", "geometry": {"type": "LineString", "coordinates": [[-47.43724424271275, 69.23143394364419], [-47.43479187703741, 69.23257952047547]]}, "properties": {"source": "23497854", "target": "9917879"}}, {"type": "Feature", "geometry": {"type": "LineString", "coordinates": [[-47.43724424271275, 69.23143394364419], [-47.43389630805706, 69.23278919183372]]}, "properties": {"source": "23497854", "target": "18801978"}}, {"type": "Feature", "geometry": {"type": "LineString", "coordinates": [[-47.43724424271275, 69.23143394364419], [-47.42710721389753, 69.23257372435697]]}, "properties": {"source": "23497854", "target": "13406329"}}, {"type": "Feature", "geometry": {"type": "LineString", "coordinates": [[-47.43428928346688, 69.23129772826056], [-47.43455154851722, 69.23004101162911]]}, "properties": {"source": "32762917", "target": "27272698"}}, {"type": "Feature", "geometry": {"type": "LineString", "coordinates": [[-47.43428928346688, 69.23129772826056], [-47.43029380805254, 69.23161827640828]]}, "properties": {"source": "32762917", "target": "13260670"}}, {"type": "Feature", "geometry": {"type": "LineString", "coordinates": [[-47.43428928346688, 69.23129772826056], [-47.43497910324746, 69.23219083882069]]}, "properties": {"source": "32762917", "target": "22733616"}}, {"type": "Feature", "geometry": {"type": "LineString", "coordinates": [[-47.43497910324746, 69.23219083882069], [-47.43225979058502, 69.23241529181706]]}, "properties": {"source": "22733616", "target": "16071681"}}, {"type": "Feature", "geometry": {"type": "LineString", "coordinates": [[-47.43497910324746, 69.23219083882069], [-47.43029380805254, 69.23161827640828]]}, "properties": {"source": "22733616", "target": "13260670"}}, {"type": "Feature", "geometry": {"type": "LineString", "coordinates": [[-47.43497910324746, 69.23219083882069], [-47.43346563570262, 69.23000029882658]]}, "properties": {"source": "22733616", "target": "17893078"}}, {"type": "Feature", "geometry": {"type": "LineString", "coordinates": [[-47.43497910324746, 69.23219083882069], [-47.42777663838925, 69.23106844364392]]}, "properties": {"source": "22733616", "target": "24885561"}}, {"type": "Feature", "geometry": {"type": "LineString", "coordinates": [[-47.43389630805706, 69.23278919183372], [-47.43479187703741, 69.23257952047547]]}, "properties": {"source": "18801978", "target": "9917879"}}, {"type": "Feature", "geometry": {"type": "LineString", "coordinates": [[-47.43389630805706, 69.23278919183372], [-47.430978166668865, 69.23135099548219]]}, "properties": {"source": "18801978", "target": "16074851"}}, {"type": "Feature", "geometry": {"type": "LineString", "coordinates": [[-47.43542160155755, 69.23043579354129], [-47.43428928346688, 69.23129772826056]]}, "properties": {"source": "30312806", "target": "32762917"}}, {"type": "Feature", "geometry": {"type": "LineString", "coordinates": [[-47.43542160155755, 69.23043579354129], [-47.43724424271275, 69.23143394364419]]}, "properties": {"source": "30312806", "target": "23497854"}}, {"type": "Feature", "geometry": {"type": "LineString", "coordinates": [[-47.43542160155755, 69.23043579354129], [-47.42829644452763, 69.23073318185385]]}, "properties": {"source": "30312806", "target": "23497890"}}, {"type": "Feature", "geometry": {"type": "LineString", "coordinates": [[-47.43542160155755, 69.23043579354129], [-47.43479187703741, 69.23257952047547]]}, "properties": {"source": "30312806", "target": "9917879"}}, {"type": "Feature", "geometry": {"type": "LineString", "coordinates": [[-47.43542160155755, 69.23043579354129], [-47.43389630805706, 69.23278919183372]]}, "properties": {"source": "30312806", "target": "18801978"}}, {"type": "Feature", "geometry": {"type": "LineString", "coordinates": [[-47.43542160155755, 69.23043579354129], [-47.42710721389753, 69.23257372435697]]}, "properties": {"source": "30312806", "target": "13406329"}}, {"type": "Feature", "geometry": {"type": "LineString", "coordinates": [[-47.43542160155755, 69.23043579354129], [-47.434944662930974, 69.23216762924625]]}, "properties": {"source": "30312806", "target": "22546129"}}, {"type": "Feature", "geometry": {"type": "LineString", "coordinates": [[-47.42710721389753, 69.23257372435697], [-47.436615175171426, 69.23175681489283]]}, "properties": {"source": "13406329", "target": "12842828"}}, {"type": "Feature", "geometry": {"type": "LineString", "coordinates": [[-47.42710721389753, 69.23257372435697], [-47.43479187703741, 69.23257952047547]]}, "properties": {"source": "13406329", "target": "9917879"}}, {"type": "Feature", "geometry": {"type": "LineString", "coordinates": [[-47.42710721389753, 69.23257372435697], [-47.43389630805706, 69.23278919183372]]}, "properties": {"source": "13406329", "target": "18801978"}}, {"type": "Feature", "geometry": {"type": "LineString", "coordinates": [[-47.42710721389753, 69.23257372435697], [-47.434944662930974, 69.23216762924625]]}, "properties": {"source": "13406329", "target": "22546129"}}, {"type": "Feature", "geometry": {"type": "LineString", "coordinates": [[-47.434944662930974, 69.23216762924625], [-47.43479187703741, 69.23257952047547]]}, "properties": {"source": "22546129", "target": "9917879"}}, {"type": "Feature", "geometry": {"type": "LineString", "coordinates": [[-47.434944662930974, 69.23216762924625], [-47.43389630805706, 69.23278919183372]]}, "properties": {"source": "22546129", "target": "18801978"}}, {"type": "Feature", "geometry": {"type": "LineString", "coordinates": [[-47.43435886414585, 69.23066701094518], [-47.43225979058502, 69.23241529181706]]}, "properties": {"source": "10336420", "target": "16071681"}}, {"type": "Feature", "geometry": {"type": "LineString", "coordinates": [[-47.43435886414585, 69.23066701094518], [-47.42853892517036, 69.23008206354842]]}, "properties": {"source": "10336420", "target": "12394246"}}, {"type": "Feature", "geometry": {"type": "LineString", "coordinates": [[-47.43435886414585, 69.23066701094518], [-47.43501253585066, 69.23223038003337]]}, "properties": {"source": "10336420", "target": "17904627"}}, {"type": "Feature", "geometry": {"type": "LineString", "coordinates": [[-47.43435886414585, 69.23066701094518], [-47.43655467646988, 69.23012341461535]]}, "properties": {"source": "10336420", "target": "26206561"}}, {"type": "Feature", "geometry": {"type": "LineString", "coordinates": [[-47.43435886414585, 69.23066701094518], [-47.4355121726779, 69.23165244220547]]}, "properties": {"source": "10336420", "target": "6545487"}}, {"type": "Feature", "geometry": {"type": "LineString", "coordinates": [[-47.42853892517036, 69.23008206354842], [-47.43501253585066, 69.23223038003337]]}, "properties": {"source": "12394246", "target": "17904627"}}, {"type": "Feature", "geometry": {"type": "LineString", "coordinates": [[-47.42853892517036, 69.23008206354842], [-47.4355121726779, 69.23165244220547]]}, "properties": {"source": "12394246", "target": "6545487"}}, {"type": "Feature", "geometry": {"type": "LineString", "coordinates": [[-47.43501253585066, 69.23223038003337], [-47.4355121726779, 69.23165244220547]]}, "properties": {"source": "17904627", "target": "6545487"}}, {"type": "Feature", "geometry": {"type": "LineString", "coordinates": [[-47.428502023606825, 69.2319592313612], [-47.436615175171426, 69.23175681489283]]}, "properties": {"source": "11594289", "target": "12842828"}}, {"type": "Feature", "geometry": {"type": "LineString", "coordinates": [[-47.428502023606825, 69.2319592313612], [-47.43206061312932, 69.2324092898825]]}, "properties": {"source": "11594289", "target": "16074843"}}, {"type": "Feature", "geometry": {"type": "LineString", "coordinates": [[-47.43169112962147, 69.23080351272796], [-47.43435886414585, 69.23066701094518]]}, "properties": {"source": "17974243", "target": "10336420"}}, {"type": "Feature", "geometry": {"type": "LineString", "coordinates": [[-47.43169112962147, 69.23080351272796], [-47.42853892517036, 69.23008206354842]]}, "properties": {"source": "17974243", "target": "12394246"}}, {"type": "Feature", "geometry": {"type": "LineString", "coordinates": [[-47.43169112962147, 69.23080351272796], [-47.43501253585066, 69.23223038003337]]}, "properties": {"source": "17974243", "target": "17904627"}}, {"type": "Feature", "geometry": {"type": "LineString", "coordinates": [[-47.42829644452763, 69.23073318185385], [-47.43389630805706, 69.23278919183372]]}, "properties": {"source": "23497890", "target": "18801978"}}, {"type": "Feature", "geometry": {"type": "LineString", "coordinates": [[-47.42829644452763, 69.23073318185385], [-47.42710721389753, 69.23257372435697]]}, "properties": {"source": "23497890", "target": "13406329"}}, {"type": "Feature", "geometry": {"type": "LineString", "coordinates": [[-47.42829644452763, 69.23073318185385], [-47.434944662930974, 69.23216762924625]]}, "properties": {"source": "23497890", "target": "22546129"}}, {"type": "Feature", "geometry": {"type": "LineString", "coordinates": [[-47.42829644452763, 69.23073318185385], [-47.42880443188403, 69.23273126291045]]}, "properties": {"source": "23497890", "target": "18764360"}}, {"type": "Feature", "geometry": {"type": "LineString", "coordinates": [[-47.42829644452763, 69.23073318185385], [-47.43549725597455, 69.23193948316705]]}, "properties": {"source": "23497890", "target": "17571248"}}, {"type": "Feature", "geometry": {"type": "LineString", "coordinates": [[-47.42735754189309, 69.23300813407226], [-47.43428928346688, 69.23129772826056]]}, "properties": {"source": "13260668", "target": "32762917"}}, {"type": "Feature", "geometry": {"type": "LineString", "coordinates": [[-47.42735754189309, 69.23300813407226], [-47.43455154851722, 69.23004101162911]]}, "properties": {"source": "13260668", "target": "27272698"}}, {"type": "Feature", "geometry": {"type": "LineString", "coordinates": [[-47.42735754189309, 69.23300813407226], [-47.436615175171426, 69.23175681489283]]}, "properties": {"source": "13260668", "target": "12842828"}}, {"type": "Feature", "geometry": {"type": "LineString", "coordinates": [[-47.42735754189309, 69.23300813407226], [-47.43206061312932, 69.2324092898825]]}, "properties": {"source": "13260668", "target": "16074843"}}, {"type": "Feature", "geometry": {"type": "LineString", "coordinates": [[-47.42735754189309, 69.23300813407226], [-47.43225979058502, 69.23241529181706]]}, "properties": {"source": "13260668", "target": "16071681"}}, {"type": "Feature", "geometry": {"type": "LineString", "coordinates": [[-47.42735754189309, 69.23300813407226], [-47.43029380805254, 69.23161827640828]]}, "properties": {"source": "13260668", "target": "13260670"}}, {"type": "Feature", "geometry": {"type": "LineString", "coordinates": [[-47.42735754189309, 69.23300813407226], [-47.43497910324746, 69.23219083882069]]}, "properties": {"source": "13260668", "target": "22733616"}}, {"type": "Feature", "geometry": {"type": "LineString", "coordinates": [[-47.42735754189309, 69.23300813407226], [-47.43221399730365, 69.23328654492312]]}, "properties": {"source": "13260668", "target": "11594414"}}, {"type": "Feature", "geometry": {"type": "LineString", "coordinates": [[-47.42735754189309, 69.23300813407226], [-47.43346563570262, 69.23000029882658]]}, "properties": {"source": "13260668", "target": "17893078"}}, {"type": "Feature", "geometry": {"type": "LineString", "coordinates": [[-47.42735754189309, 69.23300813407226], [-47.42777663838925, 69.23106844364392]]}, "properties": {"source": "13260668", "target": "24885561"}}, {"type": "Feature", "geometry": {"type": "LineString", "coordinates": [[-47.43497910324746, 69.23219083882069], [-47.43455154851722, 69.23004101162911]]}, "properties": {"source": "22733616", "target": "27272698"}}, {"type": "Feature", "geometry": {"type": "LineString", "coordinates": [[-47.43723077623682, 69.22981085409916], [-47.43206061312932, 69.2324092898825]]}, "properties": {"source": "18334269", "target": "16074843"}}, {"type": "Feature", "geometry": {"type": "LineString", "coordinates": [[-47.43723077623682, 69.22981085409916], [-47.42908148967035, 69.2315251085463]]}, "properties": {"source": "18334269", "target": "12969560"}}, {"type": "Feature", "geometry": {"type": "LineString", "coordinates": [[-47.42950699425205, 69.23287961320631], [-47.43525054582159, 69.230642029644]]}, "properties": {"source": "17446578", "target": "9755855"}}, {"type": "Feature", "geometry": {"type": "LineString", "coordinates": [[-47.43360764331308, 69.23013937562757], [-47.43455154851722, 69.23004101162911]]}, "properties": {"source": "13645358", "target": "27272698"}}, {"type": "Feature", "geometry": {"type": "LineString", "coordinates": [[-47.43360764331308, 69.23013937562757], [-47.43497910324746, 69.23219083882069]]}, "properties": {"source": "13645358", "target": "22733616"}}, {"type": "Feature", "geometry": {"type": "LineString", "coordinates": [[-47.43360764331308, 69.23013937562757], [-47.43346563570262, 69.23000029882658]]}, "properties": {"source": "13645358", "target": "17893078"}}, {"type": "Feature", "geometry": {"type": "LineString", "coordinates": [[-47.43004240614326, 69.23159930732086], [-47.43428928346688, 69.23129772826056]]}, "properties": {"source": "24885878", "target": "32762917"}}, {"type": "Feature", "geometry": {"type": "LineString", "coordinates": [[-47.43004240614326, 69.23159930732086], [-47.43455154851722, 69.23004101162911]]}, "properties": {"source": "24885878", "target": "27272698"}}, {"type": "Feature", "geometry": {"type": "LineString", "coordinates": [[-47.43480423646005, 69.23199138913756], [-47.43724424271275, 69.23143394364419]]}, "properties": {"source": "23309529", "target": "23497854"}}, {"type": "Feature", "geometry": {"type": "LineString", "coordinates": [[-47.43480423646005, 69.23199138913756], [-47.42829644452763, 69.23073318185385]]}, "properties": {"source": "23309529", "target": "23497890"}}, {"type": "Feature", "geometry": {"type": "LineString", "coordinates": [[-47.434833085383275, 69.22993331108754], [-47.4355121726779, 69.23165244220547]]}, "properties": {"source": "8400669", "target": "6545487"}}, {"type": "Feature", "geometry": {"type": "LineString", "coordinates": [[-47.43570612821517, 69.23094951174437], [-47.43479187703741, 69.23257952047547]]}, "properties": {"source": "89593", "target": "9917879"}}, {"type": "Feature", "geometry": {"type": "LineString", "coordinates": [[-47.437478076769764, 69.23045151849368], [-47.42798110323238, 69.23291000019495]]}, "properties": {"source": "2090640", "target": "23310670"}}, {"type": "Feature", "geometry": {"type": "LineString", "coordinates": [[-47.428502023606825, 69.2319592313612], [-47.42735754189309, 69.23300813407226]]}, "properties": {"source": "11594289", "target": "13260668"}}, {"type": "Feature", "geometry": {"type": "LineString", "coordinates": [[-47.428502023606825, 69.2319592313612], [-47.43221399730365, 69.23328654492312]]}, "properties": {"source": "11594289", "target": "11594414"}}, {"type": "Feature", "geometry": {"type": "LineString", "coordinates": [[-47.428502023606825, 69.2319592313612], [-47.4362087611986, 69.23016686178718]]}, "properties": {"source": "11594289", "target": "12969596"}}, {"type": "Feature", "geometry": {"type": "LineString", "coordinates": [[-47.43169112962147, 69.23080351272796], [-47.43655467646988, 69.23012341461535]]}, "properties": {"source": "17974243", "target": "26206561"}}, {"type": "Feature", "geometry": {"type": "LineString", "coordinates": [[-47.43169112962147, 69.23080351272796], [-47.4355121726779, 69.23165244220547]]}, "properties": {"source": "17974243", "target": "6545487"}}, {"type": "Feature", "geometry": {"type": "LineString", "coordinates": [[-47.42880443188403, 69.23273126291045], [-47.43206061312932, 69.2324092898825]]}, "properties": {"source": "18764360", "target": "16074843"}}, {"type": "Feature", "geometry": {"type": "LineString", "coordinates": [[-47.42880443188403, 69.23273126291045], [-47.43389630805706, 69.23278919183372]]}, "properties": {"source": "18764360", "target": "18801978"}}, {"type": "Feature", "geometry": {"type": "LineString", "coordinates": [[-47.42880443188403, 69.23273126291045], [-47.434944662930974, 69.23216762924625]]}, "properties": {"source": "18764360", "target": "22546129"}}, {"type": "Feature", "geometry": {"type": "LineString", "coordinates": [[-47.42880443188403, 69.23273126291045], [-47.43549725597455, 69.23193948316705]]}, "properties": {"source": "18764360", "target": "17571248"}}, {"type": "Feature", "geometry": {"type": "LineString", "coordinates": [[-47.42880443188403, 69.23273126291045], [-47.430978166668865, 69.23135099548219]]}, "properties": {"source": "18764360", "target": "16074851"}}, {"type": "Feature", "geometry": {"type": "LineString", "coordinates": [[-47.43549725597455, 69.23193948316705], [-47.43206061312932, 69.2324092898825]]}, "properties": {"source": "17571248", "target": "16074843"}}, {"type": "Feature", "geometry": {"type": "LineString", "coordinates": [[-47.43549725597455, 69.23193948316705], [-47.4362087611986, 69.23016686178718]]}, "properties": {"source": "17571248", "target": "12969596"}}, {"type": "Feature", "geometry": {"type": "LineString", "coordinates": [[-47.43549725597455, 69.23193948316705], [-47.430978166668865, 69.23135099548219]]}, "properties": {"source": "17571248", "target": "16074851"}}, {"type": "Feature", "geometry": {"type": "LineString", "coordinates": [[-47.4362087611986, 69.23016686178718], [-47.43221399730365, 69.23328654492312]]}, "properties": {"source": "12969596", "target": "11594414"}}, {"type": "Feature", "geometry": {"type": "LineString", "coordinates": [[-47.42908148967035, 69.2315251085463], [-47.43206061312932, 69.2324092898825]]}, "properties": {"source": "12969560", "target": "16074843"}}, {"type": "Feature", "geometry": {"type": "LineString", "coordinates": [[-47.42908148967035, 69.2315251085463], [-47.4362087611986, 69.23016686178718]]}, "properties": {"source": "12969560", "target": "12969596"}}, {"type": "Feature", "geometry": {"type": "LineString", "coordinates": [[-47.428199198512345, 69.23319790474679], [-47.430978166668865, 69.23135099548219]]}, "properties": {"source": "17063691", "target": "16074851"}}, {"type": "Feature", "geometry": {"type": "LineString", "coordinates": [[-47.42774930897795, 69.23276602210461], [-47.43428928346688, 69.23129772826056]]}, "properties": {"source": "28534579", "target": "32762917"}}, {"type": "Feature", "geometry": {"type": "LineString", "coordinates": [[-47.42774930897795, 69.23276602210461], [-47.43455154851722, 69.23004101162911]]}, "properties": {"source": "28534579", "target": "27272698"}}]}