{"type": "FeatureCollection", "features": [{"type": "Feature", "geometry": {"type": "LineString", "coordinates": [[101.98276078046183, 69.23019448993062], [101.98404261750727, 69.23122842190847]]}, "properties": {"source": "25642628", "target": "2009588"}}, {"type": "Feature", "geometry": {"type": "LineString", "coordinates": [[101.98276078046183, 69.23019448993062], [101.98318725013633, 69.22977236408622]]}, "properties": {"source": "25642628", "target": "6177962"}}, {"type": "Feature", "geometry": {"type": "LineString", "coordinates": [[101.98276078046183, 69.23019448993062], [101.98424485704845, 69.23103067284598]]}, "properties": {"source": "25642628", "target": "2009587"}}, {"type": "Feature", "geometry": {"type": "LineString", "coordinates": [[101.98276078046183, 69.23019448993062], [101.98322408508648, 69.23096073585015]]}, "properties": {"source": "25642628", "target": "6086868"}}, {"type": "Feature", "geometry": {"type": "LineString", "coordinates": [[101.98276078046183, 69.23019448993062], [101.98122729252697, 69.23150631648923]]}, "properties": {"source": "25642628", "target": "6364553"}}, {"type": "Feature", "geometry": {"type": "LineString", "coordinates": [[101.98276078046183, 69.23019448993062], [101.98490869377844, 69.2300668582046]]}, "properties": {"source": "25642628", "target": "13157685"}}, {"type": "Feature", "geometry": {"type": "LineString", "coordinates": [[101.98490869377844, 69.2300668582046], [101.98424485704845, 69.23103067284598]]}, "properties": {"source": "13157685", "target": "2009587"}}, {"type": "Feature", "geometry": {"type": "LineString", "coordinates": [[101.98490869377844, 69.2300668582046], [101.98322408508648, 69.23096073585015]]}, "properties": {"source": "13157685", "target": "6086868"}}, {"type": "Feature", "geometry": {"type": "LineString", "coordinates": [[101.98404261750727, 69.23122842190847], [101.98424485704845, 69.23103067284598]]}, "properties": {"source": "2009588", "target": "2009587"}}, {"type": "Feature", "geometry": {"type": "LineString", "coordinates": [[101.98404261750727, 69.23122842190847], [101.98322408508648, 69.23096073585015]]}, "properties": {"source": "2009588", "target": "6086868"}}, {"type": "Feature", "geometry": {"type": "LineString", "coordinates": [[101.98404261750727, 69.23122842190847], [101.98122729252697, 69.23150631648923]]}, "properties": {"source": "2009588", "target": "6364553"}}, {"type": "Feature", "geometry": {"type": "LineString", "coordinates": [[101.98404261750727, 69.23122842190847], [101.98490869377844, 69.2300668582046]]}, "properties": {"source": "2009588", "target": "13157685"}}, {"type": "Feature", "geometry": {"type": "LineString", "coordinates": [[101.98404261750727, 69.23122842190847], [101.98042660265986, 69.2310248195572]]}, "properties": {"source": "2009588", "target": "11796103"}}, {"type": "Feature", "geometry": {"type": "LineString", "coordinates": [[101.98296485027265, 69.23030630002893], [101.9817178343772, 69.23100330134878]]}, "properties": {"source": "6727766", "target": "2009584"}}, {"type": "Feature", "geometry": {"type": "LineString", "coordinates": [[101.98296485027265, 69.23030630002893], [101.98404261750727, 69.23122842190847]]}, "properties": {"source": "6727766", "target": "2009588"}}, {"type": "Feature", "geometry": {"type": "LineString", "coordinates": [[101.98296485027265, 69.23030630002893], [101.98318725013633, 69.22977236408622]]}, "properties": {"source": "6727766", "target": "6177962"}}, {"type": "Feature", "geometry": {"type": "LineString", "coordinates": [[101.97942675511962, 69.23005293542607], [101.98424485704845, 69.23103067284598]]}, "properties": {"source": "25100309", "target": "2009587"}}, {"type": "Feature", "geometry": {"type": "LineString", "coordinates": [[101.97942675511962, 69.23005293542607], [101.98322408508648, 69.23096073585015]]}, "properties": {"source": "25100309", "target": "6086868"}}, {"type": "Feature", "geometry": {"type": "LineString", "coordinates": [[101.97942675511962, 69.23005293542607], [101.98122729252697, 69.23150631648923]]}, "properties": {"source": "25100309", "target": "6364553"}}, {"type": "Feature", "geometry": {"type": "LineString", "coordinates": [[101.97942675511962, 69.23005293542607], [101.98276078046183, 69.23019448993062]]}, "properties": {"source": "25100309", "target": "25642628"}}, {"type": "Feature", "geometry": {"type": "LineString", "coordinates": [[101.97942675511962, 69.23005293542607], [101.98490869377844, 69.2300668582046]]}, "properties": {"source": "25100309", "target": "13157685"}}, {"type": "Feature", "geometry": {"type": "LineString", "coordinates": [[101.97942675511962, 69.23005293542607], [101.98418364008, 69.23019714438254]]}, "properties": {"source": "25100309", "target": "2009585"}}, {"type": "Feature", "geometry": {"type": "LineString", "coordinates": [[101.97942675511962, 69.23005293542607], [101.98029320088415, 69.23053195377867]]}, "properties": {"source": "25100309", "target": "21021"}}, {"type": "Feature", "geometry": {"type": "LineString", "coordinates": [[101.98276078046183, 69.23019448993062], [101.9817178343772, 69.23100330134878]]}, "properties": {"source": "25642628", "target": "2009584"}}, {"type": "Feature", "geometry": {"type": "LineString", "coordinates": [[101.98029320088415, 69.23053195377867], [101.98453431119913, 69.23071561273997]]}, "properties": {"source": "21021", "target": "21017"}}, {"type": "Feature", "geometry": {"type": "LineString", "coordinates": [[101.98486643132048, 69.23026505770113], [101.98453431119913, 69.23071561273997]]}, "properties": {"source": "1807360", "target": "21017"}}, {"type": "Feature", "geometry": {"type": "LineString", "coordinates": [[101.98486643132048, 69.23026505770113], [101.98286302188211, 69.23139244028849]]}, "properties": {"source": "1807360", "target": "1329035"}}, {"type": "Feature", "geometry": {"type": "LineString", "coordinates": [[101.98136455718327, 69.23064338188436], [101.98365361656477, 69.23095002068982]]}, "properties": {"source": "21020", "target": "1807364"}}, {"type": "Feature", "geometry": {"type": "LineString", "coordinates": [[101.98136455718327, 69.23064338188436], [101.98050828462368, 69.23086640271413]]}, "properties": {"source": "21020", "target": "1807355"}}, {"type": "Feature", "geometry": {"type": "LineString", "coordinates": [[101.98136455718327, 69.23064338188436], [101.98029320088415, 69.23053195377867]]}, "properties": {"source": "21020", "target": "21021"}}, {"type": "Feature", "geometry": {"type": "LineString", "coordinates": [[101.98136455718327, 69.23064338188436], [101.98486643132048, 69.23026505770113]]}, "properties": {"source": "21020", "target": "1807360"}}, {"type": "Feature", "geometry": {"type": "LineString", "coordinates": [[101.98136455718327, 69.23064338188436], [101.9804664976055, 69.2312932567512]]}, "properties": {"source": "21020", "target": "19630"}}, {"type": "Feature", "geometry": {"type": "LineString", "coordinates": [[101.98369016192748, 69.23042742250726], [101.98296485027265, 69.23030630002893]]}, "properties": {"source": "11796075", "target": "6727766"}}, {"type": "Feature", "geometry": {"type": "LineString", "coordinates": [[101.98369016192748, 69.23042742250726], [101.98318725013633, 69.22977236408622]]}, "properties": {"source": "11796075", "target": "6177962"}}, {"type": "Feature", "geometry": {"type": "LineString", "coordinates": [[101.98369016192748, 69.23042742250726], [101.98322408508648, 69.23096073585015]]}, "properties": {"source": "11796075", "target": "6086868"}}, {"type": "Feature", "geometry": {"type": "LineString", "coordinates": [[101.98369016192748, 69.23042742250726], [101.98490869377844, 69.2300668582046]]}, "properties": {"source": "11796075", "target": "13157685"}}, {"type": "Feature", "geometry": {"type": "LineString", "coordinates": [[101.98369016192748, 69.23042742250726], [101.98162314581776, 69.23128877037135]]}, "properties": {"source": "11796075", "target": "11796121"}}, {"type": "Feature", "geometry": {"type": "LineString", "coordinates": [[101.98369016192748, 69.23042742250726], [101.98042660265986, 69.2310248195572]]}, "properties": {"source": "11796075", "target": "11796103"}}, {"type": "Feature", "geometry": {"type": "LineString", "coordinates": [[101.98365361656477, 69.23095002068982], [101.9817178343772, 69.23100330134878]]}, "properties": {"source": "1807364", "target": "2009584"}}, {"type": "Feature", "geometry": {"type": "LineString", "coordinates": [[101.98365361656477, 69.23095002068982], [101.98404261750727, 69.23122842190847]]}, "properties": {"source": "1807364", "target": "2009588"}}, {"type": "Feature", "geometry": {"type": "LineString", "coordinates": [[101.98136455718327, 69.23064338188436], [101.98453431119913, 69.23071561273997]]}, "properties": {"source": "21020", "target": "21017"}}, {"type": "Feature", "geometry": {"type": "LineString", "coordinates": [[101.9804664976055, 69.2312932567512], [101.98486643132048, 69.23026505770113]]}, "properties": {"source": "19630", "target": "1807360"}}, {"type": "Feature", "geometry": {"type": "LineString", "coordinates": [[101.9804664976055, 69.2312932567512], [101.98453431119913, 69.23071561273997]]}, "properties": {"source": "19630", "target": "21017"}}, {"type": "Feature", "geometry": {"type": "LineString", "coordinates": [[101.98317982347004, 69.2299667294397], [101.9817178343772, 69.23100330134878]]}, "properties": {"source": "16064365", "target": "2009584"}}, {"type": "Feature", "geometry": {"type": "LineString", "coordinates": [[101.98317982347004, 69.2299667294397], [101.98404261750727, 69.23122842190847]]}, "properties": {"source": "16064365", "target": "2009588"}}, {"type": "Feature", "geometry": {"type": "LineString", "coordinates": [[101.98317982347004, 69.2299667294397], [101.98424485704845, 69.23103067284598]]}, "properties": {"source": "16064365", "target": "2009587"}}, {"type": "Feature", "geometry": {"type": "LineString", "coordinates": [[101.98460582672112, 69.23074671650559], [101.98486643132048, 69.23026505770113]]}, "properties": {"source": "1851716", "target": "1807360"}}, {"type": "Feature", "geometry": {"type": "LineString", "coordinates": [[101.98460582672112, 69.23074671650559], [101.98286302188211, 69.23139244028849]]}, "properties": {"source": "1851716", "target": "1329035"}}, {"type": "Feature", "geometry": {"type": "LineString", "coordinates": [[101.98050828462368, 69.23086640271413], [101.98486643132048, 69.23026505770113]]}, "properties": {"source": "1807355", "target": "1807360"}}, {"type": "Feature", "geometry": {"type": "LineString", "coordinates": [[101.98050828462368, 69.23086640271413], [101.9804664976055, 69.2312932567512]]}, "properties": {"source": "1807355", "target": "19630"}}, {"type": "Feature", "geometry": {"type": "LineString", "coordinates": [[101.98050828462368, 69.23086640271413], [101.98453431119913, 69.23071561273997]]}, "properties": {"source": "1807355", "target": "21017"}}, {"type": "Feature", "geometry": {"type": "LineString", "coordinates": [[101.98029320088415, 69.23053195377867], [101.98276078046183, 69.23019448993062]]}, "properties": {"source": "21021", "target": "25642628"}}, {"type": "Feature", "geometry": {"type": "LineString", "coordinates": [[101.98029320088415, 69.23053195377867], [101.98365361656477, 69.23095002068982]]}, "properties": {"source": "21021", "target": "1807364"}}, {"type": "Feature", "geometry": {"type": "LineString", "coordinates": [[101.98029320088415, 69.23053195377867], [101.98050828462368, 69.23086640271413]]}, "properties": {"source": "21021", "target": "1807355"}}, {"type": "Feature", "geometry": {"type": "LineString", "coordinates": [[101.98029320088415, 69.23053195377867], [101.98486643132048, 69.23026505770113]]}, "properties": {"source": "21021", "target": "1807360"}}, {"type": "Feature", "geometry": {"type": "LineString", "coordinates": [[101.98029320088415, 69.23053195377867], [101.9804664976055, 69.2312932567512]]}, "properties": {"source": "21021", "target": "19630"}}, {"type": "Feature", "geometry": {"type": "LineString", "coordinates": [[101.98318725013633, 69.22977236408622], [101.98424485704845, 69.23103067284598]]}, "properties": {"source": "6177962", "target": "2009587"}}, {"type": "Feature", "geometry": {"type": "LineString", "coordinates": [[101.98318725013633, 69.22977236408622], [101.98322408508648, 69.23096073585015]]}, "properties": {"source": "6177962", "target": "6086868"}}, {"type": "Feature", "geometry": {"type": "LineString", "coordinates": [[101.98318725013633, 69.22977236408622], [101.98490869377844, 69.2300668582046]]}, "properties": {"source": "6177962", "target": "13157685"}}, {"type": "Feature", "geometry": {"type": "LineString", "coordinates": [[101.98318725013633, 69.22977236408622], [101.98042660265986, 69.2310248195572]]}, "properties": {"source": "6177962", "target": "11796103"}}, {"type": "Feature", "geometry": {"type": "LineString", "coordinates": [[101.98424485704845, 69.23103067284598], [101.98322408508648, 69.23096073585015]]}, "properties": {"source": "2009587", "target": "6086868"}}, {"type": "Feature", "geometry": {"type": "LineString", "coordinates": [[101.98122729252697, 69.23150631648923], [101.98318725013633, 69.22977236408622]]}, "properties": {"source": "6364553", "target": "6177962"}}, {"type": "Feature", "geometry": {"type": "LineString", "coordinates": [[101.98122729252697, 69.23150631648923], [101.98424485704845, 69.23103067284598]]}, "properties": {"source": "6364553", "target": "2009587"}}, {"type": "Feature", "geometry": {"type": "LineString", "coordinates": [[101.98122729252697, 69.23150631648923], [101.98322408508648, 69.23096073585015]]}, "properties": {"source": "6364553", "target": "6086868"}}, {"type": "Feature", "geometry": {"type": "LineString", "coordinates": [[101.9817178343772, 69.23100330134878], [101.98318725013633, 69.22977236408622]]}, "properties": {"source": "2009584", "target": "6177962"}}, {"type": "Feature", "geometry": {"type": "LineString", "coordinates": [[101.9817178343772, 69.23100330134878], [101.98424485704845, 69.23103067284598]]}, "properties": {"source": "2009584", "target": "2009587"}}, {"type": "Feature", "geometry": {"type": "LineString", "coordinates": [[101.9817178343772, 69.23100330134878], [101.98322408508648, 69.23096073585015]]}, "properties": {"source": "2009584", "target": "6086868"}}, {"type": "Feature", "geometry": {"type": "LineString", "coordinates": [[101.9817178343772, 69.23100330134878], [101.98122729252697, 69.23150631648923]]}, "properties": {"source": "2009584", "target": "6364553"}}, {"type": "Feature", "geometry": {"type": "LineString", "coordinates": [[101.9817178343772, 69.23100330134878], [101.98490869377844, 69.2300668582046]]}, "properties": {"source": "2009584", "target": "13157685"}}, {"type": "Feature", "geometry": {"type": "LineString", "coordinates": [[101.9817178343772, 69.23100330134878], [101.98042660265986, 69.2310248195572]]}, "properties": {"source": "2009584", "target": "11796103"}}, {"type": "Feature", "geometry": {"type": "LineString", "coordinates": [[101.98404261750727, 69.23122842190847], [101.9817178343772, 69.23100330134878]]}, "properties": {"source": "2009588", "target": "2009584"}}, {"type": "Feature", "geometry": {"type": "LineString", "coordinates": [[101.98404261750727, 69.23122842190847], [101.98318725013633, 69.22977236408622]]}, "properties": {"source": "2009588", "target": "6177962"}}, {"type": "Feature", "geometry": {"type": "LineString", "coordinates": [[101.98365361656477, 69.23095002068982], [101.98424485704845, 69.23103067284598]]}, "properties": {"source": "1807364", "target": "2009587"}}, {"type": "Feature", "geometry": {"type": "LineString", "coordinates": [[101.98365361656477, 69.23095002068982], [101.98050828462368, 69.23086640271413]]}, "properties": {"source": "1807364", "target": "1807355"}}, {"type": "Feature", "geometry": {"type": "LineString", "coordinates": [[101.98365361656477, 69.23095002068982], [101.98486643132048, 69.23026505770113]]}, "properties": {"source": "1807364", "target": "1807360"}}, {"type": "Feature", "geometry": {"type": "LineString", "coordinates": [[101.98365361656477, 69.23095002068982], [101.9804664976055, 69.2312932567512]]}, "properties": {"source": "1807364", "target": "19630"}}, {"type": "Feature", "geometry": {"type": "LineString", "coordinates": [[101.98365361656477, 69.23095002068982], [101.98453431119913, 69.23071561273997]]}, "properties": {"source": "1807364", "target": "21017"}}, {"type": "Feature", "geometry": {"type": "LineString", "coordinates": [[101.98050828462368, 69.23086640271413], [101.9817178343772, 69.23100330134878]]}, "properties": {"source": "1807355", "target": "2009584"}}, {"type": "Feature", "geometry": {"type": "LineString", "coordinates": [[101.98050828462368, 69.23086640271413], [101.98404261750727, 69.23122842190847]]}, "properties": {"source": "1807355", "target": "2009588"}}, {"type": "Feature", "geometry": {"type": "LineString", "coordinates": [[101.98050828462368, 69.23086640271413], [101.98424485704845, 69.23103067284598]]}, "properties": {"source": "1807355", "target": "2009587"}}, {"type": "Feature", "geometry": {"type": "LineString", "coordinates": [[101.98460673687214, 69.23099591993903], [101.98404261750727, 69.23122842190847]]}, "properties": {"source": "2009586", "target": "2009588"}}, {"type": "Feature", "geometry": {"type": "LineString", "coordinates": [[101.98460673687214, 69.23099591993903], [101.98296485027265, 69.23030630002893]]}, "properties": {"source": "2009586", "target": "6727766"}}, {"type": "Feature", "geometry": {"type": "LineString", "coordinates": [[101.98460673687214, 69.23099591993903], [101.98318725013633, 69.22977236408622]]}, "properties": {"source": "2009586", "target": "6177962"}}, {"type": "Feature", "geometry": {"type": "LineString", "coordinates": [[101.98460673687214, 69.23099591993903], [101.98424485704845, 69.23103067284598]]}, "properties": {"source": "2009586", "target": "2009587"}}, {"type": "Feature", "geometry": {"type": "LineString", "coordinates": [[101.98460673687214, 69.23099591993903], [101.98322408508648, 69.23096073585015]]}, "properties": {"source": "2009586", "target": "6086868"}}, {"type": "Feature", "geometry": {"type": "LineString", "coordinates": [[101.98460673687214, 69.23099591993903], [101.98122729252697, 69.23150631648923]]}, "properties": {"source": "2009586", "target": "6364553"}}, {"type": "Feature", "geometry": {"type": "LineString", "coordinates": [[101.98460673687214, 69.23099591993903], [101.97942675511962, 69.23005293542607]]}, "properties": {"source": "2009586", "target": "25100309"}}, {"type": "Feature", "geometry": {"type": "LineString", "coordinates": [[101.98460673687214, 69.23099591993903], [101.98276078046183, 69.23019448993062]]}, "properties": {"source": "2009586", "target": "25642628"}}, {"type": "Feature", "geometry": {"type": "LineString", "coordinates": [[101.98460673687214, 69.23099591993903], [101.98162314581776, 69.23128877037135]]}, "properties": {"source": "2009586", "target": "11796121"}}, {"type": "Feature", "geometry": {"type": "LineString", "coordinates": [[101.98460673687214, 69.23099591993903], [101.98418364008, 69.23019714438254]]}, "properties": {"source": "2009586", "target": "2009585"}}, {"type": "Feature", "geometry": {"type": "LineString", "coordinates": [[101.98460673687214, 69.23099591993903], [101.98042660265986, 69.2310248195572]]}, "properties": {"source": "2009586", "target": "11796103"}}, {"type": "Feature", "geometry": {"type": "LineString", "coordinates": [[101.98460673687214, 69.23099591993903], [101.98317982347004, 69.2299667294397]]}, "properties": {"source": "2009586", "target": "16064365"}}, {"type": "Feature", "geometry": {"type": "LineString", "coordinates": [[101.97942675511962, 69.23005293542607], [101.9817178343772, 69.23100330134878]]}, "properties": {"source": "25100309", "target": "2009584"}}, {"type": "Feature", "geometry": {"type": "LineString", "coordinates": [[101.97942675511962, 69.23005293542607], [101.98404261750727, 69.23122842190847]]}, "properties": {"source": "25100309", "target": "2009588"}}, {"type": "Feature", "geometry": {"type": "LineString", "coordinates": [[101.97942675511962, 69.23005293542607], [101.98296485027265, 69.23030630002893]]}, "properties": {"source": "25100309", "target": "6727766"}}, {"type": "Feature", "geometry": {"type": "LineString", "coordinates": [[101.97942675511962, 69.23005293542607], [101.98318725013633, 69.22977236408622]]}, "properties": {"source": "25100309", "target": "6177962"}}, {"type": "Feature", "geometry": {"type": "LineString", "coordinates": [[101.98490869377844, 69.2300668582046], [101.98042660265986, 69.2310248195572]]}, "properties": {"source": "13157685", "target": "11796103"}}, {"type": "Feature", "geometry": {"type": "LineString", "coordinates": [[101.98162314581776, 69.23128877037135], [101.9817178343772, 69.23100330134878]]}, "properties": {"source": "11796121", "target": "2009584"}}, {"type": "Feature", "geometry": {"type": "LineString", "coordinates": [[101.98162314581776, 69.23128877037135], [101.98404261750727, 69.23122842190847]]}, "properties": {"source": "11796121", "target": "2009588"}}, {"type": "Feature", "geometry": {"type": "LineString", "coordinates": [[101.98162314581776, 69.23128877037135], [101.98318725013633, 69.22977236408622]]}, "properties": {"source": "11796121", "target": "6177962"}}, {"type": "Feature", "geometry": {"type": "LineString", "coordinates": [[101.98162314581776, 69.23128877037135], [101.98424485704845, 69.23103067284598]]}, "properties": {"source": "11796121", "target": "2009587"}}, {"type": "Feature", "geometry": {"type": "LineString", "coordinates": [[101.98162314581776, 69.23128877037135], [101.98322408508648, 69.23096073585015]]}, "properties": {"source": "11796121", "target": "6086868"}}, {"type": "Feature", "geometry": {"type": "LineString", "coordinates": [[101.98162314581776, 69.23128877037135], [101.98122729252697, 69.23150631648923]]}, "properties": {"source": "11796121", "target": "6364553"}}, {"type": "Feature", "geometry": {"type": "LineString", "coordinates": [[101.98162314581776, 69.23128877037135], [101.98490869377844, 69.2300668582046]]}, "properties": {"source": "11796121", "target": "13157685"}}, {"type": "Feature", "geometry": {"type": "LineString", "coordinates": [[101.97977164004084, 69.23111413189261], [101.98122729252697, 69.23150631648923]]}, "properties": {"source": "18003388", "target": "6364553"}}, {"type": "Feature", "geometry": {"type": "LineString", "coordinates": [[101.97977164004084, 69.23111413189261], [101.98460673687214, 69.23099591993903]]}, "properties": {"source": "18003388", "target": "2009586"}}, {"type": "Feature", "geometry": {"type": "LineString", "coordinates": [[101.97977164004084, 69.23111413189261], [101.97942675511962, 69.23005293542607]]}, "properties": {"source": "18003388", "target": "25100309"}}, {"type": "Feature", "geometry": {"type": "LineString", "coordinates": [[101.97977164004084, 69.23111413189261], [101.98276078046183, 69.23019448993062]]}, "properties": {"source": "18003388", "target": "25642628"}}, {"type": "Feature", "geometry": {"type": "LineString", "coordinates": [[101.97977164004084, 69.23111413189261], [101.98490869377844, 69.2300668582046]]}, "properties": {"source": "18003388", "target": "13157685"}}, {"type": "Feature", "geometry": {"type": "LineString", "coordinates": [[101.97977164004084, 69.23111413189261], [101.98162314581776, 69.23128877037135]]}, "properties": {"source": "18003388", "target": "11796121"}}, {"type": "Feature", "geometry": {"type": "LineString", "coordinates": [[101.97977164004084, 69.23111413189261], [101.98369016192748, 69.23042742250726]]}, "properties": {"source": "18003388", "target": "11796075"}}, {"type": "Feature", "geometry": {"type": "LineString", "coordinates": [[101.98460673687214, 69.23099591993903], [101.9817178343772, 69.23100330134878]]}, "properties": {"source": "2009586", "target": "2009584"}}, {"type": "Feature", "geometry": {"type": "LineString", "coordinates": [[101.98296485027265, 69.23030630002893], [101.98424485704845, 69.23103067284598]]}, "properties": {"source": "6727766", "target": "2009587"}}, {"type": "Feature", "geometry": {"type": "LineString", "coordinates": [[101.98296485027265, 69.23030630002893], [101.98322408508648, 69.23096073585015]]}, "properties": {"source": "6727766", "target": "6086868"}}, {"type": "Feature", "geometry": {"type": "LineString", "coordinates": [[101.98296485027265, 69.23030630002893], [101.98122729252697, 69.23150631648923]]}, "properties": {"source": "6727766", "target": "6364553"}}, {"type": "Feature", "geometry": {"type": "LineString", "coordinates": [[101.98296485027265, 69.23030630002893], [101.98276078046183, 69.23019448993062]]}, "properties": {"source": "6727766", "target": "25642628"}}, {"type": "Feature", "geometry": {"type": "LineString", "coordinates": [[101.98296485027265, 69.23030630002893], [101.98490869377844, 69.2300668582046]]}, "properties": {"source": "6727766", "target": "13157685"}}, {"type": "Feature", "geometry": {"type": "LineString", "coordinates": [[101.98296485027265, 69.23030630002893], [101.98162314581776, 69.23128877037135]]}, "properties": {"source": "6727766", "target": "11796121"}}, {"type": "Feature", "geometry": {"type": "LineString", "coordinates": [[101.98296485027265, 69.23030630002893], [101.98418364008, 69.23019714438254]]}, "properties": {"source": "6727766", "target": "2009585"}}, {"type": "Feature", "geometry": {"type": "LineString", "coordinates": [[101.98296485027265, 69.23030630002893], [101.98042660265986, 69.2310248195572]]}, "properties": {"source": "6727766", "target": "11796103"}}, {"type": "Feature", "geometry": {"type": "LineString", "coordinates": [[101.98418364008, 69.23019714438254], [101.98424485704845, 69.23103067284598]]}, "properties": {"source": "2009585", "target": "2009587"}}, {"type": "Feature", "geometry": {"type": "LineString", "coordinates": [[101.98418364008, 69.23019714438254], [101.98322408508648, 69.23096073585015]]}, "properties": {"source": "2009585", "target": "6086868"}}, {"type": "Feature", "geometry": {"type": "LineString", "coordinates": [[101.98418364008, 69.23019714438254], [101.98122729252697, 69.23150631648923]]}, "properties": {"source": "2009585", "target": "6364553"}}, {"type": "Feature", "geometry": {"type": "LineString", "coordinates": [[101.98418364008, 69.23019714438254], [101.98276078046183, 69.23019448993062]]}, "properties": {"source": "2009585", "target": "25642628"}}, {"type": "Feature", "geometry": {"type": "LineString", "coordinates": [[101.98418364008, 69.23019714438254], [101.98317982347004, 69.2299667294397]]}, "properties": {"source": "2009585", "target": "16064365"}}, {"type": "Feature", "geometry": {"type": "LineString", "coordinates": [[101.98042660265986, 69.2310248195572], [101.98322408508648, 69.23096073585015]]}, "properties": {"source": "11796103", "target": "6086868"}}, {"type": "Feature", "geometry": {"type": "LineString", "coordinates": [[101.98369016192748, 69.23042742250726], [101.9817178343772, 69.23100330134878]]}, "properties": {"source": "11796075", "target": "2009584"}}, {"type": "Feature", "geometry": {"type": "LineString", "coordinates": [[101.98369016192748, 69.23042742250726], [101.98404261750727, 69.23122842190847]]}, "properties": {"source": "11796075", "target": "2009588"}}, {"type": "Feature", "geometry": {"type": "LineString", "coordinates": [[101.98122729252697, 69.23150631648923], [101.98490869377844, 69.2300668582046]]}, "properties": {"source": "6364553", "target": "13157685"}}, {"type": "Feature", "geometry": {"type": "LineString", "coordinates": [[101.98122729252697, 69.23150631648923], [101.98042660265986, 69.2310248195572]]}, "properties": {"source": "6364553", "target": "11796103"}}, {"type": "Feature", "geometry": {"type": "LineString", "coordinates": [[101.97977164004084, 69.23111413189261], [101.9817178343772, 69.23100330134878]]}, "properties": {"source": "18003388", "target": "2009584"}}, {"type": "Feature", "geometry": {"type": "LineString", "coordinates": [[101.97977164004084, 69.23111413189261], [101.98404261750727, 69.23122842190847]]}, "properties": {"source": "18003388", "target": "2009588"}}, {"type": "Feature", "geometry": {"type": "LineString", "coordinates": [[101.97977164004084, 69.23111413189261], [101.98296485027265, 69.23030630002893]]}, "properties": {"source": "18003388", "target": "6727766"}}, {"type": "Feature", "geometry": {"type": "LineString", "coordinates": [[101.97977164004084, 69.23111413189261], [101.98318725013633, 69.22977236408622]]}, "properties": {"source": "18003388", "target": "6177962"}}, {"type": "Feature", "geometry": {"type": "LineString", "coordinates": [[101.97977164004084, 69.23111413189261], [101.98424485704845, 69.23103067284598]]}, "properties": {"source": "18003388", "target": "2009587"}}, {"type": "Feature", "geometry": {"type": "LineString", "coordinates": [[101.97977164004084, 69.23111413189261], [101.98322408508648, 69.23096073585015]]}, "properties": {"source": "18003388", "target": "6086868"}}, {"type": "Feature", "geometry": {"type": "LineString", "coordinates": [[101.98162314581776, 69.23128877037135], [101.98042660265986, 69.2310248195572]]}, "properties": {"source": "11796121", "target": "11796103"}}, {"type": "Feature", "geometry": {"type": "LineString", "coordinates": [[101.98404199002073, 69.23060026318578], [101.9817178343772, 69.23100330134878]]}, "properties": {"source": "11796120", "target": "2009584"}}, {"type": "Feature", "geometry": {"type": "LineString", "coordinates": [[101.98404199002073, 69.23060026318578], [101.98296485027265, 69.23030630002893]]}, "properties": {"source": "11796120", "target": "6727766"}}, {"type": "Feature", "geometry": {"type": "LineString", "coordinates": [[101.98404199002073, 69.23060026318578], [101.98318725013633, 69.22977236408622]]}, "properties": {"source": "11796120", "target": "6177962"}}, {"type": "Feature", "geometry": {"type": "LineString", "coordinates": [[101.98404199002073, 69.23060026318578], [101.98322408508648, 69.23096073585015]]}, "properties": {"source": "11796120", "target": "6086868"}}, {"type": "Feature", "geometry": {"type": "LineString", "coordinates": [[101.98404199002073, 69.23060026318578], [101.98122729252697, 69.23150631648923]]}, "properties": {"source": "11796120", "target": "6364553"}}, {"type": "Feature", "geometry": {"type": "LineString", "coordinates": [[101.98404199002073, 69.23060026318578], [101.97977164004084, 69.23111413189261]]}, "properties": {"source": "11796120", "target": "18003388"}}, {"type": "Feature", "geometry": {"type": "LineString", "coordinates": [[101.98404199002073, 69.23060026318578], [101.97942675511962, 69.23005293542607]]}, "properties": {"source": "11796120", "target": "25100309"}}, {"type": "Feature", "geometry": {"type": "LineString", "coordinates": [[101.98404199002073, 69.23060026318578], [101.98276078046183, 69.23019448993062]]}, "properties": {"source": "11796120", "target": "25642628"}}, {"type": "Feature", "geometry": {"type": "LineString", "coordinates": [[101.98404199002073, 69.23060026318578], [101.98490869377844, 69.2300668582046]]}, "properties": {"source": "11796120", "target": "13157685"}}, {"type": "Feature", "geometry": {"type": "LineString", "coordinates": [[101.98404199002073, 69.23060026318578], [101.98162314581776, 69.23128877037135]]}, "properties": {"source": "11796120", "target": "11796121"}}, {"type": "Feature", "geometry": {"type": "LineString", "coordinates": [[101.98404199002073, 69.23060026318578], [101.98042660265986, 69.2310248195572]]}, "properties": {"source": "11796120", "target": "11796103"}}, {"type": "Feature", "geometry": {"type": "LineString", "coordinates": [[101.98404199002073, 69.23060026318578], [101.98369016192748, 69.23042742250726]]}, "properties": {"source": "11796120", "target": "11796075"}}, {"type": "Feature", "geometry": {"type": "LineString", "coordinates": [[101.98418364008, 69.23019714438254], [101.9817178343772, 69.23100330134878]]}, "properties": {"source": "2009585", "target": "2009584"}}, {"type": "Feature", "geometry": {"type": "LineString", "coordinates": [[101.98418364008, 69.23019714438254], [101.98404261750727, 69.23122842190847]]}, "properties": {"source": "2009585", "target": "2009588"}}, {"type": "Feature", "geometry": {"type": "LineString", "coordinates": [[101.98418364008, 69.23019714438254], [101.98318725013633, 69.22977236408622]]}, "properties": {"source": "2009585", "target": "6177962"}}]}