{"type": "FeatureCollection", "features": [{"type": "Feature", "geometry": {"type": "LineString", "coordinates": [[105.24148470286724, 69.03929929992276], [105.23281520299139, 69.03870959951286]]}, "properties": {"source": "6581799", "target": "6476455"}}, {"type": "Feature", "geometry": {"type": "LineString", "coordinates": [[105.24148470286724, 69.03929929992276], [105.23200151826887, 69.0419030844431]]}, "properties": {"source": "6581799", "target": "6450459"}}, {"type": "Feature", "geometry": {"type": "LineString", "coordinates": [[105.24148470286724, 69.03929929992276], [105.23663408622014, 69.04174516694306]]}, "properties": {"source": "6581799", "target": "8487239"}}, {"type": "Feature", "geometry": {"type": "LineString", "coordinates": [[105.24148470286724, 69.03929929992276], [105.2350485486296, 69.03968604945211]]}, "properties": {"source": "6581799", "target": "6218868"}}, {"type": "Feature", "geometry": {"type": "LineString", "coordinates": [[105.23848719395278, 69.0380863201492], [105.23384682624788, 69.04047242173667]]}, "properties": {"source": "27049597", "target": "29393793"}}, {"type": "Feature", "geometry": {"type": "LineString", "coordinates": [[105.23848719395278, 69.0380863201492], [105.24421494387195, 69.04131289698174]]}, "properties": {"source": "27049597", "target": "15719645"}}, {"type": "Feature", "geometry": {"type": "LineString", "coordinates": [[105.23197361245974, 69.0420355425145], [105.23247446952496, 69.0409700914887]]}, "properties": {"source": "6422771", "target": "6747508"}}, {"type": "Feature", "geometry": {"type": "LineString", "coordinates": [[105.23197361245974, 69.0420355425145], [105.23281520299139, 69.03870959951286]]}, "properties": {"source": "6422771", "target": "6476455"}}, {"type": "Feature", "geometry": {"type": "LineString", "coordinates": [[105.23197361245974, 69.0420355425145], [105.23200151826887, 69.0419030844431]]}, "properties": {"source": "6422771", "target": "6450459"}}, {"type": "Feature", "geometry": {"type": "LineString", "coordinates": [[105.23197361245974, 69.0420355425145], [105.2350485486296, 69.03968604945211]]}, "properties": {"source": "6422771", "target": "6218868"}}, {"type": "Feature", "geometry": {"type": "LineString", "coordinates": [[105.23197361245974, 69.0420355425145], [105.24338063647701, 69.04124443982937]]}, "properties": {"source": "6422771", "target": "6386030"}}, {"type": "Feature", "geometry": {"type": "LineString", "coordinates": [[105.24338063647701, 69.04124443982937], [105.23247446952496, 69.0409700914887]]}, "properties": {"source": "6386030", "target": "6747508"}}, {"type": "Feature", "geometry": {"type": "LineString", "coordinates": [[105.24338063647701, 69.04124443982937], [105.23281520299139, 69.03870959951286]]}, "properties": {"source": "6386030", "target": "6476455"}}, {"type": "Feature", "geometry": {"type": "LineString", "coordinates": [[105.24338063647701, 69.04124443982937], [105.23200151826887, 69.0419030844431]]}, "properties": {"source": "6386030", "target": "6450459"}}, {"type": "Feature", "geometry": {"type": "LineString", "coordinates": [[105.24338063647701, 69.04124443982937], [105.2350485486296, 69.03968604945211]]}, "properties": {"source": "6386030", "target": "6218868"}}, {"type": "Feature", "geometry": {"type": "LineString", "coordinates": [[105.24472191778182, 69.03775788378329], [105.23625256649075, 69.04155286483342]]}, "properties": {"source": "542713", "target": "7647756"}}, {"type": "Feature", "geometry": {"type": "LineString", "coordinates": [[105.2319249729212, 69.04022318651323], [105.24037677752483, 69.03870958720316]]}, "properties": {"source": "22237659", "target": "542715"}}, {"type": "Feature", "geometry": {"type": "LineString", "coordinates": [[105.2319249729212, 69.04022318651323], [105.24472191778182, 69.03775788378329]]}, "properties": {"source": "22237659", "target": "542713"}}, {"type": "Feature", "geometry": {"type": "LineString", "coordinates": [[105.2319249729212, 69.04022318651323], [105.23591975935761, 69.03855444274686]]}, "properties": {"source": "22237659", "target": "10836073"}}, {"type": "Feature", "geometry": {"type": "LineString", "coordinates": [[105.23107917340093, 69.03893861513791], [105.23247446952496, 69.0409700914887]]}, "properties": {"source": "8175835", "target": "6747508"}}, {"type": "Feature", "geometry": {"type": "LineString", "coordinates": [[105.23107917340093, 69.03893861513791], [105.23281520299139, 69.03870959951286]]}, "properties": {"source": "8175835", "target": "6476455"}}, {"type": "Feature", "geometry": {"type": "LineString", "coordinates": [[105.23107917340093, 69.03893861513791], [105.23200151826887, 69.0419030844431]]}, "properties": {"source": "8175835", "target": "6450459"}}, {"type": "Feature", "geometry": {"type": "LineString", "coordinates": [[105.23164014429636, 69.04132352887714], [105.24100236738815, 69.03872748718635]]}, "properties": {"source": "34402672", "target": "24911347"}}, {"type": "Feature", "geometry": {"type": "LineString", "coordinates": [[105.23364135370963, 69.03797276706231], [105.24472191778182, 69.03775788378329]]}, "properties": {"source": "94788", "target": "542713"}}, {"type": "Feature", "geometry": {"type": "LineString", "coordinates": [[105.23364135370963, 69.03797276706231], [105.23625256649075, 69.04155286483342]]}, "properties": {"source": "94788", "target": "7647756"}}, {"type": "Feature", "geometry": {"type": "LineString", "coordinates": [[105.23364135370963, 69.03797276706231], [105.24012221872925, 69.03957825226928]]}, "properties": {"source": "94788", "target": "7846897"}}, {"type": "Feature", "geometry": {"type": "LineString", "coordinates": [[105.23625256649075, 69.04155286483342], [105.24012221872925, 69.03957825226928]]}, "properties": {"source": "7647756", "target": "7846897"}}, {"type": "Feature", "geometry": {"type": "LineString", "coordinates": [[105.23402639161696, 69.04150701048448], [105.23198340737758, 69.04066148141413]]}, "properties": {"source": "443631", "target": "30956004"}}, {"type": "Feature", "geometry": {"type": "LineString", "coordinates": [[105.23603123655886, 69.038846259894], [105.23200151826887, 69.0419030844431]]}, "properties": {"source": "1083212", "target": "6450459"}}, {"type": "Feature", "geometry": {"type": "LineString", "coordinates": [[105.24248026161473, 69.03945979156103], [105.23247446952496, 69.0409700914887]]}, "properties": {"source": "71640", "target": "6747508"}}, {"type": "Feature", "geometry": {"type": "LineString", "coordinates": [[105.24248026161473, 69.03945979156103], [105.23281520299139, 69.03870959951286]]}, "properties": {"source": "71640", "target": "6476455"}}, {"type": "Feature", "geometry": {"type": "LineString", "coordinates": [[105.24248026161473, 69.03945979156103], [105.23200151826887, 69.0419030844431]]}, "properties": {"source": "71640", "target": "6450459"}}, {"type": "Feature", "geometry": {"type": "LineString", "coordinates": [[105.24248026161473, 69.03945979156103], [105.23663408622014, 69.04174516694306]]}, "properties": {"source": "71640", "target": "8487239"}}, {"type": "Feature", "geometry": {"type": "LineString", "coordinates": [[105.2391886911999, 69.03884088678134], [105.23841863629798, 69.03840292275888]]}, "properties": {"source": "9839", "target": "9251004"}}, {"type": "Feature", "geometry": {"type": "LineString", "coordinates": [[105.2391886911999, 69.03884088678134], [105.23809404303762, 69.03889041921093]]}, "properties": {"source": "9839", "target": "933122"}}, {"type": "Feature", "geometry": {"type": "LineString", "coordinates": [[105.2391886911999, 69.03884088678134], [105.2385398036543, 69.03729932915473]]}, "properties": {"source": "9839", "target": "9901635"}}, {"type": "Feature", "geometry": {"type": "LineString", "coordinates": [[105.2391886911999, 69.03884088678134], [105.23074909871718, 69.04035469091374]]}, "properties": {"source": "9839", "target": "9969717"}}, {"type": "Feature", "geometry": {"type": "LineString", "coordinates": [[105.23591975935761, 69.03855444274686], [105.24472191778182, 69.03775788378329]]}, "properties": {"source": "10836073", "target": "542713"}}, {"type": "Feature", "geometry": {"type": "LineString", "coordinates": [[105.23591975935761, 69.03855444274686], [105.23452278077838, 69.03812591537064]]}, "properties": {"source": "10836073", "target": "19826144"}}, {"type": "Feature", "geometry": {"type": "LineString", "coordinates": [[105.24153352891545, 69.04094518382325], [105.23247446952496, 69.0409700914887]]}, "properties": {"source": "8645435", "target": "6747508"}}, {"type": "Feature", "geometry": {"type": "LineString", "coordinates": [[105.24153352891545, 69.04094518382325], [105.23663408622014, 69.04174516694306]]}, "properties": {"source": "8645435", "target": "8487239"}}, {"type": "Feature", "geometry": {"type": "LineString", "coordinates": [[105.24153352891545, 69.04094518382325], [105.23809404303762, 69.03889041921093]]}, "properties": {"source": "8645435", "target": "933122"}}, {"type": "Feature", "geometry": {"type": "LineString", "coordinates": [[105.23931930190679, 69.03790740777956], [105.24037677752483, 69.03870958720316]]}, "properties": {"source": "34082634", "target": "542715"}}, {"type": "Feature", "geometry": {"type": "LineString", "coordinates": [[105.23931930190679, 69.03790740777956], [105.23164014429636, 69.04132352887714]]}, "properties": {"source": "34082634", "target": "34402672"}}, {"type": "Feature", "geometry": {"type": "LineString", "coordinates": [[105.24018633340205, 69.03899139676244], [105.23384682624788, 69.04047242173667]]}, "properties": {"source": "27852837", "target": "29393793"}}, {"type": "Feature", "geometry": {"type": "LineString", "coordinates": [[105.24018633340205, 69.03899139676244], [105.2351783036342, 69.03908916280648]]}, "properties": {"source": "27852837", "target": "28525008"}}, {"type": "Feature", "geometry": {"type": "LineString", "coordinates": [[105.24018633340205, 69.03899139676244], [105.23331100074273, 69.04146515121013]]}, "properties": {"source": "27852837", "target": "5395739"}}, {"type": "Feature", "geometry": {"type": "LineString", "coordinates": [[105.24018633340205, 69.03899139676244], [105.23848719395278, 69.0380863201492]]}, "properties": {"source": "27852837", "target": "27049597"}}, {"type": "Feature", "geometry": {"type": "LineString", "coordinates": [[105.24018633340205, 69.03899139676244], [105.24421494387195, 69.04131289698174]]}, "properties": {"source": "27852837", "target": "15719645"}}, {"type": "Feature", "geometry": {"type": "LineString", "coordinates": [[105.24018633340205, 69.03899139676244], [105.2326738793061, 69.04194250201294]]}, "properties": {"source": "27852837", "target": "25920880"}}, {"type": "Feature", "geometry": {"type": "LineString", "coordinates": [[105.24018633340205, 69.03899139676244], [105.23198340737758, 69.04066148141413]]}, "properties": {"source": "27852837", "target": "30956004"}}, {"type": "Feature", "geometry": {"type": "LineString", "coordinates": [[105.24018633340205, 69.03899139676244], [105.24297938075625, 69.04175180598]]}, "properties": {"source": "27852837", "target": "11324909"}}, {"type": "Feature", "geometry": {"type": "LineString", "coordinates": [[105.23702337242628, 69.03856650047405], [105.23247446952496, 69.0409700914887]]}, "properties": {"source": "11233113", "target": "6747508"}}, {"type": "Feature", "geometry": {"type": "LineString", "coordinates": [[105.23702337242628, 69.03856650047405], [105.23281520299139, 69.03870959951286]]}, "properties": {"source": "11233113", "target": "6476455"}}, {"type": "Feature", "geometry": {"type": "LineString", "coordinates": [[105.23702337242628, 69.03856650047405], [105.23200151826887, 69.0419030844431]]}, "properties": {"source": "11233113", "target": "6450459"}}, {"type": "Feature", "geometry": {"type": "LineString", "coordinates": [[105.23702337242628, 69.03856650047405], [105.23841863629798, 69.03840292275888]]}, "properties": {"source": "11233113", "target": "9251004"}}, {"type": "Feature", "geometry": {"type": "LineString", "coordinates": [[105.23702337242628, 69.03856650047405], [105.23659615924993, 69.04201251586733]]}, "properties": {"source": "11233113", "target": "12272255"}}, {"type": "Feature", "geometry": {"type": "LineString", "coordinates": [[105.23702337242628, 69.03856650047405], [105.23663408622014, 69.04174516694306]]}, "properties": {"source": "11233113", "target": "8487239"}}, {"type": "Feature", "geometry": {"type": "LineString", "coordinates": [[105.23702337242628, 69.03856650047405], [105.23809404303762, 69.03889041921093]]}, "properties": {"source": "11233113", "target": "933122"}}, {"type": "Feature", "geometry": {"type": "LineString", "coordinates": [[105.23702337242628, 69.03856650047405], [105.2385398036543, 69.03729932915473]]}, "properties": {"source": "11233113", "target": "9901635"}}, {"type": "Feature", "geometry": {"type": "LineString", "coordinates": [[105.23659615924993, 69.04201251586733], [105.2385398036543, 69.03729932915473]]}, "properties": {"source": "12272255", "target": "9901635"}}, {"type": "Feature", "geometry": {"type": "LineString", "coordinates": [[105.23644097181187, 69.03917444017182], [105.23064548732413, 69.0402352994708]]}, "properties": {"source": "13557411", "target": "13053704"}}, {"type": "Feature", "geometry": {"type": "LineString", "coordinates": [[105.23644097181187, 69.03917444017182], [105.23536195925385, 69.0417803575528]]}, "properties": {"source": "13557411", "target": "13435892"}}, {"type": "Feature", "geometry": {"type": "LineString", "coordinates": [[105.23644097181187, 69.03917444017182], [105.24500558377144, 69.0415380535776]]}, "properties": {"source": "13557411", "target": "30250241"}}, {"type": "Feature", "geometry": {"type": "LineString", "coordinates": [[105.23644097181187, 69.03917444017182], [105.24308589970491, 69.04147225242107]]}, "properties": {"source": "13557411", "target": "13638369"}}, {"type": "Feature", "geometry": {"type": "LineString", "coordinates": [[105.23644097181187, 69.03917444017182], [105.24071991848808, 69.03796713253891]]}, "properties": {"source": "13557411", "target": "6760419"}}, {"type": "Feature", "geometry": {"type": "LineString", "coordinates": [[105.23809404303762, 69.03889041921093], [105.2347591630197, 69.0409564528957]]}, "properties": {"source": "933122", "target": "10493517"}}, {"type": "Feature", "geometry": {"type": "LineString", "coordinates": [[105.23809404303762, 69.03889041921093], [105.2385398036543, 69.03729932915473]]}, "properties": {"source": "933122", "target": "9901635"}}, {"type": "Feature", "geometry": {"type": "LineString", "coordinates": [[105.23809404303762, 69.03889041921093], [105.23074909871718, 69.04035469091374]]}, "properties": {"source": "933122", "target": "9969717"}}, {"type": "Feature", "geometry": {"type": "LineString", "coordinates": [[105.2347591630197, 69.0409564528957], [105.23247446952496, 69.0409700914887]]}, "properties": {"source": "10493517", "target": "6747508"}}, {"type": "Feature", "geometry": {"type": "LineString", "coordinates": [[105.2347591630197, 69.0409564528957], [105.23200151826887, 69.0419030844431]]}, "properties": {"source": "10493517", "target": "6450459"}}, {"type": "Feature", "geometry": {"type": "LineString", "coordinates": [[105.23663408622014, 69.04174516694306], [105.23247446952496, 69.0409700914887]]}, "properties": {"source": "8487239", "target": "6747508"}}, {"type": "Feature", "geometry": {"type": "LineString", "coordinates": [[105.23663408622014, 69.04174516694306], [105.23809404303762, 69.03889041921093]]}, "properties": {"source": "8487239", "target": "933122"}}, {"type": "Feature", "geometry": {"type": "LineString", "coordinates": [[105.23663408622014, 69.04174516694306], [105.2347591630197, 69.0409564528957]]}, "properties": {"source": "8487239", "target": "10493517"}}, {"type": "Feature", "geometry": {"type": "LineString", "coordinates": [[105.24500558377144, 69.0415380535776], [105.23452278077838, 69.03812591537064]]}, "properties": {"source": "30250241", "target": "19826144"}}, {"type": "Feature", "geometry": {"type": "LineString", "coordinates": [[105.24400122362374, 69.03764273657598], [105.24037677752483, 69.03870958720316]]}, "properties": {"source": "6479615", "target": "542715"}}, {"type": "Feature", "geometry": {"type": "LineString", "coordinates": [[105.23644097181187, 69.03917444017182], [105.23253326336106, 69.03841210951398]]}, "properties": {"source": "13557411", "target": "10944892"}}, {"type": "Feature", "geometry": {"type": "LineString", "coordinates": [[105.23644097181187, 69.03917444017182], [105.23281693779762, 69.04031842665151]]}, "properties": {"source": "13557411", "target": "29984913"}}, {"type": "Feature", "geometry": {"type": "LineString", "coordinates": [[105.24500558377144, 69.0415380535776], [105.23253326336106, 69.03841210951398]]}, "properties": {"source": "30250241", "target": "10944892"}}, {"type": "Feature", "geometry": {"type": "LineString", "coordinates": [[105.24500558377144, 69.0415380535776], [105.23281693779762, 69.04031842665151]]}, "properties": {"source": "30250241", "target": "29984913"}}, {"type": "Feature", "geometry": {"type": "LineString", "coordinates": [[105.2351783036342, 69.03908916280648], [105.24421494387195, 69.04131289698174]]}, "properties": {"source": "28525008", "target": "15719645"}}, {"type": "Feature", "geometry": {"type": "LineString", "coordinates": [[105.2351783036342, 69.03908916280648], [105.2326738793061, 69.04194250201294]]}, "properties": {"source": "28525008", "target": "25920880"}}, {"type": "Feature", "geometry": {"type": "LineString", "coordinates": [[105.2349124397756, 69.03763352253614], [105.23644097181187, 69.03917444017182]]}, "properties": {"source": "6479605", "target": "13557411"}}, {"type": "Feature", "geometry": {"type": "LineString", "coordinates": [[105.2349124397756, 69.03763352253614], [105.23064548732413, 69.0402352994708]]}, "properties": {"source": "6479605", "target": "13053704"}}, {"type": "Feature", "geometry": {"type": "LineString", "coordinates": [[105.2349124397756, 69.03763352253614], [105.23536195925385, 69.0417803575528]]}, "properties": {"source": "6479605", "target": "13435892"}}, {"type": "Feature", "geometry": {"type": "LineString", "coordinates": [[105.2349124397756, 69.03763352253614], [105.24071991848808, 69.03796713253891]]}, "properties": {"source": "6479605", "target": "6760419"}}, {"type": "Feature", "geometry": {"type": "LineString", "coordinates": [[105.24161409152526, 69.03844300494384], [105.23247446952496, 69.0409700914887]]}, "properties": {"source": "12706012", "target": "6747508"}}, {"type": "Feature", "geometry": {"type": "LineString", "coordinates": [[105.24161409152526, 69.03844300494384], [105.23281520299139, 69.03870959951286]]}, "properties": {"source": "12706012", "target": "6476455"}}, {"type": "Feature", "geometry": {"type": "LineString", "coordinates": [[105.24161409152526, 69.03844300494384], [105.23200151826887, 69.0419030844431]]}, "properties": {"source": "12706012", "target": "6450459"}}, {"type": "Feature", "geometry": {"type": "LineString", "coordinates": [[105.24161409152526, 69.03844300494384], [105.23809404303762, 69.03889041921093]]}, "properties": {"source": "12706012", "target": "933122"}}, {"type": "Feature", "geometry": {"type": "LineString", "coordinates": [[105.24161409152526, 69.03844300494384], [105.2385398036543, 69.03729932915473]]}, "properties": {"source": "12706012", "target": "9901635"}}, {"type": "Feature", "geometry": {"type": "LineString", "coordinates": [[105.2349124397756, 69.03763352253614], [105.23253326336106, 69.03841210951398]]}, "properties": {"source": "6479605", "target": "10944892"}}, {"type": "Feature", "geometry": {"type": "LineString", "coordinates": [[105.23841863629798, 69.03840292275888], [105.23074909871718, 69.04035469091374]]}, "properties": {"source": "9251004", "target": "9969717"}}, {"type": "Feature", "geometry": {"type": "LineString", "coordinates": [[105.23841863629798, 69.03840292275888], [105.24424631267124, 69.03856187378176]]}, "properties": {"source": "9251004", "target": "80187"}}, {"type": "Feature", "geometry": {"type": "LineString", "coordinates": [[105.23841863629798, 69.03840292275888], [105.24025795974148, 69.04173912796688]]}, "properties": {"source": "9251004", "target": "1497047"}}, {"type": "Feature", "geometry": {"type": "LineString", "coordinates": [[105.24037677752483, 69.03870958720316], [105.23644097181187, 69.03917444017182]]}, "properties": {"source": "542715", "target": "13557411"}}, {"type": "Feature", "geometry": {"type": "LineString", "coordinates": [[105.24037677752483, 69.03870958720316], [105.23064548732413, 69.0402352994708]]}, "properties": {"source": "542715", "target": "13053704"}}, {"type": "Feature", "geometry": {"type": "LineString", "coordinates": [[105.24037677752483, 69.03870958720316], [105.2349124397756, 69.03763352253614]]}, "properties": {"source": "542715", "target": "6479605"}}, {"type": "Feature", "geometry": {"type": "LineString", "coordinates": [[105.24037677752483, 69.03870958720316], [105.24472191778182, 69.03775788378329]]}, "properties": {"source": "542715", "target": "542713"}}, {"type": "Feature", "geometry": {"type": "LineString", "coordinates": [[105.24037677752483, 69.03870958720316], [105.23591975935761, 69.03855444274686]]}, "properties": {"source": "542715", "target": "10836073"}}, {"type": "Feature", "geometry": {"type": "LineString", "coordinates": [[105.24037677752483, 69.03870958720316], [105.24071991848808, 69.03796713253891]]}, "properties": {"source": "542715", "target": "6760419"}}, {"type": "Feature", "geometry": {"type": "LineString", "coordinates": [[105.24037677752483, 69.03870958720316], [105.23164014429636, 69.04132352887714]]}, "properties": {"source": "542715", "target": "34402672"}}, {"type": "Feature", "geometry": {"type": "LineString", "coordinates": [[105.23659615924993, 69.04201251586733], [105.23247446952496, 69.0409700914887]]}, "properties": {"source": "12272255", "target": "6747508"}}, {"type": "Feature", "geometry": {"type": "LineString", "coordinates": [[105.23659615924993, 69.04201251586733], [105.23281520299139, 69.03870959951286]]}, "properties": {"source": "12272255", "target": "6476455"}}, {"type": "Feature", "geometry": {"type": "LineString", "coordinates": [[105.23659615924993, 69.04201251586733], [105.23200151826887, 69.0419030844431]]}, "properties": {"source": "12272255", "target": "6450459"}}, {"type": "Feature", "geometry": {"type": "LineString", "coordinates": [[105.23659615924993, 69.04201251586733], [105.23809404303762, 69.03889041921093]]}, "properties": {"source": "12272255", "target": "933122"}}, {"type": "Feature", "geometry": {"type": "LineString", "coordinates": [[105.23659615924993, 69.04201251586733], [105.2347591630197, 69.0409564528957]]}, "properties": {"source": "12272255", "target": "10493517"}}, {"type": "Feature", "geometry": {"type": "LineString", "coordinates": [[105.23659615924993, 69.04201251586733], [105.23628510791053, 69.04176188018812]]}, "properties": {"source": "12272255", "target": "10456569"}}, {"type": "Feature", "geometry": {"type": "LineString", "coordinates": [[105.24472191778182, 69.03775788378329], [105.24012221872925, 69.03957825226928]]}, "properties": {"source": "542713", "target": "7846897"}}, {"type": "Feature", "geometry": {"type": "LineString", "coordinates": [[105.24421494387195, 69.04131289698174], [105.2326738793061, 69.04194250201294]]}, "properties": {"source": "15719645", "target": "25920880"}}, {"type": "Feature", "geometry": {"type": "LineString", "coordinates": [[105.23659402703862, 69.0412946294723], [105.23384682624788, 69.04047242173667]]}, "properties": {"source": "26155953", "target": "29393793"}}, {"type": "Feature", "geometry": {"type": "LineString", "coordinates": [[105.23659402703862, 69.0412946294723], [105.24236156642763, 69.04110981638999]]}, "properties": {"source": "26155953", "target": "24552757"}}, {"type": "Feature", "geometry": {"type": "LineString", "coordinates": [[105.23659402703862, 69.0412946294723], [105.2432077755654, 69.04116287459263]]}, "properties": {"source": "26155953", "target": "19092397"}}, {"type": "Feature", "geometry": {"type": "LineString", "coordinates": [[105.23659402703862, 69.0412946294723], [105.23785063377056, 69.04216284457056]]}, "properties": {"source": "26155953", "target": "26838672"}}, {"type": "Feature", "geometry": {"type": "LineString", "coordinates": [[105.23153000189569, 69.04135865806109], [105.23247446952496, 69.0409700914887]]}, "properties": {"source": "6557017", "target": "6747508"}}, {"type": "Feature", "geometry": {"type": "LineString", "coordinates": [[105.23153000189569, 69.04135865806109], [105.23281520299139, 69.03870959951286]]}, "properties": {"source": "6557017", "target": "6476455"}}, {"type": "Feature", "geometry": {"type": "LineString", "coordinates": [[105.23153000189569, 69.04135865806109], [105.23200151826887, 69.0419030844431]]}, "properties": {"source": "6557017", "target": "6450459"}}, {"type": "Feature", "geometry": {"type": "LineString", "coordinates": [[105.23153000189569, 69.04135865806109], [105.23663408622014, 69.04174516694306]]}, "properties": {"source": "6557017", "target": "8487239"}}, {"type": "Feature", "geometry": {"type": "LineString", "coordinates": [[105.23153000189569, 69.04135865806109], [105.2350485486296, 69.03968604945211]]}, "properties": {"source": "6557017", "target": "6218868"}}, {"type": "Feature", "geometry": {"type": "LineString", "coordinates": [[105.23603123655886, 69.038846259894], [105.2348987707818, 69.04111894236979]]}, "properties": {"source": "1083212", "target": "6052829"}}, {"type": "Feature", "geometry": {"type": "LineString", "coordinates": [[105.23603123655886, 69.038846259894], [105.23247446952496, 69.0409700914887]]}, "properties": {"source": "1083212", "target": "6747508"}}, {"type": "Feature", "geometry": {"type": "LineString", "coordinates": [[105.23603123655886, 69.038846259894], [105.23281520299139, 69.03870959951286]]}, "properties": {"source": "1083212", "target": "6476455"}}, {"type": "Feature", "geometry": {"type": "LineString", "coordinates": [[105.23281693779762, 69.04031842665151], [105.23452278077838, 69.03812591537064]]}, "properties": {"source": "29984913", "target": "19826144"}}, {"type": "Feature", "geometry": {"type": "LineString", "coordinates": [[105.23659402703862, 69.0412946294723], [105.23253326336106, 69.03841210951398]]}, "properties": {"source": "26155953", "target": "10944892"}}, {"type": "Feature", "geometry": {"type": "LineString", "coordinates": [[105.24400122362374, 69.03764273657598], [105.23644097181187, 69.03917444017182]]}, "properties": {"source": "6479615", "target": "13557411"}}, {"type": "Feature", "geometry": {"type": "LineString", "coordinates": [[105.24400122362374, 69.03764273657598], [105.23064548732413, 69.0402352994708]]}, "properties": {"source": "6479615", "target": "13053704"}}, {"type": "Feature", "geometry": {"type": "LineString", "coordinates": [[105.24400122362374, 69.03764273657598], [105.2349124397756, 69.03763352253614]]}, "properties": {"source": "6479615", "target": "6479605"}}, {"type": "Feature", "geometry": {"type": "LineString", "coordinates": [[105.24400122362374, 69.03764273657598], [105.23536195925385, 69.0417803575528]]}, "properties": {"source": "6479615", "target": "13435892"}}, {"type": "Feature", "geometry": {"type": "LineString", "coordinates": [[105.24400122362374, 69.03764273657598], [105.24071991848808, 69.03796713253891]]}, "properties": {"source": "6479615", "target": "6760419"}}, {"type": "Feature", "geometry": {"type": "LineString", "coordinates": [[105.23331100074273, 69.04146515121013], [105.23384682624788, 69.04047242173667]]}, "properties": {"source": "5395739", "target": "29393793"}}, {"type": "Feature", "geometry": {"type": "LineString", "coordinates": [[105.23331100074273, 69.04146515121013], [105.23848719395278, 69.0380863201492]]}, "properties": {"source": "5395739", "target": "27049597"}}, {"type": "Feature", "geometry": {"type": "LineString", "coordinates": [[105.23331100074273, 69.04146515121013], [105.2326738793061, 69.04194250201294]]}, "properties": {"source": "5395739", "target": "25920880"}}, {"type": "Feature", "geometry": {"type": "LineString", "coordinates": [[105.24148470286724, 69.03929929992276], [105.23247446952496, 69.0409700914887]]}, "properties": {"source": "6581799", "target": "6747508"}}, {"type": "Feature", "geometry": {"type": "LineString", "coordinates": [[105.23536195925385, 69.0417803575528], [105.24500558377144, 69.0415380535776]]}, "properties": {"source": "13435892", "target": "30250241"}}, {"type": "Feature", "geometry": {"type": "LineString", "coordinates": [[105.23536195925385, 69.0417803575528], [105.24308589970491, 69.04147225242107]]}, "properties": {"source": "13435892", "target": "13638369"}}, {"type": "Feature", "geometry": {"type": "LineString", "coordinates": [[105.2350485486296, 69.03968604945211], [105.23200151826887, 69.0419030844431]]}, "properties": {"source": "6218868", "target": "6450459"}}, {"type": "Feature", "geometry": {"type": "LineString", "coordinates": [[105.2351783036342, 69.03908916280648], [105.23384682624788, 69.04047242173667]]}, "properties": {"source": "28525008", "target": "29393793"}}, {"type": "Feature", "geometry": {"type": "LineString", "coordinates": [[105.2351783036342, 69.03908916280648], [105.23331100074273, 69.04146515121013]]}, "properties": {"source": "28525008", "target": "5395739"}}, {"type": "Feature", "geometry": {"type": "LineString", "coordinates": [[105.2351783036342, 69.03908916280648], [105.23848719395278, 69.0380863201492]]}, "properties": {"source": "28525008", "target": "27049597"}}, {"type": "Feature", "geometry": {"type": "LineString", "coordinates": [[105.23536195925385, 69.0417803575528], [105.23281693779762, 69.04031842665151]]}, "properties": {"source": "13435892", "target": "29984913"}}, {"type": "Feature", "geometry": {"type": "LineString", "coordinates": [[105.23402639161696, 69.04150701048448], [105.23588524009853, 69.04001559019068]]}, "properties": {"source": "443631", "target": "31579906"}}, {"type": "Feature", "geometry": {"type": "LineString", "coordinates": [[105.24297938075625, 69.04175180598], [105.23198340737758, 69.04066148141413]]}, "properties": {"source": "11324909", "target": "30956004"}}, {"type": "Feature", "geometry": {"type": "LineString", "coordinates": [[105.23588524009853, 69.04001559019068], [105.23198340737758, 69.04066148141413]]}, "properties": {"source": "31579906", "target": "30956004"}}, {"type": "Feature", "geometry": {"type": "LineString", "coordinates": [[105.23700494294718, 69.04189553105445], [105.23989938613823, 69.0387795246186]]}, "properties": {"source": "10964713", "target": "10945003"}}, {"type": "Feature", "geometry": {"type": "LineString", "coordinates": [[105.24424631267124, 69.03856187378176], [105.24025795974148, 69.04173912796688]]}, "properties": {"source": "80187", "target": "1497047"}}, {"type": "Feature", "geometry": {"type": "LineString", "coordinates": [[105.24236156642763, 69.04110981638999], [105.2432077755654, 69.04116287459263]]}, "properties": {"source": "24552757", "target": "19092397"}}, {"type": "Feature", "geometry": {"type": "LineString", "coordinates": [[105.23461982957326, 69.04149363986554], [105.24308589970491, 69.04147225242107]]}, "properties": {"source": "16177671", "target": "13638369"}}, {"type": "Feature", "geometry": {"type": "LineString", "coordinates": [[105.24543368642088, 69.03822217276644], [105.23536195925385, 69.0417803575528]]}, "properties": {"source": "13394931", "target": "13435892"}}, {"type": "Feature", "geometry": {"type": "LineString", "coordinates": [[105.2452046967449, 69.0401205018492], [105.23064548732413, 69.0402352994708]]}, "properties": {"source": "21372662", "target": "13053704"}}, {"type": "Feature", "geometry": {"type": "LineString", "coordinates": [[105.24554851718148, 69.04091400689737], [105.23452278077838, 69.03812591537064]]}, "properties": {"source": "23217717", "target": "19826144"}}, {"type": "Feature", "geometry": {"type": "LineString", "coordinates": [[105.23931930190679, 69.03790740777956], [105.24100236738815, 69.03872748718635]]}, "properties": {"source": "34082634", "target": "24911347"}}, {"type": "Feature", "geometry": {"type": "LineString", "coordinates": [[105.2335300932238, 69.04188271527033], [105.24500558377144, 69.0415380535776]]}, "properties": {"source": "28187215", "target": "30250241"}}, {"type": "Feature", "geometry": {"type": "LineString", "coordinates": [[105.2335300932238, 69.04188271527033], [105.23452278077838, 69.03812591537064]]}, "properties": {"source": "28187215", "target": "19826144"}}, {"type": "Feature", "geometry": {"type": "LineString", "coordinates": [[105.23700494294718, 69.04189553105445], [105.23253326336106, 69.03841210951398]]}, "properties": {"source": "10964713", "target": "10944892"}}, {"type": "Feature", "geometry": {"type": "LineString", "coordinates": [[105.23989938613823, 69.0387795246186], [105.23253326336106, 69.03841210951398]]}, "properties": {"source": "10945003", "target": "10944892"}}, {"type": "Feature", "geometry": {"type": "LineString", "coordinates": [[105.2335300932238, 69.04188271527033], [105.23281693779762, 69.04031842665151]]}, "properties": {"source": "28187215", "target": "29984913"}}, {"type": "Feature", "geometry": {"type": "LineString", "coordinates": [[105.2348987707818, 69.04111894236979], [105.24338063647701, 69.04124443982937]]}, "properties": {"source": "6052829", "target": "6386030"}}, {"type": "Feature", "geometry": {"type": "LineString", "coordinates": [[105.2348987707818, 69.04111894236979], [105.24421494387195, 69.04131289698174]]}, "properties": {"source": "6052829", "target": "15719645"}}, {"type": "Feature", "geometry": {"type": "LineString", "coordinates": [[105.2348987707818, 69.04111894236979], [105.2326738793061, 69.04194250201294]]}, "properties": {"source": "6052829", "target": "25920880"}}, {"type": "Feature", "geometry": {"type": "LineString", "coordinates": [[105.2348987707818, 69.04111894236979], [105.23137142020607, 69.04105456460749]]}, "properties": {"source": "6052829", "target": "6014338"}}, {"type": "Feature", "geometry": {"type": "LineString", "coordinates": [[105.23281520299139, 69.03870959951286], [105.23247446952496, 69.0409700914887]]}, "properties": {"source": "6476455", "target": "6747508"}}, {"type": "Feature", "geometry": {"type": "LineString", "coordinates": [[105.23281520299139, 69.03870959951286], [105.23200151826887, 69.0419030844431]]}, "properties": {"source": "6476455", "target": "6450459"}}, {"type": "Feature", "geometry": {"type": "LineString", "coordinates": [[105.23281520299139, 69.03870959951286], [105.2347591630197, 69.0409564528957]]}, "properties": {"source": "6476455", "target": "10493517"}}, {"type": "Feature", "geometry": {"type": "LineString", "coordinates": [[105.23200151826887, 69.0419030844431], [105.23247446952496, 69.0409700914887]]}, "properties": {"source": "6450459", "target": "6747508"}}, {"type": "Feature", "geometry": {"type": "LineString", "coordinates": [[105.23841863629798, 69.03840292275888], [105.23659615924993, 69.04201251586733]]}, "properties": {"source": "9251004", "target": "12272255"}}, {"type": "Feature", "geometry": {"type": "LineString", "coordinates": [[105.23841863629798, 69.03840292275888], [105.23663408622014, 69.04174516694306]]}, "properties": {"source": "9251004", "target": "8487239"}}, {"type": "Feature", "geometry": {"type": "LineString", "coordinates": [[105.23841863629798, 69.03840292275888], [105.23809404303762, 69.03889041921093]]}, "properties": {"source": "9251004", "target": "933122"}}, {"type": "Feature", "geometry": {"type": "LineString", "coordinates": [[105.23841863629798, 69.03840292275888], [105.2347591630197, 69.0409564528957]]}, "properties": {"source": "9251004", "target": "10493517"}}, {"type": "Feature", "geometry": {"type": "LineString", "coordinates": [[105.23841863629798, 69.03840292275888], [105.23628510791053, 69.04176188018812]]}, "properties": {"source": "9251004", "target": "10456569"}}, {"type": "Feature", "geometry": {"type": "LineString", "coordinates": [[105.23841863629798, 69.03840292275888], [105.2385398036543, 69.03729932915473]]}, "properties": {"source": "9251004", "target": "9901635"}}, {"type": "Feature", "geometry": {"type": "LineString", "coordinates": [[105.23841863629798, 69.03840292275888], [105.24153352891545, 69.04094518382325]]}, "properties": {"source": "9251004", "target": "8645435"}}, {"type": "Feature", "geometry": {"type": "LineString", "coordinates": [[105.23841863629798, 69.03840292275888], [105.24161409152526, 69.03844300494384]]}, "properties": {"source": "9251004", "target": "12706012"}}, {"type": "Feature", "geometry": {"type": "LineString", "coordinates": [[105.2348987707818, 69.04111894236979], [105.23247446952496, 69.0409700914887]]}, "properties": {"source": "6052829", "target": "6747508"}}, {"type": "Feature", "geometry": {"type": "LineString", "coordinates": [[105.2348987707818, 69.04111894236979], [105.23281520299139, 69.03870959951286]]}, "properties": {"source": "6052829", "target": "6476455"}}, {"type": "Feature", "geometry": {"type": "LineString", "coordinates": [[105.2348987707818, 69.04111894236979], [105.23200151826887, 69.0419030844431]]}, "properties": {"source": "6052829", "target": "6450459"}}, {"type": "Feature", "geometry": {"type": "LineString", "coordinates": [[105.2348987707818, 69.04111894236979], [105.23659615924993, 69.04201251586733]]}, "properties": {"source": "6052829", "target": "12272255"}}, {"type": "Feature", "geometry": {"type": "LineString", "coordinates": [[105.2348987707818, 69.04111894236979], [105.2347591630197, 69.0409564528957]]}, "properties": {"source": "6052829", "target": "10493517"}}, {"type": "Feature", "geometry": {"type": "LineString", "coordinates": [[105.2348987707818, 69.04111894236979], [105.24018633340205, 69.03899139676244]]}, "properties": {"source": "6052829", "target": "27852837"}}, {"type": "Feature", "geometry": {"type": "LineString", "coordinates": [[105.2348987707818, 69.04111894236979], [105.23702337242628, 69.03856650047405]]}, "properties": {"source": "6052829", "target": "11233113"}}, {"type": "Feature", "geometry": {"type": "LineString", "coordinates": [[105.2348987707818, 69.04111894236979], [105.23628510791053, 69.04176188018812]]}, "properties": {"source": "6052829", "target": "10456569"}}, {"type": "Feature", "geometry": {"type": "LineString", "coordinates": [[105.2348987707818, 69.04111894236979], [105.23384682624788, 69.04047242173667]]}, "properties": {"source": "6052829", "target": "29393793"}}, {"type": "Feature", "geometry": {"type": "LineString", "coordinates": [[105.2348987707818, 69.04111894236979], [105.2350485486296, 69.03968604945211]]}, "properties": {"source": "6052829", "target": "6218868"}}, {"type": "Feature", "geometry": {"type": "LineString", "coordinates": [[105.2348987707818, 69.04111894236979], [105.2351783036342, 69.03908916280648]]}, "properties": {"source": "6052829", "target": "28525008"}}, {"type": "Feature", "geometry": {"type": "LineString", "coordinates": [[105.2348987707818, 69.04111894236979], [105.23331100074273, 69.04146515121013]]}, "properties": {"source": "6052829", "target": "5395739"}}, {"type": "Feature", "geometry": {"type": "LineString", "coordinates": [[105.2348987707818, 69.04111894236979], [105.24148470286724, 69.03929929992276]]}, "properties": {"source": "6052829", "target": "6581799"}}, {"type": "Feature", "geometry": {"type": "LineString", "coordinates": [[105.2348987707818, 69.04111894236979], [105.23848719395278, 69.0380863201492]]}, "properties": {"source": "6052829", "target": "27049597"}}, {"type": "Feature", "geometry": {"type": "LineString", "coordinates": [[105.2348987707818, 69.04111894236979], [105.23197361245974, 69.0420355425145]]}, "properties": {"source": "6052829", "target": "6422771"}}, {"type": "Feature", "geometry": {"type": "LineString", "coordinates": [[105.2348987707818, 69.04111894236979], [105.24161409152526, 69.03844300494384]]}, "properties": {"source": "6052829", "target": "12706012"}}, {"type": "Feature", "geometry": {"type": "LineString", "coordinates": [[105.23628510791053, 69.04176188018812], [105.23247446952496, 69.0409700914887]]}, "properties": {"source": "10456569", "target": "6747508"}}, {"type": "Feature", "geometry": {"type": "LineString", "coordinates": [[105.23628510791053, 69.04176188018812], [105.23281520299139, 69.03870959951286]]}, "properties": {"source": "10456569", "target": "6476455"}}, {"type": "Feature", "geometry": {"type": "LineString", "coordinates": [[105.23628510791053, 69.04176188018812], [105.23200151826887, 69.0419030844431]]}, "properties": {"source": "10456569", "target": "6450459"}}, {"type": "Feature", "geometry": {"type": "LineString", "coordinates": [[105.23628510791053, 69.04176188018812], [105.23663408622014, 69.04174516694306]]}, "properties": {"source": "10456569", "target": "8487239"}}, {"type": "Feature", "geometry": {"type": "LineString", "coordinates": [[105.23628510791053, 69.04176188018812], [105.2347591630197, 69.0409564528957]]}, "properties": {"source": "10456569", "target": "10493517"}}, {"type": "Feature", "geometry": {"type": "LineString", "coordinates": [[105.23628510791053, 69.04176188018812], [105.2385398036543, 69.03729932915473]]}, "properties": {"source": "10456569", "target": "9901635"}}, {"type": "Feature", "geometry": {"type": "LineString", "coordinates": [[105.23384682624788, 69.04047242173667], [105.24421494387195, 69.04131289698174]]}, "properties": {"source": "29393793", "target": "15719645"}}, {"type": "Feature", "geometry": {"type": "LineString", "coordinates": [[105.23384682624788, 69.04047242173667], [105.2326738793061, 69.04194250201294]]}, "properties": {"source": "29393793", "target": "25920880"}}, {"type": "Feature", "geometry": {"type": "LineString", "coordinates": [[105.23384682624788, 69.04047242173667], [105.23785063377056, 69.04216284457056]]}, "properties": {"source": "29393793", "target": "26838672"}}, {"type": "Feature", "geometry": {"type": "LineString", "coordinates": [[105.2385398036543, 69.03729932915473], [105.2347591630197, 69.0409564528957]]}, "properties": {"source": "9901635", "target": "10493517"}}, {"type": "Feature", "geometry": {"type": "LineString", "coordinates": [[105.2385398036543, 69.03729932915473], [105.23074909871718, 69.04035469091374]]}, "properties": {"source": "9901635", "target": "9969717"}}, {"type": "Feature", "geometry": {"type": "LineString", "coordinates": [[105.23064548732413, 69.0402352994708], [105.24500558377144, 69.0415380535776]]}, "properties": {"source": "13053704", "target": "30250241"}}, {"type": "Feature", "geometry": {"type": "LineString", "coordinates": [[105.23064548732413, 69.0402352994708], [105.24308589970491, 69.04147225242107]]}, "properties": {"source": "13053704", "target": "13638369"}}, {"type": "Feature", "geometry": {"type": "LineString", "coordinates": [[105.2350485486296, 69.03968604945211], [105.23247446952496, 69.0409700914887]]}, "properties": {"source": "6218868", "target": "6747508"}}, {"type": "Feature", "geometry": {"type": "LineString", "coordinates": [[105.2350485486296, 69.03968604945211], [105.23281520299139, 69.03870959951286]]}, "properties": {"source": "6218868", "target": "6476455"}}, {"type": "Feature", "geometry": {"type": "LineString", "coordinates": [[105.23064548732413, 69.0402352994708], [105.23281693779762, 69.04031842665151]]}, "properties": {"source": "13053704", "target": "29984913"}}]}