{"type": "FeatureCollection", "features": [{"type": "Feature", "geometry": {"type": "LineString", "coordinates": [[18.725638133226767, 69.03855667024274], [18.72096306826458, 69.04026740562628]]}, "properties": {"source": "25822805", "target": "17618637"}}, {"type": "Feature", "geometry": {"type": "LineString", "coordinates": [[18.725638133226767, 69.03855667024274], [18.72243664427603, 69.03769730830237]]}, "properties": {"source": "25822805", "target": "27517011"}}, {"type": "Feature", "geometry": {"type": "LineString", "coordinates": [[18.725638133226767, 69.03855667024274], [18.724923933011695, 69.04088806622971]]}, "properties": {"source": "25822805", "target": "15899831"}}, {"type": "Feature", "geometry": {"type": "LineString", "coordinates": [[18.725638133226767, 69.03855667024274], [18.72796739238754, 69.03794096912628]]}, "properties": {"source": "25822805", "target": "16091670"}}, {"type": "Feature", "geometry": {"type": "LineString", "coordinates": [[18.726966110809258, 69.03978452357765], [18.721386676800506, 69.04254311706794]]}, "properties": {"source": "1934339", "target": "21855891"}}, {"type": "Feature", "geometry": {"type": "LineString", "coordinates": [[18.726966110809258, 69.03978452357765], [18.725564564915942, 69.04071638674736]]}, "properties": {"source": "1934339", "target": "20560625"}}, {"type": "Feature", "geometry": {"type": "LineString", "coordinates": [[18.726966110809258, 69.03978452357765], [18.734200593927255, 69.04249189569401]]}, "properties": {"source": "1934339", "target": "17855166"}}, {"type": "Feature", "geometry": {"type": "LineString", "coordinates": [[18.726966110809258, 69.03978452357765], [18.72571567703926, 69.03773032018233]]}, "properties": {"source": "1934339", "target": "19046817"}}, {"type": "Feature", "geometry": {"type": "LineString", "coordinates": [[18.726966110809258, 69.03978452357765], [18.729409861521674, 69.03918605219289]]}, "properties": {"source": "1934339", "target": "17237349"}}, {"type": "Feature", "geometry": {"type": "LineString", "coordinates": [[18.727863349884984, 69.04011132308705], [18.72216155858544, 69.04098819083964]]}, "properties": {"source": "25194054", "target": "18131686"}}, {"type": "Feature", "geometry": {"type": "LineString", "coordinates": [[18.727863349884984, 69.04011132308705], [18.729605411382437, 69.03910995001709]]}, "properties": {"source": "25194054", "target": "10391628"}}, {"type": "Feature", "geometry": {"type": "LineString", "coordinates": [[18.727863349884984, 69.04011132308705], [18.732055071203746, 69.04041283866383]]}, "properties": {"source": "25194054", "target": "11825601"}}, {"type": "Feature", "geometry": {"type": "LineString", "coordinates": [[18.727863349884984, 69.04011132308705], [18.734812833495596, 69.03799305080315]]}, "properties": {"source": "25194054", "target": "17973161"}}, {"type": "Feature", "geometry": {"type": "LineString", "coordinates": [[18.727863349884984, 69.04011132308705], [18.726402158284685, 69.04229380105119]]}, "properties": {"source": "25194054", "target": "13641296"}}, {"type": "Feature", "geometry": {"type": "LineString", "coordinates": [[18.727939792924957, 69.04181054017718], [18.725924610799552, 69.04208783009412]]}, "properties": {"source": "28665959", "target": "28794245"}}, {"type": "Feature", "geometry": {"type": "LineString", "coordinates": [[18.727939792924957, 69.04181054017718], [18.72445176892353, 69.03836745820189]]}, "properties": {"source": "28665959", "target": "28501842"}}, {"type": "Feature", "geometry": {"type": "LineString", "coordinates": [[18.727939792924957, 69.04181054017718], [18.724923933011695, 69.04088806622971]]}, "properties": {"source": "28665959", "target": "15899831"}}, {"type": "Feature", "geometry": {"type": "LineString", "coordinates": [[18.727939792924957, 69.04181054017718], [18.72796739238754, 69.03794096912628]]}, "properties": {"source": "28665959", "target": "16091670"}}, {"type": "Feature", "geometry": {"type": "LineString", "coordinates": [[18.727939792924957, 69.04181054017718], [18.726685738819015, 69.04149770836739]]}, "properties": {"source": "28665959", "target": "11344801"}}, {"type": "Feature", "geometry": {"type": "LineString", "coordinates": [[18.727939792924957, 69.04181054017718], [18.734964618013123, 69.04111421446353]]}, "properties": {"source": "28665959", "target": "27201496"}}, {"type": "Feature", "geometry": {"type": "LineString", "coordinates": [[18.73067681345134, 69.04171960220876], [18.72221964884764, 69.0421655993377]]}, "properties": {"source": "19547857", "target": "18368021"}}, {"type": "Feature", "geometry": {"type": "LineString", "coordinates": [[18.73067681345134, 69.04171960220876], [18.721386676800506, 69.04254311706794]]}, "properties": {"source": "19547857", "target": "21855891"}}, {"type": "Feature", "geometry": {"type": "LineString", "coordinates": [[18.73067681345134, 69.04171960220876], [18.7317396768033, 69.04224321744675]]}, "properties": {"source": "19547857", "target": "23128065"}}, {"type": "Feature", "geometry": {"type": "LineString", "coordinates": [[18.73067681345134, 69.04171960220876], [18.728122132035224, 69.04018336374716]]}, "properties": {"source": "19547857", "target": "18085594"}}, {"type": "Feature", "geometry": {"type": "LineString", "coordinates": [[18.73067681345134, 69.04171960220876], [18.727352854990187, 69.0420396140627]]}, "properties": {"source": "19547857", "target": "18191408"}}, {"type": "Feature", "geometry": {"type": "LineString", "coordinates": [[18.73067681345134, 69.04171960220876], [18.72216155858544, 69.04098819083964]]}, "properties": {"source": "19547857", "target": "18131686"}}, {"type": "Feature", "geometry": {"type": "LineString", "coordinates": [[18.73067681345134, 69.04171960220876], [18.726402158284685, 69.04229380105119]]}, "properties": {"source": "19547857", "target": "13641296"}}, {"type": "Feature", "geometry": {"type": "LineString", "coordinates": [[18.725924610799552, 69.04208783009412], [18.72445176892353, 69.03836745820189]]}, "properties": {"source": "28794245", "target": "28501842"}}, {"type": "Feature", "geometry": {"type": "LineString", "coordinates": [[18.725924610799552, 69.04208783009412], [18.72096306826458, 69.04026740562628]]}, "properties": {"source": "28794245", "target": "17618637"}}, {"type": "Feature", "geometry": {"type": "LineString", "coordinates": [[18.725924610799552, 69.04208783009412], [18.72243664427603, 69.03769730830237]]}, "properties": {"source": "28794245", "target": "27517011"}}, {"type": "Feature", "geometry": {"type": "LineString", "coordinates": [[18.725924610799552, 69.04208783009412], [18.725638133226767, 69.03855667024274]]}, "properties": {"source": "28794245", "target": "25822805"}}, {"type": "Feature", "geometry": {"type": "LineString", "coordinates": [[18.725924610799552, 69.04208783009412], [18.724434739203474, 69.03816327380684]]}, "properties": {"source": "28794245", "target": "30233097"}}, {"type": "Feature", "geometry": {"type": "LineString", "coordinates": [[18.736462355523912, 69.04017113459994], [18.72216155858544, 69.04098819083964]]}, "properties": {"source": "30628762", "target": "18131686"}}, {"type": "Feature", "geometry": {"type": "LineString", "coordinates": [[18.724151163578824, 69.04078610896406], [18.727939792924957, 69.04181054017718]]}, "properties": {"source": "30047572", "target": "28665959"}}, {"type": "Feature", "geometry": {"type": "LineString", "coordinates": [[18.724151163578824, 69.04078610896406], [18.725924610799552, 69.04208783009412]]}, "properties": {"source": "30047572", "target": "28794245"}}, {"type": "Feature", "geometry": {"type": "LineString", "coordinates": [[18.724151163578824, 69.04078610896406], [18.72445176892353, 69.03836745820189]]}, "properties": {"source": "30047572", "target": "28501842"}}, {"type": "Feature", "geometry": {"type": "LineString", "coordinates": [[18.724151163578824, 69.04078610896406], [18.731171105380923, 69.0399123449827]]}, "properties": {"source": "30047572", "target": "29626040"}}, {"type": "Feature", "geometry": {"type": "LineString", "coordinates": [[18.724151163578824, 69.04078610896406], [18.72243664427603, 69.03769730830237]]}, "properties": {"source": "30047572", "target": "27517011"}}, {"type": "Feature", "geometry": {"type": "LineString", "coordinates": [[18.724151163578824, 69.04078610896406], [18.724434739203474, 69.03816327380684]]}, "properties": {"source": "30047572", "target": "30233097"}}, {"type": "Feature", "geometry": {"type": "LineString", "coordinates": [[18.724151163578824, 69.04078610896406], [18.729451936915297, 69.04122157740963]]}, "properties": {"source": "30047572", "target": "29854846"}}, {"type": "Feature", "geometry": {"type": "LineString", "coordinates": [[18.724151163578824, 69.04078610896406], [18.733497088548916, 69.04041354138627]]}, "properties": {"source": "30047572", "target": "10211448"}}, {"type": "Feature", "geometry": {"type": "LineString", "coordinates": [[18.72044143572154, 69.0387650036204], [18.73067681345134, 69.04171960220876]]}, "properties": {"source": "25391129", "target": "19547857"}}, {"type": "Feature", "geometry": {"type": "LineString", "coordinates": [[18.72044143572154, 69.0387650036204], [18.72445176892353, 69.03836745820189]]}, "properties": {"source": "25391129", "target": "28501842"}}, {"type": "Feature", "geometry": {"type": "LineString", "coordinates": [[18.72044143572154, 69.0387650036204], [18.721386676800506, 69.04254311706794]]}, "properties": {"source": "25391129", "target": "21855891"}}, {"type": "Feature", "geometry": {"type": "LineString", "coordinates": [[18.72044143572154, 69.0387650036204], [18.72157001479789, 69.03974480323231]]}, "properties": {"source": "25391129", "target": "13477707"}}, {"type": "Feature", "geometry": {"type": "LineString", "coordinates": [[18.72044143572154, 69.0387650036204], [18.721226323836078, 69.0387706905313]]}, "properties": {"source": "25391129", "target": "27854073"}}, {"type": "Feature", "geometry": {"type": "LineString", "coordinates": [[18.72044143572154, 69.0387650036204], [18.7317396768033, 69.04224321744675]]}, "properties": {"source": "25391129", "target": "23128065"}}, {"type": "Feature", "geometry": {"type": "LineString", "coordinates": [[18.72044143572154, 69.0387650036204], [18.72096306826458, 69.04026740562628]]}, "properties": {"source": "25391129", "target": "17618637"}}, {"type": "Feature", "geometry": {"type": "LineString", "coordinates": [[18.72044143572154, 69.0387650036204], [18.72243664427603, 69.03769730830237]]}, "properties": {"source": "25391129", "target": "27517011"}}, {"type": "Feature", "geometry": {"type": "LineString", "coordinates": [[18.72044143572154, 69.0387650036204], [18.736462355523912, 69.04017113459994]]}, "properties": {"source": "25391129", "target": "30628762"}}, {"type": "Feature", "geometry": {"type": "LineString", "coordinates": [[18.72044143572154, 69.0387650036204], [18.725638133226767, 69.03855667024274]]}, "properties": {"source": "25391129", "target": "25822805"}}, {"type": "Feature", "geometry": {"type": "LineString", "coordinates": [[18.72044143572154, 69.0387650036204], [18.728122132035224, 69.04018336374716]]}, "properties": {"source": "25391129", "target": "18085594"}}, {"type": "Feature", "geometry": {"type": "LineString", "coordinates": [[18.72044143572154, 69.0387650036204], [18.722696249433312, 69.03728706651026]]}, "properties": {"source": "25391129", "target": "29471519"}}, {"type": "Feature", "geometry": {"type": "LineString", "coordinates": [[18.72044143572154, 69.0387650036204], [18.727352854990187, 69.0420396140627]]}, "properties": {"source": "25391129", "target": "18191408"}}, {"type": "Feature", "geometry": {"type": "LineString", "coordinates": [[18.72044143572154, 69.0387650036204], [18.73430409009117, 69.03914136310496]]}, "properties": {"source": "25391129", "target": "25475465"}}, {"type": "Feature", "geometry": {"type": "LineString", "coordinates": [[18.72044143572154, 69.0387650036204], [18.72198863416341, 69.03857145959799]]}, "properties": {"source": "25391129", "target": "10321103"}}, {"type": "Feature", "geometry": {"type": "LineString", "coordinates": [[18.72044143572154, 69.0387650036204], [18.724923933011695, 69.04088806622971]]}, "properties": {"source": "25391129", "target": "15899831"}}, {"type": "Feature", "geometry": {"type": "LineString", "coordinates": [[18.727939792924957, 69.04181054017718], [18.731171105380923, 69.0399123449827]]}, "properties": {"source": "28665959", "target": "29626040"}}, {"type": "Feature", "geometry": {"type": "LineString", "coordinates": [[18.727939792924957, 69.04181054017718], [18.72157001479789, 69.03974480323231]]}, "properties": {"source": "28665959", "target": "13477707"}}, {"type": "Feature", "geometry": {"type": "LineString", "coordinates": [[18.727939792924957, 69.04181054017718], [18.72096306826458, 69.04026740562628]]}, "properties": {"source": "28665959", "target": "17618637"}}, {"type": "Feature", "geometry": {"type": "LineString", "coordinates": [[18.727939792924957, 69.04181054017718], [18.72243664427603, 69.03769730830237]]}, "properties": {"source": "28665959", "target": "27517011"}}, {"type": "Feature", "geometry": {"type": "LineString", "coordinates": [[18.727939792924957, 69.04181054017718], [18.725638133226767, 69.03855667024274]]}, "properties": {"source": "28665959", "target": "25822805"}}, {"type": "Feature", "geometry": {"type": "LineString", "coordinates": [[18.727939792924957, 69.04181054017718], [18.724434739203474, 69.03816327380684]]}, "properties": {"source": "28665959", "target": "30233097"}}, {"type": "Feature", "geometry": {"type": "LineString", "coordinates": [[18.727939792924957, 69.04181054017718], [18.729451936915297, 69.04122157740963]]}, "properties": {"source": "28665959", "target": "29854846"}}, {"type": "Feature", "geometry": {"type": "LineString", "coordinates": [[18.727939792924957, 69.04181054017718], [18.73430409009117, 69.03914136310496]]}, "properties": {"source": "28665959", "target": "25475465"}}, {"type": "Feature", "geometry": {"type": "LineString", "coordinates": [[18.727939792924957, 69.04181054017718], [18.733497088548916, 69.04041354138627]]}, "properties": {"source": "28665959", "target": "10211448"}}, {"type": "Feature", "geometry": {"type": "LineString", "coordinates": [[18.72044143572154, 69.0387650036204], [18.72216155858544, 69.04098819083964]]}, "properties": {"source": "25391129", "target": "18131686"}}, {"type": "Feature", "geometry": {"type": "LineString", "coordinates": [[18.72044143572154, 69.0387650036204], [18.729605411382437, 69.03910995001709]]}, "properties": {"source": "25391129", "target": "10391628"}}, {"type": "Feature", "geometry": {"type": "LineString", "coordinates": [[18.72044143572154, 69.0387650036204], [18.734812833495596, 69.03799305080315]]}, "properties": {"source": "25391129", "target": "17973161"}}, {"type": "Feature", "geometry": {"type": "LineString", "coordinates": [[18.72044143572154, 69.0387650036204], [18.726402158284685, 69.04229380105119]]}, "properties": {"source": "25391129", "target": "13641296"}}, {"type": "Feature", "geometry": {"type": "LineString", "coordinates": [[18.727863349884984, 69.04011132308705], [18.72044143572154, 69.0387650036204]]}, "properties": {"source": "25194054", "target": "25391129"}}, {"type": "Feature", "geometry": {"type": "LineString", "coordinates": [[18.727863349884984, 69.04011132308705], [18.73067681345134, 69.04171960220876]]}, "properties": {"source": "25194054", "target": "19547857"}}, {"type": "Feature", "geometry": {"type": "LineString", "coordinates": [[18.727863349884984, 69.04011132308705], [18.721386676800506, 69.04254311706794]]}, "properties": {"source": "25194054", "target": "21855891"}}, {"type": "Feature", "geometry": {"type": "LineString", "coordinates": [[18.721386676800506, 69.04254311706794], [18.725861604487875, 69.04152840897171]]}, "properties": {"source": "21855891", "target": "20764900"}}, {"type": "Feature", "geometry": {"type": "LineString", "coordinates": [[18.72157001479789, 69.03974480323231], [18.725924610799552, 69.04208783009412]]}, "properties": {"source": "13477707", "target": "28794245"}}, {"type": "Feature", "geometry": {"type": "LineString", "coordinates": [[18.72157001479789, 69.03974480323231], [18.72445176892353, 69.03836745820189]]}, "properties": {"source": "13477707", "target": "28501842"}}, {"type": "Feature", "geometry": {"type": "LineString", "coordinates": [[18.72157001479789, 69.03974480323231], [18.72096306826458, 69.04026740562628]]}, "properties": {"source": "13477707", "target": "17618637"}}, {"type": "Feature", "geometry": {"type": "LineString", "coordinates": [[18.72157001479789, 69.03974480323231], [18.725638133226767, 69.03855667024274]]}, "properties": {"source": "13477707", "target": "25822805"}}, {"type": "Feature", "geometry": {"type": "LineString", "coordinates": [[18.72157001479789, 69.03974480323231], [18.72465785989158, 69.03996111517972]]}, "properties": {"source": "13477707", "target": "13595499"}}, {"type": "Feature", "geometry": {"type": "LineString", "coordinates": [[18.72157001479789, 69.03974480323231], [18.726080271835343, 69.03951764969952]]}, "properties": {"source": "13477707", "target": "10819557"}}, {"type": "Feature", "geometry": {"type": "LineString", "coordinates": [[18.72157001479789, 69.03974480323231], [18.73403108322003, 69.04246467301479]]}, "properties": {"source": "13477707", "target": "11941610"}}, {"type": "Feature", "geometry": {"type": "LineString", "coordinates": [[18.721226323836078, 69.0387706905313], [18.72216155858544, 69.04098819083964]]}, "properties": {"source": "27854073", "target": "18131686"}}, {"type": "Feature", "geometry": {"type": "LineString", "coordinates": [[18.725564564915942, 69.04071638674736], [18.721386676800506, 69.04254311706794]]}, "properties": {"source": "20560625", "target": "21855891"}}, {"type": "Feature", "geometry": {"type": "LineString", "coordinates": [[18.725564564915942, 69.04071638674736], [18.734200593927255, 69.04249189569401]]}, "properties": {"source": "20560625", "target": "17855166"}}, {"type": "Feature", "geometry": {"type": "LineString", "coordinates": [[18.725564564915942, 69.04071638674736], [18.72571567703926, 69.03773032018233]]}, "properties": {"source": "20560625", "target": "19046817"}}, {"type": "Feature", "geometry": {"type": "LineString", "coordinates": [[18.725564564915942, 69.04071638674736], [18.729409861521674, 69.03918605219289]]}, "properties": {"source": "20560625", "target": "17237349"}}, {"type": "Feature", "geometry": {"type": "LineString", "coordinates": [[18.725564564915942, 69.04071638674736], [18.720729352520266, 69.04219811576257]]}, "properties": {"source": "20560625", "target": "21848529"}}, {"type": "Feature", "geometry": {"type": "LineString", "coordinates": [[18.725564564915942, 69.04071638674736], [18.725861604487875, 69.04152840897171]]}, "properties": {"source": "20560625", "target": "20764900"}}, {"type": "Feature", "geometry": {"type": "LineString", "coordinates": [[18.725564564915942, 69.04071638674736], [18.73618517003922, 69.03747496049093]]}, "properties": {"source": "20560625", "target": "1715029"}}, {"type": "Feature", "geometry": {"type": "LineString", "coordinates": [[18.72924647586791, 69.04167390925875], [18.721226323836078, 69.0387706905313]]}, "properties": {"source": "12301006", "target": "27854073"}}, {"type": "Feature", "geometry": {"type": "LineString", "coordinates": [[18.72924647586791, 69.04167390925875], [18.736462355523912, 69.04017113459994]]}, "properties": {"source": "12301006", "target": "30628762"}}, {"type": "Feature", "geometry": {"type": "LineString", "coordinates": [[18.72924647586791, 69.04167390925875], [18.733525208822073, 69.04112347417009]]}, "properties": {"source": "12301006", "target": "8478722"}}, {"type": "Feature", "geometry": {"type": "LineString", "coordinates": [[18.72924647586791, 69.04167390925875], [18.73354701571597, 69.04095746620689]]}, "properties": {"source": "12301006", "target": "18247724"}}, {"type": "Feature", "geometry": {"type": "LineString", "coordinates": [[18.72924647586791, 69.04167390925875], [18.73380055781314, 69.0389518180987]]}, "properties": {"source": "12301006", "target": "35070852"}}, {"type": "Feature", "geometry": {"type": "LineString", "coordinates": [[18.734200593927255, 69.04249189569401], [18.72571567703926, 69.03773032018233]]}, "properties": {"source": "17855166", "target": "19046817"}}, {"type": "Feature", "geometry": {"type": "LineString", "coordinates": [[18.734200593927255, 69.04249189569401], [18.729409861521674, 69.03918605219289]]}, "properties": {"source": "17855166", "target": "17237349"}}, {"type": "Feature", "geometry": {"type": "LineString", "coordinates": [[18.734200593927255, 69.04249189569401], [18.720729352520266, 69.04219811576257]]}, "properties": {"source": "17855166", "target": "21848529"}}, {"type": "Feature", "geometry": {"type": "LineString", "coordinates": [[18.734200593927255, 69.04249189569401], [18.725861604487875, 69.04152840897171]]}, "properties": {"source": "17855166", "target": "20764900"}}, {"type": "Feature", "geometry": {"type": "LineString", "coordinates": [[18.724151163578824, 69.04078610896406], [18.734964618013123, 69.04111421446353]]}, "properties": {"source": "30047572", "target": "27201496"}}, {"type": "Feature", "geometry": {"type": "LineString", "coordinates": [[18.733525208822073, 69.04112347417009], [18.736462355523912, 69.04017113459994]]}, "properties": {"source": "8478722", "target": "30628762"}}, {"type": "Feature", "geometry": {"type": "LineString", "coordinates": [[18.733525208822073, 69.04112347417009], [18.728122132035224, 69.04018336374716]]}, "properties": {"source": "8478722", "target": "18085594"}}, {"type": "Feature", "geometry": {"type": "LineString", "coordinates": [[18.733525208822073, 69.04112347417009], [18.727352854990187, 69.0420396140627]]}, "properties": {"source": "8478722", "target": "18191408"}}, {"type": "Feature", "geometry": {"type": "LineString", "coordinates": [[18.733525208822073, 69.04112347417009], [18.72216155858544, 69.04098819083964]]}, "properties": {"source": "8478722", "target": "18131686"}}, {"type": "Feature", "geometry": {"type": "LineString", "coordinates": [[18.733525208822073, 69.04112347417009], [18.729605411382437, 69.03910995001709]]}, "properties": {"source": "8478722", "target": "10391628"}}, {"type": "Feature", "geometry": {"type": "LineString", "coordinates": [[18.733525208822073, 69.04112347417009], [18.726402158284685, 69.04229380105119]]}, "properties": {"source": "8478722", "target": "13641296"}}, {"type": "Feature", "geometry": {"type": "LineString", "coordinates": [[18.724093022764237, 69.03852728391664], [18.722696249433312, 69.03728706651026]]}, "properties": {"source": "2303380", "target": "29471519"}}, {"type": "Feature", "geometry": {"type": "LineString", "coordinates": [[18.724093022764237, 69.03852728391664], [18.72990460413868, 69.03739359627176]]}, "properties": {"source": "2303380", "target": "28498576"}}, {"type": "Feature", "geometry": {"type": "LineString", "coordinates": [[18.72990460413868, 69.03739359627176], [18.722696249433312, 69.03728706651026]]}, "properties": {"source": "28498576", "target": "29471519"}}, {"type": "Feature", "geometry": {"type": "LineString", "coordinates": [[18.735859970164483, 69.03905958823847], [18.729451936915297, 69.04122157740963]]}, "properties": {"source": "2979566", "target": "29854846"}}, {"type": "Feature", "geometry": {"type": "LineString", "coordinates": [[18.732489066051556, 69.03882420211252], [18.73618517003922, 69.03747496049093]]}, "properties": {"source": "1224747", "target": "1715029"}}, {"type": "Feature", "geometry": {"type": "LineString", "coordinates": [[18.732489066051556, 69.03882420211252], [18.72578072436758, 69.03873957052761]]}, "properties": {"source": "1224747", "target": "18379960"}}, {"type": "Feature", "geometry": {"type": "LineString", "coordinates": [[18.730838354897685, 69.03870493523317], [18.726080271835343, 69.03951764969952]]}, "properties": {"source": "13416924", "target": "10819557"}}, {"type": "Feature", "geometry": {"type": "LineString", "coordinates": [[18.73379000676107, 69.03955088653674], [18.7317396768033, 69.04224321744675]]}, "properties": {"source": "13587210", "target": "23128065"}}, {"type": "Feature", "geometry": {"type": "LineString", "coordinates": [[18.726966110809258, 69.03978452357765], [18.720729352520266, 69.04219811576257]]}, "properties": {"source": "1934339", "target": "21848529"}}, {"type": "Feature", "geometry": {"type": "LineString", "coordinates": [[18.726966110809258, 69.03978452357765], [18.725861604487875, 69.04152840897171]]}, "properties": {"source": "1934339", "target": "20764900"}}, {"type": "Feature", "geometry": {"type": "LineString", "coordinates": [[18.726966110809258, 69.03978452357765], [18.734770265975385, 69.0401391280125]]}, "properties": {"source": "1934339", "target": "18666105"}}, {"type": "Feature", "geometry": {"type": "LineString", "coordinates": [[18.726966110809258, 69.03978452357765], [18.724139029696033, 69.0379551058601]]}, "properties": {"source": "1934339", "target": "17905460"}}, {"type": "Feature", "geometry": {"type": "LineString", "coordinates": [[18.72924647586791, 69.04167390925875], [18.72044143572154, 69.0387650036204]]}, "properties": {"source": "12301006", "target": "25391129"}}, {"type": "Feature", "geometry": {"type": "LineString", "coordinates": [[18.72924647586791, 69.04167390925875], [18.73067681345134, 69.04171960220876]]}, "properties": {"source": "12301006", "target": "19547857"}}, {"type": "Feature", "geometry": {"type": "LineString", "coordinates": [[18.72924647586791, 69.04167390925875], [18.72221964884764, 69.0421655993377]]}, "properties": {"source": "12301006", "target": "18368021"}}, {"type": "Feature", "geometry": {"type": "LineString", "coordinates": [[18.72198233321211, 69.03919652945319], [18.720582469648377, 69.03754052304365]]}, "properties": {"source": "668803", "target": "5885000"}}, {"type": "Feature", "geometry": {"type": "LineString", "coordinates": [[18.725924610799552, 69.04208783009412], [18.729451936915297, 69.04122157740963]]}, "properties": {"source": "28794245", "target": "29854846"}}, {"type": "Feature", "geometry": {"type": "LineString", "coordinates": [[18.725924610799552, 69.04208783009412], [18.733497088548916, 69.04041354138627]]}, "properties": {"source": "28794245", "target": "10211448"}}, {"type": "Feature", "geometry": {"type": "LineString", "coordinates": [[18.725924610799552, 69.04208783009412], [18.724923933011695, 69.04088806622971]]}, "properties": {"source": "28794245", "target": "15899831"}}, {"type": "Feature", "geometry": {"type": "LineString", "coordinates": [[18.725924610799552, 69.04208783009412], [18.72796739238754, 69.03794096912628]]}, "properties": {"source": "28794245", "target": "16091670"}}, {"type": "Feature", "geometry": {"type": "LineString", "coordinates": [[18.725924610799552, 69.04208783009412], [18.734964618013123, 69.04111421446353]]}, "properties": {"source": "28794245", "target": "27201496"}}, {"type": "Feature", "geometry": {"type": "LineString", "coordinates": [[18.72445176892353, 69.03836745820189], [18.72096306826458, 69.04026740562628]]}, "properties": {"source": "28501842", "target": "17618637"}}, {"type": "Feature", "geometry": {"type": "LineString", "coordinates": [[18.72445176892353, 69.03836745820189], [18.72243664427603, 69.03769730830237]]}, "properties": {"source": "28501842", "target": "27517011"}}, {"type": "Feature", "geometry": {"type": "LineString", "coordinates": [[18.72445176892353, 69.03836745820189], [18.725638133226767, 69.03855667024274]]}, "properties": {"source": "28501842", "target": "25822805"}}, {"type": "Feature", "geometry": {"type": "LineString", "coordinates": [[18.72445176892353, 69.03836745820189], [18.724434739203474, 69.03816327380684]]}, "properties": {"source": "28501842", "target": "30233097"}}, {"type": "Feature", "geometry": {"type": "LineString", "coordinates": [[18.72445176892353, 69.03836745820189], [18.729451936915297, 69.04122157740963]]}, "properties": {"source": "28501842", "target": "29854846"}}, {"type": "Feature", "geometry": {"type": "LineString", "coordinates": [[18.72445176892353, 69.03836745820189], [18.724923933011695, 69.04088806622971]]}, "properties": {"source": "28501842", "target": "15899831"}}, {"type": "Feature", "geometry": {"type": "LineString", "coordinates": [[18.72445176892353, 69.03836745820189], [18.72796739238754, 69.03794096912628]]}, "properties": {"source": "28501842", "target": "16091670"}}, {"type": "Feature", "geometry": {"type": "LineString", "coordinates": [[18.72445176892353, 69.03836745820189], [18.734964618013123, 69.04111421446353]]}, "properties": {"source": "28501842", "target": "27201496"}}, {"type": "Feature", "geometry": {"type": "LineString", "coordinates": [[18.731171105380923, 69.0399123449827], [18.725924610799552, 69.04208783009412]]}, "properties": {"source": "29626040", "target": "28794245"}}, {"type": "Feature", "geometry": {"type": "LineString", "coordinates": [[18.731171105380923, 69.0399123449827], [18.72445176892353, 69.03836745820189]]}, "properties": {"source": "29626040", "target": "28501842"}}, {"type": "Feature", "geometry": {"type": "LineString", "coordinates": [[18.731171105380923, 69.0399123449827], [18.72157001479789, 69.03974480323231]]}, "properties": {"source": "29626040", "target": "13477707"}}, {"type": "Feature", "geometry": {"type": "LineString", "coordinates": [[18.731171105380923, 69.0399123449827], [18.72096306826458, 69.04026740562628]]}, "properties": {"source": "29626040", "target": "17618637"}}, {"type": "Feature", "geometry": {"type": "LineString", "coordinates": [[18.731171105380923, 69.0399123449827], [18.72243664427603, 69.03769730830237]]}, "properties": {"source": "29626040", "target": "27517011"}}, {"type": "Feature", "geometry": {"type": "LineString", "coordinates": [[18.731171105380923, 69.0399123449827], [18.724434739203474, 69.03816327380684]]}, "properties": {"source": "29626040", "target": "30233097"}}, {"type": "Feature", "geometry": {"type": "LineString", "coordinates": [[18.731171105380923, 69.0399123449827], [18.729451936915297, 69.04122157740963]]}, "properties": {"source": "29626040", "target": "29854846"}}, {"type": "Feature", "geometry": {"type": "LineString", "coordinates": [[18.731171105380923, 69.0399123449827], [18.733497088548916, 69.04041354138627]]}, "properties": {"source": "29626040", "target": "10211448"}}, {"type": "Feature", "geometry": {"type": "LineString", "coordinates": [[18.731171105380923, 69.0399123449827], [18.724923933011695, 69.04088806622971]]}, "properties": {"source": "29626040", "target": "15899831"}}, {"type": "Feature", "geometry": {"type": "LineString", "coordinates": [[18.731171105380923, 69.0399123449827], [18.72796739238754, 69.03794096912628]]}, "properties": {"source": "29626040", "target": "16091670"}}, {"type": "Feature", "geometry": {"type": "LineString", "coordinates": [[18.731171105380923, 69.0399123449827], [18.726685738819015, 69.04149770836739]]}, "properties": {"source": "29626040", "target": "11344801"}}, {"type": "Feature", "geometry": {"type": "LineString", "coordinates": [[18.72221964884764, 69.0421655993377], [18.7317396768033, 69.04224321744675]]}, "properties": {"source": "18368021", "target": "23128065"}}, {"type": "Feature", "geometry": {"type": "LineString", "coordinates": [[18.72221964884764, 69.0421655993377], [18.728122132035224, 69.04018336374716]]}, "properties": {"source": "18368021", "target": "18085594"}}, {"type": "Feature", "geometry": {"type": "LineString", "coordinates": [[18.72221964884764, 69.0421655993377], [18.727352854990187, 69.0420396140627]]}, "properties": {"source": "18368021", "target": "18191408"}}, {"type": "Feature", "geometry": {"type": "LineString", "coordinates": [[18.72221964884764, 69.0421655993377], [18.72216155858544, 69.04098819083964]]}, "properties": {"source": "18368021", "target": "18131686"}}, {"type": "Feature", "geometry": {"type": "LineString", "coordinates": [[18.72221964884764, 69.0421655993377], [18.726402158284685, 69.04229380105119]]}, "properties": {"source": "18368021", "target": "13641296"}}, {"type": "Feature", "geometry": {"type": "LineString", "coordinates": [[18.721386676800506, 69.04254311706794], [18.721226323836078, 69.0387706905313]]}, "properties": {"source": "21855891", "target": "27854073"}}, {"type": "Feature", "geometry": {"type": "LineString", "coordinates": [[18.721386676800506, 69.04254311706794], [18.7317396768033, 69.04224321744675]]}, "properties": {"source": "21855891", "target": "23128065"}}, {"type": "Feature", "geometry": {"type": "LineString", "coordinates": [[18.721386676800506, 69.04254311706794], [18.720729352520266, 69.04219811576257]]}, "properties": {"source": "21855891", "target": "21848529"}}, {"type": "Feature", "geometry": {"type": "LineString", "coordinates": [[18.72413211016334, 69.03771972887526], [18.729409861521674, 69.03918605219289]]}, "properties": {"source": "18842322", "target": "17237349"}}, {"type": "Feature", "geometry": {"type": "LineString", "coordinates": [[18.72413211016334, 69.03771972887526], [18.720729352520266, 69.04219811576257]]}, "properties": {"source": "18842322", "target": "21848529"}}, {"type": "Feature", "geometry": {"type": "LineString", "coordinates": [[18.735696656822114, 69.038404372001], [18.73354701571597, 69.04095746620689]]}, "properties": {"source": "15849351", "target": "18247724"}}, {"type": "Feature", "geometry": {"type": "LineString", "coordinates": [[18.735696656822114, 69.038404372001], [18.723947458487316, 69.03996131060833]]}, "properties": {"source": "15849351", "target": "14059834"}}, {"type": "Feature", "geometry": {"type": "LineString", "coordinates": [[18.73008004779129, 69.03765681076018], [18.73354701571597, 69.04095746620689]]}, "properties": {"source": "16153971", "target": "18247724"}}, {"type": "Feature", "geometry": {"type": "LineString", "coordinates": [[18.7210508828893, 69.0401539743161], [18.73618517003922, 69.03747496049093]]}, "properties": {"source": "18890781", "target": "1715029"}}, {"type": "Feature", "geometry": {"type": "LineString", "coordinates": [[18.7210508828893, 69.0401539743161], [18.72578072436758, 69.03873957052761]]}, "properties": {"source": "18890781", "target": "18379960"}}, {"type": "Feature", "geometry": {"type": "LineString", "coordinates": [[18.725140847479764, 69.04038244456342], [18.72243664427603, 69.03769730830237]]}, "properties": {"source": "25612092", "target": "27517011"}}, {"type": "Feature", "geometry": {"type": "LineString", "coordinates": [[18.725564564915942, 69.04071638674736], [18.72578072436758, 69.03873957052761]]}, "properties": {"source": "20560625", "target": "18379960"}}, {"type": "Feature", "geometry": {"type": "LineString", "coordinates": [[18.725564564915942, 69.04071638674736], [18.721439817450232, 69.03768594198974]]}, "properties": {"source": "20560625", "target": "24004008"}}, {"type": "Feature", "geometry": {"type": "LineString", "coordinates": [[18.7317396768033, 69.04224321744675], [18.721226323836078, 69.0387706905313]]}, "properties": {"source": "23128065", "target": "27854073"}}, {"type": "Feature", "geometry": {"type": "LineString", "coordinates": [[18.7317396768033, 69.04224321744675], [18.736462355523912, 69.04017113459994]]}, "properties": {"source": "23128065", "target": "30628762"}}, {"type": "Feature", "geometry": {"type": "LineString", "coordinates": [[18.72096306826458, 69.04026740562628], [18.724923933011695, 69.04088806622971]]}, "properties": {"source": "17618637", "target": "15899831"}}, {"type": "Feature", "geometry": {"type": "LineString", "coordinates": [[18.736462355523912, 69.04017113459994], [18.721226323836078, 69.0387706905313]]}, "properties": {"source": "30628762", "target": "27854073"}}, {"type": "Feature", "geometry": {"type": "LineString", "coordinates": [[18.736462355523912, 69.04017113459994], [18.727352854990187, 69.0420396140627]]}, "properties": {"source": "30628762", "target": "18191408"}}, {"type": "Feature", "geometry": {"type": "LineString", "coordinates": [[18.73008004779129, 69.03765681076018], [18.720582469648377, 69.03754052304365]]}, "properties": {"source": "16153971", "target": "5885000"}}, {"type": "Feature", "geometry": {"type": "LineString", "coordinates": [[18.733497088548916, 69.04041354138627], [18.724434739203474, 69.03816327380684]]}, "properties": {"source": "10211448", "target": "30233097"}}, {"type": "Feature", "geometry": {"type": "LineString", "coordinates": [[18.720729352520266, 69.04219811576257], [18.725861604487875, 69.04152840897171]]}, "properties": {"source": "21848529", "target": "20764900"}}, {"type": "Feature", "geometry": {"type": "LineString", "coordinates": [[18.729605411382437, 69.03910995001709], [18.73067681345134, 69.04171960220876]]}, "properties": {"source": "10391628", "target": "19547857"}}, {"type": "Feature", "geometry": {"type": "LineString", "coordinates": [[18.729605411382437, 69.03910995001709], [18.72221964884764, 69.0421655993377]]}, "properties": {"source": "10391628", "target": "18368021"}}, {"type": "Feature", "geometry": {"type": "LineString", "coordinates": [[18.729605411382437, 69.03910995001709], [18.721226323836078, 69.0387706905313]]}, "properties": {"source": "10391628", "target": "27854073"}}, {"type": "Feature", "geometry": {"type": "LineString", "coordinates": [[18.72796739238754, 69.03794096912628], [18.72096306826458, 69.04026740562628]]}, "properties": {"source": "16091670", "target": "17618637"}}, {"type": "Feature", "geometry": {"type": "LineString", "coordinates": [[18.732055071203746, 69.04041283866383], [18.72044143572154, 69.0387650036204]]}, "properties": {"source": "11825601", "target": "25391129"}}, {"type": "Feature", "geometry": {"type": "LineString", "coordinates": [[18.732055071203746, 69.04041283866383], [18.73067681345134, 69.04171960220876]]}, "properties": {"source": "11825601", "target": "19547857"}}, {"type": "Feature", "geometry": {"type": "LineString", "coordinates": [[18.732055071203746, 69.04041283866383], [18.72221964884764, 69.0421655993377]]}, "properties": {"source": "11825601", "target": "18368021"}}, {"type": "Feature", "geometry": {"type": "LineString", "coordinates": [[18.732055071203746, 69.04041283866383], [18.733525208822073, 69.04112347417009]]}, "properties": {"source": "11825601", "target": "8478722"}}, {"type": "Feature", "geometry": {"type": "LineString", "coordinates": [[18.734812833495596, 69.03799305080315], [18.73067681345134, 69.04171960220876]]}, "properties": {"source": "17973161", "target": "19547857"}}, {"type": "Feature", "geometry": {"type": "LineString", "coordinates": [[18.734812833495596, 69.03799305080315], [18.72221964884764, 69.0421655993377]]}, "properties": {"source": "17973161", "target": "18368021"}}, {"type": "Feature", "geometry": {"type": "LineString", "coordinates": [[18.734812833495596, 69.03799305080315], [18.733525208822073, 69.04112347417009]]}, "properties": {"source": "17973161", "target": "8478722"}}, {"type": "Feature", "geometry": {"type": "LineString", "coordinates": [[18.72465785989158, 69.03996111517972], [18.726080271835343, 69.03951764969952]]}, "properties": {"source": "13595499", "target": "10819557"}}, {"type": "Feature", "geometry": {"type": "LineString", "coordinates": [[18.72465785989158, 69.03996111517972], [18.73403108322003, 69.04246467301479]]}, "properties": {"source": "13595499", "target": "11941610"}}, {"type": "Feature", "geometry": {"type": "LineString", "coordinates": [[18.726080271835343, 69.03951764969952], [18.73096196937479, 69.04028918055718]]}, "properties": {"source": "10819557", "target": "28801058"}}, {"type": "Feature", "geometry": {"type": "LineString", "coordinates": [[18.729900230942775, 69.04022055942195], [18.72465785989158, 69.03996111517972]]}, "properties": {"source": "13071206", "target": "13595499"}}, {"type": "Feature", "geometry": {"type": "LineString", "coordinates": [[18.729900230942775, 69.04022055942195], [18.726080271835343, 69.03951764969952]]}, "properties": {"source": "13071206", "target": "10819557"}}, {"type": "Feature", "geometry": {"type": "LineString", "coordinates": [[18.729900230942775, 69.04022055942195], [18.73354701571597, 69.04095746620689]]}, "properties": {"source": "13071206", "target": "18247724"}}, {"type": "Feature", "geometry": {"type": "LineString", "coordinates": [[18.729900230942775, 69.04022055942195], [18.73403108322003, 69.04246467301479]]}, "properties": {"source": "13071206", "target": "11941610"}}, {"type": "Feature", "geometry": {"type": "LineString", "coordinates": [[18.729900230942775, 69.04022055942195], [18.735696656822114, 69.038404372001]]}, "properties": {"source": "13071206", "target": "15849351"}}, {"type": "Feature", "geometry": {"type": "LineString", "coordinates": [[18.73430409009117, 69.03914136310496], [18.72445176892353, 69.03836745820189]]}, "properties": {"source": "25475465", "target": "28501842"}}, {"type": "Feature", "geometry": {"type": "LineString", "coordinates": [[18.73430409009117, 69.03914136310496], [18.72243664427603, 69.03769730830237]]}, "properties": {"source": "25475465", "target": "27517011"}}, {"type": "Feature", "geometry": {"type": "LineString", "coordinates": [[18.73430409009117, 69.03914136310496], [18.725638133226767, 69.03855667024274]]}, "properties": {"source": "25475465", "target": "25822805"}}, {"type": "Feature", "geometry": {"type": "LineString", "coordinates": [[18.73430409009117, 69.03914136310496], [18.724434739203474, 69.03816327380684]]}, "properties": {"source": "25475465", "target": "30233097"}}, {"type": "Feature", "geometry": {"type": "LineString", "coordinates": [[18.73430409009117, 69.03914136310496], [18.733497088548916, 69.04041354138627]]}, "properties": {"source": "25475465", "target": "10211448"}}, {"type": "Feature", "geometry": {"type": "LineString", "coordinates": [[18.72198863416341, 69.03857145959799], [18.73067681345134, 69.04171960220876]]}, "properties": {"source": "10321103", "target": "19547857"}}, {"type": "Feature", "geometry": {"type": "LineString", "coordinates": [[18.72198863416341, 69.03857145959799], [18.72221964884764, 69.0421655993377]]}, "properties": {"source": "10321103", "target": "18368021"}}, {"type": "Feature", "geometry": {"type": "LineString", "coordinates": [[18.72198863416341, 69.03857145959799], [18.721226323836078, 69.0387706905313]]}, "properties": {"source": "10321103", "target": "27854073"}}, {"type": "Feature", "geometry": {"type": "LineString", "coordinates": [[18.72198863416341, 69.03857145959799], [18.736462355523912, 69.04017113459994]]}, "properties": {"source": "10321103", "target": "30628762"}}, {"type": "Feature", "geometry": {"type": "LineString", "coordinates": [[18.72198863416341, 69.03857145959799], [18.733525208822073, 69.04112347417009]]}, "properties": {"source": "10321103", "target": "8478722"}}, {"type": "Feature", "geometry": {"type": "LineString", "coordinates": [[18.733497088548916, 69.04041354138627], [18.72096306826458, 69.04026740562628]]}, "properties": {"source": "10211448", "target": "17618637"}}, {"type": "Feature", "geometry": {"type": "LineString", "coordinates": [[18.72047335618663, 69.03939086841541], [18.7317396768033, 69.04224321744675]]}, "properties": {"source": "18665793", "target": "23128065"}}, {"type": "Feature", "geometry": {"type": "LineString", "coordinates": [[18.72047335618663, 69.03939086841541], [18.728122132035224, 69.04018336374716]]}, "properties": {"source": "18665793", "target": "18085594"}}, {"type": "Feature", "geometry": {"type": "LineString", "coordinates": [[18.72047335618663, 69.03939086841541], [18.733974844362677, 69.0407872935713]]}, "properties": {"source": "18665793", "target": "18282265"}}, {"type": "Feature", "geometry": {"type": "LineString", "coordinates": [[18.722696249433312, 69.03728706651026], [18.721386676800506, 69.04254311706794]]}, "properties": {"source": "29471519", "target": "21855891"}}, {"type": "Feature", "geometry": {"type": "LineString", "coordinates": [[18.722696249433312, 69.03728706651026], [18.721226323836078, 69.0387706905313]]}, "properties": {"source": "29471519", "target": "27854073"}}, {"type": "Feature", "geometry": {"type": "LineString", "coordinates": [[18.722696249433312, 69.03728706651026], [18.7317396768033, 69.04224321744675]]}, "properties": {"source": "29471519", "target": "23128065"}}, {"type": "Feature", "geometry": {"type": "LineString", "coordinates": [[18.722696249433312, 69.03728706651026], [18.736462355523912, 69.04017113459994]]}, "properties": {"source": "29471519", "target": "30628762"}}, {"type": "Feature", "geometry": {"type": "LineString", "coordinates": [[18.729409861521674, 69.03918605219289], [18.725861604487875, 69.04152840897171]]}, "properties": {"source": "17237349", "target": "20764900"}}, {"type": "Feature", "geometry": {"type": "LineString", "coordinates": [[18.727352854990187, 69.0420396140627], [18.721226323836078, 69.0387706905313]]}, "properties": {"source": "18191408", "target": "27854073"}}, {"type": "Feature", "geometry": {"type": "LineString", "coordinates": [[18.733974844362677, 69.0407872935713], [18.73067681345134, 69.04171960220876]]}, "properties": {"source": "18282265", "target": "19547857"}}, {"type": "Feature", "geometry": {"type": "LineString", "coordinates": [[18.733974844362677, 69.0407872935713], [18.72221964884764, 69.0421655993377]]}, "properties": {"source": "18282265", "target": "18368021"}}, {"type": "Feature", "geometry": {"type": "LineString", "coordinates": [[18.733974844362677, 69.0407872935713], [18.721386676800506, 69.04254311706794]]}, "properties": {"source": "18282265", "target": "21855891"}}, {"type": "Feature", "geometry": {"type": "LineString", "coordinates": [[18.733974844362677, 69.0407872935713], [18.7317396768033, 69.04224321744675]]}, "properties": {"source": "18282265", "target": "23128065"}}, {"type": "Feature", "geometry": {"type": "LineString", "coordinates": [[18.733974844362677, 69.0407872935713], [18.728122132035224, 69.04018336374716]]}, "properties": {"source": "18282265", "target": "18085594"}}, {"type": "Feature", "geometry": {"type": "LineString", "coordinates": [[18.733974844362677, 69.0407872935713], [18.727352854990187, 69.0420396140627]]}, "properties": {"source": "18282265", "target": "18191408"}}, {"type": "Feature", "geometry": {"type": "LineString", "coordinates": [[18.729900230942775, 69.04022055942195], [18.72157001479789, 69.03974480323231]]}, "properties": {"source": "13071206", "target": "13477707"}}, {"type": "Feature", "geometry": {"type": "LineString", "coordinates": [[18.73354701571597, 69.04095746620689], [18.723947458487316, 69.03996131060833]]}, "properties": {"source": "18247724", "target": "14059834"}}, {"type": "Feature", "geometry": {"type": "LineString", "coordinates": [[18.73618517003922, 69.03747496049093], [18.72578072436758, 69.03873957052761]]}, "properties": {"source": "1715029", "target": "18379960"}}, {"type": "Feature", "geometry": {"type": "LineString", "coordinates": [[18.725152873820093, 69.03720929034208], [18.72157001479789, 69.03974480323231]]}, "properties": {"source": "11061199", "target": "13477707"}}, {"type": "Feature", "geometry": {"type": "LineString", "coordinates": [[18.725152873820093, 69.03720929034208], [18.729900230942775, 69.04022055942195]]}, "properties": {"source": "11061199", "target": "13071206"}}, {"type": "Feature", "geometry": {"type": "LineString", "coordinates": [[18.725152873820093, 69.03720929034208], [18.72465785989158, 69.03996111517972]]}, "properties": {"source": "11061199", "target": "13595499"}}, {"type": "Feature", "geometry": {"type": "LineString", "coordinates": [[18.725152873820093, 69.03720929034208], [18.73096196937479, 69.04028918055718]]}, "properties": {"source": "11061199", "target": "28801058"}}, {"type": "Feature", "geometry": {"type": "LineString", "coordinates": [[18.722308825299734, 69.03744829675793], [18.725564564915942, 69.04071638674736]]}, "properties": {"source": "2003519", "target": "20560625"}}, {"type": "Feature", "geometry": {"type": "LineString", "coordinates": [[18.722308825299734, 69.03744829675793], [18.73618517003922, 69.03747496049093]]}, "properties": {"source": "2003519", "target": "1715029"}}, {"type": "Feature", "geometry": {"type": "LineString", "coordinates": [[18.722308825299734, 69.03744829675793], [18.72578072436758, 69.03873957052761]]}, "properties": {"source": "2003519", "target": "18379960"}}, {"type": "Feature", "geometry": {"type": "LineString", "coordinates": [[18.722308825299734, 69.03744829675793], [18.721439817450232, 69.03768594198974]]}, "properties": {"source": "2003519", "target": "24004008"}}, {"type": "Feature", "geometry": {"type": "LineString", "coordinates": [[18.726840288130603, 69.04072117609925], [18.72243664427603, 69.03769730830237]]}, "properties": {"source": "27154719", "target": "27517011"}}, {"type": "Feature", "geometry": {"type": "LineString", "coordinates": [[18.726840288130603, 69.04072117609925], [18.724151163578824, 69.04078610896406]]}, "properties": {"source": "27154719", "target": "30047572"}}, {"type": "Feature", "geometry": {"type": "LineString", "coordinates": [[18.726840288130603, 69.04072117609925], [18.729451936915297, 69.04122157740963]]}, "properties": {"source": "27154719", "target": "29854846"}}, {"type": "Feature", "geometry": {"type": "LineString", "coordinates": [[18.726840288130603, 69.04072117609925], [18.725140847479764, 69.04038244456342]]}, "properties": {"source": "27154719", "target": "25612092"}}, {"type": "Feature", "geometry": {"type": "LineString", "coordinates": [[18.734770265975385, 69.0401391280125], [18.72571567703926, 69.03773032018233]]}, "properties": {"source": "18666105", "target": "19046817"}}, {"type": "Feature", "geometry": {"type": "LineString", "coordinates": [[18.734770265975385, 69.0401391280125], [18.729409861521674, 69.03918605219289]]}, "properties": {"source": "18666105", "target": "17237349"}}, {"type": "Feature", "geometry": {"type": "LineString", "coordinates": [[18.727863349884984, 69.04011132308705], [18.721226323836078, 69.0387706905313]]}, "properties": {"source": "25194054", "target": "27854073"}}, {"type": "Feature", "geometry": {"type": "LineString", "coordinates": [[18.727863349884984, 69.04011132308705], [18.7317396768033, 69.04224321744675]]}, "properties": {"source": "25194054", "target": "23128065"}}, {"type": "Feature", "geometry": {"type": "LineString", "coordinates": [[18.727863349884984, 69.04011132308705], [18.736462355523912, 69.04017113459994]]}, "properties": {"source": "25194054", "target": "30628762"}}, {"type": "Feature", "geometry": {"type": "LineString", "coordinates": [[18.727863349884984, 69.04011132308705], [18.72924647586791, 69.04167390925875]]}, "properties": {"source": "25194054", "target": "12301006"}}, {"type": "Feature", "geometry": {"type": "LineString", "coordinates": [[18.727863349884984, 69.04011132308705], [18.728122132035224, 69.04018336374716]]}, "properties": {"source": "25194054", "target": "18085594"}}, {"type": "Feature", "geometry": {"type": "LineString", "coordinates": [[18.727863349884984, 69.04011132308705], [18.72047335618663, 69.03939086841541]]}, "properties": {"source": "25194054", "target": "18665793"}}, {"type": "Feature", "geometry": {"type": "LineString", "coordinates": [[18.727863349884984, 69.04011132308705], [18.722696249433312, 69.03728706651026]]}, "properties": {"source": "25194054", "target": "29471519"}}, {"type": "Feature", "geometry": {"type": "LineString", "coordinates": [[18.727863349884984, 69.04011132308705], [18.727352854990187, 69.0420396140627]]}, "properties": {"source": "25194054", "target": "18191408"}}, {"type": "Feature", "geometry": {"type": "LineString", "coordinates": [[18.727863349884984, 69.04011132308705], [18.72198863416341, 69.03857145959799]]}, "properties": {"source": "25194054", "target": "10321103"}}, {"type": "Feature", "geometry": {"type": "LineString", "coordinates": [[18.726685738819015, 69.04149770836739], [18.725924610799552, 69.04208783009412]]}, "properties": {"source": "11344801", "target": "28794245"}}, {"type": "Feature", "geometry": {"type": "LineString", "coordinates": [[18.726685738819015, 69.04149770836739], [18.72096306826458, 69.04026740562628]]}, "properties": {"source": "11344801", "target": "17618637"}}, {"type": "Feature", "geometry": {"type": "LineString", "coordinates": [[18.724139029696033, 69.0379551058601], [18.729409861521674, 69.03918605219289]]}, "properties": {"source": "17905460", "target": "17237349"}}, {"type": "Feature", "geometry": {"type": "LineString", "coordinates": [[18.73403108322003, 69.04246467301479], [18.73096196937479, 69.04028918055718]]}, "properties": {"source": "11941610", "target": "28801058"}}, {"type": "Feature", "geometry": {"type": "LineString", "coordinates": [[18.725106893450572, 69.04235363353365], [18.729451936915297, 69.04122157740963]]}, "properties": {"source": "30533686", "target": "29854846"}}, {"type": "Feature", "geometry": {"type": "LineString", "coordinates": [[18.725106893450572, 69.04235363353365], [18.735859970164483, 69.03905958823847]]}, "properties": {"source": "30533686", "target": "2979566"}}, {"type": "Feature", "geometry": {"type": "LineString", "coordinates": [[18.725106893450572, 69.04235363353365], [18.723456402043382, 69.0395565312202]]}, "properties": {"source": "30533686", "target": "5181388"}}, {"type": "Feature", "geometry": {"type": "LineString", "coordinates": [[18.734200593927255, 69.04249189569401], [18.734770265975385, 69.0401391280125]]}, "properties": {"source": "17855166", "target": "18666105"}}, {"type": "Feature", "geometry": {"type": "LineString", "coordinates": [[18.734200593927255, 69.04249189569401], [18.724139029696033, 69.0379551058601]]}, "properties": {"source": "17855166", "target": "17905460"}}, {"type": "Feature", "geometry": {"type": "LineString", "coordinates": [[18.734200593927255, 69.04249189569401], [18.72413211016334, 69.03771972887526]]}, "properties": {"source": "17855166", "target": "18842322"}}, {"type": "Feature", "geometry": {"type": "LineString", "coordinates": [[18.72571567703926, 69.03773032018233], [18.721386676800506, 69.04254311706794]]}, "properties": {"source": "19046817", "target": "21855891"}}, {"type": "Feature", "geometry": {"type": "LineString", "coordinates": [[18.72571567703926, 69.03773032018233], [18.729409861521674, 69.03918605219289]]}, "properties": {"source": "19046817", "target": "17237349"}}, {"type": "Feature", "geometry": {"type": "LineString", "coordinates": [[18.72571567703926, 69.03773032018233], [18.720729352520266, 69.04219811576257]]}, "properties": {"source": "19046817", "target": "21848529"}}, {"type": "Feature", "geometry": {"type": "LineString", "coordinates": [[18.72571567703926, 69.03773032018233], [18.725861604487875, 69.04152840897171]]}, "properties": {"source": "19046817", "target": "20764900"}}, {"type": "Feature", "geometry": {"type": "LineString", "coordinates": [[18.72571567703926, 69.03773032018233], [18.724139029696033, 69.0379551058601]]}, "properties": {"source": "19046817", "target": "17905460"}}, {"type": "Feature", "geometry": {"type": "LineString", "coordinates": [[18.724434739203474, 69.03816327380684], [18.72243664427603, 69.03769730830237]]}, "properties": {"source": "30233097", "target": "27517011"}}, {"type": "Feature", "geometry": {"type": "LineString", "coordinates": [[18.724434739203474, 69.03816327380684], [18.729451936915297, 69.04122157740963]]}, "properties": {"source": "30233097", "target": "29854846"}}, {"type": "Feature", "geometry": {"type": "LineString", "coordinates": [[18.728122132035224, 69.04018336374716], [18.721226323836078, 69.0387706905313]]}, "properties": {"source": "18085594", "target": "27854073"}}, {"type": "Feature", "geometry": {"type": "LineString", "coordinates": [[18.728122132035224, 69.04018336374716], [18.736462355523912, 69.04017113459994]]}, "properties": {"source": "18085594", "target": "30628762"}}, {"type": "Feature", "geometry": {"type": "LineString", "coordinates": [[18.72047335618663, 69.03939086841541], [18.72044143572154, 69.0387650036204]]}, "properties": {"source": "18665793", "target": "25391129"}}, {"type": "Feature", "geometry": {"type": "LineString", "coordinates": [[18.72047335618663, 69.03939086841541], [18.73067681345134, 69.04171960220876]]}, "properties": {"source": "18665793", "target": "19547857"}}, {"type": "Feature", "geometry": {"type": "LineString", "coordinates": [[18.72047335618663, 69.03939086841541], [18.72221964884764, 69.0421655993377]]}, "properties": {"source": "18665793", "target": "18368021"}}, {"type": "Feature", "geometry": {"type": "LineString", "coordinates": [[18.72047335618663, 69.03939086841541], [18.721386676800506, 69.04254311706794]]}, "properties": {"source": "18665793", "target": "21855891"}}]}