{"type": "FeatureCollection", "features": [{"type": "Feature", "geometry": {"type": "LineString", "coordinates": [[103.38067715038596, 68.52955220621558], [103.38056151639597, 68.5283391851022]]}, "properties": {"source": "6330028", "target": "630863"}}, {"type": "Feature", "geometry": {"type": "LineString", "coordinates": [[103.38067715038596, 68.52955220621558], [103.3821584837537, 68.53316583385185]]}, "properties": {"source": "6330028", "target": "44883"}}, {"type": "Feature", "geometry": {"type": "LineString", "coordinates": [[103.38067715038596, 68.52955220621558], [103.39451776933618, 68.52927530005925]]}, "properties": {"source": "6330028", "target": "51578"}}, {"type": "Feature", "geometry": {"type": "LineString", "coordinates": [[103.3981301874822, 68.53600750032564], [103.38287244971474, 68.53005811374311]]}, "properties": {"source": "36203170", "target": "35680001"}}, {"type": "Feature", "geometry": {"type": "LineString", "coordinates": [[103.3981301874822, 68.53600750032564], [103.40022215356896, 68.53501271814241]]}, "properties": {"source": "36203170", "target": "35083400"}}, {"type": "Feature", "geometry": {"type": "LineString", "coordinates": [[103.3981301874822, 68.53600750032564], [103.38475476310384, 68.53562750117217]]}, "properties": {"source": "36203170", "target": "36202012"}}, {"type": "Feature", "geometry": {"type": "LineString", "coordinates": [[103.3964393482957, 68.53030984555915], [103.39226039694768, 68.52929396990285]]}, "properties": {"source": "13358292", "target": "15986973"}}, {"type": "Feature", "geometry": {"type": "LineString", "coordinates": [[103.38548180746761, 68.53176288713186], [103.39047807400351, 68.53006547271838]]}, "properties": {"source": "21841480", "target": "29504693"}}, {"type": "Feature", "geometry": {"type": "LineString", "coordinates": [[103.38548180746761, 68.53176288713186], [103.38467397567814, 68.53262062710803]]}, "properties": {"source": "21841480", "target": "18368509"}}, {"type": "Feature", "geometry": {"type": "LineString", "coordinates": [[103.38548180746761, 68.53176288713186], [103.38399000857066, 68.53019066916517]]}, "properties": {"source": "21841480", "target": "18169204"}}, {"type": "Feature", "geometry": {"type": "LineString", "coordinates": [[103.38091471884803, 68.53241661389421], [103.38774685340144, 68.53098928134716]]}, "properties": {"source": "23523192", "target": "23253714"}}, {"type": "Feature", "geometry": {"type": "LineString", "coordinates": [[103.38091471884803, 68.53241661389421], [103.38990549514182, 68.53427475778452]]}, "properties": {"source": "23523192", "target": "27445306"}}, {"type": "Feature", "geometry": {"type": "LineString", "coordinates": [[103.38091471884803, 68.53241661389421], [103.40128892471813, 68.53484885912741]]}, "properties": {"source": "23523192", "target": "20945327"}}, {"type": "Feature", "geometry": {"type": "LineString", "coordinates": [[103.38091471884803, 68.53241661389421], [103.4039049746105, 68.5289461099002]]}, "properties": {"source": "23523192", "target": "22006059"}}, {"type": "Feature", "geometry": {"type": "LineString", "coordinates": [[103.38091471884803, 68.53241661389421], [103.39343548157035, 68.53524026243582]]}, "properties": {"source": "23523192", "target": "19617735"}}, {"type": "Feature", "geometry": {"type": "LineString", "coordinates": [[103.38207751814036, 68.52812509204978], [103.40128892471813, 68.53484885912741]]}, "properties": {"source": "33410477", "target": "20945327"}}, {"type": "Feature", "geometry": {"type": "LineString", "coordinates": [[103.38207751814036, 68.52812509204978], [103.39778742970799, 68.53470599017496]]}, "properties": {"source": "33410477", "target": "6699937"}}, {"type": "Feature", "geometry": {"type": "LineString", "coordinates": [[103.38207751814036, 68.52812509204978], [103.38588514067146, 68.53486566399485]]}, "properties": {"source": "33410477", "target": "13571612"}}, {"type": "Feature", "geometry": {"type": "LineString", "coordinates": [[103.4039049746105, 68.5289461099002], [103.38990549514182, 68.53427475778452]]}, "properties": {"source": "22006059", "target": "27445306"}}, {"type": "Feature", "geometry": {"type": "LineString", "coordinates": [[103.4039049746105, 68.5289461099002], [103.39343548157035, 68.53524026243582]]}, "properties": {"source": "22006059", "target": "19617735"}}, {"type": "Feature", "geometry": {"type": "LineString", "coordinates": [[103.39796667764182, 68.53603866833703], [103.40128892471813, 68.53484885912741]]}, "properties": {"source": "17118320", "target": "20945327"}}, {"type": "Feature", "geometry": {"type": "LineString", "coordinates": [[103.39796667764182, 68.53603866833703], [103.39226039694768, 68.52929396990285]]}, "properties": {"source": "17118320", "target": "15986973"}}, {"type": "Feature", "geometry": {"type": "LineString", "coordinates": [[103.38207751814036, 68.52812509204978], [103.39318042945473, 68.53318024209565]]}, "properties": {"source": "33410477", "target": "5148837"}}, {"type": "Feature", "geometry": {"type": "LineString", "coordinates": [[103.40069726491976, 68.5322079191796], [103.3989199486287, 68.52880675258001]]}, "properties": {"source": "34100787", "target": "34036965"}}, {"type": "Feature", "geometry": {"type": "LineString", "coordinates": [[103.38881361542656, 68.53119021461046], [103.39617347291892, 68.53473955694534]]}, "properties": {"source": "11213133", "target": "32988191"}}, {"type": "Feature", "geometry": {"type": "LineString", "coordinates": [[103.38881361542656, 68.53119021461046], [103.39982782630489, 68.53021377673406]]}, "properties": {"source": "11213133", "target": "15983597"}}, {"type": "Feature", "geometry": {"type": "LineString", "coordinates": [[103.38881361542656, 68.53119021461046], [103.39796667764182, 68.53603866833703]]}, "properties": {"source": "11213133", "target": "17118320"}}, {"type": "Feature", "geometry": {"type": "LineString", "coordinates": [[103.38881361542656, 68.53119021461046], [103.39215422828124, 68.53267123307694]]}, "properties": {"source": "11213133", "target": "11688339"}}, {"type": "Feature", "geometry": {"type": "LineString", "coordinates": [[103.38881361542656, 68.53119021461046], [103.39666735636399, 68.53508454025118]]}, "properties": {"source": "11213133", "target": "13453573"}}, {"type": "Feature", "geometry": {"type": "LineString", "coordinates": [[103.38881361542656, 68.53119021461046], [103.40236075887174, 68.5313748875505]]}, "properties": {"source": "11213133", "target": "13571666"}}, {"type": "Feature", "geometry": {"type": "LineString", "coordinates": [[103.40238418878266, 68.53553409176195], [103.39138427545606, 68.52978351381256]]}, "properties": {"source": "2716670", "target": "277857"}}, {"type": "Feature", "geometry": {"type": "LineString", "coordinates": [[103.40238418878266, 68.53553409176195], [103.40032951212697, 68.529054255803]]}, "properties": {"source": "2716670", "target": "31297390"}}, {"type": "Feature", "geometry": {"type": "LineString", "coordinates": [[103.40238418878266, 68.53553409176195], [103.39408877784075, 68.53316111924028]]}, "properties": {"source": "2716670", "target": "24375300"}}, {"type": "Feature", "geometry": {"type": "LineString", "coordinates": [[103.40238418878266, 68.53553409176195], [103.40106810499736, 68.53600071922602]]}, "properties": {"source": "2716670", "target": "27193190"}}, {"type": "Feature", "geometry": {"type": "LineString", "coordinates": [[103.38424795399726, 68.53066384410576], [103.38990549514182, 68.53427475778452]]}, "properties": {"source": "10458937", "target": "27445306"}}, {"type": "Feature", "geometry": {"type": "LineString", "coordinates": [[103.38424795399726, 68.53066384410576], [103.38366942227043, 68.5314401632942]]}, "properties": {"source": "10458937", "target": "14289719"}}, {"type": "Feature", "geometry": {"type": "LineString", "coordinates": [[103.38424795399726, 68.53066384410576], [103.38571990645426, 68.52861909420312]]}, "properties": {"source": "10458937", "target": "15739797"}}, {"type": "Feature", "geometry": {"type": "LineString", "coordinates": [[103.3989199486287, 68.52880675258001], [103.40436690189864, 68.53582851846272]]}, "properties": {"source": "34036965", "target": "32821285"}}, {"type": "Feature", "geometry": {"type": "LineString", "coordinates": [[103.38067715038596, 68.52955220621558], [103.40501971065675, 68.53319217459273]]}, "properties": {"source": "6330028", "target": "6330059"}}, {"type": "Feature", "geometry": {"type": "LineString", "coordinates": [[103.39117371886658, 68.53338693261134], [103.38520756869337, 68.53590535156778]]}, "properties": {"source": "29429576", "target": "29456540"}}, {"type": "Feature", "geometry": {"type": "LineString", "coordinates": [[103.39900438694087, 68.52855975096497], [103.39778742970799, 68.53470599017496]]}, "properties": {"source": "8162126", "target": "6699937"}}, {"type": "Feature", "geometry": {"type": "LineString", "coordinates": [[103.40189056264967, 68.53224445324255], [103.40436690189864, 68.53582851846272]]}, "properties": {"source": "12212841", "target": "32821285"}}, {"type": "Feature", "geometry": {"type": "LineString", "coordinates": [[103.40189056264967, 68.53224445324255], [103.3997467259261, 68.52999938908582]]}, "properties": {"source": "12212841", "target": "2647985"}}, {"type": "Feature", "geometry": {"type": "LineString", "coordinates": [[103.38345103515081, 68.53402792916606], [103.40128892471813, 68.53484885912741]]}, "properties": {"source": "18276556", "target": "20945327"}}, {"type": "Feature", "geometry": {"type": "LineString", "coordinates": [[103.38345103515081, 68.53402792916606], [103.39284803022667, 68.53446548772743]]}, "properties": {"source": "18276556", "target": "21445006"}}, {"type": "Feature", "geometry": {"type": "LineString", "coordinates": [[103.38976082399967, 68.52816722066453], [103.38599118523581, 68.52898044849803]]}, "properties": {"source": "12664982", "target": "16048912"}}, {"type": "Feature", "geometry": {"type": "LineString", "coordinates": [[103.38976082399967, 68.52816722066453], [103.38710783226463, 68.53087446016531]]}, "properties": {"source": "12664982", "target": "11992712"}}, {"type": "Feature", "geometry": {"type": "LineString", "coordinates": [[103.38475476310384, 68.53562750117217], [103.39755986298508, 68.52887469165432]]}, "properties": {"source": "36202012", "target": "34532227"}}, {"type": "Feature", "geometry": {"type": "LineString", "coordinates": [[103.38833123909438, 68.5304236131752], [103.38520756869337, 68.53590535156778]]}, "properties": {"source": "26129162", "target": "29456540"}}, {"type": "Feature", "geometry": {"type": "LineString", "coordinates": [[103.38833123909438, 68.5304236131752], [103.38782193121762, 68.53542467950587]]}, "properties": {"source": "26129162", "target": "16580866"}}, {"type": "Feature", "geometry": {"type": "LineString", "coordinates": [[103.38833123909438, 68.5304236131752], [103.39408877784075, 68.53316111924028]]}, "properties": {"source": "26129162", "target": "24375300"}}, {"type": "Feature", "geometry": {"type": "LineString", "coordinates": [[103.38467397567814, 68.53262062710803], [103.4039049746105, 68.5289461099002]]}, "properties": {"source": "18368509", "target": "22006059"}}, {"type": "Feature", "geometry": {"type": "LineString", "coordinates": [[103.38467397567814, 68.53262062710803], [103.39343548157035, 68.53524026243582]]}, "properties": {"source": "18368509", "target": "19617735"}}, {"type": "Feature", "geometry": {"type": "LineString", "coordinates": [[103.40069726491976, 68.5322079191796], [103.40436690189864, 68.53582851846272]]}, "properties": {"source": "34100787", "target": "32821285"}}, {"type": "Feature", "geometry": {"type": "LineString", "coordinates": [[103.39900438694087, 68.52855975096497], [103.39318042945473, 68.53318024209565]]}, "properties": {"source": "8162126", "target": "5148837"}}, {"type": "Feature", "geometry": {"type": "LineString", "coordinates": [[103.3999088546509, 68.53179317006976], [103.38399000857066, 68.53019066916517]]}, "properties": {"source": "13036371", "target": "18169204"}}, {"type": "Feature", "geometry": {"type": "LineString", "coordinates": [[103.4039071624806, 68.53128954017075], [103.39617347291892, 68.53473955694534]]}, "properties": {"source": "23959962", "target": "32988191"}}, {"type": "Feature", "geometry": {"type": "LineString", "coordinates": [[103.4039071624806, 68.53128954017075], [103.40128892471813, 68.53484885912741]]}, "properties": {"source": "23959962", "target": "20945327"}}, {"type": "Feature", "geometry": {"type": "LineString", "coordinates": [[103.4039071624806, 68.53128954017075], [103.38207751814036, 68.52812509204978]]}, "properties": {"source": "23959962", "target": "33410477"}}, {"type": "Feature", "geometry": {"type": "LineString", "coordinates": [[103.4039071624806, 68.53128954017075], [103.39284803022667, 68.53446548772743]]}, "properties": {"source": "23959962", "target": "21445006"}}, {"type": "Feature", "geometry": {"type": "LineString", "coordinates": [[103.4039071624806, 68.53128954017075], [103.38345103515081, 68.53402792916606]]}, "properties": {"source": "23959962", "target": "18276556"}}, {"type": "Feature", "geometry": {"type": "LineString", "coordinates": [[103.38976082399967, 68.52816722066453], [103.39226039694768, 68.52929396990285]]}, "properties": {"source": "12664982", "target": "15986973"}}, {"type": "Feature", "geometry": {"type": "LineString", "coordinates": [[103.39755986298508, 68.52887469165432], [103.3854113868457, 68.53599559528695]]}, "properties": {"source": "34532227", "target": "34741280"}}, {"type": "Feature", "geometry": {"type": "LineString", "coordinates": [[103.38961442885591, 68.53364986854845], [103.39982782630489, 68.53021377673406]]}, "properties": {"source": "17618016", "target": "15983597"}}, {"type": "Feature", "geometry": {"type": "LineString", "coordinates": [[103.38961442885591, 68.53364986854845], [103.40128892471813, 68.53484885912741]]}, "properties": {"source": "17618016", "target": "20945327"}}, {"type": "Feature", "geometry": {"type": "LineString", "coordinates": [[103.38961442885591, 68.53364986854845], [103.39796667764182, 68.53603866833703]]}, "properties": {"source": "17618016", "target": "17118320"}}, {"type": "Feature", "geometry": {"type": "LineString", "coordinates": [[103.38961442885591, 68.53364986854845], [103.39215422828124, 68.53267123307694]]}, "properties": {"source": "17618016", "target": "11688339"}}, {"type": "Feature", "geometry": {"type": "LineString", "coordinates": [[103.38961442885591, 68.53364986854845], [103.39666735636399, 68.53508454025118]]}, "properties": {"source": "17618016", "target": "13453573"}}, {"type": "Feature", "geometry": {"type": "LineString", "coordinates": [[103.38961442885591, 68.53364986854845], [103.39226039694768, 68.52929396990285]]}, "properties": {"source": "17618016", "target": "15986973"}}, {"type": "Feature", "geometry": {"type": "LineString", "coordinates": [[103.38961442885591, 68.53364986854845], [103.39284803022667, 68.53446548772743]]}, "properties": {"source": "17618016", "target": "21445006"}}, {"type": "Feature", "geometry": {"type": "LineString", "coordinates": [[103.38961442885591, 68.53364986854845], [103.4039071624806, 68.53128954017075]]}, "properties": {"source": "17618016", "target": "23959962"}}, {"type": "Feature", "geometry": {"type": "LineString", "coordinates": [[103.39995582634413, 68.53462724430412], [103.4028974902804, 68.53433379588628]]}, "properties": {"source": "34741002", "target": "30256218"}}, {"type": "Feature", "geometry": {"type": "LineString", "coordinates": [[103.39620163055639, 68.53394278179667], [103.38528930274686, 68.53367628868045]]}, "properties": {"source": "221599", "target": "1622770"}}, {"type": "Feature", "geometry": {"type": "LineString", "coordinates": [[103.39620163055639, 68.53394278179667], [103.38574403502679, 68.53283628647705]]}, "properties": {"source": "221599", "target": "28512110"}}, {"type": "Feature", "geometry": {"type": "LineString", "coordinates": [[103.38951005211311, 68.52997032773251], [103.38976082399967, 68.52816722066453]]}, "properties": {"source": "13372232", "target": "12664982"}}, {"type": "Feature", "geometry": {"type": "LineString", "coordinates": [[103.4028974902804, 68.53433379588628], [103.40022215356896, 68.53501271814241]]}, "properties": {"source": "30256218", "target": "35083400"}}, {"type": "Feature", "geometry": {"type": "LineString", "coordinates": [[103.39302959554465, 68.53041861964485], [103.4039049746105, 68.5289461099002]]}, "properties": {"source": "23623438", "target": "22006059"}}, {"type": "Feature", "geometry": {"type": "LineString", "coordinates": [[103.39511378441341, 68.53447050291106], [103.40069726491976, 68.5322079191796]]}, "properties": {"source": "33559135", "target": "34100787"}}, {"type": "Feature", "geometry": {"type": "LineString", "coordinates": [[103.39583698800362, 68.53268278574575], [103.39617347291892, 68.53473955694534]]}, "properties": {"source": "25333140", "target": "32988191"}}, {"type": "Feature", "geometry": {"type": "LineString", "coordinates": [[103.39583698800362, 68.53268278574575], [103.38803339578095, 68.53157231003019]]}, "properties": {"source": "25333140", "target": "30348583"}}, {"type": "Feature", "geometry": {"type": "LineString", "coordinates": [[103.39583698800362, 68.53268278574575], [103.3833563431113, 68.53344195024746]]}, "properties": {"source": "25333140", "target": "24341281"}}, {"type": "Feature", "geometry": {"type": "LineString", "coordinates": [[103.39583698800362, 68.53268278574575], [103.38974617537053, 68.53512058444636]]}, "properties": {"source": "25333140", "target": "30831145"}}, {"type": "Feature", "geometry": {"type": "LineString", "coordinates": [[103.39583698800362, 68.53268278574575], [103.40413634256146, 68.5342707204756]]}, "properties": {"source": "25333140", "target": "24289316"}}, {"type": "Feature", "geometry": {"type": "LineString", "coordinates": [[103.39583698800362, 68.53268278574575], [103.38774685340144, 68.53098928134716]]}, "properties": {"source": "25333140", "target": "23253714"}}, {"type": "Feature", "geometry": {"type": "LineString", "coordinates": [[103.39583698800362, 68.53268278574575], [103.38990549514182, 68.53427475778452]]}, "properties": {"source": "25333140", "target": "27445306"}}, {"type": "Feature", "geometry": {"type": "LineString", "coordinates": [[103.39583698800362, 68.53268278574575], [103.38084904356879, 68.52970663670666]]}, "properties": {"source": "25333140", "target": "30829586"}}, {"type": "Feature", "geometry": {"type": "LineString", "coordinates": [[103.39583698800362, 68.53268278574575], [103.38548180746761, 68.53176288713186]]}, "properties": {"source": "25333140", "target": "21841480"}}, {"type": "Feature", "geometry": {"type": "LineString", "coordinates": [[103.38774688764039, 68.53235088660313], [103.40436690189864, 68.53582851846272]]}, "properties": {"source": "32939314", "target": "32821285"}}, {"type": "Feature", "geometry": {"type": "LineString", "coordinates": [[103.38774688764039, 68.53235088660313], [103.38755721734316, 68.5287737400244]]}, "properties": {"source": "32939314", "target": "334403"}}, {"type": "Feature", "geometry": {"type": "LineString", "coordinates": [[103.38774688764039, 68.53235088660313], [103.40167106413207, 68.53285138406508]]}, "properties": {"source": "32939314", "target": "36393897"}}, {"type": "Feature", "geometry": {"type": "LineString", "coordinates": [[103.38774688764039, 68.53235088660313], [103.40069726491976, 68.5322079191796]]}, "properties": {"source": "32939314", "target": "34100787"}}, {"type": "Feature", "geometry": {"type": "LineString", "coordinates": [[103.38774688764039, 68.53235088660313], [103.3997467259261, 68.52999938908582]]}, "properties": {"source": "32939314", "target": "2647985"}}, {"type": "Feature", "geometry": {"type": "LineString", "coordinates": [[103.40238418878266, 68.53553409176195], [103.38833123909438, 68.5304236131752]]}, "properties": {"source": "2716670", "target": "26129162"}}, {"type": "Feature", "geometry": {"type": "LineString", "coordinates": [[103.39318042945473, 68.53318024209565], [103.39778742970799, 68.53470599017496]]}, "properties": {"source": "5148837", "target": "6699937"}}, {"type": "Feature", "geometry": {"type": "LineString", "coordinates": [[103.39796667764182, 68.53603866833703], [103.39284803022667, 68.53446548772743]]}, "properties": {"source": "17118320", "target": "21445006"}}, {"type": "Feature", "geometry": {"type": "LineString", "coordinates": [[103.39796667764182, 68.53603866833703], [103.38588514067146, 68.53486566399485]]}, "properties": {"source": "17118320", "target": "13571612"}}, {"type": "Feature", "geometry": {"type": "LineString", "coordinates": [[103.390286960725, 68.52877551463519], [103.3854113868457, 68.53599559528695]]}, "properties": {"source": "33297988", "target": "34741280"}}, {"type": "Feature", "geometry": {"type": "LineString", "coordinates": [[103.38295780370674, 68.53148321986268], [103.39617347291892, 68.53473955694534]]}, "properties": {"source": "29969867", "target": "32988191"}}, {"type": "Feature", "geometry": {"type": "LineString", "coordinates": [[103.38295780370674, 68.53148321986268], [103.39851801050418, 68.53574671908333]]}, "properties": {"source": "29969867", "target": "30313962"}}, {"type": "Feature", "geometry": {"type": "LineString", "coordinates": [[103.38295780370674, 68.53148321986268], [103.38803339578095, 68.53157231003019]]}, "properties": {"source": "29969867", "target": "30348583"}}, {"type": "Feature", "geometry": {"type": "LineString", "coordinates": [[103.38295780370674, 68.53148321986268], [103.39583698800362, 68.53268278574575]]}, "properties": {"source": "29969867", "target": "25333140"}}, {"type": "Feature", "geometry": {"type": "LineString", "coordinates": [[103.38295780370674, 68.53148321986268], [103.3833563431113, 68.53344195024746]]}, "properties": {"source": "29969867", "target": "24341281"}}, {"type": "Feature", "geometry": {"type": "LineString", "coordinates": [[103.38295780370674, 68.53148321986268], [103.38974617537053, 68.53512058444636]]}, "properties": {"source": "29969867", "target": "30831145"}}, {"type": "Feature", "geometry": {"type": "LineString", "coordinates": [[103.38295780370674, 68.53148321986268], [103.40413634256146, 68.5342707204756]]}, "properties": {"source": "29969867", "target": "24289316"}}, {"type": "Feature", "geometry": {"type": "LineString", "coordinates": [[103.38295780370674, 68.53148321986268], [103.38774685340144, 68.53098928134716]]}, "properties": {"source": "29969867", "target": "23253714"}}, {"type": "Feature", "geometry": {"type": "LineString", "coordinates": [[103.38295780370674, 68.53148321986268], [103.38990549514182, 68.53427475778452]]}, "properties": {"source": "29969867", "target": "27445306"}}, {"type": "Feature", "geometry": {"type": "LineString", "coordinates": [[103.38295780370674, 68.53148321986268], [103.4039049746105, 68.5289461099002]]}, "properties": {"source": "29969867", "target": "22006059"}}, {"type": "Feature", "geometry": {"type": "LineString", "coordinates": [[103.38295780370674, 68.53148321986268], [103.39755986298508, 68.52887469165432]]}, "properties": {"source": "29969867", "target": "34532227"}}, {"type": "Feature", "geometry": {"type": "LineString", "coordinates": [[103.38295780370674, 68.53148321986268], [103.39302959554465, 68.53041861964485]]}, "properties": {"source": "29969867", "target": "23623438"}}, {"type": "Feature", "geometry": {"type": "LineString", "coordinates": [[103.39215422828124, 68.53267123307694], [103.39617347291892, 68.53473955694534]]}, "properties": {"source": "11688339", "target": "32988191"}}, {"type": "Feature", "geometry": {"type": "LineString", "coordinates": [[103.38774685340144, 68.53098928134716], [103.38467397567814, 68.53262062710803]]}, "properties": {"source": "23253714", "target": "18368509"}}, {"type": "Feature", "geometry": {"type": "LineString", "coordinates": [[103.38084904356879, 68.52970663670666], [103.39617347291892, 68.53473955694534]]}, "properties": {"source": "30829586", "target": "32988191"}}, {"type": "Feature", "geometry": {"type": "LineString", "coordinates": [[103.38084904356879, 68.52970663670666], [103.38974617537053, 68.53512058444636]]}, "properties": {"source": "30829586", "target": "30831145"}}, {"type": "Feature", "geometry": {"type": "LineString", "coordinates": [[103.38084904356879, 68.52970663670666], [103.38287244971474, 68.53005811374311]]}, "properties": {"source": "30829586", "target": "35680001"}}, {"type": "Feature", "geometry": {"type": "LineString", "coordinates": [[103.38084904356879, 68.52970663670666], [103.38091471884803, 68.53241661389421]]}, "properties": {"source": "30829586", "target": "23523192"}}, {"type": "Feature", "geometry": {"type": "LineString", "coordinates": [[103.38084904356879, 68.52970663670666], [103.390286960725, 68.52877551463519]]}, "properties": {"source": "30829586", "target": "33297988"}}, {"type": "Feature", "geometry": {"type": "LineString", "coordinates": [[103.38084904356879, 68.52970663670666], [103.39755986298508, 68.52887469165432]]}, "properties": {"source": "30829586", "target": "34532227"}}, {"type": "Feature", "geometry": {"type": "LineString", "coordinates": [[103.38084904356879, 68.52970663670666], [103.4026979311306, 68.53326322825026]]}, "properties": {"source": "30829586", "target": "29155389"}}, {"type": "Feature", "geometry": {"type": "LineString", "coordinates": [[103.38084904356879, 68.52970663670666], [103.39047807400351, 68.53006547271838]]}, "properties": {"source": "30829586", "target": "29504693"}}, {"type": "Feature", "geometry": {"type": "LineString", "coordinates": [[103.39617347291892, 68.53473955694534], [103.3854113868457, 68.53599559528695]]}, "properties": {"source": "32988191", "target": "34741280"}}, {"type": "Feature", "geometry": {"type": "LineString", "coordinates": [[103.39617347291892, 68.53473955694534], [103.38948827012683, 68.53342269329357]]}, "properties": {"source": "32988191", "target": "25023113"}}, {"type": "Feature", "geometry": {"type": "LineString", "coordinates": [[103.39617347291892, 68.53473955694534], [103.38588514067146, 68.53486566399485]]}, "properties": {"source": "32988191", "target": "13571612"}}, {"type": "Feature", "geometry": {"type": "LineString", "coordinates": [[103.39851801050418, 68.53574671908333], [103.39617347291892, 68.53473955694534]]}, "properties": {"source": "30313962", "target": "32988191"}}, {"type": "Feature", "geometry": {"type": "LineString", "coordinates": [[103.39851801050418, 68.53574671908333], [103.38803339578095, 68.53157231003019]]}, "properties": {"source": "30313962", "target": "30348583"}}, {"type": "Feature", "geometry": {"type": "LineString", "coordinates": [[103.39851801050418, 68.53574671908333], [103.39583698800362, 68.53268278574575]]}, "properties": {"source": "30313962", "target": "25333140"}}, {"type": "Feature", "geometry": {"type": "LineString", "coordinates": [[103.39851801050418, 68.53574671908333], [103.3833563431113, 68.53344195024746]]}, "properties": {"source": "30313962", "target": "24341281"}}, {"type": "Feature", "geometry": {"type": "LineString", "coordinates": [[103.3833563431113, 68.53344195024746], [103.39617347291892, 68.53473955694534]]}, "properties": {"source": "24341281", "target": "32988191"}}, {"type": "Feature", "geometry": {"type": "LineString", "coordinates": [[103.3833563431113, 68.53344195024746], [103.38974617537053, 68.53512058444636]]}, "properties": {"source": "24341281", "target": "30831145"}}, {"type": "Feature", "geometry": {"type": "LineString", "coordinates": [[103.3833563431113, 68.53344195024746], [103.40413634256146, 68.5342707204756]]}, "properties": {"source": "24341281", "target": "24289316"}}, {"type": "Feature", "geometry": {"type": "LineString", "coordinates": [[103.3833563431113, 68.53344195024746], [103.38774685340144, 68.53098928134716]]}, "properties": {"source": "24341281", "target": "23253714"}}, {"type": "Feature", "geometry": {"type": "LineString", "coordinates": [[103.3833563431113, 68.53344195024746], [103.38990549514182, 68.53427475778452]]}, "properties": {"source": "24341281", "target": "27445306"}}, {"type": "Feature", "geometry": {"type": "LineString", "coordinates": [[103.3833563431113, 68.53344195024746], [103.38084904356879, 68.52970663670666]]}, "properties": {"source": "24341281", "target": "30829586"}}, {"type": "Feature", "geometry": {"type": "LineString", "coordinates": [[103.3833563431113, 68.53344195024746], [103.38091471884803, 68.53241661389421]]}, "properties": {"source": "24341281", "target": "23523192"}}, {"type": "Feature", "geometry": {"type": "LineString", "coordinates": [[103.3833563431113, 68.53344195024746], [103.4039049746105, 68.5289461099002]]}, "properties": {"source": "24341281", "target": "22006059"}}, {"type": "Feature", "geometry": {"type": "LineString", "coordinates": [[103.3833563431113, 68.53344195024746], [103.390286960725, 68.52877551463519]]}, "properties": {"source": "24341281", "target": "33297988"}}, {"type": "Feature", "geometry": {"type": "LineString", "coordinates": [[103.38084904356879, 68.52970663670666], [103.3854113868457, 68.53599559528695]]}, "properties": {"source": "30829586", "target": "34741280"}}, {"type": "Feature", "geometry": {"type": "LineString", "coordinates": [[103.38287244971474, 68.53005811374311], [103.39617347291892, 68.53473955694534]]}, "properties": {"source": "35680001", "target": "32988191"}}, {"type": "Feature", "geometry": {"type": "LineString", "coordinates": [[103.38287244971474, 68.53005811374311], [103.38974617537053, 68.53512058444636]]}, "properties": {"source": "35680001", "target": "30831145"}}, {"type": "Feature", "geometry": {"type": "LineString", "coordinates": [[103.38287244971474, 68.53005811374311], [103.390286960725, 68.52877551463519]]}, "properties": {"source": "35680001", "target": "33297988"}}, {"type": "Feature", "geometry": {"type": "LineString", "coordinates": [[103.38287244971474, 68.53005811374311], [103.39755986298508, 68.52887469165432]]}, "properties": {"source": "35680001", "target": "34532227"}}, {"type": "Feature", "geometry": {"type": "LineString", "coordinates": [[103.38287244971474, 68.53005811374311], [103.38475476310384, 68.53562750117217]]}, "properties": {"source": "35680001", "target": "36202012"}}, {"type": "Feature", "geometry": {"type": "LineString", "coordinates": [[103.38287244971474, 68.53005811374311], [103.3854113868457, 68.53599559528695]]}, "properties": {"source": "35680001", "target": "34741280"}}, {"type": "Feature", "geometry": {"type": "LineString", "coordinates": [[103.40032951212697, 68.529054255803], [103.38833123909438, 68.5304236131752]]}, "properties": {"source": "31297390", "target": "26129162"}}, {"type": "Feature", "geometry": {"type": "LineString", "coordinates": [[103.40032951212697, 68.529054255803], [103.39408877784075, 68.53316111924028]]}, "properties": {"source": "31297390", "target": "24375300"}}, {"type": "Feature", "geometry": {"type": "LineString", "coordinates": [[103.38571990645426, 68.52861909420312], [103.38990549514182, 68.53427475778452]]}, "properties": {"source": "15739797", "target": "27445306"}}, {"type": "Feature", "geometry": {"type": "LineString", "coordinates": [[103.38660646744546, 68.52992584988425], [103.40236075887174, 68.5313748875505]]}, "properties": {"source": "855747", "target": "13571666"}}, {"type": "Feature", "geometry": {"type": "LineString", "coordinates": [[103.38660646744546, 68.52992584988425], [103.39747915363569, 68.53487426897283]]}, "properties": {"source": "855747", "target": "8468336"}}, {"type": "Feature", "geometry": {"type": "LineString", "coordinates": [[103.39354119928373, 68.5302704730097], [103.38976082399967, 68.52816722066453]]}, "properties": {"source": "10640033", "target": "12664982"}}, {"type": "Feature", "geometry": {"type": "LineString", "coordinates": [[103.39354119928373, 68.5302704730097], [103.38710783226463, 68.53087446016531]]}, "properties": {"source": "10640033", "target": "11992712"}}, {"type": "Feature", "geometry": {"type": "LineString", "coordinates": [[103.4039264750428, 68.53464061416153], [103.39357927494996, 68.53542259094456]]}, "properties": {"source": "2502995", "target": "10491055"}}, {"type": "Feature", "geometry": {"type": "LineString", "coordinates": [[103.39995582634413, 68.53462724430412], [103.40022215356896, 68.53501271814241]]}, "properties": {"source": "34741002", "target": "35083400"}}, {"type": "Feature", "geometry": {"type": "LineString", "coordinates": [[103.39851801050418, 68.53574671908333], [103.40436690189864, 68.53582851846272]]}, "properties": {"source": "30313962", "target": "32821285"}}, {"type": "Feature", "geometry": {"type": "LineString", "coordinates": [[103.39851801050418, 68.53574671908333], [103.38755721734316, 68.5287737400244]]}, "properties": {"source": "30313962", "target": "334403"}}, {"type": "Feature", "geometry": {"type": "LineString", "coordinates": [[103.39851801050418, 68.53574671908333], [103.3906666639449, 68.5331116779783]]}, "properties": {"source": "30313962", "target": "23596730"}}, {"type": "Feature", "geometry": {"type": "LineString", "coordinates": [[103.39851801050418, 68.53574671908333], [103.39047807400351, 68.53006547271838]]}, "properties": {"source": "30313962", "target": "29504693"}}, {"type": "Feature", "geometry": {"type": "LineString", "coordinates": [[103.39851801050418, 68.53574671908333], [103.3999088546509, 68.53179317006976]]}, "properties": {"source": "30313962", "target": "13036371"}}, {"type": "Feature", "geometry": {"type": "LineString", "coordinates": [[103.39851801050418, 68.53574671908333], [103.38948827012683, 68.53342269329357]]}, "properties": {"source": "30313962", "target": "25023113"}}, {"type": "Feature", "geometry": {"type": "LineString", "coordinates": [[103.39851801050418, 68.53574671908333], [103.40189056264967, 68.53224445324255]]}, "properties": {"source": "30313962", "target": "12212841"}}, {"type": "Feature", "geometry": {"type": "LineString", "coordinates": [[103.39394150636872, 68.5322329507494], [103.39284803022667, 68.53446548772743]]}, "properties": {"source": "17205517", "target": "21445006"}}, {"type": "Feature", "geometry": {"type": "LineString", "coordinates": [[103.38948827012683, 68.53342269329357], [103.39343548157035, 68.53524026243582]]}, "properties": {"source": "25023113", "target": "19617735"}}, {"type": "Feature", "geometry": {"type": "LineString", "coordinates": [[103.38520756869337, 68.53590535156778], [103.390286960725, 68.52877551463519]]}, "properties": {"source": "29456540", "target": "33297988"}}, {"type": "Feature", "geometry": {"type": "LineString", "coordinates": [[103.38588514067146, 68.53486566399485], [103.39778742970799, 68.53470599017496]]}, "properties": {"source": "13571612", "target": "6699937"}}, {"type": "Feature", "geometry": {"type": "LineString", "coordinates": [[103.40123313692811, 68.53380422433378], [103.38833123909438, 68.5304236131752]]}, "properties": {"source": "29468195", "target": "26129162"}}, {"type": "Feature", "geometry": {"type": "LineString", "coordinates": [[103.40123313692811, 68.53380422433378], [103.38520756869337, 68.53590535156778]]}, "properties": {"source": "29468195", "target": "29456540"}}, {"type": "Feature", "geometry": {"type": "LineString", "coordinates": [[103.40123313692811, 68.53380422433378], [103.39117371886658, 68.53338693261134]]}, "properties": {"source": "29468195", "target": "29429576"}}, {"type": "Feature", "geometry": {"type": "LineString", "coordinates": [[103.40123313692811, 68.53380422433378], [103.38782193121762, 68.53542467950587]]}, "properties": {"source": "29468195", "target": "16580866"}}, {"type": "Feature", "geometry": {"type": "LineString", "coordinates": [[103.40123313692811, 68.53380422433378], [103.385774838884, 68.53505561305494]]}, "properties": {"source": "29468195", "target": "31944911"}}, {"type": "Feature", "geometry": {"type": "LineString", "coordinates": [[103.38961442885591, 68.53364986854845], [103.39394150636872, 68.5322329507494]]}, "properties": {"source": "17618016", "target": "17205517"}}, {"type": "Feature", "geometry": {"type": "LineString", "coordinates": [[103.38961442885591, 68.53364986854845], [103.38345103515081, 68.53402792916606]]}, "properties": {"source": "17618016", "target": "18276556"}}, {"type": "Feature", "geometry": {"type": "LineString", "coordinates": [[103.4026979311306, 68.53326322825026], [103.38990549514182, 68.53427475778452]]}, "properties": {"source": "29155389", "target": "27445306"}}, {"type": "Feature", "geometry": {"type": "LineString", "coordinates": [[103.4026979311306, 68.53326322825026], [103.390286960725, 68.52877551463519]]}, "properties": {"source": "29155389", "target": "33297988"}}, {"type": "Feature", "geometry": {"type": "LineString", "coordinates": [[103.38869461950424, 68.52815182952918], [103.39982782630489, 68.53021377673406]]}, "properties": {"source": "15992840", "target": "15983597"}}, {"type": "Feature", "geometry": {"type": "LineString", "coordinates": [[103.38869461950424, 68.52815182952918], [103.40128892471813, 68.53484885912741]]}, "properties": {"source": "15992840", "target": "20945327"}}, {"type": "Feature", "geometry": {"type": "LineString", "coordinates": [[103.38869461950424, 68.52815182952918], [103.39796667764182, 68.53603866833703]]}, "properties": {"source": "15992840", "target": "17118320"}}, {"type": "Feature", "geometry": {"type": "LineString", "coordinates": [[103.39617347291892, 68.53473955694534], [103.38974617537053, 68.53512058444636]]}, "properties": {"source": "32988191", "target": "30831145"}}, {"type": "Feature", "geometry": {"type": "LineString", "coordinates": [[103.39617347291892, 68.53473955694534], [103.40128892471813, 68.53484885912741]]}, "properties": {"source": "32988191", "target": "20945327"}}, {"type": "Feature", "geometry": {"type": "LineString", "coordinates": [[103.39617347291892, 68.53473955694534], [103.38207751814036, 68.52812509204978]]}, "properties": {"source": "32988191", "target": "33410477"}}, {"type": "Feature", "geometry": {"type": "LineString", "coordinates": [[103.39617347291892, 68.53473955694534], [103.390286960725, 68.52877551463519]]}, "properties": {"source": "32988191", "target": "33297988"}}, {"type": "Feature", "geometry": {"type": "LineString", "coordinates": [[103.39617347291892, 68.53473955694534], [103.39778742970799, 68.53470599017496]]}, "properties": {"source": "32988191", "target": "6699937"}}, {"type": "Feature", "geometry": {"type": "LineString", "coordinates": [[103.39617347291892, 68.53473955694534], [103.39755986298508, 68.52887469165432]]}, "properties": {"source": "32988191", "target": "34532227"}}, {"type": "Feature", "geometry": {"type": "LineString", "coordinates": [[103.39617347291892, 68.53473955694534], [103.4026979311306, 68.53326322825026]]}, "properties": {"source": "32988191", "target": "29155389"}}, {"type": "Feature", "geometry": {"type": "LineString", "coordinates": [[103.39617347291892, 68.53473955694534], [103.3881020439847, 68.53374429925992]]}, "properties": {"source": "32988191", "target": "10315627"}}, {"type": "Feature", "geometry": {"type": "LineString", "coordinates": [[103.39617347291892, 68.53473955694534], [103.39047807400351, 68.53006547271838]]}, "properties": {"source": "32988191", "target": "29504693"}}, {"type": "Feature", "geometry": {"type": "LineString", "coordinates": [[103.38855155378928, 68.53337393598818], [103.38528930274686, 68.53367628868045]]}, "properties": {"source": "534972", "target": "1622770"}}, {"type": "Feature", "geometry": {"type": "LineString", "coordinates": [[103.38855155378928, 68.53337393598818], [103.39900438694087, 68.52855975096497]]}, "properties": {"source": "534972", "target": "8162126"}}, {"type": "Feature", "geometry": {"type": "LineString", "coordinates": [[103.38855155378928, 68.53337393598818], [103.38574403502679, 68.53283628647705]]}, "properties": {"source": "534972", "target": "28512110"}}, {"type": "Feature", "geometry": {"type": "LineString", "coordinates": [[103.40501971065675, 68.53319217459273], [103.38990549514182, 68.53427475778452]]}, "properties": {"source": "6330059", "target": "27445306"}}, {"type": "Feature", "geometry": {"type": "LineString", "coordinates": [[103.40501971065675, 68.53319217459273], [103.39357927494996, 68.53542259094456]]}, "properties": {"source": "6330059", "target": "10491055"}}, {"type": "Feature", "geometry": {"type": "LineString", "coordinates": [[103.40501971065675, 68.53319217459273], [103.38424795399726, 68.53066384410576]]}, "properties": {"source": "6330059", "target": "10458937"}}, {"type": "Feature", "geometry": {"type": "LineString", "coordinates": [[103.40501971065675, 68.53319217459273], [103.38056151639597, 68.5283391851022]]}, "properties": {"source": "6330059", "target": "630863"}}, {"type": "Feature", "geometry": {"type": "LineString", "coordinates": [[103.3997467259261, 68.52999938908582], [103.40436690189864, 68.53582851846272]]}, "properties": {"source": "2647985", "target": "32821285"}}, {"type": "Feature", "geometry": {"type": "LineString", "coordinates": [[103.38599118523581, 68.52898044849803], [103.39226039694768, 68.52929396990285]]}, "properties": {"source": "16048912", "target": "15986973"}}, {"type": "Feature", "geometry": {"type": "LineString", "coordinates": [[103.38782193121762, 68.53542467950587], [103.38520756869337, 68.53590535156778]]}, "properties": {"source": "16580866", "target": "29456540"}}, {"type": "Feature", "geometry": {"type": "LineString", "coordinates": [[103.38454188089247, 68.53113219845801], [103.39357927494996, 68.53542259094456]]}, "properties": {"source": "1740918", "target": "10491055"}}, {"type": "Feature", "geometry": {"type": "LineString", "coordinates": [[103.38454188089247, 68.53113219845801], [103.4039264750428, 68.53464061416153]]}, "properties": {"source": "1740918", "target": "2502995"}}, {"type": "Feature", "geometry": {"type": "LineString", "coordinates": [[103.38454188089247, 68.53113219845801], [103.40110431468639, 68.52970589911217]]}, "properties": {"source": "1740918", "target": "10432"}}, {"type": "Feature", "geometry": {"type": "LineString", "coordinates": [[103.39249404133062, 68.53306523107821], [103.38976082399967, 68.52816722066453]]}, "properties": {"source": "16074386", "target": "12664982"}}, {"type": "Feature", "geometry": {"type": "LineString", "coordinates": [[103.39249404133062, 68.53306523107821], [103.3964393482957, 68.53030984555915]]}, "properties": {"source": "16074386", "target": "13358292"}}, {"type": "Feature", "geometry": {"type": "LineString", "coordinates": [[103.39249404133062, 68.53306523107821], [103.38599118523581, 68.52898044849803]]}, "properties": {"source": "16074386", "target": "16048912"}}, {"type": "Feature", "geometry": {"type": "LineString", "coordinates": [[103.3833563431113, 68.53344195024746], [103.4026979311306, 68.53326322825026]]}, "properties": {"source": "24341281", "target": "29155389"}}, {"type": "Feature", "geometry": {"type": "LineString", "coordinates": [[103.3833563431113, 68.53344195024746], [103.39343548157035, 68.53524026243582]]}, "properties": {"source": "24341281", "target": "19617735"}}, {"type": "Feature", "geometry": {"type": "LineString", "coordinates": [[103.38974617537053, 68.53512058444636], [103.390286960725, 68.52877551463519]]}, "properties": {"source": "30831145", "target": "33297988"}}, {"type": "Feature", "geometry": {"type": "LineString", "coordinates": [[103.38974617537053, 68.53512058444636], [103.39755986298508, 68.52887469165432]]}, "properties": {"source": "30831145", "target": "34532227"}}, {"type": "Feature", "geometry": {"type": "LineString", "coordinates": [[103.38974617537053, 68.53512058444636], [103.4026979311306, 68.53326322825026]]}, "properties": {"source": "30831145", "target": "29155389"}}, {"type": "Feature", "geometry": {"type": "LineString", "coordinates": [[103.38974617537053, 68.53512058444636], [103.39047807400351, 68.53006547271838]]}, "properties": {"source": "30831145", "target": "29504693"}}, {"type": "Feature", "geometry": {"type": "LineString", "coordinates": [[103.38974617537053, 68.53512058444636], [103.38475476310384, 68.53562750117217]]}, "properties": {"source": "30831145", "target": "36202012"}}, {"type": "Feature", "geometry": {"type": "LineString", "coordinates": [[103.3881020439847, 68.53374429925992], [103.38207751814036, 68.52812509204978]]}, "properties": {"source": "10315627", "target": "33410477"}}, {"type": "Feature", "geometry": {"type": "LineString", "coordinates": [[103.3881020439847, 68.53374429925992], [103.39796667764182, 68.53603866833703]]}, "properties": {"source": "10315627", "target": "17118320"}}, {"type": "Feature", "geometry": {"type": "LineString", "coordinates": [[103.3881020439847, 68.53374429925992], [103.39778742970799, 68.53470599017496]]}, "properties": {"source": "10315627", "target": "6699937"}}, {"type": "Feature", "geometry": {"type": "LineString", "coordinates": [[103.3881020439847, 68.53374429925992], [103.39284803022667, 68.53446548772743]]}, "properties": {"source": "10315627", "target": "21445006"}}, {"type": "Feature", "geometry": {"type": "LineString", "coordinates": [[103.39047807400351, 68.53006547271838], [103.38990549514182, 68.53427475778452]]}, "properties": {"source": "29504693", "target": "27445306"}}, {"type": "Feature", "geometry": {"type": "LineString", "coordinates": [[103.38855155378928, 68.53337393598818], [103.38207751814036, 68.52812509204978]]}, "properties": {"source": "534972", "target": "33410477"}}, {"type": "Feature", "geometry": {"type": "LineString", "coordinates": [[103.38855155378928, 68.53337393598818], [103.39778742970799, 68.53470599017496]]}, "properties": {"source": "534972", "target": "6699937"}}, {"type": "Feature", "geometry": {"type": "LineString", "coordinates": [[103.38855155378928, 68.53337393598818], [103.38349906245276, 68.53474109423615]]}, "properties": {"source": "534972", "target": "7383829"}}, {"type": "Feature", "geometry": {"type": "LineString", "coordinates": [[103.38855155378928, 68.53337393598818], [103.3817602519814, 68.5304945554538]]}, "properties": {"source": "534972", "target": "6560460"}}, {"type": "Feature", "geometry": {"type": "LineString", "coordinates": [[103.38869461950424, 68.52815182952918], [103.39215422828124, 68.53267123307694]]}, "properties": {"source": "15992840", "target": "11688339"}}, {"type": "Feature", "geometry": {"type": "LineString", "coordinates": [[103.38869461950424, 68.52815182952918], [103.39666735636399, 68.53508454025118]]}, "properties": {"source": "15992840", "target": "13453573"}}, {"type": "Feature", "geometry": {"type": "LineString", "coordinates": [[103.38869461950424, 68.52815182952918], [103.38961442885591, 68.53364986854845]]}, "properties": {"source": "15992840", "target": "17618016"}}, {"type": "Feature", "geometry": {"type": "LineString", "coordinates": [[103.38869461950424, 68.52815182952918], [103.39226039694768, 68.52929396990285]]}, "properties": {"source": "15992840", "target": "15986973"}}, {"type": "Feature", "geometry": {"type": "LineString", "coordinates": [[103.38869461950424, 68.52815182952918], [103.39284803022667, 68.53446548772743]]}, "properties": {"source": "15992840", "target": "21445006"}}, {"type": "Feature", "geometry": {"type": "LineString", "coordinates": [[103.38869461950424, 68.52815182952918], [103.38344773946147, 68.5299246128827]]}, "properties": {"source": "15992840", "target": "15983585"}}, {"type": "Feature", "geometry": {"type": "LineString", "coordinates": [[103.38869461950424, 68.52815182952918], [103.38588514067146, 68.53486566399485]]}, "properties": {"source": "15992840", "target": "13571612"}}, {"type": "Feature", "geometry": {"type": "LineString", "coordinates": [[103.39284803022667, 68.53446548772743], [103.39226039694768, 68.52929396990285]]}, "properties": {"source": "21445006", "target": "15986973"}}, {"type": "Feature", "geometry": {"type": "LineString", "coordinates": [[103.38846944762355, 68.53304752714419], [103.40413634256146, 68.5342707204756]]}, "properties": {"source": "18698877", "target": "24289316"}}, {"type": "Feature", "geometry": {"type": "LineString", "coordinates": [[103.38846944762355, 68.53304752714419], [103.38774685340144, 68.53098928134716]]}, "properties": {"source": "18698877", "target": "23253714"}}, {"type": "Feature", "geometry": {"type": "LineString", "coordinates": [[103.38846944762355, 68.53304752714419], [103.38548180746761, 68.53176288713186]]}, "properties": {"source": "18698877", "target": "21841480"}}, {"type": "Feature", "geometry": {"type": "LineString", "coordinates": [[103.38846944762355, 68.53304752714419], [103.38091471884803, 68.53241661389421]]}, "properties": {"source": "18698877", "target": "23523192"}}, {"type": "Feature", "geometry": {"type": "LineString", "coordinates": [[103.38846944762355, 68.53304752714419], [103.4039049746105, 68.5289461099002]]}, "properties": {"source": "18698877", "target": "22006059"}}, {"type": "Feature", "geometry": {"type": "LineString", "coordinates": [[103.38846944762355, 68.53304752714419], [103.39343548157035, 68.53524026243582]]}, "properties": {"source": "18698877", "target": "19617735"}}, {"type": "Feature", "geometry": {"type": "LineString", "coordinates": [[103.38846944762355, 68.53304752714419], [103.3906666639449, 68.5331116779783]]}, "properties": {"source": "18698877", "target": "23596730"}}, {"type": "Feature", "geometry": {"type": "LineString", "coordinates": [[103.38846944762355, 68.53304752714419], [103.38467397567814, 68.53262062710803]]}, "properties": {"source": "18698877", "target": "18368509"}}, {"type": "Feature", "geometry": {"type": "LineString", "coordinates": [[103.38927730314111, 68.53413244327032], [103.38574403502679, 68.53283628647705]]}, "properties": {"source": "229443", "target": "28512110"}}, {"type": "Feature", "geometry": {"type": "LineString", "coordinates": [[103.40151807511472, 68.53544333588232], [103.39215422828124, 68.53267123307694]]}, "properties": {"source": "17163990", "target": "11688339"}}, {"type": "Feature", "geometry": {"type": "LineString", "coordinates": [[103.39839851987142, 68.52836179396206], [103.38056151639597, 68.5283391851022]]}, "properties": {"source": "506141", "target": "630863"}}, {"type": "Feature", "geometry": {"type": "LineString", "coordinates": [[103.39515272342027, 68.53562517459582], [103.38951005211311, 68.52997032773251]]}, "properties": {"source": "13414805", "target": "13372232"}}, {"type": "Feature", "geometry": {"type": "LineString", "coordinates": [[103.3915926920991, 68.52933642673037], [103.38782193121762, 68.53542467950587]]}, "properties": {"source": "10023746", "target": "16580866"}}, {"type": "Feature", "geometry": {"type": "LineString", "coordinates": [[103.40481325577156, 68.52950307993285], [103.39778742970799, 68.53470599017496]]}, "properties": {"source": "8361839", "target": "6699937"}}, {"type": "Feature", "geometry": {"type": "LineString", "coordinates": [[103.3924403438889, 68.53220376113552], [103.40414543617743, 68.52981618380082]]}, "properties": {"source": "54119", "target": "10984867"}}, {"type": "Feature", "geometry": {"type": "LineString", "coordinates": [[103.38287244971474, 68.53005811374311], [103.38136750017526, 68.52972985314901]]}, "properties": {"source": "35680001", "target": "34838400"}}, {"type": "Feature", "geometry": {"type": "LineString", "coordinates": [[103.39982782630489, 68.53021377673406], [103.40128892471813, 68.53484885912741]]}, "properties": {"source": "15983597", "target": "20945327"}}, {"type": "Feature", "geometry": {"type": "LineString", "coordinates": [[103.39982782630489, 68.53021377673406], [103.39796667764182, 68.53603866833703]]}, "properties": {"source": "15983597", "target": "17118320"}}, {"type": "Feature", "geometry": {"type": "LineString", "coordinates": [[103.39982782630489, 68.53021377673406], [103.39226039694768, 68.52929396990285]]}, "properties": {"source": "15983597", "target": "15986973"}}, {"type": "Feature", "geometry": {"type": "LineString", "coordinates": [[103.39982782630489, 68.53021377673406], [103.39284803022667, 68.53446548772743]]}, "properties": {"source": "15983597", "target": "21445006"}}, {"type": "Feature", "geometry": {"type": "LineString", "coordinates": [[103.39982782630489, 68.53021377673406], [103.38588514067146, 68.53486566399485]]}, "properties": {"source": "15983597", "target": "13571612"}}, {"type": "Feature", "geometry": {"type": "LineString", "coordinates": [[103.40128892471813, 68.53484885912741], [103.39226039694768, 68.52929396990285]]}, "properties": {"source": "20945327", "target": "15986973"}}, {"type": "Feature", "geometry": {"type": "LineString", "coordinates": [[103.40128892471813, 68.53484885912741], [103.39284803022667, 68.53446548772743]]}, "properties": {"source": "20945327", "target": "21445006"}}, {"type": "Feature", "geometry": {"type": "LineString", "coordinates": [[103.38548180746761, 68.53176288713186], [103.3833563431113, 68.53344195024746]]}, "properties": {"source": "21841480", "target": "24341281"}}, {"type": "Feature", "geometry": {"type": "LineString", "coordinates": [[103.39583698800362, 68.53268278574575], [103.38091471884803, 68.53241661389421]]}, "properties": {"source": "25333140", "target": "23523192"}}, {"type": "Feature", "geometry": {"type": "LineString", "coordinates": [[103.39583698800362, 68.53268278574575], [103.4039049746105, 68.5289461099002]]}, "properties": {"source": "25333140", "target": "22006059"}}, {"type": "Feature", "geometry": {"type": "LineString", "coordinates": [[103.39583698800362, 68.53268278574575], [103.390286960725, 68.52877551463519]]}, "properties": {"source": "25333140", "target": "33297988"}}, {"type": "Feature", "geometry": {"type": "LineString", "coordinates": [[103.39583698800362, 68.53268278574575], [103.39755986298508, 68.52887469165432]]}, "properties": {"source": "25333140", "target": "34532227"}}, {"type": "Feature", "geometry": {"type": "LineString", "coordinates": [[103.39583698800362, 68.53268278574575], [103.3906666639449, 68.5331116779783]]}, "properties": {"source": "25333140", "target": "23596730"}}, {"type": "Feature", "geometry": {"type": "LineString", "coordinates": [[103.39583698800362, 68.53268278574575], [103.3999088546509, 68.53179317006976]]}, "properties": {"source": "25333140", "target": "13036371"}}, {"type": "Feature", "geometry": {"type": "LineString", "coordinates": [[103.39583698800362, 68.53268278574575], [103.38948827012683, 68.53342269329357]]}, "properties": {"source": "25333140", "target": "25023113"}}, {"type": "Feature", "geometry": {"type": "LineString", "coordinates": [[103.3964393482957, 68.53030984555915], [103.38976082399967, 68.52816722066453]]}, "properties": {"source": "13358292", "target": "12664982"}}, {"type": "Feature", "geometry": {"type": "LineString", "coordinates": [[103.3964393482957, 68.53030984555915], [103.38599118523581, 68.52898044849803]]}, "properties": {"source": "13358292", "target": "16048912"}}, {"type": "Feature", "geometry": {"type": "LineString", "coordinates": [[103.3817602519814, 68.5304945554538], [103.38207751814036, 68.52812509204978]]}, "properties": {"source": "6560460", "target": "33410477"}}, {"type": "Feature", "geometry": {"type": "LineString", "coordinates": [[103.3817602519814, 68.5304945554538], [103.39778742970799, 68.53470599017496]]}, "properties": {"source": "6560460", "target": "6699937"}}, {"type": "Feature", "geometry": {"type": "LineString", "coordinates": [[103.38528930274686, 68.53367628868045], [103.38574403502679, 68.53283628647705]]}, "properties": {"source": "1622770", "target": "28512110"}}, {"type": "Feature", "geometry": {"type": "LineString", "coordinates": [[103.38528930274686, 68.53367628868045], [103.38927730314111, 68.53413244327032]]}, "properties": {"source": "1622770", "target": "229443"}}, {"type": "Feature", "geometry": {"type": "LineString", "coordinates": [[103.38366942227043, 68.5314401632942], [103.38990549514182, 68.53427475778452]]}, "properties": {"source": "14289719", "target": "27445306"}}, {"type": "Feature", "geometry": {"type": "LineString", "coordinates": [[103.38366942227043, 68.5314401632942], [103.40128892471813, 68.53484885912741]]}, "properties": {"source": "14289719", "target": "20945327"}}, {"type": "Feature", "geometry": {"type": "LineString", "coordinates": [[103.39117371886658, 68.53338693261134], [103.38833123909438, 68.5304236131752]]}, "properties": {"source": "29429576", "target": "26129162"}}, {"type": "Feature", "geometry": {"type": "LineString", "coordinates": [[103.38344773946147, 68.5299246128827], [103.39394150636872, 68.5322329507494]]}, "properties": {"source": "15983585", "target": "17205517"}}, {"type": "Feature", "geometry": {"type": "LineString", "coordinates": [[103.39166485645615, 68.52978392537071], [103.38287244971474, 68.53005811374311]]}, "properties": {"source": "33782450", "target": "35680001"}}, {"type": "Feature", "geometry": {"type": "LineString", "coordinates": [[103.39166485645615, 68.52978392537071], [103.40436690189864, 68.53582851846272]]}, "properties": {"source": "33782450", "target": "32821285"}}, {"type": "Feature", "geometry": {"type": "LineString", "coordinates": [[103.39166485645615, 68.52978392537071], [103.38755721734316, 68.5287737400244]]}, "properties": {"source": "33782450", "target": "334403"}}, {"type": "Feature", "geometry": {"type": "LineString", "coordinates": [[103.39166485645615, 68.52978392537071], [103.39780430172965, 68.53308596424654]]}, "properties": {"source": "33782450", "target": "36267498"}}, {"type": "Feature", "geometry": {"type": "LineString", "coordinates": [[103.39166485645615, 68.52978392537071], [103.40167106413207, 68.53285138406508]]}, "properties": {"source": "33782450", "target": "36393897"}}, {"type": "Feature", "geometry": {"type": "LineString", "coordinates": [[103.40414543617743, 68.52981618380082], [103.39617347291892, 68.53473955694534]]}, "properties": {"source": "10984867", "target": "32988191"}}, {"type": "Feature", "geometry": {"type": "LineString", "coordinates": [[103.40414543617743, 68.52981618380082], [103.39982782630489, 68.53021377673406]]}, "properties": {"source": "10984867", "target": "15983597"}}, {"type": "Feature", "geometry": {"type": "LineString", "coordinates": [[103.40414543617743, 68.52981618380082], [103.39796667764182, 68.53603866833703]]}, "properties": {"source": "10984867", "target": "17118320"}}, {"type": "Feature", "geometry": {"type": "LineString", "coordinates": [[103.40414543617743, 68.52981618380082], [103.39666735636399, 68.53508454025118]]}, "properties": {"source": "10984867", "target": "13453573"}}, {"type": "Feature", "geometry": {"type": "LineString", "coordinates": [[103.38399000857066, 68.53019066916517], [103.4039049746105, 68.5289461099002]]}, "properties": {"source": "18169204", "target": "22006059"}}, {"type": "Feature", "geometry": {"type": "LineString", "coordinates": [[103.38399000857066, 68.53019066916517], [103.39343548157035, 68.53524026243582]]}, "properties": {"source": "18169204", "target": "19617735"}}, {"type": "Feature", "geometry": {"type": "LineString", "coordinates": [[103.38399000857066, 68.53019066916517], [103.38467397567814, 68.53262062710803]]}, "properties": {"source": "18169204", "target": "18368509"}}, {"type": "Feature", "geometry": {"type": "LineString", "coordinates": [[103.39394150636872, 68.5322329507494], [103.39982782630489, 68.53021377673406]]}, "properties": {"source": "17205517", "target": "15983597"}}, {"type": "Feature", "geometry": {"type": "LineString", "coordinates": [[103.39394150636872, 68.5322329507494], [103.40128892471813, 68.53484885912741]]}, "properties": {"source": "17205517", "target": "20945327"}}, {"type": "Feature", "geometry": {"type": "LineString", "coordinates": [[103.39394150636872, 68.5322329507494], [103.39226039694768, 68.52929396990285]]}, "properties": {"source": "17205517", "target": "15986973"}}, {"type": "Feature", "geometry": {"type": "LineString", "coordinates": [[103.3821584837537, 68.53316583385185], [103.40501971065675, 68.53319217459273]]}, "properties": {"source": "44883", "target": "6330059"}}, {"type": "Feature", "geometry": {"type": "LineString", "coordinates": [[103.3821584837537, 68.53316583385185], [103.38056151639597, 68.5283391851022]]}, "properties": {"source": "44883", "target": "630863"}}, {"type": "Feature", "geometry": {"type": "LineString", "coordinates": [[103.39138427545606, 68.52978351381256], [103.40106810499736, 68.53600071922602]]}, "properties": {"source": "277857", "target": "27193190"}}, {"type": "Feature", "geometry": {"type": "LineString", "coordinates": [[103.39138427545606, 68.52978351381256], [103.39341414367692, 68.52938985151937]]}, "properties": {"source": "277857", "target": "23560135"}}, {"type": "Feature", "geometry": {"type": "LineString", "coordinates": [[103.39451776933618, 68.52927530005925], [103.38056151639597, 68.5283391851022]]}, "properties": {"source": "51578", "target": "630863"}}, {"type": "Feature", "geometry": {"type": "LineString", "coordinates": [[103.385774838884, 68.53505561305494], [103.38520756869337, 68.53590535156778]]}, "properties": {"source": "31944911", "target": "29456540"}}, {"type": "Feature", "geometry": {"type": "LineString", "coordinates": [[103.385774838884, 68.53505561305494], [103.39117371886658, 68.53338693261134]]}, "properties": {"source": "31944911", "target": "29429576"}}, {"type": "Feature", "geometry": {"type": "LineString", "coordinates": [[103.39215422828124, 68.53267123307694], [103.39982782630489, 68.53021377673406]]}, "properties": {"source": "11688339", "target": "15983597"}}, {"type": "Feature", "geometry": {"type": "LineString", "coordinates": [[103.39215422828124, 68.53267123307694], [103.38207751814036, 68.52812509204978]]}, "properties": {"source": "11688339", "target": "33410477"}}, {"type": "Feature", "geometry": {"type": "LineString", "coordinates": [[103.39215422828124, 68.53267123307694], [103.39796667764182, 68.53603866833703]]}, "properties": {"source": "11688339", "target": "17118320"}}, {"type": "Feature", "geometry": {"type": "LineString", "coordinates": [[103.39215422828124, 68.53267123307694], [103.39778742970799, 68.53470599017496]]}, "properties": {"source": "11688339", "target": "6699937"}}, {"type": "Feature", "geometry": {"type": "LineString", "coordinates": [[103.39215422828124, 68.53267123307694], [103.39666735636399, 68.53508454025118]]}, "properties": {"source": "11688339", "target": "13453573"}}, {"type": "Feature", "geometry": {"type": "LineString", "coordinates": [[103.39215422828124, 68.53267123307694], [103.3881020439847, 68.53374429925992]]}, "properties": {"source": "11688339", "target": "10315627"}}, {"type": "Feature", "geometry": {"type": "LineString", "coordinates": [[103.39215422828124, 68.53267123307694], [103.40414543617743, 68.52981618380082]]}, "properties": {"source": "11688339", "target": "10984867"}}, {"type": "Feature", "geometry": {"type": "LineString", "coordinates": [[103.39666735636399, 68.53508454025118], [103.39617347291892, 68.53473955694534]]}, "properties": {"source": "13453573", "target": "32988191"}}, {"type": "Feature", "geometry": {"type": "LineString", "coordinates": [[103.39666735636399, 68.53508454025118], [103.39982782630489, 68.53021377673406]]}, "properties": {"source": "13453573", "target": "15983597"}}, {"type": "Feature", "geometry": {"type": "LineString", "coordinates": [[103.39666735636399, 68.53508454025118], [103.40128892471813, 68.53484885912741]]}, "properties": {"source": "13453573", "target": "20945327"}}, {"type": "Feature", "geometry": {"type": "LineString", "coordinates": [[103.39666735636399, 68.53508454025118], [103.38207751814036, 68.52812509204978]]}, "properties": {"source": "13453573", "target": "33410477"}}, {"type": "Feature", "geometry": {"type": "LineString", "coordinates": [[103.39666735636399, 68.53508454025118], [103.39796667764182, 68.53603866833703]]}, "properties": {"source": "13453573", "target": "17118320"}}, {"type": "Feature", "geometry": {"type": "LineString", "coordinates": [[103.39666735636399, 68.53508454025118], [103.39778742970799, 68.53470599017496]]}, "properties": {"source": "13453573", "target": "6699937"}}, {"type": "Feature", "geometry": {"type": "LineString", "coordinates": [[103.39666735636399, 68.53508454025118], [103.3881020439847, 68.53374429925992]]}, "properties": {"source": "13453573", "target": "10315627"}}, {"type": "Feature", "geometry": {"type": "LineString", "coordinates": [[103.39755986298508, 68.52887469165432], [103.390286960725, 68.52877551463519]]}, "properties": {"source": "34532227", "target": "33297988"}}, {"type": "Feature", "geometry": {"type": "LineString", "coordinates": [[103.39755986298508, 68.52887469165432], [103.4026979311306, 68.53326322825026]]}, "properties": {"source": "34532227", "target": "29155389"}}, {"type": "Feature", "geometry": {"type": "LineString", "coordinates": [[103.39851801050418, 68.53574671908333], [103.38974617537053, 68.53512058444636]]}, "properties": {"source": "30313962", "target": "30831145"}}, {"type": "Feature", "geometry": {"type": "LineString", "coordinates": [[103.39851801050418, 68.53574671908333], [103.40413634256146, 68.5342707204756]]}, "properties": {"source": "30313962", "target": "24289316"}}, {"type": "Feature", "geometry": {"type": "LineString", "coordinates": [[103.39851801050418, 68.53574671908333], [103.38774685340144, 68.53098928134716]]}, "properties": {"source": "30313962", "target": "23253714"}}, {"type": "Feature", "geometry": {"type": "LineString", "coordinates": [[103.39851801050418, 68.53574671908333], [103.38084904356879, 68.52970663670666]]}, "properties": {"source": "30313962", "target": "30829586"}}, {"type": "Feature", "geometry": {"type": "LineString", "coordinates": [[103.39851801050418, 68.53574671908333], [103.38287244971474, 68.53005811374311]]}, "properties": {"source": "30313962", "target": "35680001"}}, {"type": "Feature", "geometry": {"type": "LineString", "coordinates": [[103.39851801050418, 68.53574671908333], [103.38091471884803, 68.53241661389421]]}, "properties": {"source": "30313962", "target": "23523192"}}, {"type": "Feature", "geometry": {"type": "LineString", "coordinates": [[103.39851801050418, 68.53574671908333], [103.390286960725, 68.52877551463519]]}, "properties": {"source": "30313962", "target": "33297988"}}, {"type": "Feature", "geometry": {"type": "LineString", "coordinates": [[103.39851801050418, 68.53574671908333], [103.39755986298508, 68.52887469165432]]}, "properties": {"source": "30313962", "target": "34532227"}}, {"type": "Feature", "geometry": {"type": "LineString", "coordinates": [[103.39851801050418, 68.53574671908333], [103.4026979311306, 68.53326322825026]]}, "properties": {"source": "30313962", "target": "29155389"}}, {"type": "Feature", "geometry": {"type": "LineString", "coordinates": [[103.40022215356896, 68.53501271814241], [103.38136750017526, 68.52972985314901]]}, "properties": {"source": "35083400", "target": "34838400"}}, {"type": "Feature", "geometry": {"type": "LineString", "coordinates": [[103.40167106413207, 68.53285138406508], [103.40436690189864, 68.53582851846272]]}, "properties": {"source": "36393897", "target": "32821285"}}, {"type": "Feature", "geometry": {"type": "LineString", "coordinates": [[103.40167106413207, 68.53285138406508], [103.40069726491976, 68.5322079191796]]}, "properties": {"source": "36393897", "target": "34100787"}}, {"type": "Feature", "geometry": {"type": "LineString", "coordinates": [[103.40167106413207, 68.53285138406508], [103.3989199486287, 68.52880675258001]]}, "properties": {"source": "36393897", "target": "34036965"}}, {"type": "Feature", "geometry": {"type": "LineString", "coordinates": [[103.40167106413207, 68.53285138406508], [103.40189056264967, 68.53224445324255]]}, "properties": {"source": "36393897", "target": "12212841"}}, {"type": "Feature", "geometry": {"type": "LineString", "coordinates": [[103.3881020439847, 68.53374429925992], [103.39982782630489, 68.53021377673406]]}, "properties": {"source": "10315627", "target": "15983597"}}, {"type": "Feature", "geometry": {"type": "LineString", "coordinates": [[103.40501971065675, 68.53319217459273], [103.39451776933618, 68.52927530005925]]}, "properties": {"source": "6330059", "target": "51578"}}, {"type": "Feature", "geometry": {"type": "LineString", "coordinates": [[103.38349906245276, 68.53474109423615], [103.38207751814036, 68.52812509204978]]}, "properties": {"source": "7383829", "target": "33410477"}}, {"type": "Feature", "geometry": {"type": "LineString", "coordinates": [[103.38349906245276, 68.53474109423615], [103.39778742970799, 68.53470599017496]]}, "properties": {"source": "7383829", "target": "6699937"}}, {"type": "Feature", "geometry": {"type": "LineString", "coordinates": [[103.38349906245276, 68.53474109423615], [103.3817602519814, 68.5304945554538]]}, "properties": {"source": "7383829", "target": "6560460"}}, {"type": "Feature", "geometry": {"type": "LineString", "coordinates": [[103.38349906245276, 68.53474109423615], [103.39900438694087, 68.52855975096497]]}, "properties": {"source": "7383829", "target": "8162126"}}, {"type": "Feature", "geometry": {"type": "LineString", "coordinates": [[103.3999088546509, 68.53179317006976], [103.3833563431113, 68.53344195024746]]}, "properties": {"source": "13036371", "target": "24341281"}}, {"type": "Feature", "geometry": {"type": "LineString", "coordinates": [[103.3999088546509, 68.53179317006976], [103.38974617537053, 68.53512058444636]]}, "properties": {"source": "13036371", "target": "30831145"}}, {"type": "Feature", "geometry": {"type": "LineString", "coordinates": [[103.3999088546509, 68.53179317006976], [103.38774685340144, 68.53098928134716]]}, "properties": {"source": "13036371", "target": "23253714"}}, {"type": "Feature", "geometry": {"type": "LineString", "coordinates": [[103.40022215356896, 68.53501271814241], [103.39318042945473, 68.53318024209565]]}, "properties": {"source": "35083400", "target": "5148837"}}, {"type": "Feature", "geometry": {"type": "LineString", "coordinates": [[103.38349906245276, 68.53474109423615], [103.39318042945473, 68.53318024209565]]}, "properties": {"source": "7383829", "target": "5148837"}}, {"type": "Feature", "geometry": {"type": "LineString", "coordinates": [[103.40413634256146, 68.5342707204756], [103.390286960725, 68.52877551463519]]}, "properties": {"source": "24289316", "target": "33297988"}}, {"type": "Feature", "geometry": {"type": "LineString", "coordinates": [[103.40413634256146, 68.5342707204756], [103.39343548157035, 68.53524026243582]]}, "properties": {"source": "24289316", "target": "19617735"}}, {"type": "Feature", "geometry": {"type": "LineString", "coordinates": [[103.38774685340144, 68.53098928134716], [103.38990549514182, 68.53427475778452]]}, "properties": {"source": "23253714", "target": "27445306"}}, {"type": "Feature", "geometry": {"type": "LineString", "coordinates": [[103.38774685340144, 68.53098928134716], [103.4039049746105, 68.5289461099002]]}, "properties": {"source": "23253714", "target": "22006059"}}, {"type": "Feature", "geometry": {"type": "LineString", "coordinates": [[103.38774685340144, 68.53098928134716], [103.4026979311306, 68.53326322825026]]}, "properties": {"source": "23253714", "target": "29155389"}}, {"type": "Feature", "geometry": {"type": "LineString", "coordinates": [[103.38774685340144, 68.53098928134716], [103.39343548157035, 68.53524026243582]]}, "properties": {"source": "23253714", "target": "19617735"}}, {"type": "Feature", "geometry": {"type": "LineString", "coordinates": [[103.38774685340144, 68.53098928134716], [103.39047807400351, 68.53006547271838]]}, "properties": {"source": "23253714", "target": "29504693"}}, {"type": "Feature", "geometry": {"type": "LineString", "coordinates": [[103.38803339578095, 68.53157231003019], [103.39617347291892, 68.53473955694534]]}, "properties": {"source": "30348583", "target": "32988191"}}, {"type": "Feature", "geometry": {"type": "LineString", "coordinates": [[103.38803339578095, 68.53157231003019], [103.3833563431113, 68.53344195024746]]}, "properties": {"source": "30348583", "target": "24341281"}}, {"type": "Feature", "geometry": {"type": "LineString", "coordinates": [[103.38803339578095, 68.53157231003019], [103.38974617537053, 68.53512058444636]]}, "properties": {"source": "30348583", "target": "30831145"}}, {"type": "Feature", "geometry": {"type": "LineString", "coordinates": [[103.38803339578095, 68.53157231003019], [103.40413634256146, 68.5342707204756]]}, "properties": {"source": "30348583", "target": "24289316"}}, {"type": "Feature", "geometry": {"type": "LineString", "coordinates": [[103.38803339578095, 68.53157231003019], [103.38774685340144, 68.53098928134716]]}, "properties": {"source": "30348583", "target": "23253714"}}, {"type": "Feature", "geometry": {"type": "LineString", "coordinates": [[103.38803339578095, 68.53157231003019], [103.38084904356879, 68.52970663670666]]}, "properties": {"source": "30348583", "target": "30829586"}}, {"type": "Feature", "geometry": {"type": "LineString", "coordinates": [[103.38803339578095, 68.53157231003019], [103.38287244971474, 68.53005811374311]]}, "properties": {"source": "30348583", "target": "35680001"}}, {"type": "Feature", "geometry": {"type": "LineString", "coordinates": [[103.38803339578095, 68.53157231003019], [103.38091471884803, 68.53241661389421]]}, "properties": {"source": "30348583", "target": "23523192"}}, {"type": "Feature", "geometry": {"type": "LineString", "coordinates": [[103.38803339578095, 68.53157231003019], [103.390286960725, 68.52877551463519]]}, "properties": {"source": "30348583", "target": "33297988"}}, {"type": "Feature", "geometry": {"type": "LineString", "coordinates": [[103.403456335962, 68.52903315814595], [103.39166485645615, 68.52978392537071]]}, "properties": {"source": "35705248", "target": "33782450"}}, {"type": "Feature", "geometry": {"type": "LineString", "coordinates": [[103.403456335962, 68.52903315814595], [103.3981301874822, 68.53600750032564]]}, "properties": {"source": "35705248", "target": "36203170"}}, {"type": "Feature", "geometry": {"type": "LineString", "coordinates": [[103.403456335962, 68.52903315814595], [103.38136750017526, 68.52972985314901]]}, "properties": {"source": "35705248", "target": "34838400"}}, {"type": "Feature", "geometry": {"type": "LineString", "coordinates": [[103.38344773946147, 68.5299246128827], [103.39982782630489, 68.53021377673406]]}, "properties": {"source": "15983585", "target": "15983597"}}, {"type": "Feature", "geometry": {"type": "LineString", "coordinates": [[103.38344773946147, 68.5299246128827], [103.39796667764182, 68.53603866833703]]}, "properties": {"source": "15983585", "target": "17118320"}}, {"type": "Feature", "geometry": {"type": "LineString", "coordinates": [[103.38344773946147, 68.5299246128827], [103.39226039694768, 68.52929396990285]]}, "properties": {"source": "15983585", "target": "15986973"}}, {"type": "Feature", "geometry": {"type": "LineString", "coordinates": [[103.38344773946147, 68.5299246128827], [103.38467397567814, 68.53262062710803]]}, "properties": {"source": "15983585", "target": "18368509"}}, {"type": "Feature", "geometry": {"type": "LineString", "coordinates": [[103.39780430172965, 68.53308596424654], [103.40436690189864, 68.53582851846272]]}, "properties": {"source": "36267498", "target": "32821285"}}, {"type": "Feature", "geometry": {"type": "LineString", "coordinates": [[103.39780430172965, 68.53308596424654], [103.38755721734316, 68.5287737400244]]}, "properties": {"source": "36267498", "target": "334403"}}, {"type": "Feature", "geometry": {"type": "LineString", "coordinates": [[103.39780430172965, 68.53308596424654], [103.40167106413207, 68.53285138406508]]}, "properties": {"source": "36267498", "target": "36393897"}}, {"type": "Feature", "geometry": {"type": "LineString", "coordinates": [[103.39780430172965, 68.53308596424654], [103.38475476310384, 68.53562750117217]]}, "properties": {"source": "36267498", "target": "36202012"}}, {"type": "Feature", "geometry": {"type": "LineString", "coordinates": [[103.39780430172965, 68.53308596424654], [103.40069726491976, 68.5322079191796]]}, "properties": {"source": "36267498", "target": "34100787"}}, {"type": "Feature", "geometry": {"type": "LineString", "coordinates": [[103.39780430172965, 68.53308596424654], [103.3989199486287, 68.52880675258001]]}, "properties": {"source": "36267498", "target": "34036965"}}, {"type": "Feature", "geometry": {"type": "LineString", "coordinates": [[103.40022215356896, 68.53501271814241], [103.38287244971474, 68.53005811374311]]}, "properties": {"source": "35083400", "target": "35680001"}}, {"type": "Feature", "geometry": {"type": "LineString", "coordinates": [[103.40022215356896, 68.53501271814241], [103.38475476310384, 68.53562750117217]]}, "properties": {"source": "35083400", "target": "36202012"}}, {"type": "Feature", "geometry": {"type": "LineString", "coordinates": [[103.39780430172965, 68.53308596424654], [103.39511378441341, 68.53447050291106]]}, "properties": {"source": "36267498", "target": "33559135"}}, {"type": "Feature", "geometry": {"type": "LineString", "coordinates": [[103.38548180746761, 68.53176288713186], [103.40413634256146, 68.5342707204756]]}, "properties": {"source": "21841480", "target": "24289316"}}, {"type": "Feature", "geometry": {"type": "LineString", "coordinates": [[103.38548180746761, 68.53176288713186], [103.38774685340144, 68.53098928134716]]}, "properties": {"source": "21841480", "target": "23253714"}}, {"type": "Feature", "geometry": {"type": "LineString", "coordinates": [[103.38548180746761, 68.53176288713186], [103.38990549514182, 68.53427475778452]]}, "properties": {"source": "21841480", "target": "27445306"}}, {"type": "Feature", "geometry": {"type": "LineString", "coordinates": [[103.38548180746761, 68.53176288713186], [103.38091471884803, 68.53241661389421]]}, "properties": {"source": "21841480", "target": "23523192"}}, {"type": "Feature", "geometry": {"type": "LineString", "coordinates": [[103.38548180746761, 68.53176288713186], [103.4039049746105, 68.5289461099002]]}, "properties": {"source": "21841480", "target": "22006059"}}, {"type": "Feature", "geometry": {"type": "LineString", "coordinates": [[103.38548180746761, 68.53176288713186], [103.4026979311306, 68.53326322825026]]}, "properties": {"source": "21841480", "target": "29155389"}}, {"type": "Feature", "geometry": {"type": "LineString", "coordinates": [[103.38548180746761, 68.53176288713186], [103.39343548157035, 68.53524026243582]]}, "properties": {"source": "21841480", "target": "19617735"}}, {"type": "Feature", "geometry": {"type": "LineString", "coordinates": [[103.38974617537053, 68.53512058444636], [103.3854113868457, 68.53599559528695]]}, "properties": {"source": "30831145", "target": "34741280"}}, {"type": "Feature", "geometry": {"type": "LineString", "coordinates": [[103.38974617537053, 68.53512058444636], [103.38948827012683, 68.53342269329357]]}, "properties": {"source": "30831145", "target": "25023113"}}, {"type": "Feature", "geometry": {"type": "LineString", "coordinates": [[103.40413634256146, 68.5342707204756], [103.39617347291892, 68.53473955694534]]}, "properties": {"source": "24289316", "target": "32988191"}}, {"type": "Feature", "geometry": {"type": "LineString", "coordinates": [[103.40413634256146, 68.5342707204756], [103.38974617537053, 68.53512058444636]]}, "properties": {"source": "24289316", "target": "30831145"}}, {"type": "Feature", "geometry": {"type": "LineString", "coordinates": [[103.40413634256146, 68.5342707204756], [103.38774685340144, 68.53098928134716]]}, "properties": {"source": "24289316", "target": "23253714"}}, {"type": "Feature", "geometry": {"type": "LineString", "coordinates": [[103.40413634256146, 68.5342707204756], [103.38990549514182, 68.53427475778452]]}, "properties": {"source": "24289316", "target": "27445306"}}, {"type": "Feature", "geometry": {"type": "LineString", "coordinates": [[103.40413634256146, 68.5342707204756], [103.38084904356879, 68.52970663670666]]}, "properties": {"source": "24289316", "target": "30829586"}}, {"type": "Feature", "geometry": {"type": "LineString", "coordinates": [[103.40413634256146, 68.5342707204756], [103.38091471884803, 68.53241661389421]]}, "properties": {"source": "24289316", "target": "23523192"}}, {"type": "Feature", "geometry": {"type": "LineString", "coordinates": [[103.40413634256146, 68.5342707204756], [103.4039049746105, 68.5289461099002]]}, "properties": {"source": "24289316", "target": "22006059"}}, {"type": "Feature", "geometry": {"type": "LineString", "coordinates": [[103.38803339578095, 68.53157231003019], [103.39755986298508, 68.52887469165432]]}, "properties": {"source": "30348583", "target": "34532227"}}, {"type": "Feature", "geometry": {"type": "LineString", "coordinates": [[103.38803339578095, 68.53157231003019], [103.4026979311306, 68.53326322825026]]}, "properties": {"source": "30348583", "target": "29155389"}}, {"type": "Feature", "geometry": {"type": "LineString", "coordinates": [[103.38803339578095, 68.53157231003019], [103.39047807400351, 68.53006547271838]]}, "properties": {"source": "30348583", "target": "29504693"}}, {"type": "Feature", "geometry": {"type": "LineString", "coordinates": [[103.38803339578095, 68.53157231003019], [103.3999088546509, 68.53179317006976]]}, "properties": {"source": "30348583", "target": "13036371"}}, {"type": "Feature", "geometry": {"type": "LineString", "coordinates": [[103.38803339578095, 68.53157231003019], [103.3854113868457, 68.53599559528695]]}, "properties": {"source": "30348583", "target": "34741280"}}, {"type": "Feature", "geometry": {"type": "LineString", "coordinates": [[103.38803339578095, 68.53157231003019], [103.38948827012683, 68.53342269329357]]}, "properties": {"source": "30348583", "target": "25023113"}}, {"type": "Feature", "geometry": {"type": "LineString", "coordinates": [[103.39851801050418, 68.53574671908333], [103.3997467259261, 68.52999938908582]]}, "properties": {"source": "30313962", "target": "2647985"}}, {"type": "Feature", "geometry": {"type": "LineString", "coordinates": [[103.38078886413967, 68.5296905283551], [103.39617347291892, 68.53473955694534]]}, "properties": {"source": "33836336", "target": "32988191"}}, {"type": "Feature", "geometry": {"type": "LineString", "coordinates": [[103.38078886413967, 68.5296905283551], [103.38207751814036, 68.52812509204978]]}, "properties": {"source": "33836336", "target": "33410477"}}, {"type": "Feature", "geometry": {"type": "LineString", "coordinates": [[103.38078886413967, 68.5296905283551], [103.39778742970799, 68.53470599017496]]}, "properties": {"source": "33836336", "target": "6699937"}}, {"type": "Feature", "geometry": {"type": "LineString", "coordinates": [[103.38078886413967, 68.5296905283551], [103.38349906245276, 68.53474109423615]]}, "properties": {"source": "33836336", "target": "7383829"}}, {"type": "Feature", "geometry": {"type": "LineString", "coordinates": [[103.38078886413967, 68.5296905283551], [103.4039071624806, 68.53128954017075]]}, "properties": {"source": "33836336", "target": "23959962"}}, {"type": "Feature", "geometry": {"type": "LineString", "coordinates": [[103.403456335962, 68.52903315814595], [103.38287244971474, 68.53005811374311]]}, "properties": {"source": "35705248", "target": "35680001"}}, {"type": "Feature", "geometry": {"type": "LineString", "coordinates": [[103.403456335962, 68.52903315814595], [103.40022215356896, 68.53501271814241]]}, "properties": {"source": "35705248", "target": "35083400"}}, {"type": "Feature", "geometry": {"type": "LineString", "coordinates": [[103.403456335962, 68.52903315814595], [103.38475476310384, 68.53562750117217]]}, "properties": {"source": "35705248", "target": "36202012"}}, {"type": "Feature", "geometry": {"type": "LineString", "coordinates": [[103.38078886413967, 68.5296905283551], [103.39318042945473, 68.53318024209565]]}, "properties": {"source": "33836336", "target": "5148837"}}, {"type": "Feature", "geometry": {"type": "LineString", "coordinates": [[103.38846944762355, 68.53304752714419], [103.38399000857066, 68.53019066916517]]}, "properties": {"source": "18698877", "target": "18169204"}}, {"type": "Feature", "geometry": {"type": "LineString", "coordinates": [[103.38755721734316, 68.5287737400244], [103.40436690189864, 68.53582851846272]]}, "properties": {"source": "334403", "target": "32821285"}}, {"type": "Feature", "geometry": {"type": "LineString", "coordinates": [[103.38755721734316, 68.5287737400244], [103.40167106413207, 68.53285138406508]]}, "properties": {"source": "334403", "target": "36393897"}}, {"type": "Feature", "geometry": {"type": "LineString", "coordinates": [[103.38755721734316, 68.5287737400244], [103.40069726491976, 68.5322079191796]]}, "properties": {"source": "334403", "target": "34100787"}}, {"type": "Feature", "geometry": {"type": "LineString", "coordinates": [[103.38755721734316, 68.5287737400244], [103.3989199486287, 68.52880675258001]]}, "properties": {"source": "334403", "target": "34036965"}}, {"type": "Feature", "geometry": {"type": "LineString", "coordinates": [[103.39357927494996, 68.53542259094456], [103.38990549514182, 68.53427475778452]]}, "properties": {"source": "10491055", "target": "27445306"}}, {"type": "Feature", "geometry": {"type": "LineString", "coordinates": [[103.39357927494996, 68.53542259094456], [103.38424795399726, 68.53066384410576]]}, "properties": {"source": "10491055", "target": "10458937"}}, {"type": "Feature", "geometry": {"type": "LineString", "coordinates": [[103.39357927494996, 68.53542259094456], [103.38366942227043, 68.5314401632942]]}, "properties": {"source": "10491055", "target": "14289719"}}, {"type": "Feature", "geometry": {"type": "LineString", "coordinates": [[103.39357927494996, 68.53542259094456], [103.38571990645426, 68.52861909420312]]}, "properties": {"source": "10491055", "target": "15739797"}}, {"type": "Feature", "geometry": {"type": "LineString", "coordinates": [[103.39357927494996, 68.53542259094456], [103.40110431468639, 68.52970589911217]]}, "properties": {"source": "10491055", "target": "10432"}}, {"type": "Feature", "geometry": {"type": "LineString", "coordinates": [[103.3906666639449, 68.5331116779783], [103.38803339578095, 68.53157231003019]]}, "properties": {"source": "23596730", "target": "30348583"}}, {"type": "Feature", "geometry": {"type": "LineString", "coordinates": [[103.3906666639449, 68.5331116779783], [103.3833563431113, 68.53344195024746]]}, "properties": {"source": "23596730", "target": "24341281"}}, {"type": "Feature", "geometry": {"type": "LineString", "coordinates": [[103.3906666639449, 68.5331116779783], [103.38974617537053, 68.53512058444636]]}, "properties": {"source": "23596730", "target": "30831145"}}, {"type": "Feature", "geometry": {"type": "LineString", "coordinates": [[103.3906666639449, 68.5331116779783], [103.40413634256146, 68.5342707204756]]}, "properties": {"source": "23596730", "target": "24289316"}}, {"type": "Feature", "geometry": {"type": "LineString", "coordinates": [[103.3906666639449, 68.5331116779783], [103.39343548157035, 68.53524026243582]]}, "properties": {"source": "23596730", "target": "19617735"}}, {"type": "Feature", "geometry": {"type": "LineString", "coordinates": [[103.38755721734316, 68.5287737400244], [103.39511378441341, 68.53447050291106]]}, "properties": {"source": "334403", "target": "33559135"}}]}