{"type": "FeatureCollection", "features": [{"type": "Feature", "geometry": {"type": "LineString", "coordinates": [[-16.26050267488779, 68.80216324652784], [-16.264600711862727, 68.80212160635827]]}, "properties": {"source": "13279330", "target": "12948961"}}, {"type": "Feature", "geometry": {"type": "LineString", "coordinates": [[-16.271273792064278, 68.80630298380458], [-16.272027726015068, 68.80515502217307]]}, "properties": {"source": "20554183", "target": "6810192"}}, {"type": "Feature", "geometry": {"type": "LineString", "coordinates": [[-16.26050267488779, 68.80216324652784], [-16.260512256172518, 68.80136685482555]]}, "properties": {"source": "13279330", "target": "17160528"}}, {"type": "Feature", "geometry": {"type": "LineString", "coordinates": [[-16.26050267488779, 68.80216324652784], [-16.259256588163396, 68.804897962072]]}, "properties": {"source": "13279330", "target": "12605457"}}, {"type": "Feature", "geometry": {"type": "LineString", "coordinates": [[-16.26050267488779, 68.80216324652784], [-16.266498510873447, 68.80466563913771]]}, "properties": {"source": "13279330", "target": "13033191"}}, {"type": "Feature", "geometry": {"type": "LineString", "coordinates": [[-16.27229419731924, 68.80183656125442], [-16.263329411005913, 68.80352209231069]]}, "properties": {"source": "13420775", "target": "29554743"}}, {"type": "Feature", "geometry": {"type": "LineString", "coordinates": [[-16.27229419731924, 68.80183656125442], [-16.252884164278726, 68.80115202341537]]}, "properties": {"source": "13420775", "target": "17935561"}}, {"type": "Feature", "geometry": {"type": "LineString", "coordinates": [[-16.27229419731924, 68.80183656125442], [-16.25879518435042, 68.80309716927252]]}, "properties": {"source": "13420775", "target": "15849846"}}, {"type": "Feature", "geometry": {"type": "LineString", "coordinates": [[-16.27229419731924, 68.80183656125442], [-16.269446909269192, 68.80615572391628]]}, "properties": {"source": "13420775", "target": "16028624"}}, {"type": "Feature", "geometry": {"type": "LineString", "coordinates": [[-16.252884164278726, 68.80115202341537], [-16.263329411005913, 68.80352209231069]]}, "properties": {"source": "17935561", "target": "29554743"}}, {"type": "Feature", "geometry": {"type": "LineString", "coordinates": [[-16.252884164278726, 68.80115202341537], [-16.25879518435042, 68.80309716927252]]}, "properties": {"source": "17935561", "target": "15849846"}}, {"type": "Feature", "geometry": {"type": "LineString", "coordinates": [[-16.252884164278726, 68.80115202341537], [-16.269446909269192, 68.80615572391628]]}, "properties": {"source": "17935561", "target": "16028624"}}, {"type": "Feature", "geometry": {"type": "LineString", "coordinates": [[-16.255263832990323, 68.801219581032], [-16.264600711862727, 68.80212160635827]]}, "properties": {"source": "13344197", "target": "12948961"}}, {"type": "Feature", "geometry": {"type": "LineString", "coordinates": [[-16.255263832990323, 68.801219581032], [-16.266498510873447, 68.80466563913771]]}, "properties": {"source": "13344197", "target": "13033191"}}, {"type": "Feature", "geometry": {"type": "LineString", "coordinates": [[-16.252722903134554, 68.80009741079888], [-16.252263365555564, 68.80662930810632]]}, "properties": {"source": "700262", "target": "700271"}}, {"type": "Feature", "geometry": {"type": "LineString", "coordinates": [[-16.252722903134554, 68.80009741079888], [-16.256519912044894, 68.80493014019424]]}, "properties": {"source": "700262", "target": "690616"}}, {"type": "Feature", "geometry": {"type": "LineString", "coordinates": [[-16.264600711862727, 68.80212160635827], [-16.269114459071517, 68.80440819575318]]}, "properties": {"source": "12948961", "target": "2261923"}}, {"type": "Feature", "geometry": {"type": "LineString", "coordinates": [[-16.272027726015068, 68.80515502217307], [-16.255549107369916, 68.80280426062478]]}, "properties": {"source": "6810192", "target": "208950"}}, {"type": "Feature", "geometry": {"type": "LineString", "coordinates": [[-16.272027726015068, 68.80515502217307], [-16.25270662283549, 68.80236106624412]]}, "properties": {"source": "6810192", "target": "20493281"}}, {"type": "Feature", "geometry": {"type": "LineString", "coordinates": [[-16.272027726015068, 68.80515502217307], [-16.25703046604056, 68.80302767475689]]}, "properties": {"source": "6810192", "target": "7828027"}}, {"type": "Feature", "geometry": {"type": "LineString", "coordinates": [[-16.272027726015068, 68.80515502217307], [-16.251502494372602, 68.80404438690573]]}, "properties": {"source": "6810192", "target": "7144708"}}, {"type": "Feature", "geometry": {"type": "LineString", "coordinates": [[-16.272027726015068, 68.80515502217307], [-16.26223406812241, 68.80464680384608]]}, "properties": {"source": "6810192", "target": "7827937"}}, {"type": "Feature", "geometry": {"type": "LineString", "coordinates": [[-16.272027726015068, 68.80515502217307], [-16.27008287534946, 68.80209154627656]]}, "properties": {"source": "6810192", "target": "21230310"}}, {"type": "Feature", "geometry": {"type": "LineString", "coordinates": [[-16.272027726015068, 68.80515502217307], [-16.272802496794753, 68.80172135806748]]}, "properties": {"source": "6810192", "target": "6033770"}}, {"type": "Feature", "geometry": {"type": "LineString", "coordinates": [[-16.259452682741056, 68.80518760851433], [-16.271480121113, 68.80678720366936]]}, "properties": {"source": "15338162", "target": "11529526"}}, {"type": "Feature", "geometry": {"type": "LineString", "coordinates": [[-16.257656500818968, 68.80153459674045], [-16.26799354248155, 68.8051468875318]]}, "properties": {"source": "16102401", "target": "6189704"}}, {"type": "Feature", "geometry": {"type": "LineString", "coordinates": [[-16.257656500818968, 68.80153459674045], [-16.271273792064278, 68.80630298380458]]}, "properties": {"source": "16102401", "target": "20554183"}}, {"type": "Feature", "geometry": {"type": "LineString", "coordinates": [[-16.257656500818968, 68.80153459674045], [-16.26281938161577, 68.80017782012766]]}, "properties": {"source": "16102401", "target": "20553946"}}, {"type": "Feature", "geometry": {"type": "LineString", "coordinates": [[-16.257656500818968, 68.80153459674045], [-16.252527264769412, 68.8020595621484]]}, "properties": {"source": "16102401", "target": "7827991"}}, {"type": "Feature", "geometry": {"type": "LineString", "coordinates": [[-16.257656500818968, 68.80153459674045], [-16.255549107369916, 68.80280426062478]]}, "properties": {"source": "16102401", "target": "208950"}}, {"type": "Feature", "geometry": {"type": "LineString", "coordinates": [[-16.257656500818968, 68.80153459674045], [-16.25270662283549, 68.80236106624412]]}, "properties": {"source": "16102401", "target": "20493281"}}, {"type": "Feature", "geometry": {"type": "LineString", "coordinates": [[-16.257656500818968, 68.80153459674045], [-16.25703046604056, 68.80302767475689]]}, "properties": {"source": "16102401", "target": "7828027"}}, {"type": "Feature", "geometry": {"type": "LineString", "coordinates": [[-16.257656500818968, 68.80153459674045], [-16.258473014713445, 68.8012486374518]]}, "properties": {"source": "16102401", "target": "20559812"}}, {"type": "Feature", "geometry": {"type": "LineString", "coordinates": [[-16.258473014713445, 68.8012486374518], [-16.251502494372602, 68.80404438690573]]}, "properties": {"source": "20559812", "target": "7144708"}}, {"type": "Feature", "geometry": {"type": "LineString", "coordinates": [[-16.270752176057698, 68.80213236805602], [-16.261917768516298, 68.803599331908]]}, "properties": {"source": "20548922", "target": "17186217"}}, {"type": "Feature", "geometry": {"type": "LineString", "coordinates": [[-16.270752176057698, 68.80213236805602], [-16.263161835023283, 68.80556607507557]]}, "properties": {"source": "20548922", "target": "1295357"}}, {"type": "Feature", "geometry": {"type": "LineString", "coordinates": [[-16.270752176057698, 68.80213236805602], [-16.269323431600867, 68.80325357563015]]}, "properties": {"source": "20548922", "target": "11529324"}}, {"type": "Feature", "geometry": {"type": "LineString", "coordinates": [[-16.270752176057698, 68.80213236805602], [-16.261836514501766, 68.80544704085398]]}, "properties": {"source": "20548922", "target": "16172322"}}, {"type": "Feature", "geometry": {"type": "LineString", "coordinates": [[-16.270752176057698, 68.80213236805602], [-16.255058406057742, 68.8033406757367]]}, "properties": {"source": "20548922", "target": "17237833"}}, {"type": "Feature", "geometry": {"type": "LineString", "coordinates": [[-16.270752176057698, 68.80213236805602], [-16.27251457889588, 68.80471452251501]]}, "properties": {"source": "20548922", "target": "12098142"}}, {"type": "Feature", "geometry": {"type": "LineString", "coordinates": [[-16.270752176057698, 68.80213236805602], [-16.26196189296408, 68.80201195315973]]}, "properties": {"source": "20548922", "target": "113136"}}, {"type": "Feature", "geometry": {"type": "LineString", "coordinates": [[-16.271273792064278, 68.80630298380458], [-16.26799354248155, 68.8051468875318]]}, "properties": {"source": "20554183", "target": "6189704"}}, {"type": "Feature", "geometry": {"type": "LineString", "coordinates": [[-16.271273792064278, 68.80630298380458], [-16.26281938161577, 68.80017782012766]]}, "properties": {"source": "20554183", "target": "20553946"}}, {"type": "Feature", "geometry": {"type": "LineString", "coordinates": [[-16.271273792064278, 68.80630298380458], [-16.252527264769412, 68.8020595621484]]}, "properties": {"source": "20554183", "target": "7827991"}}, {"type": "Feature", "geometry": {"type": "LineString", "coordinates": [[-16.271273792064278, 68.80630298380458], [-16.255549107369916, 68.80280426062478]]}, "properties": {"source": "20554183", "target": "208950"}}, {"type": "Feature", "geometry": {"type": "LineString", "coordinates": [[-16.271273792064278, 68.80630298380458], [-16.25270662283549, 68.80236106624412]]}, "properties": {"source": "20554183", "target": "20493281"}}, {"type": "Feature", "geometry": {"type": "LineString", "coordinates": [[-16.271273792064278, 68.80630298380458], [-16.25703046604056, 68.80302767475689]]}, "properties": {"source": "20554183", "target": "7828027"}}, {"type": "Feature", "geometry": {"type": "LineString", "coordinates": [[-16.271273792064278, 68.80630298380458], [-16.258473014713445, 68.8012486374518]]}, "properties": {"source": "20554183", "target": "20559812"}}, {"type": "Feature", "geometry": {"type": "LineString", "coordinates": [[-16.271273792064278, 68.80630298380458], [-16.251502494372602, 68.80404438690573]]}, "properties": {"source": "20554183", "target": "7144708"}}, {"type": "Feature", "geometry": {"type": "LineString", "coordinates": [[-16.255058406057742, 68.8033406757367], [-16.25270662283549, 68.80236106624412]]}, "properties": {"source": "17237833", "target": "20493281"}}, {"type": "Feature", "geometry": {"type": "LineString", "coordinates": [[-16.251502494372602, 68.80404438690573], [-16.264957019967852, 68.80664196894517]]}, "properties": {"source": "7144708", "target": "18755438"}}, {"type": "Feature", "geometry": {"type": "LineString", "coordinates": [[-16.26223406812241, 68.80464680384608], [-16.26799354248155, 68.8051468875318]]}, "properties": {"source": "7827937", "target": "6189704"}}, {"type": "Feature", "geometry": {"type": "LineString", "coordinates": [[-16.26223406812241, 68.80464680384608], [-16.255549107369916, 68.80280426062478]]}, "properties": {"source": "7827937", "target": "208950"}}, {"type": "Feature", "geometry": {"type": "LineString", "coordinates": [[-16.26223406812241, 68.80464680384608], [-16.25703046604056, 68.80302767475689]]}, "properties": {"source": "7827937", "target": "7828027"}}, {"type": "Feature", "geometry": {"type": "LineString", "coordinates": [[-16.26223406812241, 68.80464680384608], [-16.251502494372602, 68.80404438690573]]}, "properties": {"source": "7827937", "target": "7144708"}}, {"type": "Feature", "geometry": {"type": "LineString", "coordinates": [[-16.26223406812241, 68.80464680384608], [-16.265672354263558, 68.80096758600305]]}, "properties": {"source": "7827937", "target": "13561277"}}, {"type": "Feature", "geometry": {"type": "LineString", "coordinates": [[-16.26223406812241, 68.80464680384608], [-16.27008287534946, 68.80209154627656]]}, "properties": {"source": "7827937", "target": "21230310"}}, {"type": "Feature", "geometry": {"type": "LineString", "coordinates": [[-16.26223406812241, 68.80464680384608], [-16.263886282202975, 68.80407750227684]]}, "properties": {"source": "7827937", "target": "9145441"}}, {"type": "Feature", "geometry": {"type": "LineString", "coordinates": [[-16.26223406812241, 68.80464680384608], [-16.270491703514182, 68.80525735683295]]}, "properties": {"source": "7827937", "target": "12736903"}}, {"type": "Feature", "geometry": {"type": "LineString", "coordinates": [[-16.26223406812241, 68.80464680384608], [-16.264937024083792, 68.80439724976927]]}, "properties": {"source": "7827937", "target": "8627524"}}, {"type": "Feature", "geometry": {"type": "LineString", "coordinates": [[-16.26223406812241, 68.80464680384608], [-16.27229419731924, 68.80183656125442]]}, "properties": {"source": "7827937", "target": "13420775"}}, {"type": "Feature", "geometry": {"type": "LineString", "coordinates": [[-16.26223406812241, 68.80464680384608], [-16.25879518435042, 68.80309716927252]]}, "properties": {"source": "7827937", "target": "15849846"}}, {"type": "Feature", "geometry": {"type": "LineString", "coordinates": [[-16.26223406812241, 68.80464680384608], [-16.271480121113, 68.80678720366936]]}, "properties": {"source": "7827937", "target": "11529526"}}, {"type": "Feature", "geometry": {"type": "LineString", "coordinates": [[-16.272027726015068, 68.80515502217307], [-16.26799354248155, 68.8051468875318]]}, "properties": {"source": "6810192", "target": "6189704"}}, {"type": "Feature", "geometry": {"type": "LineString", "coordinates": [[-16.272027726015068, 68.80515502217307], [-16.252527264769412, 68.8020595621484]]}, "properties": {"source": "6810192", "target": "7827991"}}, {"type": "Feature", "geometry": {"type": "LineString", "coordinates": [[-16.255665064045644, 68.800534858529], [-16.264937024083792, 68.80439724976927]]}, "properties": {"source": "11745047", "target": "8627524"}}, {"type": "Feature", "geometry": {"type": "LineString", "coordinates": [[-16.257656500818968, 68.80153459674045], [-16.265789011777485, 68.80488033008604]]}, "properties": {"source": "16102401", "target": "1295394"}}, {"type": "Feature", "geometry": {"type": "LineString", "coordinates": [[-16.257656500818968, 68.80153459674045], [-16.272571892800357, 68.8008223553766]]}, "properties": {"source": "16102401", "target": "18595009"}}, {"type": "Feature", "geometry": {"type": "LineString", "coordinates": [[-16.268832668181915, 68.80584023820751], [-16.26799354248155, 68.8051468875318]]}, "properties": {"source": "13423817", "target": "6189704"}}, {"type": "Feature", "geometry": {"type": "LineString", "coordinates": [[-16.268832668181915, 68.80584023820751], [-16.255549107369916, 68.80280426062478]]}, "properties": {"source": "13423817", "target": "208950"}}, {"type": "Feature", "geometry": {"type": "LineString", "coordinates": [[-16.268832668181915, 68.80584023820751], [-16.25270662283549, 68.80236106624412]]}, "properties": {"source": "13423817", "target": "20493281"}}, {"type": "Feature", "geometry": {"type": "LineString", "coordinates": [[-16.268832668181915, 68.80584023820751], [-16.25703046604056, 68.80302767475689]]}, "properties": {"source": "13423817", "target": "7828027"}}, {"type": "Feature", "geometry": {"type": "LineString", "coordinates": [[-16.268832668181915, 68.80584023820751], [-16.259452682741056, 68.80518760851433]]}, "properties": {"source": "13423817", "target": "15338162"}}, {"type": "Feature", "geometry": {"type": "LineString", "coordinates": [[-16.268832668181915, 68.80584023820751], [-16.269323431600867, 68.80325357563015]]}, "properties": {"source": "13423817", "target": "11529324"}}, {"type": "Feature", "geometry": {"type": "LineString", "coordinates": [[-16.268832668181915, 68.80584023820751], [-16.271480121113, 68.80678720366936]]}, "properties": {"source": "13423817", "target": "11529526"}}, {"type": "Feature", "geometry": {"type": "LineString", "coordinates": [[-16.265672354263558, 68.80096758600305], [-16.264937024083792, 68.80439724976927]]}, "properties": {"source": "13561277", "target": "8627524"}}, {"type": "Feature", "geometry": {"type": "LineString", "coordinates": [[-16.266084854885918, 68.8006528714044], [-16.255549107369916, 68.80280426062478]]}, "properties": {"source": "18740966", "target": "208950"}}, {"type": "Feature", "geometry": {"type": "LineString", "coordinates": [[-16.266084854885918, 68.8006528714044], [-16.25270662283549, 68.80236106624412]]}, "properties": {"source": "18740966", "target": "20493281"}}, {"type": "Feature", "geometry": {"type": "LineString", "coordinates": [[-16.252452257588715, 68.80424938798322], [-16.265672354263558, 68.80096758600305]]}, "properties": {"source": "18691258", "target": "13561277"}}, {"type": "Feature", "geometry": {"type": "LineString", "coordinates": [[-16.252452257588715, 68.80424938798322], [-16.270491703514182, 68.80525735683295]]}, "properties": {"source": "18691258", "target": "12736903"}}, {"type": "Feature", "geometry": {"type": "LineString", "coordinates": [[-16.252452257588715, 68.80424938798322], [-16.263329411005913, 68.80352209231069]]}, "properties": {"source": "18691258", "target": "29554743"}}, {"type": "Feature", "geometry": {"type": "LineString", "coordinates": [[-16.25912973213832, 68.80594869539314], [-16.269410621600088, 68.804225194123]]}, "properties": {"source": "7936255", "target": "8465655"}}, {"type": "Feature", "geometry": {"type": "LineString", "coordinates": [[-16.26912701279275, 68.80225040865074], [-16.259256588163396, 68.804897962072]]}, "properties": {"source": "6725011", "target": "12605457"}}, {"type": "Feature", "geometry": {"type": "LineString", "coordinates": [[-16.26912701279275, 68.80225040865074], [-16.266498510873447, 68.80466563913771]]}, "properties": {"source": "6725011", "target": "13033191"}}, {"type": "Feature", "geometry": {"type": "LineString", "coordinates": [[-16.26412029758052, 68.8069484126242], [-16.252722903134554, 68.80009741079888]]}, "properties": {"source": "4937672", "target": "700262"}}, {"type": "Feature", "geometry": {"type": "LineString", "coordinates": [[-16.26412029758052, 68.8069484126242], [-16.252263365555564, 68.80662930810632]]}, "properties": {"source": "4937672", "target": "700271"}}, {"type": "Feature", "geometry": {"type": "LineString", "coordinates": [[-16.26412029758052, 68.8069484126242], [-16.256519912044894, 68.80493014019424]]}, "properties": {"source": "4937672", "target": "690616"}}, {"type": "Feature", "geometry": {"type": "LineString", "coordinates": [[-16.271076882358727, 68.80603146688188], [-16.253857504970853, 68.80583532500529]]}, "properties": {"source": "17314983", "target": "11545805"}}, {"type": "Feature", "geometry": {"type": "LineString", "coordinates": [[-16.271076882358727, 68.80603146688188], [-16.26978518559818, 68.80272858485304]]}, "properties": {"source": "17314983", "target": "1896808"}}, {"type": "Feature", "geometry": {"type": "LineString", "coordinates": [[-16.26818829560861, 68.80064130077258], [-16.26382888002584, 68.80434202506598]]}, "properties": {"source": "19488372", "target": "1785657"}}, {"type": "Feature", "geometry": {"type": "LineString", "coordinates": [[-16.26818829560861, 68.80064130077258], [-16.261450575743936, 68.80459621142404]]}, "properties": {"source": "19488372", "target": "2928309"}}, {"type": "Feature", "geometry": {"type": "LineString", "coordinates": [[-16.26913543887059, 68.80213760953279], [-16.25231562786996, 68.80140370490139]]}, "properties": {"source": "6602448", "target": "7111766"}}, {"type": "Feature", "geometry": {"type": "LineString", "coordinates": [[-16.26913543887059, 68.80213760953279], [-16.2602550420483, 68.8065506763088]]}, "properties": {"source": "6602448", "target": "6499797"}}, {"type": "Feature", "geometry": {"type": "LineString", "coordinates": [[-16.25785378235787, 68.80405814209422], [-16.264426709845566, 68.80486407969579]]}, "properties": {"source": "9272503", "target": "8590147"}}, {"type": "Feature", "geometry": {"type": "LineString", "coordinates": [[-16.25785378235787, 68.80405814209422], [-16.270711323603393, 68.8010402927365]]}, "properties": {"source": "9272503", "target": "9929153"}}, {"type": "Feature", "geometry": {"type": "LineString", "coordinates": [[-16.25785378235787, 68.80405814209422], [-16.252807940865864, 68.80486474301858]]}, "properties": {"source": "9272503", "target": "791894"}}, {"type": "Feature", "geometry": {"type": "LineString", "coordinates": [[-16.255665064045644, 68.800534858529], [-16.265672354263558, 68.80096758600305]]}, "properties": {"source": "11745047", "target": "13561277"}}, {"type": "Feature", "geometry": {"type": "LineString", "coordinates": [[-16.27251457889588, 68.80471452251501], [-16.255549107369916, 68.80280426062478]]}, "properties": {"source": "12098142", "target": "208950"}}, {"type": "Feature", "geometry": {"type": "LineString", "coordinates": [[-16.266555905933757, 68.80418870199276], [-16.253857504970853, 68.80583532500529]]}, "properties": {"source": "17610288", "target": "11545805"}}, {"type": "Feature", "geometry": {"type": "LineString", "coordinates": [[-16.266555905933757, 68.80418870199276], [-16.262480861911, 68.80597242544985]]}, "properties": {"source": "17610288", "target": "15827792"}}, {"type": "Feature", "geometry": {"type": "LineString", "coordinates": [[-16.266555905933757, 68.80418870199276], [-16.26978518559818, 68.80272858485304]]}, "properties": {"source": "17610288", "target": "1896808"}}, {"type": "Feature", "geometry": {"type": "LineString", "coordinates": [[-16.263161835023283, 68.80556607507557], [-16.255549107369916, 68.80280426062478]]}, "properties": {"source": "1295357", "target": "208950"}}, {"type": "Feature", "geometry": {"type": "LineString", "coordinates": [[-16.263161835023283, 68.80556607507557], [-16.25270662283549, 68.80236106624412]]}, "properties": {"source": "1295357", "target": "20493281"}}, {"type": "Feature", "geometry": {"type": "LineString", "coordinates": [[-16.263161835023283, 68.80556607507557], [-16.25703046604056, 68.80302767475689]]}, "properties": {"source": "1295357", "target": "7828027"}}, {"type": "Feature", "geometry": {"type": "LineString", "coordinates": [[-16.263161835023283, 68.80556607507557], [-16.269842899532932, 68.80546013473793]]}, "properties": {"source": "1295357", "target": "16704382"}}, {"type": "Feature", "geometry": {"type": "LineString", "coordinates": [[-16.269323431600867, 68.80325357563015], [-16.255549107369916, 68.80280426062478]]}, "properties": {"source": "11529324", "target": "208950"}}, {"type": "Feature", "geometry": {"type": "LineString", "coordinates": [[-16.269323431600867, 68.80325357563015], [-16.25270662283549, 68.80236106624412]]}, "properties": {"source": "11529324", "target": "20493281"}}, {"type": "Feature", "geometry": {"type": "LineString", "coordinates": [[-16.269323431600867, 68.80325357563015], [-16.25703046604056, 68.80302767475689]]}, "properties": {"source": "11529324", "target": "7828027"}}, {"type": "Feature", "geometry": {"type": "LineString", "coordinates": [[-16.272802496794753, 68.80172135806748], [-16.255549107369916, 68.80280426062478]]}, "properties": {"source": "6033770", "target": "208950"}}, {"type": "Feature", "geometry": {"type": "LineString", "coordinates": [[-16.272802496794753, 68.80172135806748], [-16.25703046604056, 68.80302767475689]]}, "properties": {"source": "6033770", "target": "7828027"}}, {"type": "Feature", "geometry": {"type": "LineString", "coordinates": [[-16.25565307531673, 68.80519894253669], [-16.269410621600088, 68.804225194123]]}, "properties": {"source": "7351791", "target": "8465655"}}, {"type": "Feature", "geometry": {"type": "LineString", "coordinates": [[-16.270491703514182, 68.80525735683295], [-16.265672354263558, 68.80096758600305]]}, "properties": {"source": "12736903", "target": "13561277"}}, {"type": "Feature", "geometry": {"type": "LineString", "coordinates": [[-16.270491703514182, 68.80525735683295], [-16.264937024083792, 68.80439724976927]]}, "properties": {"source": "12736903", "target": "8627524"}}, {"type": "Feature", "geometry": {"type": "LineString", "coordinates": [[-16.26183853152955, 68.79999630475243], [-16.265672354263558, 68.80096758600305]]}, "properties": {"source": "15738455", "target": "13561277"}}, {"type": "Feature", "geometry": {"type": "LineString", "coordinates": [[-16.253975873847708, 68.80576179925743], [-16.26101521121589, 68.80329516671301]]}, "properties": {"source": "9170464", "target": "869210"}}, {"type": "Feature", "geometry": {"type": "LineString", "coordinates": [[-16.261332661163294, 68.80257406274544], [-16.25565307531673, 68.80519894253669]]}, "properties": {"source": "7526031", "target": "7351791"}}, {"type": "Feature", "geometry": {"type": "LineString", "coordinates": [[-16.261332661163294, 68.80257406274544], [-16.25231562786996, 68.80140370490139]]}, "properties": {"source": "7526031", "target": "7111766"}}, {"type": "Feature", "geometry": {"type": "LineString", "coordinates": [[-16.261332661163294, 68.80257406274544], [-16.269410621600088, 68.804225194123]]}, "properties": {"source": "7526031", "target": "8465655"}}, {"type": "Feature", "geometry": {"type": "LineString", "coordinates": [[-16.261332661163294, 68.80257406274544], [-16.2602550420483, 68.8065506763088]]}, "properties": {"source": "7526031", "target": "6499797"}}, {"type": "Feature", "geometry": {"type": "LineString", "coordinates": [[-16.26940374189971, 68.8053237966231], [-16.270799632796354, 68.80061927595864]]}, "properties": {"source": "1852490", "target": "1026227"}}, {"type": "Feature", "geometry": {"type": "LineString", "coordinates": [[-16.26940374189971, 68.8053237966231], [-16.252480270806814, 68.806128722214]]}, "properties": {"source": "1852490", "target": "8565050"}}, {"type": "Feature", "geometry": {"type": "LineString", "coordinates": [[-16.26940374189971, 68.8053237966231], [-16.271383111992748, 68.80266543060657]]}, "properties": {"source": "1852490", "target": "21998563"}}, {"type": "Feature", "geometry": {"type": "LineString", "coordinates": [[-16.260512256172518, 68.80136685482555], [-16.255263832990323, 68.801219581032]]}, "properties": {"source": "17160528", "target": "13344197"}}, {"type": "Feature", "geometry": {"type": "LineString", "coordinates": [[-16.260512256172518, 68.80136685482555], [-16.264600711862727, 68.80212160635827]]}, "properties": {"source": "17160528", "target": "12948961"}}, {"type": "Feature", "geometry": {"type": "LineString", "coordinates": [[-16.260512256172518, 68.80136685482555], [-16.259256588163396, 68.804897962072]]}, "properties": {"source": "17160528", "target": "12605457"}}, {"type": "Feature", "geometry": {"type": "LineString", "coordinates": [[-16.260512256172518, 68.80136685482555], [-16.266498510873447, 68.80466563913771]]}, "properties": {"source": "17160528", "target": "13033191"}}, {"type": "Feature", "geometry": {"type": "LineString", "coordinates": [[-16.270799632796354, 68.80061927595864], [-16.252480270806814, 68.806128722214]]}, "properties": {"source": "1026227", "target": "8565050"}}, {"type": "Feature", "geometry": {"type": "LineString", "coordinates": [[-16.270799632796354, 68.80061927595864], [-16.271383111992748, 68.80266543060657]]}, "properties": {"source": "1026227", "target": "21998563"}}, {"type": "Feature", "geometry": {"type": "LineString", "coordinates": [[-16.2602550420483, 68.8065506763088], [-16.25565307531673, 68.80519894253669]]}, "properties": {"source": "6499797", "target": "7351791"}}, {"type": "Feature", "geometry": {"type": "LineString", "coordinates": [[-16.251502494372602, 68.80404438690573], [-16.252722903134554, 68.80009741079888]]}, "properties": {"source": "7144708", "target": "700262"}}, {"type": "Feature", "geometry": {"type": "LineString", "coordinates": [[-16.255549107369916, 68.80280426062478], [-16.25270662283549, 68.80236106624412]]}, "properties": {"source": "208950", "target": "20493281"}}, {"type": "Feature", "geometry": {"type": "LineString", "coordinates": [[-16.255549107369916, 68.80280426062478], [-16.259452682741056, 68.80518760851433]]}, "properties": {"source": "208950", "target": "15338162"}}, {"type": "Feature", "geometry": {"type": "LineString", "coordinates": [[-16.255549107369916, 68.80280426062478], [-16.269842899532932, 68.80546013473793]]}, "properties": {"source": "208950", "target": "16704382"}}, {"type": "Feature", "geometry": {"type": "LineString", "coordinates": [[-16.25270662283549, 68.80236106624412], [-16.259452682741056, 68.80518760851433]]}, "properties": {"source": "20493281", "target": "15338162"}}, {"type": "Feature", "geometry": {"type": "LineString", "coordinates": [[-16.25270662283549, 68.80236106624412], [-16.269842899532932, 68.80546013473793]]}, "properties": {"source": "20493281", "target": "16704382"}}, {"type": "Feature", "geometry": {"type": "LineString", "coordinates": [[-16.25270662283549, 68.80236106624412], [-16.26196189296408, 68.80201195315973]]}, "properties": {"source": "20493281", "target": "113136"}}, {"type": "Feature", "geometry": {"type": "LineString", "coordinates": [[-16.25703046604056, 68.80302767475689], [-16.25270662283549, 68.80236106624412]]}, "properties": {"source": "7828027", "target": "20493281"}}, {"type": "Feature", "geometry": {"type": "LineString", "coordinates": [[-16.25703046604056, 68.80302767475689], [-16.259452682741056, 68.80518760851433]]}, "properties": {"source": "7828027", "target": "15338162"}}, {"type": "Feature", "geometry": {"type": "LineString", "coordinates": [[-16.25703046604056, 68.80302767475689], [-16.269842899532932, 68.80546013473793]]}, "properties": {"source": "7828027", "target": "16704382"}}, {"type": "Feature", "geometry": {"type": "LineString", "coordinates": [[-16.258473014713445, 68.8012486374518], [-16.26799354248155, 68.8051468875318]]}, "properties": {"source": "20559812", "target": "6189704"}}, {"type": "Feature", "geometry": {"type": "LineString", "coordinates": [[-16.258473014713445, 68.8012486374518], [-16.252527264769412, 68.8020595621484]]}, "properties": {"source": "20559812", "target": "7827991"}}, {"type": "Feature", "geometry": {"type": "LineString", "coordinates": [[-16.258473014713445, 68.8012486374518], [-16.255549107369916, 68.80280426062478]]}, "properties": {"source": "20559812", "target": "208950"}}, {"type": "Feature", "geometry": {"type": "LineString", "coordinates": [[-16.258473014713445, 68.8012486374518], [-16.25270662283549, 68.80236106624412]]}, "properties": {"source": "20559812", "target": "20493281"}}, {"type": "Feature", "geometry": {"type": "LineString", "coordinates": [[-16.258473014713445, 68.8012486374518], [-16.25703046604056, 68.80302767475689]]}, "properties": {"source": "20559812", "target": "7828027"}}, {"type": "Feature", "geometry": {"type": "LineString", "coordinates": [[-16.25703046604056, 68.80302767475689], [-16.266084854885918, 68.8006528714044]]}, "properties": {"source": "7828027", "target": "18740966"}}, {"type": "Feature", "geometry": {"type": "LineString", "coordinates": [[-16.252452257588715, 68.80424938798322], [-16.269446909269192, 68.80615572391628]]}, "properties": {"source": "18691258", "target": "16028624"}}, {"type": "Feature", "geometry": {"type": "LineString", "coordinates": [[-16.270122717079403, 68.8066653050117], [-16.271273792064278, 68.80630298380458]]}, "properties": {"source": "18589203", "target": "20554183"}}, {"type": "Feature", "geometry": {"type": "LineString", "coordinates": [[-16.270122717079403, 68.8066653050117], [-16.26281938161577, 68.80017782012766]]}, "properties": {"source": "18589203", "target": "20553946"}}, {"type": "Feature", "geometry": {"type": "LineString", "coordinates": [[-16.270122717079403, 68.8066653050117], [-16.252527264769412, 68.8020595621484]]}, "properties": {"source": "18589203", "target": "7827991"}}, {"type": "Feature", "geometry": {"type": "LineString", "coordinates": [[-16.270122717079403, 68.8066653050117], [-16.255549107369916, 68.80280426062478]]}, "properties": {"source": "18589203", "target": "208950"}}, {"type": "Feature", "geometry": {"type": "LineString", "coordinates": [[-16.270122717079403, 68.8066653050117], [-16.25270662283549, 68.80236106624412]]}, "properties": {"source": "18589203", "target": "20493281"}}, {"type": "Feature", "geometry": {"type": "LineString", "coordinates": [[-16.270122717079403, 68.8066653050117], [-16.25703046604056, 68.80302767475689]]}, "properties": {"source": "18589203", "target": "7828027"}}, {"type": "Feature", "geometry": {"type": "LineString", "coordinates": [[-16.270122717079403, 68.8066653050117], [-16.258473014713445, 68.8012486374518]]}, "properties": {"source": "18589203", "target": "20559812"}}, {"type": "Feature", "geometry": {"type": "LineString", "coordinates": [[-16.25547234343597, 68.80201309313952], [-16.263886282202975, 68.80407750227684]]}, "properties": {"source": "9776252", "target": "9145441"}}, {"type": "Feature", "geometry": {"type": "LineString", "coordinates": [[-16.25547234343597, 68.80201309313952], [-16.269410621600088, 68.804225194123]]}, "properties": {"source": "9776252", "target": "8465655"}}, {"type": "Feature", "geometry": {"type": "LineString", "coordinates": [[-16.25547234343597, 68.80201309313952], [-16.26940374189971, 68.8053237966231]]}, "properties": {"source": "9776252", "target": "1852490"}}, {"type": "Feature", "geometry": {"type": "LineString", "coordinates": [[-16.25547234343597, 68.80201309313952], [-16.270799632796354, 68.80061927595864]]}, "properties": {"source": "9776252", "target": "1026227"}}, {"type": "Feature", "geometry": {"type": "LineString", "coordinates": [[-16.25547234343597, 68.80201309313952], [-16.252480270806814, 68.806128722214]]}, "properties": {"source": "9776252", "target": "8565050"}}, {"type": "Feature", "geometry": {"type": "LineString", "coordinates": [[-16.25547234343597, 68.80201309313952], [-16.260195695753765, 68.80015324755755]]}, "properties": {"source": "9776252", "target": "897496"}}, {"type": "Feature", "geometry": {"type": "LineString", "coordinates": [[-16.25547234343597, 68.80201309313952], [-16.26101521121589, 68.80329516671301]]}, "properties": {"source": "9776252", "target": "869210"}}, {"type": "Feature", "geometry": {"type": "LineString", "coordinates": [[-16.25547234343597, 68.80201309313952], [-16.25912973213832, 68.80594869539314]]}, "properties": {"source": "9776252", "target": "7936255"}}, {"type": "Feature", "geometry": {"type": "LineString", "coordinates": [[-16.253298769789808, 68.80147990199748], [-16.265672354263558, 68.80096758600305]]}, "properties": {"source": "12711964", "target": "13561277"}}, {"type": "Feature", "geometry": {"type": "LineString", "coordinates": [[-16.271273792064278, 68.80630298380458], [-16.259452682741056, 68.80518760851433]]}, "properties": {"source": "20554183", "target": "15338162"}}, {"type": "Feature", "geometry": {"type": "LineString", "coordinates": [[-16.271273792064278, 68.80630298380458], [-16.268832668181915, 68.80584023820751]]}, "properties": {"source": "20554183", "target": "13423817"}}, {"type": "Feature", "geometry": {"type": "LineString", "coordinates": [[-16.271273792064278, 68.80630298380458], [-16.27008287534946, 68.80209154627656]]}, "properties": {"source": "20554183", "target": "21230310"}}, {"type": "Feature", "geometry": {"type": "LineString", "coordinates": [[-16.271273792064278, 68.80630298380458], [-16.265789011777485, 68.80488033008604]]}, "properties": {"source": "20554183", "target": "1295394"}}, {"type": "Feature", "geometry": {"type": "LineString", "coordinates": [[-16.271273792064278, 68.80630298380458], [-16.256786097649183, 68.80538248818544]]}, "properties": {"source": "20554183", "target": "17563002"}}, {"type": "Feature", "geometry": {"type": "LineString", "coordinates": [[-16.271273792064278, 68.80630298380458], [-16.269842899532932, 68.80546013473793]]}, "properties": {"source": "20554183", "target": "16704382"}}, {"type": "Feature", "geometry": {"type": "LineString", "coordinates": [[-16.271273792064278, 68.80630298380458], [-16.261917768516298, 68.803599331908]]}, "properties": {"source": "20554183", "target": "17186217"}}, {"type": "Feature", "geometry": {"type": "LineString", "coordinates": [[-16.271273792064278, 68.80630298380458], [-16.263161835023283, 68.80556607507557]]}, "properties": {"source": "20554183", "target": "1295357"}}, {"type": "Feature", "geometry": {"type": "LineString", "coordinates": [[-16.271273792064278, 68.80630298380458], [-16.269323431600867, 68.80325357563015]]}, "properties": {"source": "20554183", "target": "11529324"}}, {"type": "Feature", "geometry": {"type": "LineString", "coordinates": [[-16.271273792064278, 68.80630298380458], [-16.272802496794753, 68.80172135806748]]}, "properties": {"source": "20554183", "target": "6033770"}}, {"type": "Feature", "geometry": {"type": "LineString", "coordinates": [[-16.271273792064278, 68.80630298380458], [-16.27251457889588, 68.80471452251501]]}, "properties": {"source": "20554183", "target": "12098142"}}, {"type": "Feature", "geometry": {"type": "LineString", "coordinates": [[-16.26281938161577, 68.80017782012766], [-16.26799354248155, 68.8051468875318]]}, "properties": {"source": "20553946", "target": "6189704"}}, {"type": "Feature", "geometry": {"type": "LineString", "coordinates": [[-16.26281938161577, 68.80017782012766], [-16.252527264769412, 68.8020595621484]]}, "properties": {"source": "20553946", "target": "7827991"}}, {"type": "Feature", "geometry": {"type": "LineString", "coordinates": [[-16.26281938161577, 68.80017782012766], [-16.255549107369916, 68.80280426062478]]}, "properties": {"source": "20553946", "target": "208950"}}, {"type": "Feature", "geometry": {"type": "LineString", "coordinates": [[-16.271273792064278, 68.80630298380458], [-16.266084854885918, 68.8006528714044]]}, "properties": {"source": "20554183", "target": "18740966"}}, {"type": "Feature", "geometry": {"type": "LineString", "coordinates": [[-16.26281938161577, 68.80017782012766], [-16.25270662283549, 68.80236106624412]]}, "properties": {"source": "20553946", "target": "20493281"}}, {"type": "Feature", "geometry": {"type": "LineString", "coordinates": [[-16.27008287534946, 68.80209154627656], [-16.26799354248155, 68.8051468875318]]}, "properties": {"source": "21230310", "target": "6189704"}}, {"type": "Feature", "geometry": {"type": "LineString", "coordinates": [[-16.27008287534946, 68.80209154627656], [-16.255549107369916, 68.80280426062478]]}, "properties": {"source": "21230310", "target": "208950"}}, {"type": "Feature", "geometry": {"type": "LineString", "coordinates": [[-16.27008287534946, 68.80209154627656], [-16.251502494372602, 68.80404438690573]]}, "properties": {"source": "21230310", "target": "7144708"}}, {"type": "Feature", "geometry": {"type": "LineString", "coordinates": [[-16.265789011777485, 68.80488033008604], [-16.255549107369916, 68.80280426062478]]}, "properties": {"source": "1295394", "target": "208950"}}, {"type": "Feature", "geometry": {"type": "LineString", "coordinates": [[-16.265789011777485, 68.80488033008604], [-16.25270662283549, 68.80236106624412]]}, "properties": {"source": "1295394", "target": "20493281"}}, {"type": "Feature", "geometry": {"type": "LineString", "coordinates": [[-16.265789011777485, 68.80488033008604], [-16.25703046604056, 68.80302767475689]]}, "properties": {"source": "1295394", "target": "7828027"}}, {"type": "Feature", "geometry": {"type": "LineString", "coordinates": [[-16.265789011777485, 68.80488033008604], [-16.259452682741056, 68.80518760851433]]}, "properties": {"source": "1295394", "target": "15338162"}}, {"type": "Feature", "geometry": {"type": "LineString", "coordinates": [[-16.256786097649183, 68.80538248818544], [-16.255549107369916, 68.80280426062478]]}, "properties": {"source": "17563002", "target": "208950"}}, {"type": "Feature", "geometry": {"type": "LineString", "coordinates": [[-16.256786097649183, 68.80538248818544], [-16.25270662283549, 68.80236106624412]]}, "properties": {"source": "17563002", "target": "20493281"}}, {"type": "Feature", "geometry": {"type": "LineString", "coordinates": [[-16.256786097649183, 68.80538248818544], [-16.25703046604056, 68.80302767475689]]}, "properties": {"source": "17563002", "target": "7828027"}}, {"type": "Feature", "geometry": {"type": "LineString", "coordinates": [[-16.270122717079403, 68.8066653050117], [-16.26799354248155, 68.8051468875318]]}, "properties": {"source": "18589203", "target": "6189704"}}, {"type": "Feature", "geometry": {"type": "LineString", "coordinates": [[-16.252452257588715, 68.80424938798322], [-16.270838517768027, 68.80340266664987]]}, "properties": {"source": "18691258", "target": "19480171"}}, {"type": "Feature", "geometry": {"type": "LineString", "coordinates": [[-16.252452257588715, 68.80424938798322], [-16.27229419731924, 68.80183656125442]]}, "properties": {"source": "18691258", "target": "13420775"}}, {"type": "Feature", "geometry": {"type": "LineString", "coordinates": [[-16.252452257588715, 68.80424938798322], [-16.252884164278726, 68.80115202341537]]}, "properties": {"source": "18691258", "target": "17935561"}}, {"type": "Feature", "geometry": {"type": "LineString", "coordinates": [[-16.252452257588715, 68.80424938798322], [-16.25879518435042, 68.80309716927252]]}, "properties": {"source": "18691258", "target": "15849846"}}, {"type": "Feature", "geometry": {"type": "LineString", "coordinates": [[-16.252452257588715, 68.80424938798322], [-16.258759021125144, 68.80399919044862]]}, "properties": {"source": "18691258", "target": "13571746"}}, {"type": "Feature", "geometry": {"type": "LineString", "coordinates": [[-16.255058406057742, 68.8033406757367], [-16.25703046604056, 68.80302767475689]]}, "properties": {"source": "17237833", "target": "7828027"}}, {"type": "Feature", "geometry": {"type": "LineString", "coordinates": [[-16.25231562786996, 68.80140370490139], [-16.25565307531673, 68.80519894253669]]}, "properties": {"source": "7111766", "target": "7351791"}}, {"type": "Feature", "geometry": {"type": "LineString", "coordinates": [[-16.25231562786996, 68.80140370490139], [-16.269410621600088, 68.804225194123]]}, "properties": {"source": "7111766", "target": "8465655"}}, {"type": "Feature", "geometry": {"type": "LineString", "coordinates": [[-16.25231562786996, 68.80140370490139], [-16.2602550420483, 68.8065506763088]]}, "properties": {"source": "7111766", "target": "6499797"}}, {"type": "Feature", "geometry": {"type": "LineString", "coordinates": [[-16.263329411005913, 68.80352209231069], [-16.25879518435042, 68.80309716927252]]}, "properties": {"source": "29554743", "target": "15849846"}}, {"type": "Feature", "geometry": {"type": "LineString", "coordinates": [[-16.263329411005913, 68.80352209231069], [-16.267071146618235, 68.80494885823498]]}, "properties": {"source": "29554743", "target": "13317141"}}, {"type": "Feature", "geometry": {"type": "LineString", "coordinates": [[-16.263329411005913, 68.80352209231069], [-16.256576788782667, 68.80387060880199]]}, "properties": {"source": "29554743", "target": "15055446"}}, {"type": "Feature", "geometry": {"type": "LineString", "coordinates": [[-16.258759021125144, 68.80399919044862], [-16.265672354263558, 68.80096758600305]]}, "properties": {"source": "13571746", "target": "13561277"}}, {"type": "Feature", "geometry": {"type": "LineString", "coordinates": [[-16.258759021125144, 68.80399919044862], [-16.264937024083792, 68.80439724976927]]}, "properties": {"source": "13571746", "target": "8627524"}}, {"type": "Feature", "geometry": {"type": "LineString", "coordinates": [[-16.258759021125144, 68.80399919044862], [-16.270838517768027, 68.80340266664987]]}, "properties": {"source": "13571746", "target": "19480171"}}, {"type": "Feature", "geometry": {"type": "LineString", "coordinates": [[-16.270838517768027, 68.80340266664987], [-16.265672354263558, 68.80096758600305]]}, "properties": {"source": "19480171", "target": "13561277"}}, {"type": "Feature", "geometry": {"type": "LineString", "coordinates": [[-16.270838517768027, 68.80340266664987], [-16.270491703514182, 68.80525735683295]]}, "properties": {"source": "19480171", "target": "12736903"}}, {"type": "Feature", "geometry": {"type": "LineString", "coordinates": [[-16.26050267488779, 68.80216324652784], [-16.26799354248155, 68.8051468875318]]}, "properties": {"source": "13279330", "target": "6189704"}}, {"type": "Feature", "geometry": {"type": "LineString", "coordinates": [[-16.26050267488779, 68.80216324652784], [-16.255263832990323, 68.801219581032]]}, "properties": {"source": "13279330", "target": "13344197"}}, {"type": "Feature", "geometry": {"type": "LineString", "coordinates": [[-16.25231562786996, 68.80140370490139], [-16.25912973213832, 68.80594869539314]]}, "properties": {"source": "7111766", "target": "7936255"}}, {"type": "Feature", "geometry": {"type": "LineString", "coordinates": [[-16.253975873847708, 68.80576179925743], [-16.252480270806814, 68.806128722214]]}, "properties": {"source": "9170464", "target": "8565050"}}, {"type": "Feature", "geometry": {"type": "LineString", "coordinates": [[-16.258473014713445, 68.8012486374518], [-16.272027726015068, 68.80515502217307]]}, "properties": {"source": "20559812", "target": "6810192"}}, {"type": "Feature", "geometry": {"type": "LineString", "coordinates": [[-16.258473014713445, 68.8012486374518], [-16.259452682741056, 68.80518760851433]]}, "properties": {"source": "20559812", "target": "15338162"}}, {"type": "Feature", "geometry": {"type": "LineString", "coordinates": [[-16.258473014713445, 68.8012486374518], [-16.27008287534946, 68.80209154627656]]}, "properties": {"source": "20559812", "target": "21230310"}}, {"type": "Feature", "geometry": {"type": "LineString", "coordinates": [[-16.258473014713445, 68.8012486374518], [-16.256786097649183, 68.80538248818544]]}, "properties": {"source": "20559812", "target": "17563002"}}, {"type": "Feature", "geometry": {"type": "LineString", "coordinates": [[-16.258473014713445, 68.8012486374518], [-16.269842899532932, 68.80546013473793]]}, "properties": {"source": "20559812", "target": "16704382"}}, {"type": "Feature", "geometry": {"type": "LineString", "coordinates": [[-16.258473014713445, 68.8012486374518], [-16.272802496794753, 68.80172135806748]]}, "properties": {"source": "20559812", "target": "6033770"}}, {"type": "Feature", "geometry": {"type": "LineString", "coordinates": [[-16.258473014713445, 68.8012486374518], [-16.258278717295752, 68.80376370853364]]}, "properties": {"source": "20559812", "target": "16149273"}}, {"type": "Feature", "geometry": {"type": "LineString", "coordinates": [[-16.251502494372602, 68.80404438690573], [-16.255549107369916, 68.80280426062478]]}, "properties": {"source": "7144708", "target": "208950"}}, {"type": "Feature", "geometry": {"type": "LineString", "coordinates": [[-16.251502494372602, 68.80404438690573], [-16.25270662283549, 68.80236106624412]]}, "properties": {"source": "7144708", "target": "20493281"}}, {"type": "Feature", "geometry": {"type": "LineString", "coordinates": [[-16.251502494372602, 68.80404438690573], [-16.25703046604056, 68.80302767475689]]}, "properties": {"source": "7144708", "target": "7828027"}}, {"type": "Feature", "geometry": {"type": "LineString", "coordinates": [[-16.251502494372602, 68.80404438690573], [-16.256786097649183, 68.80538248818544]]}, "properties": {"source": "7144708", "target": "17563002"}}, {"type": "Feature", "geometry": {"type": "LineString", "coordinates": [[-16.251502494372602, 68.80404438690573], [-16.272802496794753, 68.80172135806748]]}, "properties": {"source": "7144708", "target": "6033770"}}, {"type": "Feature", "geometry": {"type": "LineString", "coordinates": [[-16.258473014713445, 68.8012486374518], [-16.266084854885918, 68.8006528714044]]}, "properties": {"source": "20559812", "target": "18740966"}}, {"type": "Feature", "geometry": {"type": "LineString", "coordinates": [[-16.251502494372602, 68.80404438690573], [-16.266084854885918, 68.8006528714044]]}, "properties": {"source": "7144708", "target": "18740966"}}, {"type": "Feature", "geometry": {"type": "LineString", "coordinates": [[-16.251502494372602, 68.80404438690573], [-16.25912973213832, 68.80594869539314]]}, "properties": {"source": "7144708", "target": "7936255"}}, {"type": "Feature", "geometry": {"type": "LineString", "coordinates": [[-16.272797307253654, 68.80246294528479], [-16.265672354263558, 68.80096758600305]]}, "properties": {"source": "15904070", "target": "13561277"}}, {"type": "Feature", "geometry": {"type": "LineString", "coordinates": [[-16.261917768516298, 68.803599331908], [-16.252527264769412, 68.8020595621484]]}, "properties": {"source": "17186217", "target": "7827991"}}, {"type": "Feature", "geometry": {"type": "LineString", "coordinates": [[-16.261917768516298, 68.803599331908], [-16.255549107369916, 68.80280426062478]]}, "properties": {"source": "17186217", "target": "208950"}}, {"type": "Feature", "geometry": {"type": "LineString", "coordinates": [[-16.261917768516298, 68.803599331908], [-16.25270662283549, 68.80236106624412]]}, "properties": {"source": "17186217", "target": "20493281"}}, {"type": "Feature", "geometry": {"type": "LineString", "coordinates": [[-16.261917768516298, 68.803599331908], [-16.25703046604056, 68.80302767475689]]}, "properties": {"source": "17186217", "target": "7828027"}}, {"type": "Feature", "geometry": {"type": "LineString", "coordinates": [[-16.263886282202975, 68.80407750227684], [-16.265672354263558, 68.80096758600305]]}, "properties": {"source": "9145441", "target": "13561277"}}, {"type": "Feature", "geometry": {"type": "LineString", "coordinates": [[-16.263886282202975, 68.80407750227684], [-16.25565307531673, 68.80519894253669]]}, "properties": {"source": "9145441", "target": "7351791"}}, {"type": "Feature", "geometry": {"type": "LineString", "coordinates": [[-16.263886282202975, 68.80407750227684], [-16.270491703514182, 68.80525735683295]]}, "properties": {"source": "9145441", "target": "12736903"}}, {"type": "Feature", "geometry": {"type": "LineString", "coordinates": [[-16.263886282202975, 68.80407750227684], [-16.264937024083792, 68.80439724976927]]}, "properties": {"source": "9145441", "target": "8627524"}}, {"type": "Feature", "geometry": {"type": "LineString", "coordinates": [[-16.263886282202975, 68.80407750227684], [-16.269410621600088, 68.804225194123]]}, "properties": {"source": "9145441", "target": "8465655"}}, {"type": "Feature", "geometry": {"type": "LineString", "coordinates": [[-16.263886282202975, 68.80407750227684], [-16.260195695753765, 68.80015324755755]]}, "properties": {"source": "9145441", "target": "897496"}}, {"type": "Feature", "geometry": {"type": "LineString", "coordinates": [[-16.266555905933757, 68.80418870199276], [-16.268669466572533, 68.80591389981771]]}, "properties": {"source": "17610288", "target": "20691645"}}, {"type": "Feature", "geometry": {"type": "LineString", "coordinates": [[-16.266555905933757, 68.80418870199276], [-16.26382888002584, 68.80434202506598]]}, "properties": {"source": "17610288", "target": "1785657"}}, {"type": "Feature", "geometry": {"type": "LineString", "coordinates": [[-16.266555905933757, 68.80418870199276], [-16.271076882358727, 68.80603146688188]]}, "properties": {"source": "17610288", "target": "17314983"}}, {"type": "Feature", "geometry": {"type": "LineString", "coordinates": [[-16.25912973213832, 68.80594869539314], [-16.25565307531673, 68.80519894253669]]}, "properties": {"source": "7936255", "target": "7351791"}}, {"type": "Feature", "geometry": {"type": "LineString", "coordinates": [[-16.263886282202975, 68.80407750227684], [-16.25912973213832, 68.80594869539314]]}, "properties": {"source": "9145441", "target": "7936255"}}, {"type": "Feature", "geometry": {"type": "LineString", "coordinates": [[-16.257656500818968, 68.80153459674045], [-16.259452682741056, 68.80518760851433]]}, "properties": {"source": "16102401", "target": "15338162"}}, {"type": "Feature", "geometry": {"type": "LineString", "coordinates": [[-16.27251457889588, 68.80471452251501], [-16.25270662283549, 68.80236106624412]]}, "properties": {"source": "12098142", "target": "20493281"}}, {"type": "Feature", "geometry": {"type": "LineString", "coordinates": [[-16.252263365555564, 68.80662930810632], [-16.257086133093168, 68.80291540072128]]}, "properties": {"source": "700271", "target": "84569"}}, {"type": "Feature", "geometry": {"type": "LineString", "coordinates": [[-16.26812373387679, 68.80159965484293], [-16.25565307531673, 68.80519894253669]]}, "properties": {"source": "6836572", "target": "7351791"}}, {"type": "Feature", "geometry": {"type": "LineString", "coordinates": [[-16.26812373387679, 68.80159965484293], [-16.25231562786996, 68.80140370490139]]}, "properties": {"source": "6836572", "target": "7111766"}}, {"type": "Feature", "geometry": {"type": "LineString", "coordinates": [[-16.26812373387679, 68.80159965484293], [-16.261332661163294, 68.80257406274544]]}, "properties": {"source": "6836572", "target": "7526031"}}, {"type": "Feature", "geometry": {"type": "LineString", "coordinates": [[-16.26812373387679, 68.80159965484293], [-16.2602550420483, 68.8065506763088]]}, "properties": {"source": "6836572", "target": "6499797"}}, {"type": "Feature", "geometry": {"type": "LineString", "coordinates": [[-16.26812373387679, 68.80159965484293], [-16.26913543887059, 68.80213760953279]]}, "properties": {"source": "6836572", "target": "6602448"}}, {"type": "Feature", "geometry": {"type": "LineString", "coordinates": [[-16.264524251448137, 68.80284903884558], [-16.252722903134554, 68.80009741079888]]}, "properties": {"source": "700261", "target": "700262"}}, {"type": "Feature", "geometry": {"type": "LineString", "coordinates": [[-16.264524251448137, 68.80284903884558], [-16.252263365555564, 68.80662930810632]]}, "properties": {"source": "700261", "target": "700271"}}, {"type": "Feature", "geometry": {"type": "LineString", "coordinates": [[-16.264524251448137, 68.80284903884558], [-16.256519912044894, 68.80493014019424]]}, "properties": {"source": "700261", "target": "690616"}}, {"type": "Feature", "geometry": {"type": "LineString", "coordinates": [[-16.264524251448137, 68.80284903884558], [-16.26412029758052, 68.8069484126242]]}, "properties": {"source": "700261", "target": "4937672"}}, {"type": "Feature", "geometry": {"type": "LineString", "coordinates": [[-16.264524251448137, 68.80284903884558], [-16.257086133093168, 68.80291540072128]]}, "properties": {"source": "700261", "target": "84569"}}, {"type": "Feature", "geometry": {"type": "LineString", "coordinates": [[-16.253975873847708, 68.80576179925743], [-16.25547234343597, 68.80201309313952]]}, "properties": {"source": "9170464", "target": "9776252"}}, {"type": "Feature", "geometry": {"type": "LineString", "coordinates": [[-16.253975873847708, 68.80576179925743], [-16.26940374189971, 68.8053237966231]]}, "properties": {"source": "9170464", "target": "1852490"}}, {"type": "Feature", "geometry": {"type": "LineString", "coordinates": [[-16.253975873847708, 68.80576179925743], [-16.270799632796354, 68.80061927595864]]}, "properties": {"source": "9170464", "target": "1026227"}}, {"type": "Feature", "geometry": {"type": "LineString", "coordinates": [[-16.261917768516298, 68.803599331908], [-16.26799354248155, 68.8051468875318]]}, "properties": {"source": "17186217", "target": "6189704"}}, {"type": "Feature", "geometry": {"type": "LineString", "coordinates": [[-16.270752176057698, 68.80213236805602], [-16.252527264769412, 68.8020595621484]]}, "properties": {"source": "20548922", "target": "7827991"}}, {"type": "Feature", "geometry": {"type": "LineString", "coordinates": [[-16.270752176057698, 68.80213236805602], [-16.255549107369916, 68.80280426062478]]}, "properties": {"source": "20548922", "target": "208950"}}, {"type": "Feature", "geometry": {"type": "LineString", "coordinates": [[-16.270752176057698, 68.80213236805602], [-16.25270662283549, 68.80236106624412]]}, "properties": {"source": "20548922", "target": "20493281"}}, {"type": "Feature", "geometry": {"type": "LineString", "coordinates": [[-16.270752176057698, 68.80213236805602], [-16.25703046604056, 68.80302767475689]]}, "properties": {"source": "20548922", "target": "7828027"}}, {"type": "Feature", "geometry": {"type": "LineString", "coordinates": [[-16.270752176057698, 68.80213236805602], [-16.258473014713445, 68.8012486374518]]}, "properties": {"source": "20548922", "target": "20559812"}}, {"type": "Feature", "geometry": {"type": "LineString", "coordinates": [[-16.270752176057698, 68.80213236805602], [-16.251502494372602, 68.80404438690573]]}, "properties": {"source": "20548922", "target": "7144708"}}, {"type": "Feature", "geometry": {"type": "LineString", "coordinates": [[-16.270752176057698, 68.80213236805602], [-16.272027726015068, 68.80515502217307]]}, "properties": {"source": "20548922", "target": "6810192"}}, {"type": "Feature", "geometry": {"type": "LineString", "coordinates": [[-16.270752176057698, 68.80213236805602], [-16.259452682741056, 68.80518760851433]]}, "properties": {"source": "20548922", "target": "15338162"}}, {"type": "Feature", "geometry": {"type": "LineString", "coordinates": [[-16.270752176057698, 68.80213236805602], [-16.257656500818968, 68.80153459674045]]}, "properties": {"source": "20548922", "target": "16102401"}}, {"type": "Feature", "geometry": {"type": "LineString", "coordinates": [[-16.270752176057698, 68.80213236805602], [-16.268832668181915, 68.80584023820751]]}, "properties": {"source": "20548922", "target": "13423817"}}, {"type": "Feature", "geometry": {"type": "LineString", "coordinates": [[-16.270752176057698, 68.80213236805602], [-16.27008287534946, 68.80209154627656]]}, "properties": {"source": "20548922", "target": "21230310"}}, {"type": "Feature", "geometry": {"type": "LineString", "coordinates": [[-16.270752176057698, 68.80213236805602], [-16.265789011777485, 68.80488033008604]]}, "properties": {"source": "20548922", "target": "1295394"}}, {"type": "Feature", "geometry": {"type": "LineString", "coordinates": [[-16.270752176057698, 68.80213236805602], [-16.256786097649183, 68.80538248818544]]}, "properties": {"source": "20548922", "target": "17563002"}}, {"type": "Feature", "geometry": {"type": "LineString", "coordinates": [[-16.270752176057698, 68.80213236805602], [-16.269842899532932, 68.80546013473793]]}, "properties": {"source": "20548922", "target": "16704382"}}, {"type": "Feature", "geometry": {"type": "LineString", "coordinates": [[-16.270752176057698, 68.80213236805602], [-16.266084854885918, 68.8006528714044]]}, "properties": {"source": "20548922", "target": "18740966"}}, {"type": "Feature", "geometry": {"type": "LineString", "coordinates": [[-16.270752176057698, 68.80213236805602], [-16.26281938161577, 68.80017782012766]]}, "properties": {"source": "20548922", "target": "20553946"}}, {"type": "Feature", "geometry": {"type": "LineString", "coordinates": [[-16.26281938161577, 68.80017782012766], [-16.25703046604056, 68.80302767475689]]}, "properties": {"source": "20553946", "target": "7828027"}}, {"type": "Feature", "geometry": {"type": "LineString", "coordinates": [[-16.26281938161577, 68.80017782012766], [-16.258473014713445, 68.8012486374518]]}, "properties": {"source": "20553946", "target": "20559812"}}, {"type": "Feature", "geometry": {"type": "LineString", "coordinates": [[-16.26281938161577, 68.80017782012766], [-16.251502494372602, 68.80404438690573]]}, "properties": {"source": "20553946", "target": "7144708"}}, {"type": "Feature", "geometry": {"type": "LineString", "coordinates": [[-16.26281938161577, 68.80017782012766], [-16.272027726015068, 68.80515502217307]]}, "properties": {"source": "20553946", "target": "6810192"}}, {"type": "Feature", "geometry": {"type": "LineString", "coordinates": [[-16.26281938161577, 68.80017782012766], [-16.259452682741056, 68.80518760851433]]}, "properties": {"source": "20553946", "target": "15338162"}}, {"type": "Feature", "geometry": {"type": "LineString", "coordinates": [[-16.26281938161577, 68.80017782012766], [-16.268832668181915, 68.80584023820751]]}, "properties": {"source": "20553946", "target": "13423817"}}, {"type": "Feature", "geometry": {"type": "LineString", "coordinates": [[-16.26281938161577, 68.80017782012766], [-16.27008287534946, 68.80209154627656]]}, "properties": {"source": "20553946", "target": "21230310"}}, {"type": "Feature", "geometry": {"type": "LineString", "coordinates": [[-16.26281938161577, 68.80017782012766], [-16.265789011777485, 68.80488033008604]]}, "properties": {"source": "20553946", "target": "1295394"}}, {"type": "Feature", "geometry": {"type": "LineString", "coordinates": [[-16.26281938161577, 68.80017782012766], [-16.256786097649183, 68.80538248818544]]}, "properties": {"source": "20553946", "target": "17563002"}}, {"type": "Feature", "geometry": {"type": "LineString", "coordinates": [[-16.26281938161577, 68.80017782012766], [-16.269842899532932, 68.80546013473793]]}, "properties": {"source": "20553946", "target": "16704382"}}, {"type": "Feature", "geometry": {"type": "LineString", "coordinates": [[-16.26281938161577, 68.80017782012766], [-16.261917768516298, 68.803599331908]]}, "properties": {"source": "20553946", "target": "17186217"}}, {"type": "Feature", "geometry": {"type": "LineString", "coordinates": [[-16.26281938161577, 68.80017782012766], [-16.263161835023283, 68.80556607507557]]}, "properties": {"source": "20553946", "target": "1295357"}}, {"type": "Feature", "geometry": {"type": "LineString", "coordinates": [[-16.26281938161577, 68.80017782012766], [-16.269323431600867, 68.80325357563015]]}, "properties": {"source": "20553946", "target": "11529324"}}, {"type": "Feature", "geometry": {"type": "LineString", "coordinates": [[-16.26281938161577, 68.80017782012766], [-16.27251457889588, 68.80471452251501]]}, "properties": {"source": "20553946", "target": "12098142"}}, {"type": "Feature", "geometry": {"type": "LineString", "coordinates": [[-16.26281938161577, 68.80017782012766], [-16.266084854885918, 68.8006528714044]]}, "properties": {"source": "20553946", "target": "18740966"}}, {"type": "Feature", "geometry": {"type": "LineString", "coordinates": [[-16.272870927703053, 68.80178344541244], [-16.260195695753765, 68.80015324755755]]}, "properties": {"source": "903837", "target": "897496"}}, {"type": "Feature", "geometry": {"type": "LineString", "coordinates": [[-16.253298769789808, 68.80147990199748], [-16.264937024083792, 68.80439724976927]]}, "properties": {"source": "12711964", "target": "8627524"}}, {"type": "Feature", "geometry": {"type": "LineString", "coordinates": [[-16.253298769789808, 68.80147990199748], [-16.258759021125144, 68.80399919044862]]}, "properties": {"source": "12711964", "target": "13571746"}}, {"type": "Feature", "geometry": {"type": "LineString", "coordinates": [[-16.253298769789808, 68.80147990199748], [-16.270838517768027, 68.80340266664987]]}, "properties": {"source": "12711964", "target": "19480171"}}, {"type": "Feature", "geometry": {"type": "LineString", "coordinates": [[-16.253298769789808, 68.80147990199748], [-16.271480121113, 68.80678720366936]]}, "properties": {"source": "12711964", "target": "11529526"}}, {"type": "Feature", "geometry": {"type": "LineString", "coordinates": [[-16.259256588163396, 68.804897962072], [-16.26799354248155, 68.8051468875318]]}, "properties": {"source": "12605457", "target": "6189704"}}, {"type": "Feature", "geometry": {"type": "LineString", "coordinates": [[-16.259256588163396, 68.804897962072], [-16.255263832990323, 68.801219581032]]}, "properties": {"source": "12605457", "target": "13344197"}}, {"type": "Feature", "geometry": {"type": "LineString", "coordinates": [[-16.268669466572533, 68.80591389981771], [-16.26382888002584, 68.80434202506598]]}, "properties": {"source": "20691645", "target": "1785657"}}, {"type": "Feature", "geometry": {"type": "LineString", "coordinates": [[-16.268669466572533, 68.80591389981771], [-16.26818829560861, 68.80064130077258]]}, "properties": {"source": "20691645", "target": "19488372"}}, {"type": "Feature", "geometry": {"type": "LineString", "coordinates": [[-16.268669466572533, 68.80591389981771], [-16.261450575743936, 68.80459621142404]]}, "properties": {"source": "20691645", "target": "2928309"}}, {"type": "Feature", "geometry": {"type": "LineString", "coordinates": [[-16.252480270806814, 68.806128722214], [-16.26101521121589, 68.80329516671301]]}, "properties": {"source": "8565050", "target": "869210"}}, {"type": "Feature", "geometry": {"type": "LineString", "coordinates": [[-16.260195695753765, 68.80015324755755], [-16.25565307531673, 68.80519894253669]]}, "properties": {"source": "897496", "target": "7351791"}}, {"type": "Feature", "geometry": {"type": "LineString", "coordinates": [[-16.260195695753765, 68.80015324755755], [-16.269410621600088, 68.804225194123]]}, "properties": {"source": "897496", "target": "8465655"}}, {"type": "Feature", "geometry": {"type": "LineString", "coordinates": [[-16.256519912044894, 68.80493014019424], [-16.252263365555564, 68.80662930810632]]}, "properties": {"source": "690616", "target": "700271"}}, {"type": "Feature", "geometry": {"type": "LineString", "coordinates": [[-16.256519912044894, 68.80493014019424], [-16.257086133093168, 68.80291540072128]]}, "properties": {"source": "690616", "target": "84569"}}, {"type": "Feature", "geometry": {"type": "LineString", "coordinates": [[-16.26912701279275, 68.80225040865074], [-16.26799354248155, 68.8051468875318]]}, "properties": {"source": "6725011", "target": "6189704"}}, {"type": "Feature", "geometry": {"type": "LineString", "coordinates": [[-16.270752176057698, 68.80213236805602], [-16.270122717079403, 68.8066653050117]]}, "properties": {"source": "20548922", "target": "18589203"}}, {"type": "Feature", "geometry": {"type": "LineString", "coordinates": [[-16.252527264769412, 68.8020595621484], [-16.26799354248155, 68.8051468875318]]}, "properties": {"source": "7827991", "target": "6189704"}}, {"type": "Feature", "geometry": {"type": "LineString", "coordinates": [[-16.252527264769412, 68.8020595621484], [-16.25270662283549, 68.80236106624412]]}, "properties": {"source": "7827991", "target": "20493281"}}, {"type": "Feature", "geometry": {"type": "LineString", "coordinates": [[-16.252527264769412, 68.8020595621484], [-16.25703046604056, 68.80302767475689]]}, "properties": {"source": "7827991", "target": "7828027"}}, {"type": "Feature", "geometry": {"type": "LineString", "coordinates": [[-16.252527264769412, 68.8020595621484], [-16.251502494372602, 68.80404438690573]]}, "properties": {"source": "7827991", "target": "7144708"}}, {"type": "Feature", "geometry": {"type": "LineString", "coordinates": [[-16.252527264769412, 68.8020595621484], [-16.26223406812241, 68.80464680384608]]}, "properties": {"source": "7827991", "target": "7827937"}}, {"type": "Feature", "geometry": {"type": "LineString", "coordinates": [[-16.252527264769412, 68.8020595621484], [-16.259452682741056, 68.80518760851433]]}, "properties": {"source": "7827991", "target": "15338162"}}, {"type": "Feature", "geometry": {"type": "LineString", "coordinates": [[-16.252527264769412, 68.8020595621484], [-16.268832668181915, 68.80584023820751]]}, "properties": {"source": "7827991", "target": "13423817"}}, {"type": "Feature", "geometry": {"type": "LineString", "coordinates": [[-16.252527264769412, 68.8020595621484], [-16.27008287534946, 68.80209154627656]]}, "properties": {"source": "7827991", "target": "21230310"}}, {"type": "Feature", "geometry": {"type": "LineString", "coordinates": [[-16.252527264769412, 68.8020595621484], [-16.265789011777485, 68.80488033008604]]}, "properties": {"source": "7827991", "target": "1295394"}}, {"type": "Feature", "geometry": {"type": "LineString", "coordinates": [[-16.252527264769412, 68.8020595621484], [-16.256786097649183, 68.80538248818544]]}, "properties": {"source": "7827991", "target": "17563002"}}, {"type": "Feature", "geometry": {"type": "LineString", "coordinates": [[-16.252527264769412, 68.8020595621484], [-16.269842899532932, 68.80546013473793]]}, "properties": {"source": "7827991", "target": "16704382"}}, {"type": "Feature", "geometry": {"type": "LineString", "coordinates": [[-16.252527264769412, 68.8020595621484], [-16.263161835023283, 68.80556607507557]]}, "properties": {"source": "7827991", "target": "1295357"}}, {"type": "Feature", "geometry": {"type": "LineString", "coordinates": [[-16.252527264769412, 68.8020595621484], [-16.269323431600867, 68.80325357563015]]}, "properties": {"source": "7827991", "target": "11529324"}}, {"type": "Feature", "geometry": {"type": "LineString", "coordinates": [[-16.252527264769412, 68.8020595621484], [-16.272802496794753, 68.80172135806748]]}, "properties": {"source": "7827991", "target": "6033770"}}, {"type": "Feature", "geometry": {"type": "LineString", "coordinates": [[-16.252527264769412, 68.8020595621484], [-16.266084854885918, 68.8006528714044]]}, "properties": {"source": "7827991", "target": "18740966"}}, {"type": "Feature", "geometry": {"type": "LineString", "coordinates": [[-16.252527264769412, 68.8020595621484], [-16.27251457889588, 68.80471452251501]]}, "properties": {"source": "7827991", "target": "12098142"}}, {"type": "Feature", "geometry": {"type": "LineString", "coordinates": [[-16.26799354248155, 68.8051468875318], [-16.255549107369916, 68.80280426062478]]}, "properties": {"source": "6189704", "target": "208950"}}, {"type": "Feature", "geometry": {"type": "LineString", "coordinates": [[-16.26799354248155, 68.8051468875318], [-16.25270662283549, 68.80236106624412]]}, "properties": {"source": "6189704", "target": "20493281"}}, {"type": "Feature", "geometry": {"type": "LineString", "coordinates": [[-16.26799354248155, 68.8051468875318], [-16.25703046604056, 68.80302767475689]]}, "properties": {"source": "6189704", "target": "7828027"}}, {"type": "Feature", "geometry": {"type": "LineString", "coordinates": [[-16.26799354248155, 68.8051468875318], [-16.251502494372602, 68.80404438690573]]}, "properties": {"source": "6189704", "target": "7144708"}}, {"type": "Feature", "geometry": {"type": "LineString", "coordinates": [[-16.26799354248155, 68.8051468875318], [-16.259452682741056, 68.80518760851433]]}, "properties": {"source": "6189704", "target": "15338162"}}, {"type": "Feature", "geometry": {"type": "LineString", "coordinates": [[-16.26799354248155, 68.8051468875318], [-16.265789011777485, 68.80488033008604]]}, "properties": {"source": "6189704", "target": "1295394"}}, {"type": "Feature", "geometry": {"type": "LineString", "coordinates": [[-16.26799354248155, 68.8051468875318], [-16.256786097649183, 68.80538248818544]]}, "properties": {"source": "6189704", "target": "17563002"}}, {"type": "Feature", "geometry": {"type": "LineString", "coordinates": [[-16.26799354248155, 68.8051468875318], [-16.269842899532932, 68.80546013473793]]}, "properties": {"source": "6189704", "target": "16704382"}}, {"type": "Feature", "geometry": {"type": "LineString", "coordinates": [[-16.26799354248155, 68.8051468875318], [-16.272802496794753, 68.80172135806748]]}, "properties": {"source": "6189704", "target": "6033770"}}, {"type": "Feature", "geometry": {"type": "LineString", "coordinates": [[-16.26799354248155, 68.8051468875318], [-16.255263832990323, 68.801219581032]]}, "properties": {"source": "6189704", "target": "13344197"}}, {"type": "Feature", "geometry": {"type": "LineString", "coordinates": [[-16.26799354248155, 68.8051468875318], [-16.264600711862727, 68.80212160635827]]}, "properties": {"source": "6189704", "target": "12948961"}}, {"type": "Feature", "geometry": {"type": "LineString", "coordinates": [[-16.26799354248155, 68.8051468875318], [-16.266498510873447, 68.80466563913771]]}, "properties": {"source": "6189704", "target": "13033191"}}, {"type": "Feature", "geometry": {"type": "LineString", "coordinates": [[-16.270752176057698, 68.80213236805602], [-16.26799354248155, 68.8051468875318]]}, "properties": {"source": "20548922", "target": "6189704"}}, {"type": "Feature", "geometry": {"type": "LineString", "coordinates": [[-16.270752176057698, 68.80213236805602], [-16.271273792064278, 68.80630298380458]]}, "properties": {"source": "20548922", "target": "20554183"}}, {"type": "Feature", "geometry": {"type": "LineString", "coordinates": [[-16.26799354248155, 68.8051468875318], [-16.266084854885918, 68.8006528714044]]}, "properties": {"source": "6189704", "target": "18740966"}}, {"type": "Feature", "geometry": {"type": "LineString", "coordinates": [[-16.26912701279275, 68.80225040865074], [-16.264600711862727, 68.80212160635827]]}, "properties": {"source": "6725011", "target": "12948961"}}, {"type": "Feature", "geometry": {"type": "LineString", "coordinates": [[-16.272797307253654, 68.80246294528479], [-16.266555905933757, 68.80418870199276]]}, "properties": {"source": "15904070", "target": "17610288"}}, {"type": "Feature", "geometry": {"type": "LineString", "coordinates": [[-16.272797307253654, 68.80246294528479], [-16.270491703514182, 68.80525735683295]]}, "properties": {"source": "15904070", "target": "12736903"}}, {"type": "Feature", "geometry": {"type": "LineString", "coordinates": [[-16.272797307253654, 68.80246294528479], [-16.258759021125144, 68.80399919044862]]}, "properties": {"source": "15904070", "target": "13571746"}}, {"type": "Feature", "geometry": {"type": "LineString", "coordinates": [[-16.272797307253654, 68.80246294528479], [-16.271076882358727, 68.80603146688188]]}, "properties": {"source": "15904070", "target": "17314983"}}, {"type": "Feature", "geometry": {"type": "LineString", "coordinates": [[-16.272797307253654, 68.80246294528479], [-16.253857504970853, 68.80583532500529]]}, "properties": {"source": "15904070", "target": "11545805"}}, {"type": "Feature", "geometry": {"type": "LineString", "coordinates": [[-16.272797307253654, 68.80246294528479], [-16.252555501691802, 68.8006338778491]]}, "properties": {"source": "15904070", "target": "15771181"}}, {"type": "Feature", "geometry": {"type": "LineString", "coordinates": [[-16.272797307253654, 68.80246294528479], [-16.262480861911, 68.80597242544985]]}, "properties": {"source": "15904070", "target": "15827792"}}, {"type": "Feature", "geometry": {"type": "LineString", "coordinates": [[-16.264426709845566, 68.80486407969579], [-16.251502494372602, 68.80404438690573]]}, "properties": {"source": "8590147", "target": "7144708"}}, {"type": "Feature", "geometry": {"type": "LineString", "coordinates": [[-16.264426709845566, 68.80486407969579], [-16.252722903134554, 68.80009741079888]]}, "properties": {"source": "8590147", "target": "700262"}}, {"type": "Feature", "geometry": {"type": "LineString", "coordinates": [[-16.264426709845566, 68.80486407969579], [-16.252263365555564, 68.80662930810632]]}, "properties": {"source": "8590147", "target": "700271"}}, {"type": "Feature", "geometry": {"type": "LineString", "coordinates": [[-16.264426709845566, 68.80486407969579], [-16.257086133093168, 68.80291540072128]]}, "properties": {"source": "8590147", "target": "84569"}}, {"type": "Feature", "geometry": {"type": "LineString", "coordinates": [[-16.264426709845566, 68.80486407969579], [-16.270711323603393, 68.8010402927365]]}, "properties": {"source": "8590147", "target": "9929153"}}, {"type": "Feature", "geometry": {"type": "LineString", "coordinates": [[-16.264426709845566, 68.80486407969579], [-16.252807940865864, 68.80486474301858]]}, "properties": {"source": "8590147", "target": "791894"}}, {"type": "Feature", "geometry": {"type": "LineString", "coordinates": [[-16.264426709845566, 68.80486407969579], [-16.264957019967852, 68.80664196894517]]}, "properties": {"source": "8590147", "target": "18755438"}}, {"type": "Feature", "geometry": {"type": "LineString", "coordinates": [[-16.264426709845566, 68.80486407969579], [-16.25912973213832, 68.80594869539314]]}, "properties": {"source": "8590147", "target": "7936255"}}, {"type": "Feature", "geometry": {"type": "LineString", "coordinates": [[-16.26183853152955, 68.79999630475243], [-16.272797307253654, 68.80246294528479]]}, "properties": {"source": "15738455", "target": "15904070"}}, {"type": "Feature", "geometry": {"type": "LineString", "coordinates": [[-16.26183853152955, 68.79999630475243], [-16.270491703514182, 68.80525735683295]]}, "properties": {"source": "15738455", "target": "12736903"}}, {"type": "Feature", "geometry": {"type": "LineString", "coordinates": [[-16.26183853152955, 68.79999630475243], [-16.264937024083792, 68.80439724976927]]}, "properties": {"source": "15738455", "target": "8627524"}}, {"type": "Feature", "geometry": {"type": "LineString", "coordinates": [[-16.26183853152955, 68.79999630475243], [-16.258759021125144, 68.80399919044862]]}, "properties": {"source": "15738455", "target": "13571746"}}, {"type": "Feature", "geometry": {"type": "LineString", "coordinates": [[-16.26183853152955, 68.79999630475243], [-16.270838517768027, 68.80340266664987]]}, "properties": {"source": "15738455", "target": "19480171"}}, {"type": "Feature", "geometry": {"type": "LineString", "coordinates": [[-16.261836514501766, 68.80544704085398], [-16.271273792064278, 68.80630298380458]]}, "properties": {"source": "16172322", "target": "20554183"}}, {"type": "Feature", "geometry": {"type": "LineString", "coordinates": [[-16.261836514501766, 68.80544704085398], [-16.26281938161577, 68.80017782012766]]}, "properties": {"source": "16172322", "target": "20553946"}}, {"type": "Feature", "geometry": {"type": "LineString", "coordinates": [[-16.261836514501766, 68.80544704085398], [-16.255549107369916, 68.80280426062478]]}, "properties": {"source": "16172322", "target": "208950"}}, {"type": "Feature", "geometry": {"type": "LineString", "coordinates": [[-16.261836514501766, 68.80544704085398], [-16.25270662283549, 68.80236106624412]]}, "properties": {"source": "16172322", "target": "20493281"}}, {"type": "Feature", "geometry": {"type": "LineString", "coordinates": [[-16.261836514501766, 68.80544704085398], [-16.261917768516298, 68.803599331908]]}, "properties": {"source": "16172322", "target": "17186217"}}, {"type": "Feature", "geometry": {"type": "LineString", "coordinates": [[-16.255058406057742, 68.8033406757367], [-16.271273792064278, 68.80630298380458]]}, "properties": {"source": "17237833", "target": "20554183"}}, {"type": "Feature", "geometry": {"type": "LineString", "coordinates": [[-16.255058406057742, 68.8033406757367], [-16.26281938161577, 68.80017782012766]]}, "properties": {"source": "17237833", "target": "20553946"}}, {"type": "Feature", "geometry": {"type": "LineString", "coordinates": [[-16.255058406057742, 68.8033406757367], [-16.252527264769412, 68.8020595621484]]}, "properties": {"source": "17237833", "target": "7827991"}}, {"type": "Feature", "geometry": {"type": "LineString", "coordinates": [[-16.255058406057742, 68.8033406757367], [-16.255549107369916, 68.80280426062478]]}, "properties": {"source": "17237833", "target": "208950"}}, {"type": "Feature", "geometry": {"type": "LineString", "coordinates": [[-16.25823023377643, 68.80563055405014], [-16.266084854885918, 68.8006528714044]]}, "properties": {"source": "16145215", "target": "18740966"}}, {"type": "Feature", "geometry": {"type": "LineString", "coordinates": [[-16.26183853152955, 68.79999630475243], [-16.252452257588715, 68.80424938798322]]}, "properties": {"source": "15738455", "target": "18691258"}}, {"type": "Feature", "geometry": {"type": "LineString", "coordinates": [[-16.26281938161577, 68.80017782012766], [-16.26196189296408, 68.80201195315973]]}, "properties": {"source": "20553946", "target": "113136"}}, {"type": "Feature", "geometry": {"type": "LineString", "coordinates": [[-16.255665064045644, 68.800534858529], [-16.270838517768027, 68.80340266664987]]}, "properties": {"source": "11745047", "target": "19480171"}}, {"type": "Feature", "geometry": {"type": "LineString", "coordinates": [[-16.270711323603393, 68.8010402927365], [-16.252807940865864, 68.80486474301858]]}, "properties": {"source": "9929153", "target": "791894"}}, {"type": "Feature", "geometry": {"type": "LineString", "coordinates": [[-16.255956975155556, 68.80275106111705], [-16.268669466572533, 68.80591389981771]]}, "properties": {"source": "20561797", "target": "20691645"}}, {"type": "Feature", "geometry": {"type": "LineString", "coordinates": [[-16.255956975155556, 68.80275106111705], [-16.26382888002584, 68.80434202506598]]}, "properties": {"source": "20561797", "target": "1785657"}}, {"type": "Feature", "geometry": {"type": "LineString", "coordinates": [[-16.255956975155556, 68.80275106111705], [-16.26818829560861, 68.80064130077258]]}, "properties": {"source": "20561797", "target": "19488372"}}, {"type": "Feature", "geometry": {"type": "LineString", "coordinates": [[-16.252555501691802, 68.8006338778491], [-16.266555905933757, 68.80418870199276]]}, "properties": {"source": "15771181", "target": "17610288"}}, {"type": "Feature", "geometry": {"type": "LineString", "coordinates": [[-16.252555501691802, 68.8006338778491], [-16.253857504970853, 68.80583532500529]]}, "properties": {"source": "15771181", "target": "11545805"}}, {"type": "Feature", "geometry": {"type": "LineString", "coordinates": [[-16.261450575743936, 68.80459621142404], [-16.26382888002584, 68.80434202506598]]}, "properties": {"source": "2928309", "target": "1785657"}}, {"type": "Feature", "geometry": {"type": "LineString", "coordinates": [[-16.25890950816796, 68.80530470067086], [-16.263329411005913, 68.80352209231069]]}, "properties": {"source": "31452208", "target": "29554743"}}, {"type": "Feature", "geometry": {"type": "LineString", "coordinates": [[-16.25890950816796, 68.80530470067086], [-16.252884164278726, 68.80115202341537]]}, "properties": {"source": "31452208", "target": "17935561"}}, {"type": "Feature", "geometry": {"type": "LineString", "coordinates": [[-16.26747773682459, 68.8034376535071], [-16.251504835116975, 68.80606930170458]]}, "properties": {"source": "15316035", "target": "103226"}}, {"type": "Feature", "geometry": {"type": "LineString", "coordinates": [[-16.267071146618235, 68.80494885823498], [-16.256576788782667, 68.80387060880199]]}, "properties": {"source": "13317141", "target": "15055446"}}, {"type": "Feature", "geometry": {"type": "LineString", "coordinates": [[-16.255636535998207, 68.80703269038088], [-16.261836514501766, 68.80544704085398]]}, "properties": {"source": "1442912", "target": "16172322"}}, {"type": "Feature", "geometry": {"type": "LineString", "coordinates": [[-16.26747773682459, 68.8034376535071], [-16.25912973213832, 68.80594869539314]]}, "properties": {"source": "15316035", "target": "7936255"}}, {"type": "Feature", "geometry": {"type": "LineString", "coordinates": [[-16.251504835116975, 68.80606930170458], [-16.25912973213832, 68.80594869539314]]}, "properties": {"source": "103226", "target": "7936255"}}]}