{"type": "FeatureCollection", "features": [{"type": "Feature", "geometry": {"type": "LineString", "coordinates": [[-37.616225140064415, 69.230799409355], [-37.61930948282887, 69.23260356069304]]}, "properties": {"source": "29068613", "target": "30016958"}}, {"type": "Feature", "geometry": {"type": "LineString", "coordinates": [[-37.616225140064415, 69.230799409355], [-37.61272898803105, 69.23206180311385]]}, "properties": {"source": "29068613", "target": "21971516"}}, {"type": "Feature", "geometry": {"type": "LineString", "coordinates": [[-37.616225140064415, 69.230799409355], [-37.609888736208376, 69.23094163720617]]}, "properties": {"source": "29068613", "target": "28681483"}}, {"type": "Feature", "geometry": {"type": "LineString", "coordinates": [[-37.616225140064415, 69.230799409355], [-37.61288418420665, 69.2316243630925]]}, "properties": {"source": "29068613", "target": "29920477"}}, {"type": "Feature", "geometry": {"type": "LineString", "coordinates": [[-37.61617843014125, 69.23143222185317], [-37.618273820207065, 69.2331131929356]]}, "properties": {"source": "21800998", "target": "25933041"}}, {"type": "Feature", "geometry": {"type": "LineString", "coordinates": [[-37.61617843014125, 69.23143222185317], [-37.616225140064415, 69.230799409355]]}, "properties": {"source": "21800998", "target": "29068613"}}, {"type": "Feature", "geometry": {"type": "LineString", "coordinates": [[-37.61617843014125, 69.23143222185317], [-37.61002806887865, 69.2333176388216]]}, "properties": {"source": "21800998", "target": "24189311"}}, {"type": "Feature", "geometry": {"type": "LineString", "coordinates": [[-37.61617843014125, 69.23143222185317], [-37.612653342474175, 69.23219851834787]]}, "properties": {"source": "21800998", "target": "21971544"}}, {"type": "Feature", "geometry": {"type": "LineString", "coordinates": [[-37.61617843014125, 69.23143222185317], [-37.61272898803105, 69.23206180311385]]}, "properties": {"source": "21800998", "target": "21971516"}}, {"type": "Feature", "geometry": {"type": "LineString", "coordinates": [[-37.61617843014125, 69.23143222185317], [-37.619351970913556, 69.23043398136642]]}, "properties": {"source": "21800998", "target": "20810162"}}, {"type": "Feature", "geometry": {"type": "LineString", "coordinates": [[-37.61617843014125, 69.23143222185317], [-37.609888736208376, 69.23094163720617]]}, "properties": {"source": "21800998", "target": "28681483"}}, {"type": "Feature", "geometry": {"type": "LineString", "coordinates": [[-37.61617843014125, 69.23143222185317], [-37.61899763954321, 69.2315918476437]]}, "properties": {"source": "21800998", "target": "17786684"}}, {"type": "Feature", "geometry": {"type": "LineString", "coordinates": [[-37.60945903002448, 69.22979646989984], [-37.618273820207065, 69.2331131929356]]}, "properties": {"source": "24401771", "target": "25933041"}}, {"type": "Feature", "geometry": {"type": "LineString", "coordinates": [[-37.60945903002448, 69.22979646989984], [-37.614703649757104, 69.22977593594291]]}, "properties": {"source": "24401771", "target": "29863193"}}, {"type": "Feature", "geometry": {"type": "LineString", "coordinates": [[-37.60945903002448, 69.22979646989984], [-37.61322706345544, 69.23016695422433]]}, "properties": {"source": "24401771", "target": "20765857"}}, {"type": "Feature", "geometry": {"type": "LineString", "coordinates": [[-37.60945903002448, 69.22979646989984], [-37.60918689521401, 69.23244218466073]]}, "properties": {"source": "24401771", "target": "24500555"}}, {"type": "Feature", "geometry": {"type": "LineString", "coordinates": [[-37.60945903002448, 69.22979646989984], [-37.614638274683585, 69.23035036256996]]}, "properties": {"source": "24401771", "target": "24427807"}}, {"type": "Feature", "geometry": {"type": "LineString", "coordinates": [[-37.60945903002448, 69.22979646989984], [-37.61551462194899, 69.23230016463714]]}, "properties": {"source": "24401771", "target": "23621415"}}, {"type": "Feature", "geometry": {"type": "LineString", "coordinates": [[-37.60945903002448, 69.22979646989984], [-37.61516736962324, 69.23208843485682]]}, "properties": {"source": "24401771", "target": "22396693"}}, {"type": "Feature", "geometry": {"type": "LineString", "coordinates": [[-37.60945903002448, 69.22979646989984], [-37.60936997460152, 69.23226322580157]]}, "properties": {"source": "24401771", "target": "13477275"}}, {"type": "Feature", "geometry": {"type": "LineString", "coordinates": [[-37.60945903002448, 69.22979646989984], [-37.61725961732395, 69.23126191383645]]}, "properties": {"source": "24401771", "target": "22823853"}}, {"type": "Feature", "geometry": {"type": "LineString", "coordinates": [[-37.60945903002448, 69.22979646989984], [-37.61298349409199, 69.23327255041642]]}, "properties": {"source": "24401771", "target": "28104618"}}, {"type": "Feature", "geometry": {"type": "LineString", "coordinates": [[-37.616225755407584, 69.23273222765877], [-37.618273820207065, 69.2331131929356]]}, "properties": {"source": "25593959", "target": "25933041"}}, {"type": "Feature", "geometry": {"type": "LineString", "coordinates": [[-37.616225755407584, 69.23273222765877], [-37.616225140064415, 69.230799409355]]}, "properties": {"source": "25593959", "target": "29068613"}}, {"type": "Feature", "geometry": {"type": "LineString", "coordinates": [[-37.616225755407584, 69.23273222765877], [-37.61617843014125, 69.23143222185317]]}, "properties": {"source": "25593959", "target": "21800998"}}, {"type": "Feature", "geometry": {"type": "LineString", "coordinates": [[-37.616225755407584, 69.23273222765877], [-37.61002806887865, 69.2333176388216]]}, "properties": {"source": "25593959", "target": "24189311"}}, {"type": "Feature", "geometry": {"type": "LineString", "coordinates": [[-37.616225755407584, 69.23273222765877], [-37.612653342474175, 69.23219851834787]]}, "properties": {"source": "25593959", "target": "21971544"}}, {"type": "Feature", "geometry": {"type": "LineString", "coordinates": [[-37.616225755407584, 69.23273222765877], [-37.61272898803105, 69.23206180311385]]}, "properties": {"source": "25593959", "target": "21971516"}}, {"type": "Feature", "geometry": {"type": "LineString", "coordinates": [[-37.616225755407584, 69.23273222765877], [-37.61288418420665, 69.2316243630925]]}, "properties": {"source": "25593959", "target": "29920477"}}, {"type": "Feature", "geometry": {"type": "LineString", "coordinates": [[-37.616225755407584, 69.23273222765877], [-37.61623036849474, 69.23301006284828]]}, "properties": {"source": "25593959", "target": "2912948"}}, {"type": "Feature", "geometry": {"type": "LineString", "coordinates": [[-37.612138720684754, 69.23139290489337], [-37.617834906575666, 69.23099020764263]]}, "properties": {"source": "18633919", "target": "17563966"}}, {"type": "Feature", "geometry": {"type": "LineString", "coordinates": [[-37.618017954570206, 69.2311677291973], [-37.618273820207065, 69.2331131929356]]}, "properties": {"source": "16192828", "target": "25933041"}}, {"type": "Feature", "geometry": {"type": "LineString", "coordinates": [[-37.618017954570206, 69.2311677291973], [-37.616225140064415, 69.230799409355]]}, "properties": {"source": "16192828", "target": "29068613"}}, {"type": "Feature", "geometry": {"type": "LineString", "coordinates": [[-37.618017954570206, 69.2311677291973], [-37.61519481080046, 69.23127837125293]]}, "properties": {"source": "16192828", "target": "16123412"}}, {"type": "Feature", "geometry": {"type": "LineString", "coordinates": [[-37.61495872618974, 69.23233581061771], [-37.60918689521401, 69.23244218466073]]}, "properties": {"source": "26114752", "target": "24500555"}}, {"type": "Feature", "geometry": {"type": "LineString", "coordinates": [[-37.61495872618974, 69.23233581061771], [-37.61161019347989, 69.23232666102857]]}, "properties": {"source": "26114752", "target": "20437330"}}, {"type": "Feature", "geometry": {"type": "LineString", "coordinates": [[-37.61495872618974, 69.23233581061771], [-37.609409866211536, 69.23209940234523]]}, "properties": {"source": "26114752", "target": "13477166"}}, {"type": "Feature", "geometry": {"type": "LineString", "coordinates": [[-37.61089589916247, 69.23016827573014], [-37.60918689521401, 69.23244218466073]]}, "properties": {"source": "17455602", "target": "24500555"}}, {"type": "Feature", "geometry": {"type": "LineString", "coordinates": [[-37.61089589916247, 69.23016827573014], [-37.61161019347989, 69.23232666102857]]}, "properties": {"source": "17455602", "target": "20437330"}}, {"type": "Feature", "geometry": {"type": "LineString", "coordinates": [[-37.61089589916247, 69.23016827573014], [-37.609409866211536, 69.23209940234523]]}, "properties": {"source": "17455602", "target": "13477166"}}, {"type": "Feature", "geometry": {"type": "LineString", "coordinates": [[-37.61849340295498, 69.23132477607251], [-37.61889457573139, 69.23314102143311]]}, "properties": {"source": "24689126", "target": "27829516"}}, {"type": "Feature", "geometry": {"type": "LineString", "coordinates": [[-37.61849340295498, 69.23132477607251], [-37.611659675390825, 69.23058221411691]]}, "properties": {"source": "24689126", "target": "32034003"}}, {"type": "Feature", "geometry": {"type": "LineString", "coordinates": [[-37.61849340295498, 69.23132477607251], [-37.61185480114125, 69.23158892424746]]}, "properties": {"source": "24689126", "target": "195555"}}, {"type": "Feature", "geometry": {"type": "LineString", "coordinates": [[-37.614186685713975, 69.23008883213743], [-37.618273820207065, 69.2331131929356]]}, "properties": {"source": "13432446", "target": "25933041"}}, {"type": "Feature", "geometry": {"type": "LineString", "coordinates": [[-37.61495012776538, 69.23293170096153], [-37.612653342474175, 69.23219851834787]]}, "properties": {"source": "22245319", "target": "21971544"}}, {"type": "Feature", "geometry": {"type": "LineString", "coordinates": [[-37.61495012776538, 69.23293170096153], [-37.61272898803105, 69.23206180311385]]}, "properties": {"source": "22245319", "target": "21971516"}}, {"type": "Feature", "geometry": {"type": "LineString", "coordinates": [[-37.614186685713975, 69.23008883213743], [-37.60948701837421, 69.23280991347053]]}, "properties": {"source": "13432446", "target": "13628678"}}, {"type": "Feature", "geometry": {"type": "LineString", "coordinates": [[-37.614186685713975, 69.23008883213743], [-37.612323779487724, 69.23088520893]]}, "properties": {"source": "13432446", "target": "10712972"}}, {"type": "Feature", "geometry": {"type": "LineString", "coordinates": [[-37.617834906575666, 69.23099020764263], [-37.612323779487724, 69.23088520893]]}, "properties": {"source": "17563966", "target": "10712972"}}, {"type": "Feature", "geometry": {"type": "LineString", "coordinates": [[-37.61702608859957, 69.23039152032078], [-37.61850620497765, 69.2314633592365]]}, "properties": {"source": "17430488", "target": "21480821"}}, {"type": "Feature", "geometry": {"type": "LineString", "coordinates": [[-37.61298349409199, 69.23327255041642], [-37.614638274683585, 69.23035036256996]]}, "properties": {"source": "28104618", "target": "24427807"}}, {"type": "Feature", "geometry": {"type": "LineString", "coordinates": [[-37.61623036849474, 69.23301006284828], [-37.61006464774573, 69.23285553891765]]}, "properties": {"source": "2912948", "target": "20958929"}}, {"type": "Feature", "geometry": {"type": "LineString", "coordinates": [[-37.610937480911076, 69.230731698407], [-37.61702608859957, 69.23039152032078]]}, "properties": {"source": "22025856", "target": "17430488"}}, {"type": "Feature", "geometry": {"type": "LineString", "coordinates": [[-37.610937480911076, 69.230731698407], [-37.61850620497765, 69.2314633592365]]}, "properties": {"source": "22025856", "target": "21480821"}}, {"type": "Feature", "geometry": {"type": "LineString", "coordinates": [[-37.61459735586541, 69.23087844498428], [-37.619351970913556, 69.23043398136642]]}, "properties": {"source": "15712401", "target": "20810162"}}, {"type": "Feature", "geometry": {"type": "LineString", "coordinates": [[-37.61459735586541, 69.23087844498428], [-37.61899763954321, 69.2315918476437]]}, "properties": {"source": "15712401", "target": "17786684"}}, {"type": "Feature", "geometry": {"type": "LineString", "coordinates": [[-37.61647258999801, 69.23288905998683], [-37.61623036849474, 69.23301006284828]]}, "properties": {"source": "25953909", "target": "2912948"}}, {"type": "Feature", "geometry": {"type": "LineString", "coordinates": [[-37.61647258999801, 69.23288905998683], [-37.61006464774573, 69.23285553891765]]}, "properties": {"source": "25953909", "target": "20958929"}}, {"type": "Feature", "geometry": {"type": "LineString", "coordinates": [[-37.61482656449036, 69.23101393458987], [-37.61530531096628, 69.23186951566694]]}, "properties": {"source": "6890952", "target": "12601262"}}, {"type": "Feature", "geometry": {"type": "LineString", "coordinates": [[-37.61344025331414, 69.23129286858872], [-37.60948701837421, 69.23280991347053]]}, "properties": {"source": "12852636", "target": "13628678"}}, {"type": "Feature", "geometry": {"type": "LineString", "coordinates": [[-37.61899763954321, 69.2315918476437], [-37.619351970913556, 69.23043398136642]]}, "properties": {"source": "17786684", "target": "20810162"}}, {"type": "Feature", "geometry": {"type": "LineString", "coordinates": [[-37.61516736962324, 69.23208843485682], [-37.618273820207065, 69.2331131929356]]}, "properties": {"source": "22396693", "target": "25933041"}}, {"type": "Feature", "geometry": {"type": "LineString", "coordinates": [[-37.616225755407584, 69.23273222765877], [-37.61006464774573, 69.23285553891765]]}, "properties": {"source": "25593959", "target": "20958929"}}, {"type": "Feature", "geometry": {"type": "LineString", "coordinates": [[-37.614703649757104, 69.22977593594291], [-37.618273820207065, 69.2331131929356]]}, "properties": {"source": "29863193", "target": "25933041"}}, {"type": "Feature", "geometry": {"type": "LineString", "coordinates": [[-37.614703649757104, 69.22977593594291], [-37.60918689521401, 69.23244218466073]]}, "properties": {"source": "29863193", "target": "24500555"}}, {"type": "Feature", "geometry": {"type": "LineString", "coordinates": [[-37.614703649757104, 69.22977593594291], [-37.614638274683585, 69.23035036256996]]}, "properties": {"source": "29863193", "target": "24427807"}}, {"type": "Feature", "geometry": {"type": "LineString", "coordinates": [[-37.614703649757104, 69.22977593594291], [-37.61551462194899, 69.23230016463714]]}, "properties": {"source": "29863193", "target": "23621415"}}, {"type": "Feature", "geometry": {"type": "LineString", "coordinates": [[-37.614703649757104, 69.22977593594291], [-37.60936997460152, 69.23226322580157]]}, "properties": {"source": "29863193", "target": "13477275"}}, {"type": "Feature", "geometry": {"type": "LineString", "coordinates": [[-37.614703649757104, 69.22977593594291], [-37.61530531096628, 69.23186951566694]]}, "properties": {"source": "29863193", "target": "12601262"}}, {"type": "Feature", "geometry": {"type": "LineString", "coordinates": [[-37.614703649757104, 69.22977593594291], [-37.61298349409199, 69.23327255041642]]}, "properties": {"source": "29863193", "target": "28104618"}}, {"type": "Feature", "geometry": {"type": "LineString", "coordinates": [[-37.60948701837421, 69.23280991347053], [-37.618273820207065, 69.2331131929356]]}, "properties": {"source": "13628678", "target": "25933041"}}, {"type": "Feature", "geometry": {"type": "LineString", "coordinates": [[-37.60948701837421, 69.23280991347053], [-37.616225140064415, 69.230799409355]]}, "properties": {"source": "13628678", "target": "29068613"}}, {"type": "Feature", "geometry": {"type": "LineString", "coordinates": [[-37.60948701837421, 69.23280991347053], [-37.609888736208376, 69.23094163720617]]}, "properties": {"source": "13628678", "target": "28681483"}}, {"type": "Feature", "geometry": {"type": "LineString", "coordinates": [[-37.60948701837421, 69.23280991347053], [-37.612138720684754, 69.23139290489337]]}, "properties": {"source": "13628678", "target": "18633919"}}, {"type": "Feature", "geometry": {"type": "LineString", "coordinates": [[-37.60948701837421, 69.23280991347053], [-37.612323779487724, 69.23088520893]]}, "properties": {"source": "13628678", "target": "10712972"}}, {"type": "Feature", "geometry": {"type": "LineString", "coordinates": [[-37.60948701837421, 69.23280991347053], [-37.617834906575666, 69.23099020764263]]}, "properties": {"source": "13628678", "target": "17563966"}}, {"type": "Feature", "geometry": {"type": "LineString", "coordinates": [[-37.61322706345544, 69.23016695422433], [-37.614638274683585, 69.23035036256996]]}, "properties": {"source": "20765857", "target": "24427807"}}, {"type": "Feature", "geometry": {"type": "LineString", "coordinates": [[-37.61322706345544, 69.23016695422433], [-37.61530531096628, 69.23186951566694]]}, "properties": {"source": "20765857", "target": "12601262"}}, {"type": "Feature", "geometry": {"type": "LineString", "coordinates": [[-37.61516736962324, 69.23208843485682], [-37.61322706345544, 69.23016695422433]]}, "properties": {"source": "22396693", "target": "20765857"}}, {"type": "Feature", "geometry": {"type": "LineString", "coordinates": [[-37.61516736962324, 69.23208843485682], [-37.61459999599313, 69.23172095704658]]}, "properties": {"source": "22396693", "target": "18484724"}}, {"type": "Feature", "geometry": {"type": "LineString", "coordinates": [[-37.60936997460152, 69.23226322580157], [-37.618273820207065, 69.2331131929356]]}, "properties": {"source": "13477275", "target": "25933041"}}, {"type": "Feature", "geometry": {"type": "LineString", "coordinates": [[-37.60936997460152, 69.23226322580157], [-37.61322706345544, 69.23016695422433]]}, "properties": {"source": "13477275", "target": "20765857"}}, {"type": "Feature", "geometry": {"type": "LineString", "coordinates": [[-37.61530531096628, 69.23186951566694], [-37.618273820207065, 69.2331131929356]]}, "properties": {"source": "12601262", "target": "25933041"}}, {"type": "Feature", "geometry": {"type": "LineString", "coordinates": [[-37.61362447425495, 69.23092651131958], [-37.618273820207065, 69.2331131929356]]}, "properties": {"source": "12865918", "target": "25933041"}}, {"type": "Feature", "geometry": {"type": "LineString", "coordinates": [[-37.61362447425495, 69.23092651131958], [-37.614703649757104, 69.22977593594291]]}, "properties": {"source": "12865918", "target": "29863193"}}, {"type": "Feature", "geometry": {"type": "LineString", "coordinates": [[-37.61362447425495, 69.23092651131958], [-37.61322706345544, 69.23016695422433]]}, "properties": {"source": "12865918", "target": "20765857"}}, {"type": "Feature", "geometry": {"type": "LineString", "coordinates": [[-37.61362447425495, 69.23092651131958], [-37.61459999599313, 69.23172095704658]]}, "properties": {"source": "12865918", "target": "18484724"}}, {"type": "Feature", "geometry": {"type": "LineString", "coordinates": [[-37.61161019347989, 69.23232666102857], [-37.60918689521401, 69.23244218466073]]}, "properties": {"source": "20437330", "target": "24500555"}}, {"type": "Feature", "geometry": {"type": "LineString", "coordinates": [[-37.61161019347989, 69.23232666102857], [-37.609409866211536, 69.23209940234523]]}, "properties": {"source": "20437330", "target": "13477166"}}, {"type": "Feature", "geometry": {"type": "LineString", "coordinates": [[-37.61725961732395, 69.23126191383645], [-37.618273820207065, 69.2331131929356]]}, "properties": {"source": "22823853", "target": "25933041"}}, {"type": "Feature", "geometry": {"type": "LineString", "coordinates": [[-37.61725961732395, 69.23126191383645], [-37.61459999599313, 69.23172095704658]]}, "properties": {"source": "22823853", "target": "18484724"}}, {"type": "Feature", "geometry": {"type": "LineString", "coordinates": [[-37.61725961732395, 69.23126191383645], [-37.614638274683585, 69.23035036256996]]}, "properties": {"source": "22823853", "target": "24427807"}}, {"type": "Feature", "geometry": {"type": "LineString", "coordinates": [[-37.612138720684754, 69.23139290489337], [-37.61516736962324, 69.23208843485682]]}, "properties": {"source": "18633919", "target": "22396693"}}, {"type": "Feature", "geometry": {"type": "LineString", "coordinates": [[-37.612138720684754, 69.23139290489337], [-37.612323779487724, 69.23088520893]]}, "properties": {"source": "18633919", "target": "10712972"}}, {"type": "Feature", "geometry": {"type": "LineString", "coordinates": [[-37.61930948282887, 69.23260356069304], [-37.609888736208376, 69.23094163720617]]}, "properties": {"source": "30016958", "target": "28681483"}}, {"type": "Feature", "geometry": {"type": "LineString", "coordinates": [[-37.61930948282887, 69.23260356069304], [-37.61288418420665, 69.2316243630925]]}, "properties": {"source": "30016958", "target": "29920477"}}, {"type": "Feature", "geometry": {"type": "LineString", "coordinates": [[-37.61459999599313, 69.23172095704658], [-37.61322706345544, 69.23016695422433]]}, "properties": {"source": "18484724", "target": "20765857"}}, {"type": "Feature", "geometry": {"type": "LineString", "coordinates": [[-37.61459999599313, 69.23172095704658], [-37.60936997460152, 69.23226322580157]]}, "properties": {"source": "18484724", "target": "13477275"}}, {"type": "Feature", "geometry": {"type": "LineString", "coordinates": [[-37.61459999599313, 69.23172095704658], [-37.61530531096628, 69.23186951566694]]}, "properties": {"source": "18484724", "target": "12601262"}}, {"type": "Feature", "geometry": {"type": "LineString", "coordinates": [[-37.614638274683585, 69.23035036256996], [-37.618273820207065, 69.2331131929356]]}, "properties": {"source": "24427807", "target": "25933041"}}, {"type": "Feature", "geometry": {"type": "LineString", "coordinates": [[-37.61519481080046, 69.23127837125293], [-37.618273820207065, 69.2331131929356]]}, "properties": {"source": "16123412", "target": "25933041"}}, {"type": "Feature", "geometry": {"type": "LineString", "coordinates": [[-37.61519481080046, 69.23127837125293], [-37.616225140064415, 69.230799409355]]}, "properties": {"source": "16123412", "target": "29068613"}}, {"type": "Feature", "geometry": {"type": "LineString", "coordinates": [[-37.61519481080046, 69.23127837125293], [-37.61617843014125, 69.23143222185317]]}, "properties": {"source": "16123412", "target": "21800998"}}, {"type": "Feature", "geometry": {"type": "LineString", "coordinates": [[-37.61519481080046, 69.23127837125293], [-37.60948701837421, 69.23280991347053]]}, "properties": {"source": "16123412", "target": "13628678"}}, {"type": "Feature", "geometry": {"type": "LineString", "coordinates": [[-37.61519481080046, 69.23127837125293], [-37.61702608859957, 69.23039152032078]]}, "properties": {"source": "16123412", "target": "17430488"}}, {"type": "Feature", "geometry": {"type": "LineString", "coordinates": [[-37.61495012776538, 69.23293170096153], [-37.618273820207065, 69.2331131929356]]}, "properties": {"source": "22245319", "target": "25933041"}}, {"type": "Feature", "geometry": {"type": "LineString", "coordinates": [[-37.61495012776538, 69.23293170096153], [-37.616225140064415, 69.230799409355]]}, "properties": {"source": "22245319", "target": "29068613"}}, {"type": "Feature", "geometry": {"type": "LineString", "coordinates": [[-37.61495012776538, 69.23293170096153], [-37.61617843014125, 69.23143222185317]]}, "properties": {"source": "22245319", "target": "21800998"}}, {"type": "Feature", "geometry": {"type": "LineString", "coordinates": [[-37.616225140064415, 69.230799409355], [-37.618273820207065, 69.2331131929356]]}, "properties": {"source": "29068613", "target": "25933041"}}, {"type": "Feature", "geometry": {"type": "LineString", "coordinates": [[-37.616225140064415, 69.230799409355], [-37.612653342474175, 69.23219851834787]]}, "properties": {"source": "29068613", "target": "21971544"}}, {"type": "Feature", "geometry": {"type": "LineString", "coordinates": [[-37.61002806887865, 69.2333176388216], [-37.618273820207065, 69.2331131929356]]}, "properties": {"source": "24189311", "target": "25933041"}}, {"type": "Feature", "geometry": {"type": "LineString", "coordinates": [[-37.61002806887865, 69.2333176388216], [-37.616225140064415, 69.230799409355]]}, "properties": {"source": "24189311", "target": "29068613"}}, {"type": "Feature", "geometry": {"type": "LineString", "coordinates": [[-37.61002806887865, 69.2333176388216], [-37.612653342474175, 69.23219851834787]]}, "properties": {"source": "24189311", "target": "21971544"}}, {"type": "Feature", "geometry": {"type": "LineString", "coordinates": [[-37.61002806887865, 69.2333176388216], [-37.61930948282887, 69.23260356069304]]}, "properties": {"source": "24189311", "target": "30016958"}}, {"type": "Feature", "geometry": {"type": "LineString", "coordinates": [[-37.61002806887865, 69.2333176388216], [-37.609888736208376, 69.23094163720617]]}, "properties": {"source": "24189311", "target": "28681483"}}, {"type": "Feature", "geometry": {"type": "LineString", "coordinates": [[-37.60918689521401, 69.23244218466073], [-37.618273820207065, 69.2331131929356]]}, "properties": {"source": "24500555", "target": "25933041"}}, {"type": "Feature", "geometry": {"type": "LineString", "coordinates": [[-37.60918689521401, 69.23244218466073], [-37.61322706345544, 69.23016695422433]]}, "properties": {"source": "24500555", "target": "20765857"}}, {"type": "Feature", "geometry": {"type": "LineString", "coordinates": [[-37.60918689521401, 69.23244218466073], [-37.614638274683585, 69.23035036256996]]}, "properties": {"source": "24500555", "target": "24427807"}}, {"type": "Feature", "geometry": {"type": "LineString", "coordinates": [[-37.612653342474175, 69.23219851834787], [-37.618273820207065, 69.2331131929356]]}, "properties": {"source": "21971544", "target": "25933041"}}, {"type": "Feature", "geometry": {"type": "LineString", "coordinates": [[-37.612653342474175, 69.23219851834787], [-37.619351970913556, 69.23043398136642]]}, "properties": {"source": "21971544", "target": "20810162"}}, {"type": "Feature", "geometry": {"type": "LineString", "coordinates": [[-37.610347678697934, 69.23085784186262], [-37.618273820207065, 69.2331131929356]]}, "properties": {"source": "28118688", "target": "25933041"}}, {"type": "Feature", "geometry": {"type": "LineString", "coordinates": [[-37.610347678697934, 69.23085784186262], [-37.616225140064415, 69.230799409355]]}, "properties": {"source": "28118688", "target": "29068613"}}, {"type": "Feature", "geometry": {"type": "LineString", "coordinates": [[-37.610347678697934, 69.23085784186262], [-37.61617843014125, 69.23143222185317]]}, "properties": {"source": "28118688", "target": "21800998"}}, {"type": "Feature", "geometry": {"type": "LineString", "coordinates": [[-37.610347678697934, 69.23085784186262], [-37.61002806887865, 69.2333176388216]]}, "properties": {"source": "28118688", "target": "24189311"}}, {"type": "Feature", "geometry": {"type": "LineString", "coordinates": [[-37.610347678697934, 69.23085784186262], [-37.61930948282887, 69.23260356069304]]}, "properties": {"source": "28118688", "target": "30016958"}}, {"type": "Feature", "geometry": {"type": "LineString", "coordinates": [[-37.610347678697934, 69.23085784186262], [-37.609888736208376, 69.23094163720617]]}, "properties": {"source": "28118688", "target": "28681483"}}, {"type": "Feature", "geometry": {"type": "LineString", "coordinates": [[-37.61495012776538, 69.23293170096153], [-37.619351970913556, 69.23043398136642]]}, "properties": {"source": "22245319", "target": "20810162"}}, {"type": "Feature", "geometry": {"type": "LineString", "coordinates": [[-37.61551462194899, 69.23230016463714], [-37.618273820207065, 69.2331131929356]]}, "properties": {"source": "23621415", "target": "25933041"}}, {"type": "Feature", "geometry": {"type": "LineString", "coordinates": [[-37.61551462194899, 69.23230016463714], [-37.616225140064415, 69.230799409355]]}, "properties": {"source": "23621415", "target": "29068613"}}, {"type": "Feature", "geometry": {"type": "LineString", "coordinates": [[-37.61551462194899, 69.23230016463714], [-37.61322706345544, 69.23016695422433]]}, "properties": {"source": "23621415", "target": "20765857"}}, {"type": "Feature", "geometry": {"type": "LineString", "coordinates": [[-37.61551462194899, 69.23230016463714], [-37.61459999599313, 69.23172095704658]]}, "properties": {"source": "23621415", "target": "18484724"}}, {"type": "Feature", "geometry": {"type": "LineString", "coordinates": [[-37.61272898803105, 69.23206180311385], [-37.618273820207065, 69.2331131929356]]}, "properties": {"source": "21971516", "target": "25933041"}}, {"type": "Feature", "geometry": {"type": "LineString", "coordinates": [[-37.61272898803105, 69.23206180311385], [-37.612653342474175, 69.23219851834787]]}, "properties": {"source": "21971516", "target": "21971544"}}, {"type": "Feature", "geometry": {"type": "LineString", "coordinates": [[-37.619351970913556, 69.23043398136642], [-37.618273820207065, 69.2331131929356]]}, "properties": {"source": "20810162", "target": "25933041"}}, {"type": "Feature", "geometry": {"type": "LineString", "coordinates": [[-37.61889457573139, 69.23314102143311], [-37.616225140064415, 69.230799409355]]}, "properties": {"source": "27829516", "target": "29068613"}}, {"type": "Feature", "geometry": {"type": "LineString", "coordinates": [[-37.61889457573139, 69.23314102143311], [-37.61930948282887, 69.23260356069304]]}, "properties": {"source": "27829516", "target": "30016958"}}, {"type": "Feature", "geometry": {"type": "LineString", "coordinates": [[-37.61889457573139, 69.23314102143311], [-37.611659675390825, 69.23058221411691]]}, "properties": {"source": "27829516", "target": "32034003"}}, {"type": "Feature", "geometry": {"type": "LineString", "coordinates": [[-37.61889457573139, 69.23314102143311], [-37.61185480114125, 69.23158892424746]]}, "properties": {"source": "27829516", "target": "195555"}}, {"type": "Feature", "geometry": {"type": "LineString", "coordinates": [[-37.61899763954321, 69.2315918476437], [-37.618273820207065, 69.2331131929356]]}, "properties": {"source": "17786684", "target": "25933041"}}, {"type": "Feature", "geometry": {"type": "LineString", "coordinates": [[-37.61899763954321, 69.2315918476437], [-37.616225140064415, 69.230799409355]]}, "properties": {"source": "17786684", "target": "29068613"}}, {"type": "Feature", "geometry": {"type": "LineString", "coordinates": [[-37.610347678697934, 69.23085784186262], [-37.61288418420665, 69.2316243630925]]}, "properties": {"source": "28118688", "target": "29920477"}}, {"type": "Feature", "geometry": {"type": "LineString", "coordinates": [[-37.61930948282887, 69.23260356069304], [-37.618273820207065, 69.2331131929356]]}, "properties": {"source": "30016958", "target": "25933041"}}]}