{"type": "FeatureCollection", "features": [{"type": "Feature", "geometry": {"type": "LineString", "coordinates": [[156.91878338370418, 69.04158023838633], [156.9094067810317, 69.03839410314953]]}, "properties": {"source": "11066849", "target": "13604697"}}, {"type": "Feature", "geometry": {"type": "LineString", "coordinates": [[156.9089981196384, 69.03895184700522], [156.91120147129357, 69.04049962581036]]}, "properties": {"source": "13251577", "target": "16070138"}}, {"type": "Feature", "geometry": {"type": "LineString", "coordinates": [[156.9089981196384, 69.03895184700522], [156.91601560589595, 69.03916931076455]]}, "properties": {"source": "13251577", "target": "1488581"}}, {"type": "Feature", "geometry": {"type": "LineString", "coordinates": [[156.9089981196384, 69.03895184700522], [156.91598499240888, 69.03718972208787]]}, "properties": {"source": "13251577", "target": "1445308"}}, {"type": "Feature", "geometry": {"type": "LineString", "coordinates": [[156.9089981196384, 69.03895184700522], [156.90851187172825, 69.04114094664715]]}, "properties": {"source": "13251577", "target": "16035051"}}, {"type": "Feature", "geometry": {"type": "LineString", "coordinates": [[156.9089981196384, 69.03895184700522], [156.91897747129025, 69.03912567933506]]}, "properties": {"source": "13251577", "target": "18750701"}}, {"type": "Feature", "geometry": {"type": "LineString", "coordinates": [[156.9215813113375, 69.04036705976364], [156.91022722205918, 69.03776502390411]]}, "properties": {"source": "8302924", "target": "9458059"}}, {"type": "Feature", "geometry": {"type": "LineString", "coordinates": [[156.9215813113375, 69.04036705976364], [156.91794728942193, 69.03892706337282]]}, "properties": {"source": "8302924", "target": "9338957"}}, {"type": "Feature", "geometry": {"type": "LineString", "coordinates": [[156.9215813113375, 69.04036705976364], [156.90851723610768, 69.03943618444046]]}, "properties": {"source": "8302924", "target": "8299556"}}, {"type": "Feature", "geometry": {"type": "LineString", "coordinates": [[156.91436109882272, 69.03731731207907], [156.91963272369765, 69.03782729133331]]}, "properties": {"source": "8700967", "target": "8991860"}}, {"type": "Feature", "geometry": {"type": "LineString", "coordinates": [[156.91436109882272, 69.03731731207907], [156.91547415460377, 69.04119113596639]]}, "properties": {"source": "8700967", "target": "10888303"}}, {"type": "Feature", "geometry": {"type": "LineString", "coordinates": [[156.91436109882272, 69.03731731207907], [156.9091535510811, 69.03851653926219]]}, "properties": {"source": "8700967", "target": "11469550"}}, {"type": "Feature", "geometry": {"type": "LineString", "coordinates": [[156.91707837361702, 69.04124418918929], [156.91900172577726, 69.03834767436891]]}, "properties": {"source": "15992395", "target": "17453578"}}, {"type": "Feature", "geometry": {"type": "LineString", "coordinates": [[156.91707837361702, 69.04124418918929], [156.90851187172825, 69.04114094664715]]}, "properties": {"source": "15992395", "target": "16035051"}}, {"type": "Feature", "geometry": {"type": "LineString", "coordinates": [[156.91901428878754, 69.04040213219292], [156.91204698194838, 69.03892386434791]]}, "properties": {"source": "21817068", "target": "12652426"}}, {"type": "Feature", "geometry": {"type": "LineString", "coordinates": [[156.91901428878754, 69.04040213219292], [156.91665620561514, 69.03765256269077]]}, "properties": {"source": "21817068", "target": "13136822"}}, {"type": "Feature", "geometry": {"type": "LineString", "coordinates": [[156.91901428878754, 69.04040213219292], [156.91436109882272, 69.03731731207907]]}, "properties": {"source": "21817068", "target": "8700967"}}, {"type": "Feature", "geometry": {"type": "LineString", "coordinates": [[156.91901428878754, 69.04040213219292], [156.91602734337658, 69.0386410870903]]}, "properties": {"source": "21817068", "target": "8991849"}}, {"type": "Feature", "geometry": {"type": "LineString", "coordinates": [[156.91901428878754, 69.04040213219292], [156.91878357103468, 69.04124081384762]]}, "properties": {"source": "21817068", "target": "12713790"}}, {"type": "Feature", "geometry": {"type": "LineString", "coordinates": [[156.91901428878754, 69.04040213219292], [156.90912973358382, 69.03898156483496]]}, "properties": {"source": "21817068", "target": "10224199"}}, {"type": "Feature", "geometry": {"type": "LineString", "coordinates": [[156.91901428878754, 69.04040213219292], [156.91547415460377, 69.04119113596639]]}, "properties": {"source": "21817068", "target": "10888303"}}, {"type": "Feature", "geometry": {"type": "LineString", "coordinates": [[156.91901428878754, 69.04040213219292], [156.9091535510811, 69.03851653926219]]}, "properties": {"source": "21817068", "target": "11469550"}}, {"type": "Feature", "geometry": {"type": "LineString", "coordinates": [[156.91665620561514, 69.03765256269077], [156.91204698194838, 69.03892386434791]]}, "properties": {"source": "13136822", "target": "12652426"}}, {"type": "Feature", "geometry": {"type": "LineString", "coordinates": [[156.91665620561514, 69.03765256269077], [156.91602734337658, 69.0386410870903]]}, "properties": {"source": "13136822", "target": "8991849"}}, {"type": "Feature", "geometry": {"type": "LineString", "coordinates": [[156.91665620561514, 69.03765256269077], [156.91684335536382, 69.03814875239289]]}, "properties": {"source": "13136822", "target": "11462338"}}, {"type": "Feature", "geometry": {"type": "LineString", "coordinates": [[156.91665620561514, 69.03765256269077], [156.91547415460377, 69.04119113596639]]}, "properties": {"source": "13136822", "target": "10888303"}}, {"type": "Feature", "geometry": {"type": "LineString", "coordinates": [[156.91665620561514, 69.03765256269077], [156.9091535510811, 69.03851653926219]]}, "properties": {"source": "13136822", "target": "11469550"}}, {"type": "Feature", "geometry": {"type": "LineString", "coordinates": [[156.91665620561514, 69.03765256269077], [156.91426322731206, 69.03794844113577]]}, "properties": {"source": "13136822", "target": "26062817"}}, {"type": "Feature", "geometry": {"type": "LineString", "coordinates": [[156.91878338370418, 69.04158023838633], [156.91543135113773, 69.03812439659734]]}, "properties": {"source": "11066849", "target": "21296733"}}, {"type": "Feature", "geometry": {"type": "LineString", "coordinates": [[156.91878338370418, 69.04158023838633], [156.90838020715796, 69.0397698781371]]}, "properties": {"source": "11066849", "target": "12368137"}}, {"type": "Feature", "geometry": {"type": "LineString", "coordinates": [[156.91878338370418, 69.04158023838633], [156.91963272369765, 69.03782729133331]]}, "properties": {"source": "11066849", "target": "8991860"}}, {"type": "Feature", "geometry": {"type": "LineString", "coordinates": [[156.91543135113773, 69.03812439659734], [156.91204698194838, 69.03892386434791]]}, "properties": {"source": "21296733", "target": "12652426"}}, {"type": "Feature", "geometry": {"type": "LineString", "coordinates": [[156.91543135113773, 69.03812439659734], [156.91901428878754, 69.04040213219292]]}, "properties": {"source": "21296733", "target": "21817068"}}, {"type": "Feature", "geometry": {"type": "LineString", "coordinates": [[156.91543135113773, 69.03812439659734], [156.91665620561514, 69.03765256269077]]}, "properties": {"source": "21296733", "target": "13136822"}}, {"type": "Feature", "geometry": {"type": "LineString", "coordinates": [[156.91543135113773, 69.03812439659734], [156.91878357103468, 69.04124081384762]]}, "properties": {"source": "21296733", "target": "12713790"}}, {"type": "Feature", "geometry": {"type": "LineString", "coordinates": [[156.91543135113773, 69.03812439659734], [156.90912973358382, 69.03898156483496]]}, "properties": {"source": "21296733", "target": "10224199"}}, {"type": "Feature", "geometry": {"type": "LineString", "coordinates": [[156.91543135113773, 69.03812439659734], [156.90838020715796, 69.0397698781371]]}, "properties": {"source": "21296733", "target": "12368137"}}, {"type": "Feature", "geometry": {"type": "LineString", "coordinates": [[156.91543135113773, 69.03812439659734], [156.9158535169944, 69.03833585336727]]}, "properties": {"source": "21296733", "target": "22047472"}}, {"type": "Feature", "geometry": {"type": "LineString", "coordinates": [[156.91569623339427, 69.04097849217192], [156.91204698194838, 69.03892386434791]]}, "properties": {"source": "12479162", "target": "12652426"}}, {"type": "Feature", "geometry": {"type": "LineString", "coordinates": [[156.91569623339427, 69.04097849217192], [156.91684335536382, 69.03814875239289]]}, "properties": {"source": "12479162", "target": "11462338"}}, {"type": "Feature", "geometry": {"type": "LineString", "coordinates": [[156.91569623339427, 69.04097849217192], [156.92024722635256, 69.03905638746352]]}, "properties": {"source": "12479162", "target": "15885286"}}, {"type": "Feature", "geometry": {"type": "LineString", "coordinates": [[156.91569623339427, 69.04097849217192], [156.9094067810317, 69.03839410314953]]}, "properties": {"source": "12479162", "target": "13604697"}}, {"type": "Feature", "geometry": {"type": "LineString", "coordinates": [[156.91569623339427, 69.04097849217192], [156.90838020715796, 69.0397698781371]]}, "properties": {"source": "12479162", "target": "12368137"}}, {"type": "Feature", "geometry": {"type": "LineString", "coordinates": [[156.91569623339427, 69.04097849217192], [156.91547415460377, 69.04119113596639]]}, "properties": {"source": "12479162", "target": "10888303"}}, {"type": "Feature", "geometry": {"type": "LineString", "coordinates": [[156.91421042206025, 69.03930438795757], [156.91707837361702, 69.04124418918929]]}, "properties": {"source": "17620453", "target": "15992395"}}, {"type": "Feature", "geometry": {"type": "LineString", "coordinates": [[156.91421042206025, 69.03930438795757], [156.92024722635256, 69.03905638746352]]}, "properties": {"source": "17620453", "target": "15885286"}}, {"type": "Feature", "geometry": {"type": "LineString", "coordinates": [[156.91421042206025, 69.03930438795757], [156.91030586162822, 69.04109514462218]]}, "properties": {"source": "17620453", "target": "16032392"}}, {"type": "Feature", "geometry": {"type": "LineString", "coordinates": [[156.91421042206025, 69.03930438795757], [156.91900172577726, 69.03834767436891]]}, "properties": {"source": "17620453", "target": "17453578"}}, {"type": "Feature", "geometry": {"type": "LineString", "coordinates": [[156.91421042206025, 69.03930438795757], [156.9124751670949, 69.04046088257635]]}, "properties": {"source": "17620453", "target": "18301200"}}, {"type": "Feature", "geometry": {"type": "LineString", "coordinates": [[156.91421042206025, 69.03930438795757], [156.91981045616478, 69.04029966656705]]}, "properties": {"source": "17620453", "target": "17137579"}}, {"type": "Feature", "geometry": {"type": "LineString", "coordinates": [[156.92037597839357, 69.03938738116972], [156.91043410516926, 69.04140991387143]]}, "properties": {"source": "1810458", "target": "16000750"}}, {"type": "Feature", "geometry": {"type": "LineString", "coordinates": [[156.92037597839357, 69.03938738116972], [156.91952042224204, 69.04169443481695]]}, "properties": {"source": "1810458", "target": "17793652"}}, {"type": "Feature", "geometry": {"type": "LineString", "coordinates": [[156.92037597839357, 69.03938738116972], [156.91601560589595, 69.03916931076455]]}, "properties": {"source": "1810458", "target": "1488581"}}, {"type": "Feature", "geometry": {"type": "LineString", "coordinates": [[156.92037597839357, 69.03938738116972], [156.90851187172825, 69.04114094664715]]}, "properties": {"source": "1810458", "target": "16035051"}}, {"type": "Feature", "geometry": {"type": "LineString", "coordinates": [[156.91077692699878, 69.04157261694266], [156.92024722635256, 69.03905638746352]]}, "properties": {"source": "15896213", "target": "15885286"}}, {"type": "Feature", "geometry": {"type": "LineString", "coordinates": [[156.91981045616478, 69.04029966656705], [156.9094067810317, 69.03839410314953]]}, "properties": {"source": "17137579", "target": "13604697"}}, {"type": "Feature", "geometry": {"type": "LineString", "coordinates": [[156.90851723610768, 69.03943618444046], [156.91845606805856, 69.03957954890612]]}, "properties": {"source": "8299556", "target": "8632150"}}, {"type": "Feature", "geometry": {"type": "LineString", "coordinates": [[156.9102655845614, 69.04101612392216], [156.90844038379447, 69.04102338058365]]}, "properties": {"source": "31445977", "target": "10656222"}}, {"type": "Feature", "geometry": {"type": "LineString", "coordinates": [[156.913752800206, 69.04000131669653], [156.91845606805856, 69.03957954890612]]}, "properties": {"source": "8732706", "target": "8632150"}}, {"type": "Feature", "geometry": {"type": "LineString", "coordinates": [[156.9169378237445, 69.03800421973264], [156.9091535510811, 69.03851653926219]]}, "properties": {"source": "1562189", "target": "11469550"}}, {"type": "Feature", "geometry": {"type": "LineString", "coordinates": [[156.91098884098074, 69.03897155203208], [156.9101003202647, 69.03978983423437]]}, "properties": {"source": "15748098", "target": "17313971"}}, {"type": "Feature", "geometry": {"type": "LineString", "coordinates": [[156.91952042224204, 69.04169443481695], [156.91601560589595, 69.03916931076455]]}, "properties": {"source": "17793652", "target": "1488581"}}, {"type": "Feature", "geometry": {"type": "LineString", "coordinates": [[156.91598499240888, 69.03718972208787], [156.91897747129025, 69.03912567933506]]}, "properties": {"source": "1445308", "target": "18750701"}}, {"type": "Feature", "geometry": {"type": "LineString", "coordinates": [[156.91845606805856, 69.03957954890612], [156.91602734337658, 69.0386410870903]]}, "properties": {"source": "8632150", "target": "8991849"}}, {"type": "Feature", "geometry": {"type": "LineString", "coordinates": [[156.9207666673338, 69.03789541107452], [156.91919318467717, 69.03743856615631]]}, "properties": {"source": "9431645", "target": "9669614"}}, {"type": "Feature", "geometry": {"type": "LineString", "coordinates": [[156.9207666673338, 69.03789541107452], [156.91098884098074, 69.03897155203208]]}, "properties": {"source": "9431645", "target": "15748098"}}, {"type": "Feature", "geometry": {"type": "LineString", "coordinates": [[156.9207666673338, 69.03789541107452], [156.9106462946002, 69.04052908914605]]}, "properties": {"source": "9431645", "target": "18052867"}}, {"type": "Feature", "geometry": {"type": "LineString", "coordinates": [[156.9207666673338, 69.03789541107452], [156.91946492873785, 69.04056628672996]]}, "properties": {"source": "9431645", "target": "13583692"}}, {"type": "Feature", "geometry": {"type": "LineString", "coordinates": [[156.9207666673338, 69.03789541107452], [156.9101003202647, 69.03978983423437]]}, "properties": {"source": "9431645", "target": "17313971"}}, {"type": "Feature", "geometry": {"type": "LineString", "coordinates": [[156.91294166954629, 69.04126275549143], [156.91707837361702, 69.04124418918929]]}, "properties": {"source": "14290509", "target": "15992395"}}, {"type": "Feature", "geometry": {"type": "LineString", "coordinates": [[156.912844822951, 69.04035820869217], [156.91919318467717, 69.03743856615631]]}, "properties": {"source": "8534319", "target": "9669614"}}, {"type": "Feature", "geometry": {"type": "LineString", "coordinates": [[156.912844822951, 69.04035820869217], [156.9091535510811, 69.03851653926219]]}, "properties": {"source": "8534319", "target": "11469550"}}, {"type": "Feature", "geometry": {"type": "LineString", "coordinates": [[156.91436109882272, 69.03731731207907], [156.91204698194838, 69.03892386434791]]}, "properties": {"source": "8700967", "target": "12652426"}}, {"type": "Feature", "geometry": {"type": "LineString", "coordinates": [[156.91436109882272, 69.03731731207907], [156.91665620561514, 69.03765256269077]]}, "properties": {"source": "8700967", "target": "13136822"}}, {"type": "Feature", "geometry": {"type": "LineString", "coordinates": [[156.91436109882272, 69.03731731207907], [156.91602734337658, 69.0386410870903]]}, "properties": {"source": "8700967", "target": "8991849"}}, {"type": "Feature", "geometry": {"type": "LineString", "coordinates": [[156.91436109882272, 69.03731731207907], [156.91684335536382, 69.03814875239289]]}, "properties": {"source": "8700967", "target": "11462338"}}, {"type": "Feature", "geometry": {"type": "LineString", "coordinates": [[156.91878357103468, 69.04124081384762], [156.91204698194838, 69.03892386434791]]}, "properties": {"source": "12713790", "target": "12652426"}}, {"type": "Feature", "geometry": {"type": "LineString", "coordinates": [[156.91878357103468, 69.04124081384762], [156.90838020715796, 69.0397698781371]]}, "properties": {"source": "12713790", "target": "12368137"}}, {"type": "Feature", "geometry": {"type": "LineString", "coordinates": [[156.91878357103468, 69.04124081384762], [156.91426322731206, 69.03794844113577]]}, "properties": {"source": "12713790", "target": "26062817"}}, {"type": "Feature", "geometry": {"type": "LineString", "coordinates": [[156.91878357103468, 69.04124081384762], [156.9145304932806, 69.03877626990726]]}, "properties": {"source": "12713790", "target": "25456667"}}, {"type": "Feature", "geometry": {"type": "LineString", "coordinates": [[156.9094067810317, 69.03839410314953], [156.92024722635256, 69.03905638746352]]}, "properties": {"source": "13604697", "target": "15885286"}}, {"type": "Feature", "geometry": {"type": "LineString", "coordinates": [[156.9094067810317, 69.03839410314953], [156.90838020715796, 69.0397698781371]]}, "properties": {"source": "13604697", "target": "12368137"}}, {"type": "Feature", "geometry": {"type": "LineString", "coordinates": [[156.91878338370418, 69.04158023838633], [156.91204698194838, 69.03892386434791]]}, "properties": {"source": "11066849", "target": "12652426"}}, {"type": "Feature", "geometry": {"type": "LineString", "coordinates": [[156.91878338370418, 69.04158023838633], [156.91901428878754, 69.04040213219292]]}, "properties": {"source": "11066849", "target": "21817068"}}, {"type": "Feature", "geometry": {"type": "LineString", "coordinates": [[156.91878338370418, 69.04158023838633], [156.91684335536382, 69.03814875239289]]}, "properties": {"source": "11066849", "target": "11462338"}}, {"type": "Feature", "geometry": {"type": "LineString", "coordinates": [[156.91878338370418, 69.04158023838633], [156.91878357103468, 69.04124081384762]]}, "properties": {"source": "11066849", "target": "12713790"}}, {"type": "Feature", "geometry": {"type": "LineString", "coordinates": [[156.91543135113773, 69.03812439659734], [156.91426322731206, 69.03794844113577]]}, "properties": {"source": "21296733", "target": "26062817"}}, {"type": "Feature", "geometry": {"type": "LineString", "coordinates": [[156.90912973358382, 69.03898156483496], [156.91665620561514, 69.03765256269077]]}, "properties": {"source": "10224199", "target": "13136822"}}, {"type": "Feature", "geometry": {"type": "LineString", "coordinates": [[156.90912973358382, 69.03898156483496], [156.91436109882272, 69.03731731207907]]}, "properties": {"source": "10224199", "target": "8700967"}}, {"type": "Feature", "geometry": {"type": "LineString", "coordinates": [[156.90912973358382, 69.03898156483496], [156.91602734337658, 69.0386410870903]]}, "properties": {"source": "10224199", "target": "8991849"}}, {"type": "Feature", "geometry": {"type": "LineString", "coordinates": [[156.90912973358382, 69.03898156483496], [156.91878357103468, 69.04124081384762]]}, "properties": {"source": "10224199", "target": "12713790"}}, {"type": "Feature", "geometry": {"type": "LineString", "coordinates": [[156.90838020715796, 69.0397698781371], [156.91684335536382, 69.03814875239289]]}, "properties": {"source": "12368137", "target": "11462338"}}, {"type": "Feature", "geometry": {"type": "LineString", "coordinates": [[156.90808877021675, 69.03958334628442], [156.91684335536382, 69.03814875239289]]}, "properties": {"source": "10224200", "target": "11462338"}}, {"type": "Feature", "geometry": {"type": "LineString", "coordinates": [[156.90808877021675, 69.03958334628442], [156.9207244743369, 69.03937126042015]]}, "properties": {"source": "10224200", "target": "11747355"}}, {"type": "Feature", "geometry": {"type": "LineString", "coordinates": [[156.90808877021675, 69.03958334628442], [156.90912973358382, 69.03898156483496]]}, "properties": {"source": "10224200", "target": "10224199"}}, {"type": "Feature", "geometry": {"type": "LineString", "coordinates": [[156.9207244743369, 69.03937126042015], [156.91204698194838, 69.03892386434791]]}, "properties": {"source": "11747355", "target": "12652426"}}, {"type": "Feature", "geometry": {"type": "LineString", "coordinates": [[156.9207244743369, 69.03937126042015], [156.91436109882272, 69.03731731207907]]}, "properties": {"source": "11747355", "target": "8700967"}}, {"type": "Feature", "geometry": {"type": "LineString", "coordinates": [[156.9207244743369, 69.03937126042015], [156.91602734337658, 69.0386410870903]]}, "properties": {"source": "11747355", "target": "8991849"}}, {"type": "Feature", "geometry": {"type": "LineString", "coordinates": [[156.9207244743369, 69.03937126042015], [156.91684335536382, 69.03814875239289]]}, "properties": {"source": "11747355", "target": "11462338"}}, {"type": "Feature", "geometry": {"type": "LineString", "coordinates": [[156.9207244743369, 69.03937126042015], [156.91569623339427, 69.04097849217192]]}, "properties": {"source": "11747355", "target": "12479162"}}, {"type": "Feature", "geometry": {"type": "LineString", "coordinates": [[156.9207244743369, 69.03937126042015], [156.91547415460377, 69.04119113596639]]}, "properties": {"source": "11747355", "target": "10888303"}}, {"type": "Feature", "geometry": {"type": "LineString", "coordinates": [[156.9207244743369, 69.03937126042015], [156.9091535510811, 69.03851653926219]]}, "properties": {"source": "11747355", "target": "11469550"}}, {"type": "Feature", "geometry": {"type": "LineString", "coordinates": [[156.91466822886446, 69.03774137163248], [156.91120147129357, 69.04049962581036]]}, "properties": {"source": "25463844", "target": "16070138"}}, {"type": "Feature", "geometry": {"type": "LineString", "coordinates": [[156.91466822886446, 69.03774137163248], [156.91598499240888, 69.03718972208787]]}, "properties": {"source": "25463844", "target": "1445308"}}, {"type": "Feature", "geometry": {"type": "LineString", "coordinates": [[156.91466822886446, 69.03774137163248], [156.91897747129025, 69.03912567933506]]}, "properties": {"source": "25463844", "target": "18750701"}}, {"type": "Feature", "geometry": {"type": "LineString", "coordinates": [[156.91120147129357, 69.04049962581036], [156.91598499240888, 69.03718972208787]]}, "properties": {"source": "16070138", "target": "1445308"}}, {"type": "Feature", "geometry": {"type": "LineString", "coordinates": [[156.91120147129357, 69.04049962581036], [156.91897747129025, 69.03912567933506]]}, "properties": {"source": "16070138", "target": "18750701"}}, {"type": "Feature", "geometry": {"type": "LineString", "coordinates": [[156.912844822951, 69.04035820869217], [156.91204698194838, 69.03892386434791]]}, "properties": {"source": "8534319", "target": "12652426"}}, {"type": "Feature", "geometry": {"type": "LineString", "coordinates": [[156.912844822951, 69.04035820869217], [156.91901428878754, 69.04040213219292]]}, "properties": {"source": "8534319", "target": "21817068"}}, {"type": "Feature", "geometry": {"type": "LineString", "coordinates": [[156.912844822951, 69.04035820869217], [156.91665620561514, 69.03765256269077]]}, "properties": {"source": "8534319", "target": "13136822"}}, {"type": "Feature", "geometry": {"type": "LineString", "coordinates": [[156.912844822951, 69.04035820869217], [156.91436109882272, 69.03731731207907]]}, "properties": {"source": "8534319", "target": "8700967"}}, {"type": "Feature", "geometry": {"type": "LineString", "coordinates": [[156.912844822951, 69.04035820869217], [156.91602734337658, 69.0386410870903]]}, "properties": {"source": "8534319", "target": "8991849"}}, {"type": "Feature", "geometry": {"type": "LineString", "coordinates": [[156.912844822951, 69.04035820869217], [156.91684335536382, 69.03814875239289]]}, "properties": {"source": "8534319", "target": "11462338"}}, {"type": "Feature", "geometry": {"type": "LineString", "coordinates": [[156.912844822951, 69.04035820869217], [156.9207244743369, 69.03937126042015]]}, "properties": {"source": "8534319", "target": "11747355"}}, {"type": "Feature", "geometry": {"type": "LineString", "coordinates": [[156.912844822951, 69.04035820869217], [156.90912973358382, 69.03898156483496]]}, "properties": {"source": "8534319", "target": "10224199"}}, {"type": "Feature", "geometry": {"type": "LineString", "coordinates": [[156.912844822951, 69.04035820869217], [156.91963272369765, 69.03782729133331]]}, "properties": {"source": "8534319", "target": "8991860"}}, {"type": "Feature", "geometry": {"type": "LineString", "coordinates": [[156.91466822886446, 69.03774137163248], [156.9089981196384, 69.03895184700522]]}, "properties": {"source": "25463844", "target": "13251577"}}, {"type": "Feature", "geometry": {"type": "LineString", "coordinates": [[156.912844822951, 69.04035820869217], [156.90808877021675, 69.03958334628442]]}, "properties": {"source": "8534319", "target": "10224200"}}, {"type": "Feature", "geometry": {"type": "LineString", "coordinates": [[156.9102153307512, 69.0396936523895], [156.91707837361702, 69.04124418918929]]}, "properties": {"source": "10816706", "target": "15992395"}}, {"type": "Feature", "geometry": {"type": "LineString", "coordinates": [[156.9102153307512, 69.0396936523895], [156.9094067810317, 69.03839410314953]]}, "properties": {"source": "10816706", "target": "13604697"}}, {"type": "Feature", "geometry": {"type": "LineString", "coordinates": [[156.9102153307512, 69.0396936523895], [156.91919318467717, 69.03743856615631]]}, "properties": {"source": "10816706", "target": "9669614"}}, {"type": "Feature", "geometry": {"type": "LineString", "coordinates": [[156.9106462946002, 69.04052908914605], [156.91919318467717, 69.03743856615631]]}, "properties": {"source": "18052867", "target": "9669614"}}, {"type": "Feature", "geometry": {"type": "LineString", "coordinates": [[156.9106462946002, 69.04052908914605], [156.91098884098074, 69.03897155203208]]}, "properties": {"source": "18052867", "target": "15748098"}}, {"type": "Feature", "geometry": {"type": "LineString", "coordinates": [[156.90851187172825, 69.04114094664715], [156.91952042224204, 69.04169443481695]]}, "properties": {"source": "16035051", "target": "17793652"}}, {"type": "Feature", "geometry": {"type": "LineString", "coordinates": [[156.91030586162822, 69.04109514462218], [156.9124751670949, 69.04046088257635]]}, "properties": {"source": "16032392", "target": "18301200"}}, {"type": "Feature", "geometry": {"type": "LineString", "coordinates": [[156.91043410516926, 69.04140991387143], [156.91952042224204, 69.04169443481695]]}, "properties": {"source": "16000750", "target": "17793652"}}, {"type": "Feature", "geometry": {"type": "LineString", "coordinates": [[156.91043410516926, 69.04140991387143], [156.91601560589595, 69.03916931076455]]}, "properties": {"source": "16000750", "target": "1488581"}}, {"type": "Feature", "geometry": {"type": "LineString", "coordinates": [[156.91043410516926, 69.04140991387143], [156.90851187172825, 69.04114094664715]]}, "properties": {"source": "16000750", "target": "16035051"}}, {"type": "Feature", "geometry": {"type": "LineString", "coordinates": [[156.9168608673669, 69.03731717551665], [156.91466822886446, 69.03774137163248]]}, "properties": {"source": "23990637", "target": "25463844"}}, {"type": "Feature", "geometry": {"type": "LineString", "coordinates": [[156.9168608673669, 69.03731717551665], [156.91120147129357, 69.04049962581036]]}, "properties": {"source": "23990637", "target": "16070138"}}, {"type": "Feature", "geometry": {"type": "LineString", "coordinates": [[156.9168608673669, 69.03731717551665], [156.91598499240888, 69.03718972208787]]}, "properties": {"source": "23990637", "target": "1445308"}}, {"type": "Feature", "geometry": {"type": "LineString", "coordinates": [[156.9168608673669, 69.03731717551665], [156.91897747129025, 69.03912567933506]]}, "properties": {"source": "23990637", "target": "18750701"}}, {"type": "Feature", "geometry": {"type": "LineString", "coordinates": [[156.91043410516926, 69.04140991387143], [156.9089981196384, 69.03895184700522]]}, "properties": {"source": "16000750", "target": "13251577"}}, {"type": "Feature", "geometry": {"type": "LineString", "coordinates": [[156.9168608673669, 69.03731717551665], [156.9089981196384, 69.03895184700522]]}, "properties": {"source": "23990637", "target": "13251577"}}, {"type": "Feature", "geometry": {"type": "LineString", "coordinates": [[156.91771396975741, 69.03868570500225], [156.91547415460377, 69.04119113596639]]}, "properties": {"source": "11671037", "target": "10888303"}}, {"type": "Feature", "geometry": {"type": "LineString", "coordinates": [[156.90808877021675, 69.03958334628442], [156.91204698194838, 69.03892386434791]]}, "properties": {"source": "10224200", "target": "12652426"}}, {"type": "Feature", "geometry": {"type": "LineString", "coordinates": [[156.90808877021675, 69.03958334628442], [156.91901428878754, 69.04040213219292]]}, "properties": {"source": "10224200", "target": "21817068"}}, {"type": "Feature", "geometry": {"type": "LineString", "coordinates": [[156.90808877021675, 69.03958334628442], [156.91665620561514, 69.03765256269077]]}, "properties": {"source": "10224200", "target": "13136822"}}, {"type": "Feature", "geometry": {"type": "LineString", "coordinates": [[156.90808877021675, 69.03958334628442], [156.91436109882272, 69.03731731207907]]}, "properties": {"source": "10224200", "target": "8700967"}}, {"type": "Feature", "geometry": {"type": "LineString", "coordinates": [[156.90808877021675, 69.03958334628442], [156.91602734337658, 69.0386410870903]]}, "properties": {"source": "10224200", "target": "8991849"}}, {"type": "Feature", "geometry": {"type": "LineString", "coordinates": [[156.9215813113375, 69.04036705976364], [156.91204698194838, 69.03892386434791]]}, "properties": {"source": "8302924", "target": "12652426"}}, {"type": "Feature", "geometry": {"type": "LineString", "coordinates": [[156.9215813113375, 69.04036705976364], [156.91901428878754, 69.04040213219292]]}, "properties": {"source": "8302924", "target": "21817068"}}, {"type": "Feature", "geometry": {"type": "LineString", "coordinates": [[156.9215813113375, 69.04036705976364], [156.91665620561514, 69.03765256269077]]}, "properties": {"source": "8302924", "target": "13136822"}}, {"type": "Feature", "geometry": {"type": "LineString", "coordinates": [[156.9215813113375, 69.04036705976364], [156.912844822951, 69.04035820869217]]}, "properties": {"source": "8302924", "target": "8534319"}}, {"type": "Feature", "geometry": {"type": "LineString", "coordinates": [[156.9215813113375, 69.04036705976364], [156.91436109882272, 69.03731731207907]]}, "properties": {"source": "8302924", "target": "8700967"}}, {"type": "Feature", "geometry": {"type": "LineString", "coordinates": [[156.9215813113375, 69.04036705976364], [156.91602734337658, 69.0386410870903]]}, "properties": {"source": "8302924", "target": "8991849"}}, {"type": "Feature", "geometry": {"type": "LineString", "coordinates": [[156.9215813113375, 69.04036705976364], [156.90912973358382, 69.03898156483496]]}, "properties": {"source": "8302924", "target": "10224199"}}, {"type": "Feature", "geometry": {"type": "LineString", "coordinates": [[156.9215813113375, 69.04036705976364], [156.91963272369765, 69.03782729133331]]}, "properties": {"source": "8302924", "target": "8991860"}}, {"type": "Feature", "geometry": {"type": "LineString", "coordinates": [[156.9215813113375, 69.04036705976364], [156.91845606805856, 69.03957954890612]]}, "properties": {"source": "8302924", "target": "8632150"}}, {"type": "Feature", "geometry": {"type": "LineString", "coordinates": [[156.9215813113375, 69.04036705976364], [156.90808877021675, 69.03958334628442]]}, "properties": {"source": "8302924", "target": "10224200"}}, {"type": "Feature", "geometry": {"type": "LineString", "coordinates": [[156.91946492873785, 69.04056628672996], [156.91098884098074, 69.03897155203208]]}, "properties": {"source": "13583692", "target": "15748098"}}, {"type": "Feature", "geometry": {"type": "LineString", "coordinates": [[156.9082443954282, 69.0414872008609], [156.91878357103468, 69.04124081384762]]}, "properties": {"source": "25736473", "target": "12713790"}}, {"type": "Feature", "geometry": {"type": "LineString", "coordinates": [[156.9082443954282, 69.0414872008609], [156.9145304932806, 69.03877626990726]]}, "properties": {"source": "25736473", "target": "25456667"}}, {"type": "Feature", "geometry": {"type": "LineString", "coordinates": [[156.9124751670949, 69.04046088257635], [156.92024722635256, 69.03905638746352]]}, "properties": {"source": "18301200", "target": "15885286"}}, {"type": "Feature", "geometry": {"type": "LineString", "coordinates": [[156.91674215263856, 69.03935163691256], [156.92024722635256, 69.03905638746352]]}, "properties": {"source": "1514656", "target": "15885286"}}, {"type": "Feature", "geometry": {"type": "LineString", "coordinates": [[156.91674215263856, 69.03935163691256], [156.91077692699878, 69.04157261694266]]}, "properties": {"source": "1514656", "target": "15896213"}}, {"type": "Feature", "geometry": {"type": "LineString", "coordinates": [[156.90844038379447, 69.04102338058365], [156.91569623339427, 69.04097849217192]]}, "properties": {"source": "10656222", "target": "12479162"}}, {"type": "Feature", "geometry": {"type": "LineString", "coordinates": [[156.90844038379447, 69.04102338058365], [156.92024722635256, 69.03905638746352]]}, "properties": {"source": "10656222", "target": "15885286"}}, {"type": "Feature", "geometry": {"type": "LineString", "coordinates": [[156.90844038379447, 69.04102338058365], [156.9094067810317, 69.03839410314953]]}, "properties": {"source": "10656222", "target": "13604697"}}, {"type": "Feature", "geometry": {"type": "LineString", "coordinates": [[156.90966324136025, 69.03988175899136], [156.9168608673669, 69.03731717551665]]}, "properties": {"source": "23976023", "target": "23990637"}}, {"type": "Feature", "geometry": {"type": "LineString", "coordinates": [[156.90966324136025, 69.03988175899136], [156.91466822886446, 69.03774137163248]]}, "properties": {"source": "23976023", "target": "25463844"}}, {"type": "Feature", "geometry": {"type": "LineString", "coordinates": [[156.90966324136025, 69.03988175899136], [156.91120147129357, 69.04049962581036]]}, "properties": {"source": "23976023", "target": "16070138"}}, {"type": "Feature", "geometry": {"type": "LineString", "coordinates": [[156.90966324136025, 69.03988175899136], [156.91598499240888, 69.03718972208787]]}, "properties": {"source": "23976023", "target": "1445308"}}, {"type": "Feature", "geometry": {"type": "LineString", "coordinates": [[156.91022722205918, 69.03776502390411], [156.91602734337658, 69.0386410870903]]}, "properties": {"source": "9458059", "target": "8991849"}}, {"type": "Feature", "geometry": {"type": "LineString", "coordinates": [[156.91022722205918, 69.03776502390411], [156.91845606805856, 69.03957954890612]]}, "properties": {"source": "9458059", "target": "8632150"}}, {"type": "Feature", "geometry": {"type": "LineString", "coordinates": [[156.91022722205918, 69.03776502390411], [156.91794728942193, 69.03892706337282]]}, "properties": {"source": "9458059", "target": "9338957"}}, {"type": "Feature", "geometry": {"type": "LineString", "coordinates": [[156.91294166954629, 69.04126275549143], [156.92024722635256, 69.03905638746352]]}, "properties": {"source": "14290509", "target": "15885286"}}, {"type": "Feature", "geometry": {"type": "LineString", "coordinates": [[156.91294166954629, 69.04126275549143], [156.9094067810317, 69.03839410314953]]}, "properties": {"source": "14290509", "target": "13604697"}}, {"type": "Feature", "geometry": {"type": "LineString", "coordinates": [[156.91294166954629, 69.04126275549143], [156.91030586162822, 69.04109514462218]]}, "properties": {"source": "14290509", "target": "16032392"}}, {"type": "Feature", "geometry": {"type": "LineString", "coordinates": [[156.91294166954629, 69.04126275549143], [156.91900172577726, 69.03834767436891]]}, "properties": {"source": "14290509", "target": "17453578"}}, {"type": "Feature", "geometry": {"type": "LineString", "coordinates": [[156.91900172577726, 69.03834767436891], [156.92024722635256, 69.03905638746352]]}, "properties": {"source": "17453578", "target": "15885286"}}, {"type": "Feature", "geometry": {"type": "LineString", "coordinates": [[156.91900172577726, 69.03834767436891], [156.91030586162822, 69.04109514462218]]}, "properties": {"source": "17453578", "target": "16032392"}}, {"type": "Feature", "geometry": {"type": "LineString", "coordinates": [[156.91204698194838, 69.03892386434791], [156.91602734337658, 69.0386410870903]]}, "properties": {"source": "12652426", "target": "8991849"}}, {"type": "Feature", "geometry": {"type": "LineString", "coordinates": [[156.91204698194838, 69.03892386434791], [156.91684335536382, 69.03814875239289]]}, "properties": {"source": "12652426", "target": "11462338"}}, {"type": "Feature", "geometry": {"type": "LineString", "coordinates": [[156.91204698194838, 69.03892386434791], [156.90838020715796, 69.0397698781371]]}, "properties": {"source": "12652426", "target": "12368137"}}, {"type": "Feature", "geometry": {"type": "LineString", "coordinates": [[156.91204698194838, 69.03892386434791], [156.91963272369765, 69.03782729133331]]}, "properties": {"source": "12652426", "target": "8991860"}}, {"type": "Feature", "geometry": {"type": "LineString", "coordinates": [[156.91204698194838, 69.03892386434791], [156.9091535510811, 69.03851653926219]]}, "properties": {"source": "12652426", "target": "11469550"}}, {"type": "Feature", "geometry": {"type": "LineString", "coordinates": [[156.91707837361702, 69.04124418918929], [156.91569623339427, 69.04097849217192]]}, "properties": {"source": "15992395", "target": "12479162"}}, {"type": "Feature", "geometry": {"type": "LineString", "coordinates": [[156.91707837361702, 69.04124418918929], [156.92024722635256, 69.03905638746352]]}, "properties": {"source": "15992395", "target": "15885286"}}, {"type": "Feature", "geometry": {"type": "LineString", "coordinates": [[156.91707837361702, 69.04124418918929], [156.9094067810317, 69.03839410314953]]}, "properties": {"source": "15992395", "target": "13604697"}}, {"type": "Feature", "geometry": {"type": "LineString", "coordinates": [[156.91707837361702, 69.04124418918929], [156.91919318467717, 69.03743856615631]]}, "properties": {"source": "15992395", "target": "9669614"}}, {"type": "Feature", "geometry": {"type": "LineString", "coordinates": [[156.91707837361702, 69.04124418918929], [156.9089981196384, 69.03895184700522]]}, "properties": {"source": "15992395", "target": "13251577"}}, {"type": "Feature", "geometry": {"type": "LineString", "coordinates": [[156.91707837361702, 69.04124418918929], [156.91030586162822, 69.04109514462218]]}, "properties": {"source": "15992395", "target": "16032392"}}, {"type": "Feature", "geometry": {"type": "LineString", "coordinates": [[156.91707837361702, 69.04124418918929], [156.91043410516926, 69.04140991387143]]}, "properties": {"source": "15992395", "target": "16000750"}}, {"type": "Feature", "geometry": {"type": "LineString", "coordinates": [[156.91707837361702, 69.04124418918929], [156.91098884098074, 69.03897155203208]]}, "properties": {"source": "15992395", "target": "15748098"}}, {"type": "Feature", "geometry": {"type": "LineString", "coordinates": [[156.91707837361702, 69.04124418918929], [156.91952042224204, 69.04169443481695]]}, "properties": {"source": "15992395", "target": "17793652"}}, {"type": "Feature", "geometry": {"type": "LineString", "coordinates": [[156.91707837361702, 69.04124418918929], [156.91601560589595, 69.03916931076455]]}, "properties": {"source": "15992395", "target": "1488581"}}, {"type": "Feature", "geometry": {"type": "LineString", "coordinates": [[156.9106462946002, 69.04052908914605], [156.9101003202647, 69.03978983423437]]}, "properties": {"source": "18052867", "target": "17313971"}}, {"type": "Feature", "geometry": {"type": "LineString", "coordinates": [[156.9158535169944, 69.03833585336727], [156.91901428878754, 69.04040213219292]]}, "properties": {"source": "22047472", "target": "21817068"}}, {"type": "Feature", "geometry": {"type": "LineString", "coordinates": [[156.9158535169944, 69.03833585336727], [156.91665620561514, 69.03765256269077]]}, "properties": {"source": "22047472", "target": "13136822"}}, {"type": "Feature", "geometry": {"type": "LineString", "coordinates": [[156.9158535169944, 69.03833585336727], [156.91426322731206, 69.03794844113577]]}, "properties": {"source": "22047472", "target": "26062817"}}, {"type": "Feature", "geometry": {"type": "LineString", "coordinates": [[156.91794728942193, 69.03892706337282], [156.91602734337658, 69.0386410870903]]}, "properties": {"source": "9338957", "target": "8991849"}}, {"type": "Feature", "geometry": {"type": "LineString", "coordinates": [[156.91794728942193, 69.03892706337282], [156.91845606805856, 69.03957954890612]]}, "properties": {"source": "9338957", "target": "8632150"}}, {"type": "Feature", "geometry": {"type": "LineString", "coordinates": [[156.91280768016532, 69.03985184228304], [156.91878357103468, 69.04124081384762]]}, "properties": {"source": "19315400", "target": "12713790"}}, {"type": "Feature", "geometry": {"type": "LineString", "coordinates": [[156.91280768016532, 69.03985184228304], [156.9082443954282, 69.0414872008609]]}, "properties": {"source": "19315400", "target": "25736473"}}, {"type": "Feature", "geometry": {"type": "LineString", "coordinates": [[156.91280768016532, 69.03985184228304], [156.9145304932806, 69.03877626990726]]}, "properties": {"source": "19315400", "target": "25456667"}}, {"type": "Feature", "geometry": {"type": "LineString", "coordinates": [[156.91946492873785, 69.04056628672996], [156.91919318467717, 69.03743856615631]]}, "properties": {"source": "13583692", "target": "9669614"}}, {"type": "Feature", "geometry": {"type": "LineString", "coordinates": [[156.91707837361702, 69.04124418918929], [156.92037597839357, 69.03938738116972]]}, "properties": {"source": "15992395", "target": "1810458"}}, {"type": "Feature", "geometry": {"type": "LineString", "coordinates": [[156.91727497303987, 69.03855865852603], [156.91878338370418, 69.04158023838633]]}, "properties": {"source": "25223306", "target": "11066849"}}, {"type": "Feature", "geometry": {"type": "LineString", "coordinates": [[156.91727497303987, 69.03855865852603], [156.90838020715796, 69.0397698781371]]}, "properties": {"source": "25223306", "target": "12368137"}}, {"type": "Feature", "geometry": {"type": "LineString", "coordinates": [[156.91727497303987, 69.03855865852603], [156.90844038379447, 69.04102338058365]]}, "properties": {"source": "25223306", "target": "10656222"}}, {"type": "Feature", "geometry": {"type": "LineString", "coordinates": [[156.91727497303987, 69.03855865852603], [156.9102153307512, 69.0396936523895]]}, "properties": {"source": "25223306", "target": "10816706"}}, {"type": "Feature", "geometry": {"type": "LineString", "coordinates": [[156.91030586162822, 69.04109514462218], [156.92024722635256, 69.03905638746352]]}, "properties": {"source": "16032392", "target": "15885286"}}, {"type": "Feature", "geometry": {"type": "LineString", "coordinates": [[156.91030586162822, 69.04109514462218], [156.9094067810317, 69.03839410314953]]}, "properties": {"source": "16032392", "target": "13604697"}}, {"type": "Feature", "geometry": {"type": "LineString", "coordinates": [[156.91771396975741, 69.03868570500225], [156.91204698194838, 69.03892386434791]]}, "properties": {"source": "11671037", "target": "12652426"}}, {"type": "Feature", "geometry": {"type": "LineString", "coordinates": [[156.91771396975741, 69.03868570500225], [156.91901428878754, 69.04040213219292]]}, "properties": {"source": "11671037", "target": "21817068"}}, {"type": "Feature", "geometry": {"type": "LineString", "coordinates": [[156.91771396975741, 69.03868570500225], [156.91665620561514, 69.03765256269077]]}, "properties": {"source": "11671037", "target": "13136822"}}, {"type": "Feature", "geometry": {"type": "LineString", "coordinates": [[156.91771396975741, 69.03868570500225], [156.912844822951, 69.04035820869217]]}, "properties": {"source": "11671037", "target": "8534319"}}, {"type": "Feature", "geometry": {"type": "LineString", "coordinates": [[156.91771396975741, 69.03868570500225], [156.91436109882272, 69.03731731207907]]}, "properties": {"source": "11671037", "target": "8700967"}}, {"type": "Feature", "geometry": {"type": "LineString", "coordinates": [[156.91771396975741, 69.03868570500225], [156.91602734337658, 69.0386410870903]]}, "properties": {"source": "11671037", "target": "8991849"}}, {"type": "Feature", "geometry": {"type": "LineString", "coordinates": [[156.91771396975741, 69.03868570500225], [156.91684335536382, 69.03814875239289]]}, "properties": {"source": "11671037", "target": "11462338"}}, {"type": "Feature", "geometry": {"type": "LineString", "coordinates": [[156.91771396975741, 69.03868570500225], [156.9207244743369, 69.03937126042015]]}, "properties": {"source": "11671037", "target": "11747355"}}, {"type": "Feature", "geometry": {"type": "LineString", "coordinates": [[156.91771396975741, 69.03868570500225], [156.91569623339427, 69.04097849217192]]}, "properties": {"source": "11671037", "target": "12479162"}}, {"type": "Feature", "geometry": {"type": "LineString", "coordinates": [[156.91771396975741, 69.03868570500225], [156.90808877021675, 69.03958334628442]]}, "properties": {"source": "11671037", "target": "10224200"}}, {"type": "Feature", "geometry": {"type": "LineString", "coordinates": [[156.91050950919447, 69.03728551421875], [156.91707837361702, 69.04124418918929]]}, "properties": {"source": "140233", "target": "15992395"}}, {"type": "Feature", "geometry": {"type": "LineString", "coordinates": [[156.91050950919447, 69.03728551421875], [156.91043410516926, 69.04140991387143]]}, "properties": {"source": "140233", "target": "16000750"}}, {"type": "Feature", "geometry": {"type": "LineString", "coordinates": [[156.91050950919447, 69.03728551421875], [156.91952042224204, 69.04169443481695]]}, "properties": {"source": "140233", "target": "17793652"}}, {"type": "Feature", "geometry": {"type": "LineString", "coordinates": [[156.91050950919447, 69.03728551421875], [156.91601560589595, 69.03916931076455]]}, "properties": {"source": "140233", "target": "1488581"}}, {"type": "Feature", "geometry": {"type": "LineString", "coordinates": [[156.90838020715796, 69.0397698781371], [156.91963272369765, 69.03782729133331]]}, "properties": {"source": "12368137", "target": "8991860"}}, {"type": "Feature", "geometry": {"type": "LineString", "coordinates": [[156.91963272369765, 69.03782729133331], [156.91602734337658, 69.0386410870903]]}, "properties": {"source": "8991860", "target": "8991849"}}, {"type": "Feature", "geometry": {"type": "LineString", "coordinates": [[156.91963272369765, 69.03782729133331], [156.91684335536382, 69.03814875239289]]}, "properties": {"source": "8991860", "target": "11462338"}}, {"type": "Feature", "geometry": {"type": "LineString", "coordinates": [[156.91547415460377, 69.04119113596639], [156.91204698194838, 69.03892386434791]]}, "properties": {"source": "10888303", "target": "12652426"}}, {"type": "Feature", "geometry": {"type": "LineString", "coordinates": [[156.91547415460377, 69.04119113596639], [156.91684335536382, 69.03814875239289]]}, "properties": {"source": "10888303", "target": "11462338"}}, {"type": "Feature", "geometry": {"type": "LineString", "coordinates": [[156.91919318467717, 69.03743856615631], [156.91963272369765, 69.03782729133331]]}, "properties": {"source": "9669614", "target": "8991860"}}, {"type": "Feature", "geometry": {"type": "LineString", "coordinates": [[156.91919318467717, 69.03743856615631], [156.91098884098074, 69.03897155203208]]}, "properties": {"source": "9669614", "target": "15748098"}}, {"type": "Feature", "geometry": {"type": "LineString", "coordinates": [[156.91727497303987, 69.03855865852603], [156.91204698194838, 69.03892386434791]]}, "properties": {"source": "25223306", "target": "12652426"}}, {"type": "Feature", "geometry": {"type": "LineString", "coordinates": [[156.91727497303987, 69.03855865852603], [156.9207244743369, 69.03937126042015]]}, "properties": {"source": "25223306", "target": "11747355"}}, {"type": "Feature", "geometry": {"type": "LineString", "coordinates": [[156.91727497303987, 69.03855865852603], [156.91569623339427, 69.04097849217192]]}, "properties": {"source": "25223306", "target": "12479162"}}, {"type": "Feature", "geometry": {"type": "LineString", "coordinates": [[156.91050950919447, 69.03728551421875], [156.9089981196384, 69.03895184700522]]}, "properties": {"source": "140233", "target": "13251577"}}, {"type": "Feature", "geometry": {"type": "LineString", "coordinates": [[156.91050950919447, 69.03728551421875], [156.92037597839357, 69.03938738116972]]}, "properties": {"source": "140233", "target": "1810458"}}]}