{"type": "FeatureCollection", "features": [{"type": "Feature", "geometry": {"type": "LineString", "coordinates": [[148.62033630892353, 69.2297202696464], [148.6207059582169, 69.2297283236951]]}, "properties": {"source": "7114176", "target": "3467451"}}, {"type": "Feature", "geometry": {"type": "LineString", "coordinates": [[148.62033630892353, 69.2297202696464], [148.620440863753, 69.22996041053702]]}, "properties": {"source": "7114176", "target": "3591032"}}, {"type": "Feature", "geometry": {"type": "LineString", "coordinates": [[148.62033630892353, 69.2297202696464], [148.62066866231265, 69.2298082405002]]}, "properties": {"source": "7114176", "target": "32672376"}}, {"type": "Feature", "geometry": {"type": "LineString", "coordinates": [[148.62033630892353, 69.2297202696464], [148.6208071027579, 69.22970113700669]]}, "properties": {"source": "7114176", "target": "9690276"}}, {"type": "Feature", "geometry": {"type": "LineString", "coordinates": [[148.6207059582169, 69.2297283236951], [148.620440863753, 69.22996041053702]]}, "properties": {"source": "3467451", "target": "3591032"}}, {"type": "Feature", "geometry": {"type": "LineString", "coordinates": [[148.6207059582169, 69.2297283236951], [148.62066866231265, 69.2298082405002]]}, "properties": {"source": "3467451", "target": "32672376"}}, {"type": "Feature", "geometry": {"type": "LineString", "coordinates": [[148.6207059582169, 69.2297283236951], [148.6208071027579, 69.22970113700669]]}, "properties": {"source": "3467451", "target": "9690276"}}, {"type": "Feature", "geometry": {"type": "LineString", "coordinates": [[148.620440863753, 69.22996041053702], [148.62066866231265, 69.2298082405002]]}, "properties": {"source": "3591032", "target": "32672376"}}, {"type": "Feature", "geometry": {"type": "LineString", "coordinates": [[148.620440863753, 69.22996041053702], [148.6208071027579, 69.22970113700669]]}, "properties": {"source": "3591032", "target": "9690276"}}, {"type": "Feature", "geometry": {"type": "LineString", "coordinates": [[148.62066866231265, 69.2298082405002], [148.6208071027579, 69.22970113700669]]}, "properties": {"source": "32672376", "target": "9690276"}}, {"type": "Feature", "geometry": {"type": "LineString", "coordinates": [[148.62046155144185, 69.2299938848202], [148.6205588397994, 69.22990376061918]]}, "properties": {"source": "7502918", "target": "30373132"}}, {"type": "Feature", "geometry": {"type": "LineString", "coordinates": [[148.62046155144185, 69.2299938848202], [148.62033630892353, 69.2297202696464]]}, "properties": {"source": "7502918", "target": "7114176"}}, {"type": "Feature", "geometry": {"type": "LineString", "coordinates": [[148.62046155144185, 69.2299938848202], [148.6207059582169, 69.2297283236951]]}, "properties": {"source": "7502918", "target": "3467451"}}, {"type": "Feature", "geometry": {"type": "LineString", "coordinates": [[148.62046155144185, 69.2299938848202], [148.620440863753, 69.22996041053702]]}, "properties": {"source": "7502918", "target": "3591032"}}, {"type": "Feature", "geometry": {"type": "LineString", "coordinates": [[148.62046155144185, 69.2299938848202], [148.62066866231265, 69.2298082405002]]}, "properties": {"source": "7502918", "target": "32672376"}}, {"type": "Feature", "geometry": {"type": "LineString", "coordinates": [[148.62046155144185, 69.2299938848202], [148.6208071027579, 69.22970113700669]]}, "properties": {"source": "7502918", "target": "9690276"}}, {"type": "Feature", "geometry": {"type": "LineString", "coordinates": [[148.6205588397994, 69.22990376061918], [148.62033630892353, 69.2297202696464]]}, "properties": {"source": "30373132", "target": "7114176"}}, {"type": "Feature", "geometry": {"type": "LineString", "coordinates": [[148.6205588397994, 69.22990376061918], [148.6207059582169, 69.2297283236951]]}, "properties": {"source": "30373132", "target": "3467451"}}, {"type": "Feature", "geometry": {"type": "LineString", "coordinates": [[148.6205588397994, 69.22990376061918], [148.620440863753, 69.22996041053702]]}, "properties": {"source": "30373132", "target": "3591032"}}, {"type": "Feature", "geometry": {"type": "LineString", "coordinates": [[148.6205588397994, 69.22990376061918], [148.62066866231265, 69.2298082405002]]}, "properties": {"source": "30373132", "target": "32672376"}}, {"type": "Feature", "geometry": {"type": "LineString", "coordinates": [[148.6205588397994, 69.22990376061918], [148.6208071027579, 69.22970113700669]]}, "properties": {"source": "30373132", "target": "9690276"}}]}