{"type": "FeatureCollection", "features": [{"type": "Feature", "geometry": {"type": "LineString", "coordinates": [[148.02198214107278, 69.23003653373488], [148.02198292693896, 69.23017916190366]]}, "properties": {"source": "3236996", "target": "2973744"}}, {"type": "Feature", "geometry": {"type": "LineString", "coordinates": [[148.02198214107278, 69.23003653373488], [148.02130421604886, 69.2300187530675]]}, "properties": {"source": "3236996", "target": "6306007"}}, {"type": "Feature", "geometry": {"type": "LineString", "coordinates": [[148.02198214107278, 69.23003653373488], [148.02098795680308, 69.22986605152076]]}, "properties": {"source": "3236996", "target": "1997876"}}, {"type": "Feature", "geometry": {"type": "LineString", "coordinates": [[148.02198214107278, 69.23003653373488], [148.02095603709762, 69.23009496576879]]}, "properties": {"source": "3236996", "target": "3236901"}}, {"type": "Feature", "geometry": {"type": "LineString", "coordinates": [[148.02198292693896, 69.23017916190366], [148.02130421604886, 69.2300187530675]]}, "properties": {"source": "2973744", "target": "6306007"}}, {"type": "Feature", "geometry": {"type": "LineString", "coordinates": [[148.02198292693896, 69.23017916190366], [148.02098795680308, 69.22986605152076]]}, "properties": {"source": "2973744", "target": "1997876"}}, {"type": "Feature", "geometry": {"type": "LineString", "coordinates": [[148.02198292693896, 69.23017916190366], [148.02095603709762, 69.23009496576879]]}, "properties": {"source": "2973744", "target": "3236901"}}, {"type": "Feature", "geometry": {"type": "LineString", "coordinates": [[148.02130421604886, 69.2300187530675], [148.02098795680308, 69.22986605152076]]}, "properties": {"source": "6306007", "target": "1997876"}}, {"type": "Feature", "geometry": {"type": "LineString", "coordinates": [[148.02130421604886, 69.2300187530675], [148.02095603709762, 69.23009496576879]]}, "properties": {"source": "6306007", "target": "3236901"}}, {"type": "Feature", "geometry": {"type": "LineString", "coordinates": [[148.02098795680308, 69.22986605152076], [148.02095603709762, 69.23009496576879]]}, "properties": {"source": "1997876", "target": "3236901"}}, {"type": "Feature", "geometry": {"type": "LineString", "coordinates": [[148.02106904829412, 69.22984653587255], [148.02147735378833, 69.2301422307282]]}, "properties": {"source": "11520128", "target": "231662"}}, {"type": "Feature", "geometry": {"type": "LineString", "coordinates": [[148.02106904829412, 69.22984653587255], [148.02198214107278, 69.23003653373488]]}, "properties": {"source": "11520128", "target": "3236996"}}, {"type": "Feature", "geometry": {"type": "LineString", "coordinates": [[148.02106904829412, 69.22984653587255], [148.02198292693896, 69.23017916190366]]}, "properties": {"source": "11520128", "target": "2973744"}}, {"type": "Feature", "geometry": {"type": "LineString", "coordinates": [[148.02106904829412, 69.22984653587255], [148.02130421604886, 69.2300187530675]]}, "properties": {"source": "11520128", "target": "6306007"}}, {"type": "Feature", "geometry": {"type": "LineString", "coordinates": [[148.02106904829412, 69.22984653587255], [148.02098795680308, 69.22986605152076]]}, "properties": {"source": "11520128", "target": "1997876"}}, {"type": "Feature", "geometry": {"type": "LineString", "coordinates": [[148.02106904829412, 69.22984653587255], [148.02095603709762, 69.23009496576879]]}, "properties": {"source": "11520128", "target": "3236901"}}, {"type": "Feature", "geometry": {"type": "LineString", "coordinates": [[148.02147735378833, 69.2301422307282], [148.02198214107278, 69.23003653373488]]}, "properties": {"source": "231662", "target": "3236996"}}, {"type": "Feature", "geometry": {"type": "LineString", "coordinates": [[148.02147735378833, 69.2301422307282], [148.02198292693896, 69.23017916190366]]}, "properties": {"source": "231662", "target": "2973744"}}, {"type": "Feature", "geometry": {"type": "LineString", "coordinates": [[148.02147735378833, 69.2301422307282], [148.02130421604886, 69.2300187530675]]}, "properties": {"source": "231662", "target": "6306007"}}, {"type": "Feature", "geometry": {"type": "LineString", "coordinates": [[148.02147735378833, 69.2301422307282], [148.02098795680308, 69.22986605152076]]}, "properties": {"source": "231662", "target": "1997876"}}, {"type": "Feature", "geometry": {"type": "LineString", "coordinates": [[148.02147735378833, 69.2301422307282], [148.02095603709762, 69.23009496576879]]}, "properties": {"source": "231662", "target": "3236901"}}]}