{"type": "FeatureCollection", "features": [{"type": "Feature", "geometry": {"type": "LineString", "coordinates": [[148.95139594314526, 69.22988278707967], [148.95194643002702, 69.23008394246736]]}, "properties": {"source": "23384602", "target": "21685935"}}, {"type": "Feature", "geometry": {"type": "LineString", "coordinates": [[148.95139594314526, 69.22988278707967], [148.95132746355858, 69.23009168950054]]}, "properties": {"source": "23384602", "target": "21727098"}}, {"type": "Feature", "geometry": {"type": "LineString", "coordinates": [[148.95139594314526, 69.22988278707967], [148.95172638063633, 69.23004794167676]]}, "properties": {"source": "23384602", "target": "21716539"}}, {"type": "Feature", "geometry": {"type": "LineString", "coordinates": [[148.95139594314526, 69.22988278707967], [148.951510966505, 69.22994419492628]]}, "properties": {"source": "23384602", "target": "21711458"}}, {"type": "Feature", "geometry": {"type": "LineString", "coordinates": [[148.95139594314526, 69.22988278707967], [148.95217418750468, 69.22993898667556]]}, "properties": {"source": "23384602", "target": "21775330"}}, {"type": "Feature", "geometry": {"type": "LineString", "coordinates": [[148.95194643002702, 69.23008394246736], [148.95132746355858, 69.23009168950054]]}, "properties": {"source": "21685935", "target": "21727098"}}, {"type": "Feature", "geometry": {"type": "LineString", "coordinates": [[148.95194643002702, 69.23008394246736], [148.95172638063633, 69.23004794167676]]}, "properties": {"source": "21685935", "target": "21716539"}}, {"type": "Feature", "geometry": {"type": "LineString", "coordinates": [[148.95194643002702, 69.23008394246736], [148.951510966505, 69.22994419492628]]}, "properties": {"source": "21685935", "target": "21711458"}}, {"type": "Feature", "geometry": {"type": "LineString", "coordinates": [[148.95194643002702, 69.23008394246736], [148.95217418750468, 69.22993898667556]]}, "properties": {"source": "21685935", "target": "21775330"}}, {"type": "Feature", "geometry": {"type": "LineString", "coordinates": [[148.95132746355858, 69.23009168950054], [148.95172638063633, 69.23004794167676]]}, "properties": {"source": "21727098", "target": "21716539"}}, {"type": "Feature", "geometry": {"type": "LineString", "coordinates": [[148.95132746355858, 69.23009168950054], [148.951510966505, 69.22994419492628]]}, "properties": {"source": "21727098", "target": "21711458"}}, {"type": "Feature", "geometry": {"type": "LineString", "coordinates": [[148.95132746355858, 69.23009168950054], [148.95217418750468, 69.22993898667556]]}, "properties": {"source": "21727098", "target": "21775330"}}, {"type": "Feature", "geometry": {"type": "LineString", "coordinates": [[148.95172638063633, 69.23004794167676], [148.951510966505, 69.22994419492628]]}, "properties": {"source": "21716539", "target": "21711458"}}, {"type": "Feature", "geometry": {"type": "LineString", "coordinates": [[148.95172638063633, 69.23004794167676], [148.95217418750468, 69.22993898667556]]}, "properties": {"source": "21716539", "target": "21775330"}}, {"type": "Feature", "geometry": {"type": "LineString", "coordinates": [[148.951510966505, 69.22994419492628], [148.95217418750468, 69.22993898667556]]}, "properties": {"source": "21711458", "target": "21775330"}}]}