{"type": "FeatureCollection", "features": [{"type": "Feature", "geometry": {"type": "LineString", "coordinates": [[128.52762103411504, 69.22982465575399], [128.52747067886173, 69.23089175981977]]}, "properties": {"source": "13494834", "target": "8087051"}}, {"type": "Feature", "geometry": {"type": "LineString", "coordinates": [[128.52762103411504, 69.22982465575399], [128.52745181113914, 69.23030145011603]]}, "properties": {"source": "13494834", "target": "23590446"}}, {"type": "Feature", "geometry": {"type": "LineString", "coordinates": [[128.52762103411504, 69.22982465575399], [128.5263532866408, 69.22994701824157]]}, "properties": {"source": "13494834", "target": "1184366"}}, {"type": "Feature", "geometry": {"type": "LineString", "coordinates": [[128.5263532866408, 69.22994701824157], [128.52531865876938, 69.23059047153794]]}, "properties": {"source": "1184366", "target": "5116480"}}, {"type": "Feature", "geometry": {"type": "LineString", "coordinates": [[128.5263532866408, 69.22994701824157], [128.5247702436847, 69.23056827911128]]}, "properties": {"source": "1184366", "target": "6834864"}}, {"type": "Feature", "geometry": {"type": "LineString", "coordinates": [[128.5263532866408, 69.22994701824157], [128.52735433609723, 69.23085062906864]]}, "properties": {"source": "1184366", "target": "454600"}}, {"type": "Feature", "geometry": {"type": "LineString", "coordinates": [[128.5263532866408, 69.22994701824157], [128.52747067886173, 69.23089175981977]]}, "properties": {"source": "1184366", "target": "8087051"}}, {"type": "Feature", "geometry": {"type": "LineString", "coordinates": [[128.52751513674235, 69.23060884794981], [128.52531865876938, 69.23059047153794]]}, "properties": {"source": "143728", "target": "5116480"}}, {"type": "Feature", "geometry": {"type": "LineString", "coordinates": [[128.52751513674235, 69.23060884794981], [128.5247702436847, 69.23056827911128]]}, "properties": {"source": "143728", "target": "6834864"}}, {"type": "Feature", "geometry": {"type": "LineString", "coordinates": [[128.5245790884524, 69.23070741678029], [128.52747067886173, 69.23089175981977]]}, "properties": {"source": "21197811", "target": "8087051"}}, {"type": "Feature", "geometry": {"type": "LineString", "coordinates": [[128.5245790884524, 69.23070741678029], [128.52798986337666, 69.23034388492638]]}, "properties": {"source": "21197811", "target": "971239"}}, {"type": "Feature", "geometry": {"type": "LineString", "coordinates": [[128.5245790884524, 69.23070741678029], [128.52745181113914, 69.23030145011603]]}, "properties": {"source": "21197811", "target": "23590446"}}, {"type": "Feature", "geometry": {"type": "LineString", "coordinates": [[128.5245790884524, 69.23070741678029], [128.52762103411504, 69.22982465575399]]}, "properties": {"source": "21197811", "target": "13494834"}}, {"type": "Feature", "geometry": {"type": "LineString", "coordinates": [[128.5245790884524, 69.23070741678029], [128.5263532866408, 69.22994701824157]]}, "properties": {"source": "21197811", "target": "1184366"}}, {"type": "Feature", "geometry": {"type": "LineString", "coordinates": [[128.52798986337666, 69.23034388492638], [128.52528105069166, 69.23013093007742]]}, "properties": {"source": "971239", "target": "1950067"}}, {"type": "Feature", "geometry": {"type": "LineString", "coordinates": [[128.52798986337666, 69.23034388492638], [128.52531865876938, 69.23059047153794]]}, "properties": {"source": "971239", "target": "5116480"}}, {"type": "Feature", "geometry": {"type": "LineString", "coordinates": [[128.52798986337666, 69.23034388492638], [128.5247702436847, 69.23056827911128]]}, "properties": {"source": "971239", "target": "6834864"}}, {"type": "Feature", "geometry": {"type": "LineString", "coordinates": [[128.52798986337666, 69.23034388492638], [128.52735433609723, 69.23085062906864]]}, "properties": {"source": "971239", "target": "454600"}}, {"type": "Feature", "geometry": {"type": "LineString", "coordinates": [[128.52798986337666, 69.23034388492638], [128.5269205938751, 69.22977671850933]]}, "properties": {"source": "971239", "target": "17368237"}}, {"type": "Feature", "geometry": {"type": "LineString", "coordinates": [[128.52798986337666, 69.23034388492638], [128.52747067886173, 69.23089175981977]]}, "properties": {"source": "971239", "target": "8087051"}}, {"type": "Feature", "geometry": {"type": "LineString", "coordinates": [[128.52798986337666, 69.23034388492638], [128.52745181113914, 69.23030145011603]]}, "properties": {"source": "971239", "target": "23590446"}}, {"type": "Feature", "geometry": {"type": "LineString", "coordinates": [[128.52798986337666, 69.23034388492638], [128.52751513674235, 69.23060884794981]]}, "properties": {"source": "971239", "target": "143728"}}, {"type": "Feature", "geometry": {"type": "LineString", "coordinates": [[128.52745181113914, 69.23030145011603], [128.52735433609723, 69.23085062906864]]}, "properties": {"source": "23590446", "target": "454600"}}, {"type": "Feature", "geometry": {"type": "LineString", "coordinates": [[128.52762103411504, 69.22982465575399], [128.52531865876938, 69.23059047153794]]}, "properties": {"source": "13494834", "target": "5116480"}}, {"type": "Feature", "geometry": {"type": "LineString", "coordinates": [[128.52762103411504, 69.22982465575399], [128.5247702436847, 69.23056827911128]]}, "properties": {"source": "13494834", "target": "6834864"}}, {"type": "Feature", "geometry": {"type": "LineString", "coordinates": [[128.52642201872294, 69.2301021203435], [128.52747067886173, 69.23089175981977]]}, "properties": {"source": "352262", "target": "8087051"}}, {"type": "Feature", "geometry": {"type": "LineString", "coordinates": [[128.52642201872294, 69.2301021203435], [128.52798986337666, 69.23034388492638]]}, "properties": {"source": "352262", "target": "971239"}}, {"type": "Feature", "geometry": {"type": "LineString", "coordinates": [[128.52642201872294, 69.2301021203435], [128.52745181113914, 69.23030145011603]]}, "properties": {"source": "352262", "target": "23590446"}}, {"type": "Feature", "geometry": {"type": "LineString", "coordinates": [[128.52642201872294, 69.2301021203435], [128.52751513674235, 69.23060884794981]]}, "properties": {"source": "352262", "target": "143728"}}, {"type": "Feature", "geometry": {"type": "LineString", "coordinates": [[128.52642201872294, 69.2301021203435], [128.52420521943407, 69.23093569498661]]}, "properties": {"source": "352262", "target": "2030553"}}, {"type": "Feature", "geometry": {"type": "LineString", "coordinates": [[128.52587049223393, 69.23069270641454], [128.52528105069166, 69.23013093007742]]}, "properties": {"source": "1050410", "target": "1950067"}}, {"type": "Feature", "geometry": {"type": "LineString", "coordinates": [[128.52587049223393, 69.23069270641454], [128.52531865876938, 69.23059047153794]]}, "properties": {"source": "1050410", "target": "5116480"}}, {"type": "Feature", "geometry": {"type": "LineString", "coordinates": [[128.52587049223393, 69.23069270641454], [128.5247702436847, 69.23056827911128]]}, "properties": {"source": "1050410", "target": "6834864"}}, {"type": "Feature", "geometry": {"type": "LineString", "coordinates": [[128.52587049223393, 69.23069270641454], [128.5269205938751, 69.22977671850933]]}, "properties": {"source": "1050410", "target": "17368237"}}, {"type": "Feature", "geometry": {"type": "LineString", "coordinates": [[128.52528105069166, 69.23013093007742], [128.5247702436847, 69.23056827911128]]}, "properties": {"source": "1950067", "target": "6834864"}}, {"type": "Feature", "geometry": {"type": "LineString", "coordinates": [[128.52528105069166, 69.23013093007742], [128.52735433609723, 69.23085062906864]]}, "properties": {"source": "1950067", "target": "454600"}}, {"type": "Feature", "geometry": {"type": "LineString", "coordinates": [[128.52528105069166, 69.23013093007742], [128.52747067886173, 69.23089175981977]]}, "properties": {"source": "1950067", "target": "8087051"}}, {"type": "Feature", "geometry": {"type": "LineString", "coordinates": [[128.52528105069166, 69.23013093007742], [128.52745181113914, 69.23030145011603]]}, "properties": {"source": "1950067", "target": "23590446"}}, {"type": "Feature", "geometry": {"type": "LineString", "coordinates": [[128.52528105069166, 69.23013093007742], [128.52762103411504, 69.22982465575399]]}, "properties": {"source": "1950067", "target": "13494834"}}, {"type": "Feature", "geometry": {"type": "LineString", "coordinates": [[128.52528105069166, 69.23013093007742], [128.5263532866408, 69.22994701824157]]}, "properties": {"source": "1950067", "target": "1184366"}}, {"type": "Feature", "geometry": {"type": "LineString", "coordinates": [[128.52528105069166, 69.23013093007742], [128.52751513674235, 69.23060884794981]]}, "properties": {"source": "1950067", "target": "143728"}}, {"type": "Feature", "geometry": {"type": "LineString", "coordinates": [[128.52528105069166, 69.23013093007742], [128.52569717652995, 69.23016503632641]]}, "properties": {"source": "1950067", "target": "11181934"}}, {"type": "Feature", "geometry": {"type": "LineString", "coordinates": [[128.52531865876938, 69.23059047153794], [128.5247702436847, 69.23056827911128]]}, "properties": {"source": "5116480", "target": "6834864"}}, {"type": "Feature", "geometry": {"type": "LineString", "coordinates": [[128.52531865876938, 69.23059047153794], [128.52735433609723, 69.23085062906864]]}, "properties": {"source": "5116480", "target": "454600"}}, {"type": "Feature", "geometry": {"type": "LineString", "coordinates": [[128.52531865876938, 69.23059047153794], [128.52745181113914, 69.23030145011603]]}, "properties": {"source": "5116480", "target": "23590446"}}, {"type": "Feature", "geometry": {"type": "LineString", "coordinates": [[128.5247702436847, 69.23056827911128], [128.52735433609723, 69.23085062906864]]}, "properties": {"source": "6834864", "target": "454600"}}, {"type": "Feature", "geometry": {"type": "LineString", "coordinates": [[128.5247702436847, 69.23056827911128], [128.52745181113914, 69.23030145011603]]}, "properties": {"source": "6834864", "target": "23590446"}}, {"type": "Feature", "geometry": {"type": "LineString", "coordinates": [[128.5269205938751, 69.22977671850933], [128.52528105069166, 69.23013093007742]]}, "properties": {"source": "17368237", "target": "1950067"}}, {"type": "Feature", "geometry": {"type": "LineString", "coordinates": [[128.5269205938751, 69.22977671850933], [128.52531865876938, 69.23059047153794]]}, "properties": {"source": "17368237", "target": "5116480"}}, {"type": "Feature", "geometry": {"type": "LineString", "coordinates": [[128.5269205938751, 69.22977671850933], [128.5247702436847, 69.23056827911128]]}, "properties": {"source": "17368237", "target": "6834864"}}, {"type": "Feature", "geometry": {"type": "LineString", "coordinates": [[128.52433358067964, 69.2303308420374], [128.52745181113914, 69.23030145011603]]}, "properties": {"source": "18453111", "target": "23590446"}}, {"type": "Feature", "geometry": {"type": "LineString", "coordinates": [[128.52433358067964, 69.2303308420374], [128.52762103411504, 69.22982465575399]]}, "properties": {"source": "18453111", "target": "13494834"}}, {"type": "Feature", "geometry": {"type": "LineString", "coordinates": [[128.5245790884524, 69.23070741678029], [128.52528105069166, 69.23013093007742]]}, "properties": {"source": "21197811", "target": "1950067"}}, {"type": "Feature", "geometry": {"type": "LineString", "coordinates": [[128.5245790884524, 69.23070741678029], [128.52531865876938, 69.23059047153794]]}, "properties": {"source": "21197811", "target": "5116480"}}, {"type": "Feature", "geometry": {"type": "LineString", "coordinates": [[128.5245790884524, 69.23070741678029], [128.5247702436847, 69.23056827911128]]}, "properties": {"source": "21197811", "target": "6834864"}}, {"type": "Feature", "geometry": {"type": "LineString", "coordinates": [[128.5245790884524, 69.23070741678029], [128.52735433609723, 69.23085062906864]]}, "properties": {"source": "21197811", "target": "454600"}}, {"type": "Feature", "geometry": {"type": "LineString", "coordinates": [[128.5245790884524, 69.23070741678029], [128.5269205938751, 69.22977671850933]]}, "properties": {"source": "21197811", "target": "17368237"}}, {"type": "Feature", "geometry": {"type": "LineString", "coordinates": [[128.52752930291678, 69.23088215681884], [128.5245790884524, 69.23070741678029]]}, "properties": {"source": "2038010", "target": "21197811"}}, {"type": "Feature", "geometry": {"type": "LineString", "coordinates": [[128.52752930291678, 69.23088215681884], [128.52798986337666, 69.23034388492638]]}, "properties": {"source": "2038010", "target": "971239"}}, {"type": "Feature", "geometry": {"type": "LineString", "coordinates": [[128.52752930291678, 69.23088215681884], [128.52745181113914, 69.23030145011603]]}, "properties": {"source": "2038010", "target": "23590446"}}, {"type": "Feature", "geometry": {"type": "LineString", "coordinates": [[128.52752930291678, 69.23088215681884], [128.52762103411504, 69.22982465575399]]}, "properties": {"source": "2038010", "target": "13494834"}}, {"type": "Feature", "geometry": {"type": "LineString", "coordinates": [[128.52752930291678, 69.23088215681884], [128.5263532866408, 69.22994701824157]]}, "properties": {"source": "2038010", "target": "1184366"}}, {"type": "Feature", "geometry": {"type": "LineString", "coordinates": [[128.52752930291678, 69.23088215681884], [128.52751513674235, 69.23060884794981]]}, "properties": {"source": "2038010", "target": "143728"}}, {"type": "Feature", "geometry": {"type": "LineString", "coordinates": [[128.52752930291678, 69.23088215681884], [128.52587049223393, 69.23069270641454]]}, "properties": {"source": "2038010", "target": "1050410"}}, {"type": "Feature", "geometry": {"type": "LineString", "coordinates": [[128.52752930291678, 69.23088215681884], [128.52569717652995, 69.23016503632641]]}, "properties": {"source": "2038010", "target": "11181934"}}, {"type": "Feature", "geometry": {"type": "LineString", "coordinates": [[128.52528105069166, 69.23013093007742], [128.52531865876938, 69.23059047153794]]}, "properties": {"source": "1950067", "target": "5116480"}}, {"type": "Feature", "geometry": {"type": "LineString", "coordinates": [[128.52719275961255, 69.23029322851065], [128.52747067886173, 69.23089175981977]]}, "properties": {"source": "15841027", "target": "8087051"}}, {"type": "Feature", "geometry": {"type": "LineString", "coordinates": [[128.52719275961255, 69.23029322851065], [128.52433358067964, 69.2303308420374]]}, "properties": {"source": "15841027", "target": "18453111"}}, {"type": "Feature", "geometry": {"type": "LineString", "coordinates": [[128.52719275961255, 69.23029322851065], [128.52798986337666, 69.23034388492638]]}, "properties": {"source": "15841027", "target": "971239"}}, {"type": "Feature", "geometry": {"type": "LineString", "coordinates": [[128.52719275961255, 69.23029322851065], [128.52745181113914, 69.23030145011603]]}, "properties": {"source": "15841027", "target": "23590446"}}, {"type": "Feature", "geometry": {"type": "LineString", "coordinates": [[128.52719275961255, 69.23029322851065], [128.52762103411504, 69.22982465575399]]}, "properties": {"source": "15841027", "target": "13494834"}}, {"type": "Feature", "geometry": {"type": "LineString", "coordinates": [[128.52719275961255, 69.23029322851065], [128.5263532866408, 69.22994701824157]]}, "properties": {"source": "15841027", "target": "1184366"}}, {"type": "Feature", "geometry": {"type": "LineString", "coordinates": [[128.52719275961255, 69.23029322851065], [128.52751513674235, 69.23060884794981]]}, "properties": {"source": "15841027", "target": "143728"}}, {"type": "Feature", "geometry": {"type": "LineString", "coordinates": [[128.52719275961255, 69.23029322851065], [128.52587049223393, 69.23069270641454]]}, "properties": {"source": "15841027", "target": "1050410"}}, {"type": "Feature", "geometry": {"type": "LineString", "coordinates": [[128.52433358067964, 69.2303308420374], [128.52528105069166, 69.23013093007742]]}, "properties": {"source": "18453111", "target": "1950067"}}, {"type": "Feature", "geometry": {"type": "LineString", "coordinates": [[128.52433358067964, 69.2303308420374], [128.52531865876938, 69.23059047153794]]}, "properties": {"source": "18453111", "target": "5116480"}}, {"type": "Feature", "geometry": {"type": "LineString", "coordinates": [[128.52433358067964, 69.2303308420374], [128.5247702436847, 69.23056827911128]]}, "properties": {"source": "18453111", "target": "6834864"}}, {"type": "Feature", "geometry": {"type": "LineString", "coordinates": [[128.52433358067964, 69.2303308420374], [128.52735433609723, 69.23085062906864]]}, "properties": {"source": "18453111", "target": "454600"}}, {"type": "Feature", "geometry": {"type": "LineString", "coordinates": [[128.52433358067964, 69.2303308420374], [128.5269205938751, 69.22977671850933]]}, "properties": {"source": "18453111", "target": "17368237"}}, {"type": "Feature", "geometry": {"type": "LineString", "coordinates": [[128.52433358067964, 69.2303308420374], [128.52747067886173, 69.23089175981977]]}, "properties": {"source": "18453111", "target": "8087051"}}, {"type": "Feature", "geometry": {"type": "LineString", "coordinates": [[128.52433358067964, 69.2303308420374], [128.5245790884524, 69.23070741678029]]}, "properties": {"source": "18453111", "target": "21197811"}}, {"type": "Feature", "geometry": {"type": "LineString", "coordinates": [[128.52433358067964, 69.2303308420374], [128.52798986337666, 69.23034388492638]]}, "properties": {"source": "18453111", "target": "971239"}}, {"type": "Feature", "geometry": {"type": "LineString", "coordinates": [[128.5269205938751, 69.22977671850933], [128.52735433609723, 69.23085062906864]]}, "properties": {"source": "17368237", "target": "454600"}}, {"type": "Feature", "geometry": {"type": "LineString", "coordinates": [[128.5269205938751, 69.22977671850933], [128.52747067886173, 69.23089175981977]]}, "properties": {"source": "17368237", "target": "8087051"}}, {"type": "Feature", "geometry": {"type": "LineString", "coordinates": [[128.5269205938751, 69.22977671850933], [128.52745181113914, 69.23030145011603]]}, "properties": {"source": "17368237", "target": "23590446"}}, {"type": "Feature", "geometry": {"type": "LineString", "coordinates": [[128.5269205938751, 69.22977671850933], [128.52762103411504, 69.22982465575399]]}, "properties": {"source": "17368237", "target": "13494834"}}, {"type": "Feature", "geometry": {"type": "LineString", "coordinates": [[128.5269205938751, 69.22977671850933], [128.5263532866408, 69.22994701824157]]}, "properties": {"source": "17368237", "target": "1184366"}}, {"type": "Feature", "geometry": {"type": "LineString", "coordinates": [[128.5269205938751, 69.22977671850933], [128.52751513674235, 69.23060884794981]]}, "properties": {"source": "17368237", "target": "143728"}}, {"type": "Feature", "geometry": {"type": "LineString", "coordinates": [[128.52747067886173, 69.23089175981977], [128.52531865876938, 69.23059047153794]]}, "properties": {"source": "8087051", "target": "5116480"}}, {"type": "Feature", "geometry": {"type": "LineString", "coordinates": [[128.52747067886173, 69.23089175981977], [128.5247702436847, 69.23056827911128]]}, "properties": {"source": "8087051", "target": "6834864"}}, {"type": "Feature", "geometry": {"type": "LineString", "coordinates": [[128.52747067886173, 69.23089175981977], [128.52735433609723, 69.23085062906864]]}, "properties": {"source": "8087051", "target": "454600"}}, {"type": "Feature", "geometry": {"type": "LineString", "coordinates": [[128.52747067886173, 69.23089175981977], [128.52745181113914, 69.23030145011603]]}, "properties": {"source": "8087051", "target": "23590446"}}, {"type": "Feature", "geometry": {"type": "LineString", "coordinates": [[128.52719275961255, 69.23029322851065], [128.52752930291678, 69.23088215681884]]}, "properties": {"source": "15841027", "target": "2038010"}}, {"type": "Feature", "geometry": {"type": "LineString", "coordinates": [[128.52719275961255, 69.23029322851065], [128.52528105069166, 69.23013093007742]]}, "properties": {"source": "15841027", "target": "1950067"}}, {"type": "Feature", "geometry": {"type": "LineString", "coordinates": [[128.52719275961255, 69.23029322851065], [128.52531865876938, 69.23059047153794]]}, "properties": {"source": "15841027", "target": "5116480"}}, {"type": "Feature", "geometry": {"type": "LineString", "coordinates": [[128.52719275961255, 69.23029322851065], [128.5247702436847, 69.23056827911128]]}, "properties": {"source": "15841027", "target": "6834864"}}, {"type": "Feature", "geometry": {"type": "LineString", "coordinates": [[128.52719275961255, 69.23029322851065], [128.52735433609723, 69.23085062906864]]}, "properties": {"source": "15841027", "target": "454600"}}, {"type": "Feature", "geometry": {"type": "LineString", "coordinates": [[128.52719275961255, 69.23029322851065], [128.5269205938751, 69.22977671850933]]}, "properties": {"source": "15841027", "target": "17368237"}}, {"type": "Feature", "geometry": {"type": "LineString", "coordinates": [[128.52751513674235, 69.23060884794981], [128.52735433609723, 69.23085062906864]]}, "properties": {"source": "143728", "target": "454600"}}, {"type": "Feature", "geometry": {"type": "LineString", "coordinates": [[128.52751513674235, 69.23060884794981], [128.52747067886173, 69.23089175981977]]}, "properties": {"source": "143728", "target": "8087051"}}, {"type": "Feature", "geometry": {"type": "LineString", "coordinates": [[128.52642201872294, 69.2301021203435], [128.52752930291678, 69.23088215681884]]}, "properties": {"source": "352262", "target": "2038010"}}, {"type": "Feature", "geometry": {"type": "LineString", "coordinates": [[128.52642201872294, 69.2301021203435], [128.52528105069166, 69.23013093007742]]}, "properties": {"source": "352262", "target": "1950067"}}, {"type": "Feature", "geometry": {"type": "LineString", "coordinates": [[128.52642201872294, 69.2301021203435], [128.52531865876938, 69.23059047153794]]}, "properties": {"source": "352262", "target": "5116480"}}, {"type": "Feature", "geometry": {"type": "LineString", "coordinates": [[128.52642201872294, 69.2301021203435], [128.5247702436847, 69.23056827911128]]}, "properties": {"source": "352262", "target": "6834864"}}, {"type": "Feature", "geometry": {"type": "LineString", "coordinates": [[128.52642201872294, 69.2301021203435], [128.52735433609723, 69.23085062906864]]}, "properties": {"source": "352262", "target": "454600"}}, {"type": "Feature", "geometry": {"type": "LineString", "coordinates": [[128.52587049223393, 69.23069270641454], [128.52433358067964, 69.2303308420374]]}, "properties": {"source": "1050410", "target": "18453111"}}, {"type": "Feature", "geometry": {"type": "LineString", "coordinates": [[128.52587049223393, 69.23069270641454], [128.5245790884524, 69.23070741678029]]}, "properties": {"source": "1050410", "target": "21197811"}}, {"type": "Feature", "geometry": {"type": "LineString", "coordinates": [[128.52587049223393, 69.23069270641454], [128.52762103411504, 69.22982465575399]]}, "properties": {"source": "1050410", "target": "13494834"}}, {"type": "Feature", "geometry": {"type": "LineString", "coordinates": [[128.52587049223393, 69.23069270641454], [128.5263532866408, 69.22994701824157]]}, "properties": {"source": "1050410", "target": "1184366"}}, {"type": "Feature", "geometry": {"type": "LineString", "coordinates": [[128.52569717652995, 69.23016503632641], [128.52531865876938, 69.23059047153794]]}, "properties": {"source": "11181934", "target": "5116480"}}, {"type": "Feature", "geometry": {"type": "LineString", "coordinates": [[128.52569717652995, 69.23016503632641], [128.52735433609723, 69.23085062906864]]}, "properties": {"source": "11181934", "target": "454600"}}, {"type": "Feature", "geometry": {"type": "LineString", "coordinates": [[128.52569717652995, 69.23016503632641], [128.5263532866408, 69.22994701824157]]}, "properties": {"source": "11181934", "target": "1184366"}}, {"type": "Feature", "geometry": {"type": "LineString", "coordinates": [[128.52569717652995, 69.23016503632641], [128.52751513674235, 69.23060884794981]]}, "properties": {"source": "11181934", "target": "143728"}}, {"type": "Feature", "geometry": {"type": "LineString", "coordinates": [[128.52420521943407, 69.23093569498661], [128.52735433609723, 69.23085062906864]]}, "properties": {"source": "2030553", "target": "454600"}}, {"type": "Feature", "geometry": {"type": "LineString", "coordinates": [[128.52752930291678, 69.23088215681884], [128.52528105069166, 69.23013093007742]]}, "properties": {"source": "2038010", "target": "1950067"}}, {"type": "Feature", "geometry": {"type": "LineString", "coordinates": [[128.52752930291678, 69.23088215681884], [128.52531865876938, 69.23059047153794]]}, "properties": {"source": "2038010", "target": "5116480"}}, {"type": "Feature", "geometry": {"type": "LineString", "coordinates": [[128.52752930291678, 69.23088215681884], [128.5247702436847, 69.23056827911128]]}, "properties": {"source": "2038010", "target": "6834864"}}, {"type": "Feature", "geometry": {"type": "LineString", "coordinates": [[128.52752930291678, 69.23088215681884], [128.52735433609723, 69.23085062906864]]}, "properties": {"source": "2038010", "target": "454600"}}, {"type": "Feature", "geometry": {"type": "LineString", "coordinates": [[128.52752930291678, 69.23088215681884], [128.5269205938751, 69.22977671850933]]}, "properties": {"source": "2038010", "target": "17368237"}}, {"type": "Feature", "geometry": {"type": "LineString", "coordinates": [[128.52752930291678, 69.23088215681884], [128.52747067886173, 69.23089175981977]]}, "properties": {"source": "2038010", "target": "8087051"}}, {"type": "Feature", "geometry": {"type": "LineString", "coordinates": [[128.52752930291678, 69.23088215681884], [128.52433358067964, 69.2303308420374]]}, "properties": {"source": "2038010", "target": "18453111"}}]}