{"type": "FeatureCollection", "features": [{"type": "Feature", "geometry": {"type": "LineString", "coordinates": [[146.47109170890485, 69.22988449194807], [146.4701967088851, 69.23032428971294]]}, "properties": {"source": "18050728", "target": "18719133"}}, {"type": "Feature", "geometry": {"type": "LineString", "coordinates": [[146.47109170890485, 69.22988449194807], [146.47075544028957, 69.23005830369175]]}, "properties": {"source": "18050728", "target": "15715844"}}, {"type": "Feature", "geometry": {"type": "LineString", "coordinates": [[146.47109170890485, 69.22988449194807], [146.47105772176775, 69.23019937317494]]}, "properties": {"source": "18050728", "target": "15791383"}}, {"type": "Feature", "geometry": {"type": "LineString", "coordinates": [[146.47140387285162, 69.22988724450954], [146.4709174773535, 69.22973746752473]]}, "properties": {"source": "20736260", "target": "17254986"}}, {"type": "Feature", "geometry": {"type": "LineString", "coordinates": [[146.47140387285162, 69.22988724450954], [146.47058010694866, 69.22971285796712]]}, "properties": {"source": "20736260", "target": "15790833"}}, {"type": "Feature", "geometry": {"type": "LineString", "coordinates": [[146.47140387285162, 69.22988724450954], [146.47100087465526, 69.23023270073952]]}, "properties": {"source": "20736260", "target": "23122971"}}, {"type": "Feature", "geometry": {"type": "LineString", "coordinates": [[146.47140387285162, 69.22988724450954], [146.4701967088851, 69.23032428971294]]}, "properties": {"source": "20736260", "target": "18719133"}}, {"type": "Feature", "geometry": {"type": "LineString", "coordinates": [[146.47140387285162, 69.22988724450954], [146.47105772176775, 69.23019937317494]]}, "properties": {"source": "20736260", "target": "15791383"}}, {"type": "Feature", "geometry": {"type": "LineString", "coordinates": [[146.4709174773535, 69.22973746752473], [146.4701967088851, 69.23032428971294]]}, "properties": {"source": "17254986", "target": "18719133"}}, {"type": "Feature", "geometry": {"type": "LineString", "coordinates": [[146.471296018715, 69.22970698769336], [146.47140387285162, 69.22988724450954]]}, "properties": {"source": "7766027", "target": "20736260"}}, {"type": "Feature", "geometry": {"type": "LineString", "coordinates": [[146.471296018715, 69.22970698769336], [146.4709174773535, 69.22973746752473]]}, "properties": {"source": "7766027", "target": "17254986"}}, {"type": "Feature", "geometry": {"type": "LineString", "coordinates": [[146.471296018715, 69.22970698769336], [146.47058010694866, 69.22971285796712]]}, "properties": {"source": "7766027", "target": "15790833"}}, {"type": "Feature", "geometry": {"type": "LineString", "coordinates": [[146.471296018715, 69.22970698769336], [146.47075544028957, 69.23005830369175]]}, "properties": {"source": "7766027", "target": "15715844"}}, {"type": "Feature", "geometry": {"type": "LineString", "coordinates": [[146.471296018715, 69.22970698769336], [146.47105772176775, 69.23019937317494]]}, "properties": {"source": "7766027", "target": "15791383"}}, {"type": "Feature", "geometry": {"type": "LineString", "coordinates": [[146.47058010694866, 69.22971285796712], [146.4709174773535, 69.22973746752473]]}, "properties": {"source": "15790833", "target": "17254986"}}, {"type": "Feature", "geometry": {"type": "LineString", "coordinates": [[146.47058010694866, 69.22971285796712], [146.47100087465526, 69.23023270073952]]}, "properties": {"source": "15790833", "target": "23122971"}}, {"type": "Feature", "geometry": {"type": "LineString", "coordinates": [[146.47058010694866, 69.22971285796712], [146.4701967088851, 69.23032428971294]]}, "properties": {"source": "15790833", "target": "18719133"}}, {"type": "Feature", "geometry": {"type": "LineString", "coordinates": [[146.47100087465526, 69.23023270073952], [146.4709174773535, 69.22973746752473]]}, "properties": {"source": "23122971", "target": "17254986"}}, {"type": "Feature", "geometry": {"type": "LineString", "coordinates": [[146.47100087465526, 69.23023270073952], [146.4701967088851, 69.23032428971294]]}, "properties": {"source": "23122971", "target": "18719133"}}, {"type": "Feature", "geometry": {"type": "LineString", "coordinates": [[146.47075544028957, 69.23005830369175], [146.47140387285162, 69.22988724450954]]}, "properties": {"source": "15715844", "target": "20736260"}}, {"type": "Feature", "geometry": {"type": "LineString", "coordinates": [[146.47075544028957, 69.23005830369175], [146.4709174773535, 69.22973746752473]]}, "properties": {"source": "15715844", "target": "17254986"}}, {"type": "Feature", "geometry": {"type": "LineString", "coordinates": [[146.47105772176775, 69.23019937317494], [146.4709174773535, 69.22973746752473]]}, "properties": {"source": "15791383", "target": "17254986"}}, {"type": "Feature", "geometry": {"type": "LineString", "coordinates": [[146.47109170890485, 69.22988449194807], [146.47140387285162, 69.22988724450954]]}, "properties": {"source": "18050728", "target": "20736260"}}, {"type": "Feature", "geometry": {"type": "LineString", "coordinates": [[146.47109170890485, 69.22988449194807], [146.4709174773535, 69.22973746752473]]}, "properties": {"source": "18050728", "target": "17254986"}}, {"type": "Feature", "geometry": {"type": "LineString", "coordinates": [[146.47109170890485, 69.22988449194807], [146.471296018715, 69.22970698769336]]}, "properties": {"source": "18050728", "target": "7766027"}}, {"type": "Feature", "geometry": {"type": "LineString", "coordinates": [[146.47109170890485, 69.22988449194807], [146.47058010694866, 69.22971285796712]]}, "properties": {"source": "18050728", "target": "15790833"}}, {"type": "Feature", "geometry": {"type": "LineString", "coordinates": [[146.47109170890485, 69.22988449194807], [146.47100087465526, 69.23023270073952]]}, "properties": {"source": "18050728", "target": "23122971"}}]}