{"type": "FeatureCollection", "features": [{"type": "Feature", "geometry": {"type": "LineString", "coordinates": [[154.26689068663035, 69.22970925215466], [154.26658142184624, 69.2297321537236]]}, "properties": {"source": "23846024", "target": "29236555"}}, {"type": "Feature", "geometry": {"type": "LineString", "coordinates": [[154.26689068663035, 69.22970925215466], [154.26658575061168, 69.22969515505343]]}, "properties": {"source": "23846024", "target": "10123237"}}, {"type": "Feature", "geometry": {"type": "LineString", "coordinates": [[154.26658142184624, 69.2297321537236], [154.26658575061168, 69.22969515505343]]}, "properties": {"source": "29236555", "target": "10123237"}}]}