{"type": "FeatureCollection", "features": [{"type": "Feature", "geometry": {"type": "LineString", "coordinates": [[-0.0033230219127347027, 69.04102180051152], [-0.011097878131749894, 69.04260996028717]]}, "properties": {"source": "12869104", "target": "17364145"}}, {"type": "Feature", "geometry": {"type": "LineString", "coordinates": [[-0.0033230219127347027, 69.04102180051152], [-0.011614949611157499, 69.0409769215994]]}, "properties": {"source": "12869104", "target": "11546435"}}, {"type": "Feature", "geometry": {"type": "LineString", "coordinates": [[-0.011961680983006318, 69.0409704036704], [-0.006002865476204988, 69.04146975876264]]}, "properties": {"source": "17731093", "target": "17369853"}}, {"type": "Feature", "geometry": {"type": "LineString", "coordinates": [[-0.011961680983006318, 69.0409704036704], [-0.002716024208723411, 69.0385280297561]]}, "properties": {"source": "17731093", "target": "18303725"}}, {"type": "Feature", "geometry": {"type": "LineString", "coordinates": [[-0.011961680983006318, 69.0409704036704], [-0.015033280308131225, 69.04050253302947]]}, "properties": {"source": "17731093", "target": "17364105"}}, {"type": "Feature", "geometry": {"type": "LineString", "coordinates": [[-0.011961680983006318, 69.0409704036704], [-0.01605530583370296, 69.03946454550038]]}, "properties": {"source": "17731093", "target": "16041312"}}, {"type": "Feature", "geometry": {"type": "LineString", "coordinates": [[-0.011961680983006318, 69.0409704036704], [-0.010419675712711296, 69.04025211843071]]}, "properties": {"source": "17731093", "target": "18363402"}}, {"type": "Feature", "geometry": {"type": "LineString", "coordinates": [[-0.011961680983006318, 69.0409704036704], [-0.005606968802879919, 69.03822664824193]]}, "properties": {"source": "17731093", "target": "17836011"}}, {"type": "Feature", "geometry": {"type": "LineString", "coordinates": [[-0.011961680983006318, 69.0409704036704], [-0.008561635732235118, 69.04109713775557]]}, "properties": {"source": "17731093", "target": "17972736"}}, {"type": "Feature", "geometry": {"type": "LineString", "coordinates": [[-0.011614949611157499, 69.0409769215994], [-0.0036120922866871297, 69.04037061654046]]}, "properties": {"source": "11546435", "target": "15983798"}}, {"type": "Feature", "geometry": {"type": "LineString", "coordinates": [[-0.011614949611157499, 69.0409769215994], [-0.009811313486778772, 69.03845824790267]]}, "properties": {"source": "11546435", "target": "33897486"}}, {"type": "Feature", "geometry": {"type": "LineString", "coordinates": [[-0.008561635732235118, 69.04109713775557], [-0.0036120922866871297, 69.04037061654046]]}, "properties": {"source": "17972736", "target": "15983798"}}, {"type": "Feature", "geometry": {"type": "LineString", "coordinates": [[-0.011446827864830311, 69.03992138483505], [-0.012034992410519862, 69.03822459149194]]}, "properties": {"source": "17796776", "target": "17694569"}}, {"type": "Feature", "geometry": {"type": "LineString", "coordinates": [[-0.007903072869112293, 69.04237415380328], [-0.006002865476204988, 69.04146975876264]]}, "properties": {"source": "12460065", "target": "17369853"}}, {"type": "Feature", "geometry": {"type": "LineString", "coordinates": [[-0.007903072869112293, 69.04237415380328], [-0.002716024208723411, 69.0385280297561]]}, "properties": {"source": "12460065", "target": "18303725"}}, {"type": "Feature", "geometry": {"type": "LineString", "coordinates": [[-0.007903072869112293, 69.04237415380328], [-0.0036120922866871297, 69.04037061654046]]}, "properties": {"source": "12460065", "target": "15983798"}}, {"type": "Feature", "geometry": {"type": "LineString", "coordinates": [[-0.007903072869112293, 69.04237415380328], [-0.01605530583370296, 69.03946454550038]]}, "properties": {"source": "12460065", "target": "16041312"}}, {"type": "Feature", "geometry": {"type": "LineString", "coordinates": [[-0.007903072869112293, 69.04237415380328], [-0.009811313486778772, 69.03845824790267]]}, "properties": {"source": "12460065", "target": "33897486"}}, {"type": "Feature", "geometry": {"type": "LineString", "coordinates": [[-0.004507991131418976, 69.03758064135351], [-0.015033280308131225, 69.04050253302947]]}, "properties": {"source": "16276924", "target": "17364105"}}, {"type": "Feature", "geometry": {"type": "LineString", "coordinates": [[-0.004507991131418976, 69.03758064135351], [-0.01672381519136934, 69.03747898233294]]}, "properties": {"source": "16276924", "target": "16368840"}}, {"type": "Feature", "geometry": {"type": "LineString", "coordinates": [[-0.004507991131418976, 69.03758064135351], [-0.006151208741329128, 69.04207768686359]]}, "properties": {"source": "16276924", "target": "17208717"}}, {"type": "Feature", "geometry": {"type": "LineString", "coordinates": [[-0.010744033180259294, 69.0376954994367], [-0.0036120922866871297, 69.04037061654046]]}, "properties": {"source": "1493456", "target": "15983798"}}, {"type": "Feature", "geometry": {"type": "LineString", "coordinates": [[-0.011598500552963742, 69.03803149823355], [-0.015033280308131225, 69.04050253302947]]}, "properties": {"source": "10366772", "target": "17364105"}}, {"type": "Feature", "geometry": {"type": "LineString", "coordinates": [[-0.011598500552963742, 69.03803149823355], [-0.01672381519136934, 69.03747898233294]]}, "properties": {"source": "10366772", "target": "16368840"}}, {"type": "Feature", "geometry": {"type": "LineString", "coordinates": [[-0.011598500552963742, 69.03803149823355], [-0.012494185830576043, 69.03801677909661]]}, "properties": {"source": "10366772", "target": "15829531"}}, {"type": "Feature", "geometry": {"type": "LineString", "coordinates": [[-0.011598500552963742, 69.03803149823355], [-0.0012800974448055058, 69.04008904324681]]}, "properties": {"source": "10366772", "target": "21325769"}}, {"type": "Feature", "geometry": {"type": "LineString", "coordinates": [[-0.011598500552963742, 69.03803149823355], [-0.0017695628756655424, 69.03974695255326]]}, "properties": {"source": "10366772", "target": "22011164"}}, {"type": "Feature", "geometry": {"type": "LineString", "coordinates": [[-0.011598500552963742, 69.03803149823355], [-0.013769579019282219, 69.03799703143164]]}, "properties": {"source": "10366772", "target": "27798133"}}, {"type": "Feature", "geometry": {"type": "LineString", "coordinates": [[-0.008491162142917119, 69.04127317555194], [-0.01605530583370296, 69.03946454550038]]}, "properties": {"source": "15923168", "target": "16041312"}}, {"type": "Feature", "geometry": {"type": "LineString", "coordinates": [[-0.008968501582160116, 69.03743836038842], [-0.015893625847382964, 69.03897343791479]]}, "properties": {"source": "17972762", "target": "17364321"}}, {"type": "Feature", "geometry": {"type": "LineString", "coordinates": [[-0.008968501582160116, 69.03743836038842], [-0.006002865476204988, 69.04146975876264]]}, "properties": {"source": "17972762", "target": "17369853"}}, {"type": "Feature", "geometry": {"type": "LineString", "coordinates": [[-0.008968501582160116, 69.03743836038842], [-0.002716024208723411, 69.0385280297561]]}, "properties": {"source": "17972762", "target": "18303725"}}, {"type": "Feature", "geometry": {"type": "LineString", "coordinates": [[-0.008968501582160116, 69.03743836038842], [-0.015033280308131225, 69.04050253302947]]}, "properties": {"source": "17972762", "target": "17364105"}}, {"type": "Feature", "geometry": {"type": "LineString", "coordinates": [[-0.008968501582160116, 69.03743836038842], [-0.010419675712711296, 69.04025211843071]]}, "properties": {"source": "17972762", "target": "18363402"}}, {"type": "Feature", "geometry": {"type": "LineString", "coordinates": [[-0.008968501582160116, 69.03743836038842], [-0.005606968802879919, 69.03822664824193]]}, "properties": {"source": "17972762", "target": "17836011"}}, {"type": "Feature", "geometry": {"type": "LineString", "coordinates": [[-0.008968501582160116, 69.03743836038842], [-0.005526472767627411, 69.04093275009296]]}, "properties": {"source": "17972762", "target": "10781976"}}, {"type": "Feature", "geometry": {"type": "LineString", "coordinates": [[-0.011446827864830311, 69.03992138483505], [-0.004507991131418976, 69.03758064135351]]}, "properties": {"source": "17796776", "target": "16276924"}}, {"type": "Feature", "geometry": {"type": "LineString", "coordinates": [[-0.011446827864830311, 69.03992138483505], [-0.012494185830576043, 69.03801677909661]]}, "properties": {"source": "17796776", "target": "15829531"}}, {"type": "Feature", "geometry": {"type": "LineString", "coordinates": [[-0.011446827864830311, 69.03992138483505], [-0.0017695628756655424, 69.03974695255326]]}, "properties": {"source": "17796776", "target": "22011164"}}, {"type": "Feature", "geometry": {"type": "LineString", "coordinates": [[-0.011446827864830311, 69.03992138483505], [-0.00251198842050826, 69.03829606920607]]}, "properties": {"source": "17796776", "target": "17845772"}}, {"type": "Feature", "geometry": {"type": "LineString", "coordinates": [[-0.014143030770668474, 69.04119524452722], [-0.012494185830576043, 69.03801677909661]]}, "properties": {"source": "13596362", "target": "15829531"}}, {"type": "Feature", "geometry": {"type": "LineString", "coordinates": [[-0.005364374529960969, 69.03742439818907], [-0.015893625847382964, 69.03897343791479]]}, "properties": {"source": "11764146", "target": "17364321"}}, {"type": "Feature", "geometry": {"type": "LineString", "coordinates": [[-0.005364374529960969, 69.03742439818907], [-0.006002865476204988, 69.04146975876264]]}, "properties": {"source": "11764146", "target": "17369853"}}, {"type": "Feature", "geometry": {"type": "LineString", "coordinates": [[-0.005364374529960969, 69.03742439818907], [-0.012553147144785726, 69.03958866267348]]}, "properties": {"source": "11764146", "target": "17341258"}}, {"type": "Feature", "geometry": {"type": "LineString", "coordinates": [[-0.00241902219096346, 69.03791702875839], [-0.009811313486778772, 69.03845824790267]]}, "properties": {"source": "14624201", "target": "33897486"}}, {"type": "Feature", "geometry": {"type": "LineString", "coordinates": [[-0.01040884547069254, 69.0416259701974], [-0.006002865476204988, 69.04146975876264]]}, "properties": {"source": "12733671", "target": "17369853"}}, {"type": "Feature", "geometry": {"type": "LineString", "coordinates": [[-0.01040884547069254, 69.0416259701974], [-0.002716024208723411, 69.0385280297561]]}, "properties": {"source": "12733671", "target": "18303725"}}, {"type": "Feature", "geometry": {"type": "LineString", "coordinates": [[-0.01040884547069254, 69.0416259701974], [-0.0036120922866871297, 69.04037061654046]]}, "properties": {"source": "12733671", "target": "15983798"}}, {"type": "Feature", "geometry": {"type": "LineString", "coordinates": [[-0.01040884547069254, 69.0416259701974], [-0.01605530583370296, 69.03946454550038]]}, "properties": {"source": "12733671", "target": "16041312"}}, {"type": "Feature", "geometry": {"type": "LineString", "coordinates": [[-0.01040884547069254, 69.0416259701974], [-0.009811313486778772, 69.03845824790267]]}, "properties": {"source": "12733671", "target": "33897486"}}, {"type": "Feature", "geometry": {"type": "LineString", "coordinates": [[-0.01040884547069254, 69.0416259701974], [-0.011961680983006318, 69.0409704036704]]}, "properties": {"source": "12733671", "target": "17731093"}}, {"type": "Feature", "geometry": {"type": "LineString", "coordinates": [[-0.00360930865838327, 69.03942558003513], [-0.006002865476204988, 69.04146975876264]]}, "properties": {"source": "12464903", "target": "17369853"}}, {"type": "Feature", "geometry": {"type": "LineString", "coordinates": [[-0.00360930865838327, 69.03942558003513], [-0.002716024208723411, 69.0385280297561]]}, "properties": {"source": "12464903", "target": "18303725"}}, {"type": "Feature", "geometry": {"type": "LineString", "coordinates": [[-0.00360930865838327, 69.03942558003513], [-0.0036120922866871297, 69.04037061654046]]}, "properties": {"source": "12464903", "target": "15983798"}}, {"type": "Feature", "geometry": {"type": "LineString", "coordinates": [[-0.00360930865838327, 69.03942558003513], [-0.01605530583370296, 69.03946454550038]]}, "properties": {"source": "12464903", "target": "16041312"}}, {"type": "Feature", "geometry": {"type": "LineString", "coordinates": [[-0.00360930865838327, 69.03942558003513], [-0.009811313486778772, 69.03845824790267]]}, "properties": {"source": "12464903", "target": "33897486"}}, {"type": "Feature", "geometry": {"type": "LineString", "coordinates": [[-0.015893625847382964, 69.03897343791479], [-0.00360930865838327, 69.03942558003513]]}, "properties": {"source": "17364321", "target": "12464903"}}, {"type": "Feature", "geometry": {"type": "LineString", "coordinates": [[-0.015893625847382964, 69.03897343791479], [-0.008491162142917119, 69.04127317555194]]}, "properties": {"source": "17364321", "target": "15923168"}}, {"type": "Feature", "geometry": {"type": "LineString", "coordinates": [[-0.015893625847382964, 69.03897343791479], [-0.007903072869112293, 69.04237415380328]]}, "properties": {"source": "17364321", "target": "12460065"}}, {"type": "Feature", "geometry": {"type": "LineString", "coordinates": [[-0.015893625847382964, 69.03897343791479], [-0.010744033180259294, 69.0376954994367]]}, "properties": {"source": "17364321", "target": "1493456"}}, {"type": "Feature", "geometry": {"type": "LineString", "coordinates": [[-0.005364374529960969, 69.03742439818907], [-0.0036120922866871297, 69.04037061654046]]}, "properties": {"source": "11764146", "target": "15983798"}}, {"type": "Feature", "geometry": {"type": "LineString", "coordinates": [[-0.005364374529960969, 69.03742439818907], [-0.009811313486778772, 69.03845824790267]]}, "properties": {"source": "11764146", "target": "33897486"}}, {"type": "Feature", "geometry": {"type": "LineString", "coordinates": [[-0.0020226217648087186, 69.03907847883613], [-0.015893625847382964, 69.03897343791479]]}, "properties": {"source": "10121252", "target": "17364321"}}, {"type": "Feature", "geometry": {"type": "LineString", "coordinates": [[-0.0020226217648087186, 69.03907847883613], [-0.006002865476204988, 69.04146975876264]]}, "properties": {"source": "10121252", "target": "17369853"}}, {"type": "Feature", "geometry": {"type": "LineString", "coordinates": [[-0.0020226217648087186, 69.03907847883613], [-0.012553147144785726, 69.03958866267348]]}, "properties": {"source": "10121252", "target": "17341258"}}, {"type": "Feature", "geometry": {"type": "LineString", "coordinates": [[-0.0020226217648087186, 69.03907847883613], [-0.0036120922866871297, 69.04037061654046]]}, "properties": {"source": "10121252", "target": "15983798"}}, {"type": "Feature", "geometry": {"type": "LineString", "coordinates": [[-0.0020226217648087186, 69.03907847883613], [-0.009811313486778772, 69.03845824790267]]}, "properties": {"source": "10121252", "target": "33897486"}}, {"type": "Feature", "geometry": {"type": "LineString", "coordinates": [[-0.0016252062308410586, 69.03789814554463], [-0.013139950647286014, 69.03960358096026]]}, "properties": {"source": "7616036", "target": "7741029"}}, {"type": "Feature", "geometry": {"type": "LineString", "coordinates": [[-0.0016252062308410586, 69.03789814554463], [-0.015340598347819423, 69.03921175702419]]}, "properties": {"source": "7616036", "target": "5986484"}}, {"type": "Feature", "geometry": {"type": "LineString", "coordinates": [[-0.0016252062308410586, 69.03789814554463], [-0.01585871827822416, 69.03857830291378]]}, "properties": {"source": "7616036", "target": "829063"}}, {"type": "Feature", "geometry": {"type": "LineString", "coordinates": [[-0.0012800974448055058, 69.04008904324681], [-0.01672381519136934, 69.03747898233294]]}, "properties": {"source": "21325769", "target": "16368840"}}, {"type": "Feature", "geometry": {"type": "LineString", "coordinates": [[-0.0012800974448055058, 69.04008904324681], [-0.004507991131418976, 69.03758064135351]]}, "properties": {"source": "21325769", "target": "16276924"}}, {"type": "Feature", "geometry": {"type": "LineString", "coordinates": [[-0.015893625847382964, 69.03897343791479], [-0.006002865476204988, 69.04146975876264]]}, "properties": {"source": "17364321", "target": "17369853"}}, {"type": "Feature", "geometry": {"type": "LineString", "coordinates": [[-0.015893625847382964, 69.03897343791479], [-0.002716024208723411, 69.0385280297561]]}, "properties": {"source": "17364321", "target": "18303725"}}, {"type": "Feature", "geometry": {"type": "LineString", "coordinates": [[-0.015893625847382964, 69.03897343791479], [-0.012553147144785726, 69.03958866267348]]}, "properties": {"source": "17364321", "target": "17341258"}}, {"type": "Feature", "geometry": {"type": "LineString", "coordinates": [[-0.015893625847382964, 69.03897343791479], [-0.015033280308131225, 69.04050253302947]]}, "properties": {"source": "17364321", "target": "17364105"}}, {"type": "Feature", "geometry": {"type": "LineString", "coordinates": [[-0.005526472767627411, 69.04093275009296], [-0.0036120922866871297, 69.04037061654046]]}, "properties": {"source": "10781976", "target": "15983798"}}, {"type": "Feature", "geometry": {"type": "LineString", "coordinates": [[-0.005526472767627411, 69.04093275009296], [-0.01605530583370296, 69.03946454550038]]}, "properties": {"source": "10781976", "target": "16041312"}}, {"type": "Feature", "geometry": {"type": "LineString", "coordinates": [[-0.005526472767627411, 69.04093275009296], [-0.009811313486778772, 69.03845824790267]]}, "properties": {"source": "10781976", "target": "33897486"}}, {"type": "Feature", "geometry": {"type": "LineString", "coordinates": [[-0.005526472767627411, 69.04093275009296], [-0.008491162142917119, 69.04127317555194]]}, "properties": {"source": "10781976", "target": "15923168"}}, {"type": "Feature", "geometry": {"type": "LineString", "coordinates": [[-0.009287571805515427, 69.04196527389058], [-0.011265754444281129, 69.0378041416021]]}, "properties": {"source": "1848223", "target": "1848224"}}, {"type": "Feature", "geometry": {"type": "LineString", "coordinates": [[-0.009287571805515427, 69.04196527389058], [-0.009747457801267956, 69.03954023898223]]}, "properties": {"source": "1848223", "target": "13064268"}}, {"type": "Feature", "geometry": {"type": "LineString", "coordinates": [[-0.009287571805515427, 69.04196527389058], [-0.0016301358759278628, 69.04223222514372]]}, "properties": {"source": "1848223", "target": "1884154"}}, {"type": "Feature", "geometry": {"type": "LineString", "coordinates": [[-0.009287571805515427, 69.04196527389058], [-0.015631839699182137, 69.0422396447791]]}, "properties": {"source": "1848223", "target": "17295645"}}, {"type": "Feature", "geometry": {"type": "LineString", "coordinates": [[-0.01672381519136934, 69.03747898233294], [-0.006151208741329128, 69.04207768686359]]}, "properties": {"source": "16368840", "target": "17208717"}}, {"type": "Feature", "geometry": {"type": "LineString", "coordinates": [[-0.007207119387288685, 69.04178395893442], [-0.013139950647286014, 69.03960358096026]]}, "properties": {"source": "6648457", "target": "7741029"}}, {"type": "Feature", "geometry": {"type": "LineString", "coordinates": [[-0.006558136094184874, 69.04209959182], [-0.0036120922866871297, 69.04037061654046]]}, "properties": {"source": "13415039", "target": "15983798"}}, {"type": "Feature", "geometry": {"type": "LineString", "coordinates": [[-0.006558136094184874, 69.04209959182], [-0.009811313486778772, 69.03845824790267]]}, "properties": {"source": "13415039", "target": "33897486"}}, {"type": "Feature", "geometry": {"type": "LineString", "coordinates": [[-0.00360930865838327, 69.03942558003513], [-0.011614949611157499, 69.0409769215994]]}, "properties": {"source": "12464903", "target": "11546435"}}, {"type": "Feature", "geometry": {"type": "LineString", "coordinates": [[-0.008491162142917119, 69.04127317555194], [-0.006002865476204988, 69.04146975876264]]}, "properties": {"source": "15923168", "target": "17369853"}}, {"type": "Feature", "geometry": {"type": "LineString", "coordinates": [[-0.008491162142917119, 69.04127317555194], [-0.002716024208723411, 69.0385280297561]]}, "properties": {"source": "15923168", "target": "18303725"}}, {"type": "Feature", "geometry": {"type": "LineString", "coordinates": [[-0.008491162142917119, 69.04127317555194], [-0.0036120922866871297, 69.04037061654046]]}, "properties": {"source": "15923168", "target": "15983798"}}, {"type": "Feature", "geometry": {"type": "LineString", "coordinates": [[-0.015033280308131225, 69.04050253302947], [-0.012494185830576043, 69.03801677909661]]}, "properties": {"source": "17364105", "target": "15829531"}}, {"type": "Feature", "geometry": {"type": "LineString", "coordinates": [[-0.015033280308131225, 69.04050253302947], [-0.0066930150700841295, 69.04102720327529]]}, "properties": {"source": "17364105", "target": "17796000"}}, {"type": "Feature", "geometry": {"type": "LineString", "coordinates": [[-0.01605530583370296, 69.03946454550038], [-0.015033280308131225, 69.04050253302947]]}, "properties": {"source": "16041312", "target": "17364105"}}, {"type": "Feature", "geometry": {"type": "LineString", "coordinates": [[-0.01605530583370296, 69.03946454550038], [-0.0036120922866871297, 69.04037061654046]]}, "properties": {"source": "16041312", "target": "15983798"}}, {"type": "Feature", "geometry": {"type": "LineString", "coordinates": [[-0.01605530583370296, 69.03946454550038], [-0.011614949611157499, 69.0409769215994]]}, "properties": {"source": "16041312", "target": "11546435"}}, {"type": "Feature", "geometry": {"type": "LineString", "coordinates": [[-0.01605530583370296, 69.03946454550038], [-0.008561635732235118, 69.04109713775557]]}, "properties": {"source": "16041312", "target": "17972736"}}, {"type": "Feature", "geometry": {"type": "LineString", "coordinates": [[-0.01605530583370296, 69.03946454550038], [-0.010744033180259294, 69.0376954994367]]}, "properties": {"source": "16041312", "target": "1493456"}}, {"type": "Feature", "geometry": {"type": "LineString", "coordinates": [[-0.01605530583370296, 69.03946454550038], [-0.010411846249553491, 69.03943036554796]]}, "properties": {"source": "16041312", "target": "13506169"}}, {"type": "Feature", "geometry": {"type": "LineString", "coordinates": [[-0.009811313486778772, 69.03845824790267], [-0.010411846249553491, 69.03943036554796]]}, "properties": {"source": "33897486", "target": "13506169"}}, {"type": "Feature", "geometry": {"type": "LineString", "coordinates": [[-0.011097878131749894, 69.04260996028717], [-0.006002865476204988, 69.04146975876264]]}, "properties": {"source": "17364145", "target": "17369853"}}, {"type": "Feature", "geometry": {"type": "LineString", "coordinates": [[-0.011097878131749894, 69.04260996028717], [-0.002716024208723411, 69.0385280297561]]}, "properties": {"source": "17364145", "target": "18303725"}}, {"type": "Feature", "geometry": {"type": "LineString", "coordinates": [[-0.0019924850268751015, 69.04120725173271], [-0.014143030770668474, 69.04119524452722]]}, "properties": {"source": "16126331", "target": "13596362"}}, {"type": "Feature", "geometry": {"type": "LineString", "coordinates": [[-0.0019924850268751015, 69.04120725173271], [-0.01600450048562152, 69.04187375650179]]}, "properties": {"source": "16126331", "target": "16071393"}}, {"type": "Feature", "geometry": {"type": "LineString", "coordinates": [[-0.005526472767627411, 69.04093275009296], [-0.006002865476204988, 69.04146975876264]]}, "properties": {"source": "10781976", "target": "17369853"}}, {"type": "Feature", "geometry": {"type": "LineString", "coordinates": [[-0.005526472767627411, 69.04093275009296], [-0.002716024208723411, 69.0385280297561]]}, "properties": {"source": "10781976", "target": "18303725"}}, {"type": "Feature", "geometry": {"type": "LineString", "coordinates": [[-0.01605530583370296, 69.03946454550038], [-0.006558136094184874, 69.04209959182]]}, "properties": {"source": "16041312", "target": "13415039"}}, {"type": "Feature", "geometry": {"type": "LineString", "coordinates": [[-0.015893625847382964, 69.03897343791479], [-0.010411846249553491, 69.03943036554796]]}, "properties": {"source": "17364321", "target": "13506169"}}, {"type": "Feature", "geometry": {"type": "LineString", "coordinates": [[-0.015893625847382964, 69.03897343791479], [-0.0066930150700841295, 69.04102720327529]]}, "properties": {"source": "17364321", "target": "17796000"}}, {"type": "Feature", "geometry": {"type": "LineString", "coordinates": [[-0.006002865476204988, 69.04146975876264], [-0.002716024208723411, 69.0385280297561]]}, "properties": {"source": "17369853", "target": "18303725"}}, {"type": "Feature", "geometry": {"type": "LineString", "coordinates": [[-0.006002865476204988, 69.04146975876264], [-0.015033280308131225, 69.04050253302947]]}, "properties": {"source": "17369853", "target": "17364105"}}, {"type": "Feature", "geometry": {"type": "LineString", "coordinates": [[-0.006002865476204988, 69.04146975876264], [-0.0036120922866871297, 69.04037061654046]]}, "properties": {"source": "17369853", "target": "15983798"}}, {"type": "Feature", "geometry": {"type": "LineString", "coordinates": [[-0.006002865476204988, 69.04146975876264], [-0.01605530583370296, 69.03946454550038]]}, "properties": {"source": "17369853", "target": "16041312"}}, {"type": "Feature", "geometry": {"type": "LineString", "coordinates": [[-0.006002865476204988, 69.04146975876264], [-0.011614949611157499, 69.0409769215994]]}, "properties": {"source": "17369853", "target": "11546435"}}, {"type": "Feature", "geometry": {"type": "LineString", "coordinates": [[-0.006002865476204988, 69.04146975876264], [-0.008561635732235118, 69.04109713775557]]}, "properties": {"source": "17369853", "target": "17972736"}}, {"type": "Feature", "geometry": {"type": "LineString", "coordinates": [[-0.006002865476204988, 69.04146975876264], [-0.010744033180259294, 69.0376954994367]]}, "properties": {"source": "17369853", "target": "1493456"}}, {"type": "Feature", "geometry": {"type": "LineString", "coordinates": [[-0.006002865476204988, 69.04146975876264], [-0.010411846249553491, 69.03943036554796]]}, "properties": {"source": "17369853", "target": "13506169"}}, {"type": "Feature", "geometry": {"type": "LineString", "coordinates": [[-0.006002865476204988, 69.04146975876264], [-0.0066930150700841295, 69.04102720327529]]}, "properties": {"source": "17369853", "target": "17796000"}}, {"type": "Feature", "geometry": {"type": "LineString", "coordinates": [[-0.015033280308131225, 69.04050253302947], [-0.008561635732235118, 69.04109713775557]]}, "properties": {"source": "17364105", "target": "17972736"}}, {"type": "Feature", "geometry": {"type": "LineString", "coordinates": [[-0.015033280308131225, 69.04050253302947], [-0.01672381519136934, 69.03747898233294]]}, "properties": {"source": "17364105", "target": "16368840"}}, {"type": "Feature", "geometry": {"type": "LineString", "coordinates": [[-0.015033280308131225, 69.04050253302947], [-0.006151208741329128, 69.04207768686359]]}, "properties": {"source": "17364105", "target": "17208717"}}, {"type": "Feature", "geometry": {"type": "LineString", "coordinates": [[-0.006002865476204988, 69.04146975876264], [-0.006558136094184874, 69.04209959182]]}, "properties": {"source": "17369853", "target": "13415039"}}, {"type": "Feature", "geometry": {"type": "LineString", "coordinates": [[-0.015033280308131225, 69.04050253302947], [-0.006558136094184874, 69.04209959182]]}, "properties": {"source": "17364105", "target": "13415039"}}, {"type": "Feature", "geometry": {"type": "LineString", "coordinates": [[-0.01600450048562152, 69.04187375650179], [-0.004507991131418976, 69.03758064135351]]}, "properties": {"source": "16071393", "target": "16276924"}}, {"type": "Feature", "geometry": {"type": "LineString", "coordinates": [[-0.01600450048562152, 69.04187375650179], [-0.006151208741329128, 69.04207768686359]]}, "properties": {"source": "16071393", "target": "17208717"}}, {"type": "Feature", "geometry": {"type": "LineString", "coordinates": [[-0.013719034608186575, 69.0413660581477], [-0.007903276942641924, 69.03880769025264]]}, "properties": {"source": "14741459", "target": "1597358"}}, {"type": "Feature", "geometry": {"type": "LineString", "coordinates": [[-0.013719034608186575, 69.0413660581477], [-0.0063546955391586835, 69.03902533923176]]}, "properties": {"source": "14741459", "target": "1549159"}}, {"type": "Feature", "geometry": {"type": "LineString", "coordinates": [[-0.013719034608186575, 69.0413660581477], [-0.009747457801267956, 69.03954023898223]]}, "properties": {"source": "14741459", "target": "13064268"}}, {"type": "Feature", "geometry": {"type": "LineString", "coordinates": [[-0.013719034608186575, 69.0413660581477], [-0.015631839699182137, 69.0422396447791]]}, "properties": {"source": "14741459", "target": "17295645"}}, {"type": "Feature", "geometry": {"type": "LineString", "coordinates": [[-0.0063546955391586835, 69.03902533923176], [-0.009287571805515427, 69.04196527389058]]}, "properties": {"source": "1549159", "target": "1848223"}}, {"type": "Feature", "geometry": {"type": "LineString", "coordinates": [[-0.0063546955391586835, 69.03902533923176], [-0.0033545310523379612, 69.0383039188593]]}, "properties": {"source": "1549159", "target": "18482639"}}, {"type": "Feature", "geometry": {"type": "LineString", "coordinates": [[-0.0063546955391586835, 69.03902533923176], [-0.011265754444281129, 69.0378041416021]]}, "properties": {"source": "1549159", "target": "1848224"}}, {"type": "Feature", "geometry": {"type": "LineString", "coordinates": [[-0.015340598347819423, 69.03921175702419], [-0.013139950647286014, 69.03960358096026]]}, "properties": {"source": "5986484", "target": "7741029"}}, {"type": "Feature", "geometry": {"type": "LineString", "coordinates": [[-0.010721823429292954, 69.04191969744886], [-0.004526663758156246, 69.04053928432864]]}, "properties": {"source": "10305009", "target": "2602882"}}, {"type": "Feature", "geometry": {"type": "LineString", "coordinates": [[-0.010721823429292954, 69.04191969744886], [-0.005725581000206148, 69.0404828704244]]}, "properties": {"source": "10305009", "target": "2049651"}}, {"type": "Feature", "geometry": {"type": "LineString", "coordinates": [[-0.00241902219096346, 69.03791702875839], [-0.012553147144785726, 69.03958866267348]]}, "properties": {"source": "14624201", "target": "17341258"}}, {"type": "Feature", "geometry": {"type": "LineString", "coordinates": [[-0.00241902219096346, 69.03791702875839], [-0.015033280308131225, 69.04050253302947]]}, "properties": {"source": "14624201", "target": "17364105"}}, {"type": "Feature", "geometry": {"type": "LineString", "coordinates": [[-0.00241902219096346, 69.03791702875839], [-0.0036120922866871297, 69.04037061654046]]}, "properties": {"source": "14624201", "target": "15983798"}}, {"type": "Feature", "geometry": {"type": "LineString", "coordinates": [[-0.00241902219096346, 69.03791702875839], [-0.01605530583370296, 69.03946454550038]]}, "properties": {"source": "14624201", "target": "16041312"}}, {"type": "Feature", "geometry": {"type": "LineString", "coordinates": [[-0.005606968802879919, 69.03822664824193], [-0.01605530583370296, 69.03946454550038]]}, "properties": {"source": "17836011", "target": "16041312"}}, {"type": "Feature", "geometry": {"type": "LineString", "coordinates": [[-0.005606968802879919, 69.03822664824193], [-0.008561635732235118, 69.04109713775557]]}, "properties": {"source": "17836011", "target": "17972736"}}, {"type": "Feature", "geometry": {"type": "LineString", "coordinates": [[-0.005606968802879919, 69.03822664824193], [-0.0066930150700841295, 69.04102720327529]]}, "properties": {"source": "17836011", "target": "17796000"}}, {"type": "Feature", "geometry": {"type": "LineString", "coordinates": [[-0.014307573283446118, 69.04024492992585], [-0.015893625847382964, 69.03897343791479]]}, "properties": {"source": "15862333", "target": "17364321"}}, {"type": "Feature", "geometry": {"type": "LineString", "coordinates": [[-0.014307573283446118, 69.04024492992585], [-0.006002865476204988, 69.04146975876264]]}, "properties": {"source": "15862333", "target": "17369853"}}, {"type": "Feature", "geometry": {"type": "LineString", "coordinates": [[-0.014307573283446118, 69.04024492992585], [-0.002716024208723411, 69.0385280297561]]}, "properties": {"source": "15862333", "target": "18303725"}}, {"type": "Feature", "geometry": {"type": "LineString", "coordinates": [[-0.014307573283446118, 69.04024492992585], [-0.012553147144785726, 69.03958866267348]]}, "properties": {"source": "15862333", "target": "17341258"}}, {"type": "Feature", "geometry": {"type": "LineString", "coordinates": [[-0.014307573283446118, 69.04024492992585], [-0.015033280308131225, 69.04050253302947]]}, "properties": {"source": "15862333", "target": "17364105"}}, {"type": "Feature", "geometry": {"type": "LineString", "coordinates": [[-0.014307573283446118, 69.04024492992585], [-0.0036120922866871297, 69.04037061654046]]}, "properties": {"source": "15862333", "target": "15983798"}}, {"type": "Feature", "geometry": {"type": "LineString", "coordinates": [[-0.014307573283446118, 69.04024492992585], [-0.01605530583370296, 69.03946454550038]]}, "properties": {"source": "15862333", "target": "16041312"}}, {"type": "Feature", "geometry": {"type": "LineString", "coordinates": [[-0.014307573283446118, 69.04024492992585], [-0.011097878131749894, 69.04260996028717]]}, "properties": {"source": "15862333", "target": "17364145"}}, {"type": "Feature", "geometry": {"type": "LineString", "coordinates": [[-0.014307573283446118, 69.04024492992585], [-0.0033230219127347027, 69.04102180051152]]}, "properties": {"source": "15862333", "target": "12869104"}}, {"type": "Feature", "geometry": {"type": "LineString", "coordinates": [[-0.014307573283446118, 69.04024492992585], [-0.012688927708921938, 69.03937587663009]]}, "properties": {"source": "15862333", "target": "18096286"}}, {"type": "Feature", "geometry": {"type": "LineString", "coordinates": [[-0.014307573283446118, 69.04024492992585], [-0.01386741226929189, 69.03975493542305]]}, "properties": {"source": "15862333", "target": "18096794"}}, {"type": "Feature", "geometry": {"type": "LineString", "coordinates": [[-0.0033230219127347027, 69.04102180051152], [-0.006002865476204988, 69.04146975876264]]}, "properties": {"source": "12869104", "target": "17369853"}}, {"type": "Feature", "geometry": {"type": "LineString", "coordinates": [[-0.0033230219127347027, 69.04102180051152], [-0.002716024208723411, 69.0385280297561]]}, "properties": {"source": "12869104", "target": "18303725"}}, {"type": "Feature", "geometry": {"type": "LineString", "coordinates": [[-0.007207119387288685, 69.04178395893442], [-0.0016252062308410586, 69.03789814554463]]}, "properties": {"source": "6648457", "target": "7616036"}}, {"type": "Feature", "geometry": {"type": "LineString", "coordinates": [[-0.007207119387288685, 69.04178395893442], [-0.015340598347819423, 69.03921175702419]]}, "properties": {"source": "6648457", "target": "5986484"}}, {"type": "Feature", "geometry": {"type": "LineString", "coordinates": [[-0.007207119387288685, 69.04178395893442], [-0.01585871827822416, 69.03857830291378]]}, "properties": {"source": "6648457", "target": "829063"}}, {"type": "Feature", "geometry": {"type": "LineString", "coordinates": [[-0.007207119387288685, 69.04178395893442], [-0.0027577965640261937, 69.04209604241811]]}, "properties": {"source": "6648457", "target": "10637385"}}, {"type": "Feature", "geometry": {"type": "LineString", "coordinates": [[-0.007207119387288685, 69.04178395893442], [-0.01033564899549333, 69.0393643359713]]}, "properties": {"source": "6648457", "target": "6076348"}}, {"type": "Feature", "geometry": {"type": "LineString", "coordinates": [[-0.005806914034081956, 69.04169994862303], [-0.015893625847382964, 69.03897343791479]]}, "properties": {"source": "15894052", "target": "17364321"}}, {"type": "Feature", "geometry": {"type": "LineString", "coordinates": [[-0.005806914034081956, 69.04169994862303], [-0.012553147144785726, 69.03958866267348]]}, "properties": {"source": "15894052", "target": "17341258"}}, {"type": "Feature", "geometry": {"type": "LineString", "coordinates": [[-0.005806914034081956, 69.04169994862303], [-0.015033280308131225, 69.04050253302947]]}, "properties": {"source": "15894052", "target": "17364105"}}, {"type": "Feature", "geometry": {"type": "LineString", "coordinates": [[-0.005806914034081956, 69.04169994862303], [-0.0036120922866871297, 69.04037061654046]]}, "properties": {"source": "15894052", "target": "15983798"}}, {"type": "Feature", "geometry": {"type": "LineString", "coordinates": [[-0.005806914034081956, 69.04169994862303], [-0.01605530583370296, 69.03946454550038]]}, "properties": {"source": "15894052", "target": "16041312"}}, {"type": "Feature", "geometry": {"type": "LineString", "coordinates": [[-0.005806914034081956, 69.04169994862303], [-0.011097878131749894, 69.04260996028717]]}, "properties": {"source": "15894052", "target": "17364145"}}, {"type": "Feature", "geometry": {"type": "LineString", "coordinates": [[-0.005806914034081956, 69.04169994862303], [-0.014379106466208214, 69.03859987940862]]}, "properties": {"source": "15894052", "target": "6660561"}}, {"type": "Feature", "geometry": {"type": "LineString", "coordinates": [[-0.005806914034081956, 69.04169994862303], [-0.00466270222338494, 69.04000414683259]]}, "properties": {"source": "15894052", "target": "8480308"}}, {"type": "Feature", "geometry": {"type": "LineString", "coordinates": [[-0.00241902219096346, 69.03791702875839], [-0.015893625847382964, 69.03897343791479]]}, "properties": {"source": "14624201", "target": "17364321"}}, {"type": "Feature", "geometry": {"type": "LineString", "coordinates": [[-0.00241902219096346, 69.03791702875839], [-0.006002865476204988, 69.04146975876264]]}, "properties": {"source": "14624201", "target": "17369853"}}, {"type": "Feature", "geometry": {"type": "LineString", "coordinates": [[-0.00241902219096346, 69.03791702875839], [-0.002716024208723411, 69.0385280297561]]}, "properties": {"source": "14624201", "target": "18303725"}}, {"type": "Feature", "geometry": {"type": "LineString", "coordinates": [[-0.012553147144785726, 69.03958866267348], [-0.011614949611157499, 69.0409769215994]]}, "properties": {"source": "17341258", "target": "11546435"}}, {"type": "Feature", "geometry": {"type": "LineString", "coordinates": [[-0.012553147144785726, 69.03958866267348], [-0.008561635732235118, 69.04109713775557]]}, "properties": {"source": "17341258", "target": "17972736"}}, {"type": "Feature", "geometry": {"type": "LineString", "coordinates": [[-0.012553147144785726, 69.03958866267348], [-0.005526472767627411, 69.04093275009296]]}, "properties": {"source": "17341258", "target": "10781976"}}, {"type": "Feature", "geometry": {"type": "LineString", "coordinates": [[-0.012553147144785726, 69.03958866267348], [-0.01040884547069254, 69.0416259701974]]}, "properties": {"source": "17341258", "target": "12733671"}}, {"type": "Feature", "geometry": {"type": "LineString", "coordinates": [[-0.012553147144785726, 69.03958866267348], [-0.00360930865838327, 69.03942558003513]]}, "properties": {"source": "17341258", "target": "12464903"}}, {"type": "Feature", "geometry": {"type": "LineString", "coordinates": [[-0.012553147144785726, 69.03958866267348], [-0.008491162142917119, 69.04127317555194]]}, "properties": {"source": "17341258", "target": "15923168"}}, {"type": "Feature", "geometry": {"type": "LineString", "coordinates": [[-0.012553147144785726, 69.03958866267348], [-0.007903072869112293, 69.04237415380328]]}, "properties": {"source": "17341258", "target": "12460065"}}, {"type": "Feature", "geometry": {"type": "LineString", "coordinates": [[-0.012553147144785726, 69.03958866267348], [-0.010744033180259294, 69.0376954994367]]}, "properties": {"source": "17341258", "target": "1493456"}}, {"type": "Feature", "geometry": {"type": "LineString", "coordinates": [[-0.012553147144785726, 69.03958866267348], [-0.010411846249553491, 69.03943036554796]]}, "properties": {"source": "17341258", "target": "13506169"}}, {"type": "Feature", "geometry": {"type": "LineString", "coordinates": [[-0.015033280308131225, 69.04050253302947], [-0.0036120922866871297, 69.04037061654046]]}, "properties": {"source": "17364105", "target": "15983798"}}, {"type": "Feature", "geometry": {"type": "LineString", "coordinates": [[-0.015033280308131225, 69.04050253302947], [-0.011614949611157499, 69.0409769215994]]}, "properties": {"source": "17364105", "target": "11546435"}}, {"type": "Feature", "geometry": {"type": "LineString", "coordinates": [[-0.0012800974448055058, 69.04008904324681], [-0.006151208741329128, 69.04207768686359]]}, "properties": {"source": "21325769", "target": "17208717"}}, {"type": "Feature", "geometry": {"type": "LineString", "coordinates": [[-0.0012800974448055058, 69.04008904324681], [-0.0017695628756655424, 69.03974695255326]]}, "properties": {"source": "21325769", "target": "22011164"}}, {"type": "Feature", "geometry": {"type": "LineString", "coordinates": [[-0.01600450048562152, 69.04187375650179], [-0.015033280308131225, 69.04050253302947]]}, "properties": {"source": "16071393", "target": "17364105"}}, {"type": "Feature", "geometry": {"type": "LineString", "coordinates": [[-0.01600450048562152, 69.04187375650179], [-0.01672381519136934, 69.03747898233294]]}, "properties": {"source": "16071393", "target": "16368840"}}, {"type": "Feature", "geometry": {"type": "LineString", "coordinates": [[-0.012553147144785726, 69.03958866267348], [-0.006558136094184874, 69.04209959182]]}, "properties": {"source": "17341258", "target": "13415039"}}, {"type": "Feature", "geometry": {"type": "LineString", "coordinates": [[-0.015893625847382964, 69.03897343791479], [-0.0036120922866871297, 69.04037061654046]]}, "properties": {"source": "17364321", "target": "15983798"}}, {"type": "Feature", "geometry": {"type": "LineString", "coordinates": [[-0.015893625847382964, 69.03897343791479], [-0.01605530583370296, 69.03946454550038]]}, "properties": {"source": "17364321", "target": "16041312"}}, {"type": "Feature", "geometry": {"type": "LineString", "coordinates": [[-0.015893625847382964, 69.03897343791479], [-0.011097878131749894, 69.04260996028717]]}, "properties": {"source": "17364321", "target": "17364145"}}, {"type": "Feature", "geometry": {"type": "LineString", "coordinates": [[-0.015893625847382964, 69.03897343791479], [-0.010419675712711296, 69.04025211843071]]}, "properties": {"source": "17364321", "target": "18363402"}}, {"type": "Feature", "geometry": {"type": "LineString", "coordinates": [[-0.015893625847382964, 69.03897343791479], [-0.005606968802879919, 69.03822664824193]]}, "properties": {"source": "17364321", "target": "17836011"}}, {"type": "Feature", "geometry": {"type": "LineString", "coordinates": [[-0.015893625847382964, 69.03897343791479], [-0.0033230219127347027, 69.04102180051152]]}, "properties": {"source": "17364321", "target": "12869104"}}, {"type": "Feature", "geometry": {"type": "LineString", "coordinates": [[-0.015893625847382964, 69.03897343791479], [-0.011961680983006318, 69.0409704036704]]}, "properties": {"source": "17364321", "target": "17731093"}}, {"type": "Feature", "geometry": {"type": "LineString", "coordinates": [[-0.015893625847382964, 69.03897343791479], [-0.011614949611157499, 69.0409769215994]]}, "properties": {"source": "17364321", "target": "11546435"}}, {"type": "Feature", "geometry": {"type": "LineString", "coordinates": [[-0.015893625847382964, 69.03897343791479], [-0.008561635732235118, 69.04109713775557]]}, "properties": {"source": "17364321", "target": "17972736"}}, {"type": "Feature", "geometry": {"type": "LineString", "coordinates": [[-0.015893625847382964, 69.03897343791479], [-0.005526472767627411, 69.04093275009296]]}, "properties": {"source": "17364321", "target": "10781976"}}, {"type": "Feature", "geometry": {"type": "LineString", "coordinates": [[-0.015893625847382964, 69.03897343791479], [-0.01040884547069254, 69.0416259701974]]}, "properties": {"source": "17364321", "target": "12733671"}}, {"type": "Feature", "geometry": {"type": "LineString", "coordinates": [[-0.0033230219127347027, 69.04102180051152], [-0.015033280308131225, 69.04050253302947]]}, "properties": {"source": "12869104", "target": "17364105"}}, {"type": "Feature", "geometry": {"type": "LineString", "coordinates": [[-0.0033230219127347027, 69.04102180051152], [-0.0036120922866871297, 69.04037061654046]]}, "properties": {"source": "12869104", "target": "15983798"}}, {"type": "Feature", "geometry": {"type": "LineString", "coordinates": [[-0.0033230219127347027, 69.04102180051152], [-0.01605530583370296, 69.03946454550038]]}, "properties": {"source": "12869104", "target": "16041312"}}, {"type": "Feature", "geometry": {"type": "LineString", "coordinates": [[-0.0033230219127347027, 69.04102180051152], [-0.009811313486778772, 69.03845824790267]]}, "properties": {"source": "12869104", "target": "33897486"}}, {"type": "Feature", "geometry": {"type": "LineString", "coordinates": [[-0.015893625847382964, 69.03897343791479], [-0.006558136094184874, 69.04209959182]]}, "properties": {"source": "17364321", "target": "13415039"}}, {"type": "Feature", "geometry": {"type": "LineString", "coordinates": [[-0.011097878131749894, 69.04260996028717], [-0.015033280308131225, 69.04050253302947]]}, "properties": {"source": "17364145", "target": "17364105"}}, {"type": "Feature", "geometry": {"type": "LineString", "coordinates": [[-0.011097878131749894, 69.04260996028717], [-0.0036120922866871297, 69.04037061654046]]}, "properties": {"source": "17364145", "target": "15983798"}}, {"type": "Feature", "geometry": {"type": "LineString", "coordinates": [[-0.011097878131749894, 69.04260996028717], [-0.01605530583370296, 69.03946454550038]]}, "properties": {"source": "17364145", "target": "16041312"}}, {"type": "Feature", "geometry": {"type": "LineString", "coordinates": [[-0.011097878131749894, 69.04260996028717], [-0.008491162142917119, 69.04127317555194]]}, "properties": {"source": "17364145", "target": "15923168"}}, {"type": "Feature", "geometry": {"type": "LineString", "coordinates": [[-0.010419675712711296, 69.04025211843071], [-0.006002865476204988, 69.04146975876264]]}, "properties": {"source": "18363402", "target": "17369853"}}, {"type": "Feature", "geometry": {"type": "LineString", "coordinates": [[-0.010419675712711296, 69.04025211843071], [-0.002716024208723411, 69.0385280297561]]}, "properties": {"source": "18363402", "target": "18303725"}}, {"type": "Feature", "geometry": {"type": "LineString", "coordinates": [[-0.010419675712711296, 69.04025211843071], [-0.0036120922866871297, 69.04037061654046]]}, "properties": {"source": "18363402", "target": "15983798"}}, {"type": "Feature", "geometry": {"type": "LineString", "coordinates": [[-0.010419675712711296, 69.04025211843071], [-0.01605530583370296, 69.03946454550038]]}, "properties": {"source": "18363402", "target": "16041312"}}, {"type": "Feature", "geometry": {"type": "LineString", "coordinates": [[-0.010419675712711296, 69.04025211843071], [-0.005606968802879919, 69.03822664824193]]}, "properties": {"source": "18363402", "target": "17836011"}}, {"type": "Feature", "geometry": {"type": "LineString", "coordinates": [[-0.010419675712711296, 69.04025211843071], [-0.008561635732235118, 69.04109713775557]]}, "properties": {"source": "18363402", "target": "17972736"}}, {"type": "Feature", "geometry": {"type": "LineString", "coordinates": [[-0.010419675712711296, 69.04025211843071], [-0.0066930150700841295, 69.04102720327529]]}, "properties": {"source": "18363402", "target": "17796000"}}, {"type": "Feature", "geometry": {"type": "LineString", "coordinates": [[-0.005606968802879919, 69.03822664824193], [-0.006002865476204988, 69.04146975876264]]}, "properties": {"source": "17836011", "target": "17369853"}}, {"type": "Feature", "geometry": {"type": "LineString", "coordinates": [[-0.005606968802879919, 69.03822664824193], [-0.002716024208723411, 69.0385280297561]]}, "properties": {"source": "17836011", "target": "18303725"}}, {"type": "Feature", "geometry": {"type": "LineString", "coordinates": [[-0.005606968802879919, 69.03822664824193], [-0.015033280308131225, 69.04050253302947]]}, "properties": {"source": "17836011", "target": "17364105"}}, {"type": "Feature", "geometry": {"type": "LineString", "coordinates": [[-0.005606968802879919, 69.03822664824193], [-0.0036120922866871297, 69.04037061654046]]}, "properties": {"source": "17836011", "target": "15983798"}}, {"type": "Feature", "geometry": {"type": "LineString", "coordinates": [[-0.011097878131749894, 69.04260996028717], [-0.006558136094184874, 69.04209959182]]}, "properties": {"source": "17364145", "target": "13415039"}}, {"type": "Feature", "geometry": {"type": "LineString", "coordinates": [[-0.00466270222338494, 69.04000414683259], [-0.009811313486778772, 69.03845824790267]]}, "properties": {"source": "8480308", "target": "33897486"}}, {"type": "Feature", "geometry": {"type": "LineString", "coordinates": [[-0.0016301358759278628, 69.04223222514372], [-0.011265754444281129, 69.0378041416021]]}, "properties": {"source": "1884154", "target": "1848224"}}, {"type": "Feature", "geometry": {"type": "LineString", "coordinates": [[-0.01248175418194819, 69.04248371810331], [-0.011446827864830311, 69.03992138483505]]}, "properties": {"source": "17159313", "target": "17796776"}}, {"type": "Feature", "geometry": {"type": "LineString", "coordinates": [[-0.01248175418194819, 69.04248371810331], [-0.012034992410519862, 69.03822459149194]]}, "properties": {"source": "17159313", "target": "17694569"}}, {"type": "Feature", "geometry": {"type": "LineString", "coordinates": [[-0.008491590010805794, 69.0385013045964], [-0.009287571805515427, 69.04196527389058]]}, "properties": {"source": "17277840", "target": "1848223"}}, {"type": "Feature", "geometry": {"type": "LineString", "coordinates": [[-0.008491590010805794, 69.0385013045964], [-0.01061275640344661, 69.03988299852361]]}, "properties": {"source": "17277840", "target": "18460046"}}, {"type": "Feature", "geometry": {"type": "LineString", "coordinates": [[-0.01061275640344661, 69.03988299852361], [-0.009287571805515427, 69.04196527389058]]}, "properties": {"source": "18460046", "target": "1848223"}}, {"type": "Feature", "geometry": {"type": "LineString", "coordinates": [[-0.013769579019282219, 69.03799703143164], [-0.0017695628756655424, 69.03974695255326]]}, "properties": {"source": "27798133", "target": "22011164"}}, {"type": "Feature", "geometry": {"type": "LineString", "coordinates": [[-0.0073306145386595745, 69.04132560102201], [-0.004526663758156246, 69.04053928432864]]}, "properties": {"source": "3397613", "target": "2602882"}}, {"type": "Feature", "geometry": {"type": "LineString", "coordinates": [[-0.0073306145386595745, 69.04132560102201], [-0.010721823429292954, 69.04191969744886]]}, "properties": {"source": "3397613", "target": "10305009"}}, {"type": "Feature", "geometry": {"type": "LineString", "coordinates": [[-0.015880783834035128, 69.04226716660978], [-0.009811313486778772, 69.03845824790267]]}, "properties": {"source": "9747341", "target": "33897486"}}, {"type": "Feature", "geometry": {"type": "LineString", "coordinates": [[-0.012688927708921938, 69.03937587663009], [-0.01386741226929189, 69.03975493542305]]}, "properties": {"source": "18096286", "target": "18096794"}}, {"type": "Feature", "geometry": {"type": "LineString", "coordinates": [[-0.010744033180259294, 69.0376954994367], [-0.009811313486778772, 69.03845824790267]]}, "properties": {"source": "1493456", "target": "33897486"}}, {"type": "Feature", "geometry": {"type": "LineString", "coordinates": [[-0.010411846249553491, 69.03943036554796], [-0.0036120922866871297, 69.04037061654046]]}, "properties": {"source": "13506169", "target": "15983798"}}, {"type": "Feature", "geometry": {"type": "LineString", "coordinates": [[-0.007903276942641924, 69.03880769025264], [-0.009287571805515427, 69.04196527389058]]}, "properties": {"source": "1597358", "target": "1848223"}}, {"type": "Feature", "geometry": {"type": "LineString", "coordinates": [[-0.007903276942641924, 69.03880769025264], [-0.0033545310523379612, 69.0383039188593]]}, "properties": {"source": "1597358", "target": "18482639"}}, {"type": "Feature", "geometry": {"type": "LineString", "coordinates": [[-0.002716024208723411, 69.0385280297561], [-0.015033280308131225, 69.04050253302947]]}, "properties": {"source": "18303725", "target": "17364105"}}, {"type": "Feature", "geometry": {"type": "LineString", "coordinates": [[-0.002716024208723411, 69.0385280297561], [-0.0036120922866871297, 69.04037061654046]]}, "properties": {"source": "18303725", "target": "15983798"}}, {"type": "Feature", "geometry": {"type": "LineString", "coordinates": [[-0.002716024208723411, 69.0385280297561], [-0.01605530583370296, 69.03946454550038]]}, "properties": {"source": "18303725", "target": "16041312"}}, {"type": "Feature", "geometry": {"type": "LineString", "coordinates": [[-0.002716024208723411, 69.0385280297561], [-0.011614949611157499, 69.0409769215994]]}, "properties": {"source": "18303725", "target": "11546435"}}, {"type": "Feature", "geometry": {"type": "LineString", "coordinates": [[-0.002716024208723411, 69.0385280297561], [-0.008561635732235118, 69.04109713775557]]}, "properties": {"source": "18303725", "target": "17972736"}}, {"type": "Feature", "geometry": {"type": "LineString", "coordinates": [[-0.002716024208723411, 69.0385280297561], [-0.010744033180259294, 69.0376954994367]]}, "properties": {"source": "18303725", "target": "1493456"}}, {"type": "Feature", "geometry": {"type": "LineString", "coordinates": [[-0.002716024208723411, 69.0385280297561], [-0.010411846249553491, 69.03943036554796]]}, "properties": {"source": "18303725", "target": "13506169"}}, {"type": "Feature", "geometry": {"type": "LineString", "coordinates": [[-0.002716024208723411, 69.0385280297561], [-0.004526663758156246, 69.04053928432864]]}, "properties": {"source": "18303725", "target": "2602882"}}, {"type": "Feature", "geometry": {"type": "LineString", "coordinates": [[-0.002716024208723411, 69.0385280297561], [-0.0066930150700841295, 69.04102720327529]]}, "properties": {"source": "18303725", "target": "17796000"}}, {"type": "Feature", "geometry": {"type": "LineString", "coordinates": [[-0.012553147144785726, 69.03958866267348], [-0.006002865476204988, 69.04146975876264]]}, "properties": {"source": "17341258", "target": "17369853"}}, {"type": "Feature", "geometry": {"type": "LineString", "coordinates": [[-0.012553147144785726, 69.03958866267348], [-0.002716024208723411, 69.0385280297561]]}, "properties": {"source": "17341258", "target": "18303725"}}, {"type": "Feature", "geometry": {"type": "LineString", "coordinates": [[-0.012553147144785726, 69.03958866267348], [-0.015033280308131225, 69.04050253302947]]}, "properties": {"source": "17341258", "target": "17364105"}}, {"type": "Feature", "geometry": {"type": "LineString", "coordinates": [[-0.012553147144785726, 69.03958866267348], [-0.0036120922866871297, 69.04037061654046]]}, "properties": {"source": "17341258", "target": "15983798"}}, {"type": "Feature", "geometry": {"type": "LineString", "coordinates": [[-0.012553147144785726, 69.03958866267348], [-0.01605530583370296, 69.03946454550038]]}, "properties": {"source": "17341258", "target": "16041312"}}, {"type": "Feature", "geometry": {"type": "LineString", "coordinates": [[-0.012553147144785726, 69.03958866267348], [-0.011097878131749894, 69.04260996028717]]}, "properties": {"source": "17341258", "target": "17364145"}}, {"type": "Feature", "geometry": {"type": "LineString", "coordinates": [[-0.002716024208723411, 69.0385280297561], [-0.006558136094184874, 69.04209959182]]}, "properties": {"source": "18303725", "target": "13415039"}}, {"type": "Feature", "geometry": {"type": "LineString", "coordinates": [[-0.007903276942641924, 69.03880769025264], [-0.011265754444281129, 69.0378041416021]]}, "properties": {"source": "1597358", "target": "1848224"}}, {"type": "Feature", "geometry": {"type": "LineString", "coordinates": [[-0.007903276942641924, 69.03880769025264], [-0.010721823429292954, 69.04191969744886]]}, "properties": {"source": "1597358", "target": "10305009"}}, {"type": "Feature", "geometry": {"type": "LineString", "coordinates": [[-0.007903276942641924, 69.03880769025264], [-0.005725581000206148, 69.0404828704244]]}, "properties": {"source": "1597358", "target": "2049651"}}, {"type": "Feature", "geometry": {"type": "LineString", "coordinates": [[-0.0033545310523379612, 69.0383039188593], [-0.009287571805515427, 69.04196527389058]]}, "properties": {"source": "18482639", "target": "1848223"}}, {"type": "Feature", "geometry": {"type": "LineString", "coordinates": [[-0.0033545310523379612, 69.0383039188593], [-0.011265754444281129, 69.0378041416021]]}, "properties": {"source": "18482639", "target": "1848224"}}, {"type": "Feature", "geometry": {"type": "LineString", "coordinates": [[-0.0033545310523379612, 69.0383039188593], [-0.009747457801267956, 69.03954023898223]]}, "properties": {"source": "18482639", "target": "13064268"}}, {"type": "Feature", "geometry": {"type": "LineString", "coordinates": [[-0.0033545310523379612, 69.0383039188593], [-0.0016301358759278628, 69.04223222514372]]}, "properties": {"source": "18482639", "target": "1884154"}}, {"type": "Feature", "geometry": {"type": "LineString", "coordinates": [[-0.004526663758156246, 69.04053928432864], [-0.009811313486778772, 69.03845824790267]]}, "properties": {"source": "2602882", "target": "33897486"}}, {"type": "Feature", "geometry": {"type": "LineString", "coordinates": [[-0.012494185830576043, 69.03801677909661], [-0.01672381519136934, 69.03747898233294]]}, "properties": {"source": "15829531", "target": "16368840"}}, {"type": "Feature", "geometry": {"type": "LineString", "coordinates": [[-0.014143030770668474, 69.04119524452722], [-0.015033280308131225, 69.04050253302947]]}, "properties": {"source": "13596362", "target": "17364105"}}, {"type": "Feature", "geometry": {"type": "LineString", "coordinates": [[-0.014143030770668474, 69.04119524452722], [-0.01672381519136934, 69.03747898233294]]}, "properties": {"source": "13596362", "target": "16368840"}}, {"type": "Feature", "geometry": {"type": "LineString", "coordinates": [[-0.014143030770668474, 69.04119524452722], [-0.006151208741329128, 69.04207768686359]]}, "properties": {"source": "13596362", "target": "17208717"}}, {"type": "Feature", "geometry": {"type": "LineString", "coordinates": [[-0.012553147144785726, 69.03958866267348], [-0.010419675712711296, 69.04025211843071]]}, "properties": {"source": "17341258", "target": "18363402"}}, {"type": "Feature", "geometry": {"type": "LineString", "coordinates": [[-0.012553147144785726, 69.03958866267348], [-0.005606968802879919, 69.03822664824193]]}, "properties": {"source": "17341258", "target": "17836011"}}, {"type": "Feature", "geometry": {"type": "LineString", "coordinates": [[-0.012553147144785726, 69.03958866267348], [-0.0033230219127347027, 69.04102180051152]]}, "properties": {"source": "17341258", "target": "12869104"}}, {"type": "Feature", "geometry": {"type": "LineString", "coordinates": [[-0.012553147144785726, 69.03958866267348], [-0.011961680983006318, 69.0409704036704]]}, "properties": {"source": "17341258", "target": "17731093"}}, {"type": "Feature", "geometry": {"type": "LineString", "coordinates": [[-0.01585871827822416, 69.03857830291378], [-0.013139950647286014, 69.03960358096026]]}, "properties": {"source": "829063", "target": "7741029"}}, {"type": "Feature", "geometry": {"type": "LineString", "coordinates": [[-0.009747457801267956, 69.03954023898223], [-0.011265754444281129, 69.0378041416021]]}, "properties": {"source": "13064268", "target": "1848224"}}, {"type": "Feature", "geometry": {"type": "LineString", "coordinates": [[-0.012152826986920218, 69.0382044358006], [-0.015893625847382964, 69.03897343791479]]}, "properties": {"source": "13530972", "target": "17364321"}}, {"type": "Feature", "geometry": {"type": "LineString", "coordinates": [[-0.012152826986920218, 69.0382044358006], [-0.006002865476204988, 69.04146975876264]]}, "properties": {"source": "13530972", "target": "17369853"}}, {"type": "Feature", "geometry": {"type": "LineString", "coordinates": [[-0.012152826986920218, 69.0382044358006], [-0.012553147144785726, 69.03958866267348]]}, "properties": {"source": "13530972", "target": "17341258"}}, {"type": "Feature", "geometry": {"type": "LineString", "coordinates": [[-0.016316842891285432, 69.03761899655242], [-0.007207119387288685, 69.04178395893442]]}, "properties": {"source": "8314173", "target": "6648457"}}, {"type": "Feature", "geometry": {"type": "LineString", "coordinates": [[-0.016316842891285432, 69.03761899655242], [-0.013139950647286014, 69.03960358096026]]}, "properties": {"source": "8314173", "target": "7741029"}}, {"type": "Feature", "geometry": {"type": "LineString", "coordinates": [[-0.016316842891285432, 69.03761899655242], [-0.01585871827822416, 69.03857830291378]]}, "properties": {"source": "8314173", "target": "829063"}}, {"type": "Feature", "geometry": {"type": "LineString", "coordinates": [[-0.0027577965640261937, 69.04209604241811], [-0.013139950647286014, 69.03960358096026]]}, "properties": {"source": "10637385", "target": "7741029"}}, {"type": "Feature", "geometry": {"type": "LineString", "coordinates": [[-0.00251198842050826, 69.03829606920607], [-0.002716024208723411, 69.0385280297561]]}, "properties": {"source": "17845772", "target": "18303725"}}, {"type": "Feature", "geometry": {"type": "LineString", "coordinates": [[-0.00251198842050826, 69.03829606920607], [-0.010419675712711296, 69.04025211843071]]}, "properties": {"source": "17845772", "target": "18363402"}}, {"type": "Feature", "geometry": {"type": "LineString", "coordinates": [[-0.014379106466208214, 69.03859987940862], [-0.00466270222338494, 69.04000414683259]]}, "properties": {"source": "6660561", "target": "8480308"}}, {"type": "Feature", "geometry": {"type": "LineString", "coordinates": [[-0.014379106466208214, 69.03859987940862], [-0.006725926970688079, 69.04058111677071]]}, "properties": {"source": "6660561", "target": "544595"}}, {"type": "Feature", "geometry": {"type": "LineString", "coordinates": [[-0.015283449196857646, 69.03991448709502], [-0.002716024208723411, 69.0385280297561]]}, "properties": {"source": "24480732", "target": "18303725"}}, {"type": "Feature", "geometry": {"type": "LineString", "coordinates": [[-0.015283449196857646, 69.03991448709502], [-0.009811313486778772, 69.03845824790267]]}, "properties": {"source": "24480732", "target": "33897486"}}, {"type": "Feature", "geometry": {"type": "LineString", "coordinates": [[-0.015283449196857646, 69.03991448709502], [-0.004526663758156246, 69.04053928432864]]}, "properties": {"source": "24480732", "target": "2602882"}}, {"type": "Feature", "geometry": {"type": "LineString", "coordinates": [[-0.013419881931753253, 69.04037876111667], [-0.009811313486778772, 69.03845824790267]]}, "properties": {"source": "6072603", "target": "33897486"}}, {"type": "Feature", "geometry": {"type": "LineString", "coordinates": [[-0.013419881931753253, 69.04037876111667], [-0.007207119387288685, 69.04178395893442]]}, "properties": {"source": "6072603", "target": "6648457"}}, {"type": "Feature", "geometry": {"type": "LineString", "coordinates": [[-0.013419881931753253, 69.04037876111667], [-0.013139950647286014, 69.03960358096026]]}, "properties": {"source": "6072603", "target": "7741029"}}, {"type": "Feature", "geometry": {"type": "LineString", "coordinates": [[-0.013419881931753253, 69.04037876111667], [-0.004526663758156246, 69.04053928432864]]}, "properties": {"source": "6072603", "target": "2602882"}}, {"type": "Feature", "geometry": {"type": "LineString", "coordinates": [[-0.013419881931753253, 69.04037876111667], [-0.0016252062308410586, 69.03789814554463]]}, "properties": {"source": "6072603", "target": "7616036"}}, {"type": "Feature", "geometry": {"type": "LineString", "coordinates": [[-0.013419881931753253, 69.04037876111667], [-0.015340598347819423, 69.03921175702419]]}, "properties": {"source": "6072603", "target": "5986484"}}, {"type": "Feature", "geometry": {"type": "LineString", "coordinates": [[-0.013419881931753253, 69.04037876111667], [-0.0027577965640261937, 69.04209604241811]]}, "properties": {"source": "6072603", "target": "10637385"}}, {"type": "Feature", "geometry": {"type": "LineString", "coordinates": [[-0.013419881931753253, 69.04037876111667], [-0.015880783834035128, 69.04226716660978]]}, "properties": {"source": "6072603", "target": "9747341"}}, {"type": "Feature", "geometry": {"type": "LineString", "coordinates": [[-0.013419881931753253, 69.04037876111667], [-0.01033564899549333, 69.0393643359713]]}, "properties": {"source": "6072603", "target": "6076348"}}, {"type": "Feature", "geometry": {"type": "LineString", "coordinates": [[-0.0019924850268751015, 69.04120725173271], [-0.015033280308131225, 69.04050253302947]]}, "properties": {"source": "16126331", "target": "17364105"}}, {"type": "Feature", "geometry": {"type": "LineString", "coordinates": [[-0.0019924850268751015, 69.04120725173271], [-0.01672381519136934, 69.03747898233294]]}, "properties": {"source": "16126331", "target": "16368840"}}, {"type": "Feature", "geometry": {"type": "LineString", "coordinates": [[-0.0019924850268751015, 69.04120725173271], [-0.011446827864830311, 69.03992138483505]]}, "properties": {"source": "16126331", "target": "17796776"}}, {"type": "Feature", "geometry": {"type": "LineString", "coordinates": [[-0.0019924850268751015, 69.04120725173271], [-0.004507991131418976, 69.03758064135351]]}, "properties": {"source": "16126331", "target": "16276924"}}, {"type": "Feature", "geometry": {"type": "LineString", "coordinates": [[-0.0019924850268751015, 69.04120725173271], [-0.006151208741329128, 69.04207768686359]]}, "properties": {"source": "16126331", "target": "17208717"}}, {"type": "Feature", "geometry": {"type": "LineString", "coordinates": [[-0.0019924850268751015, 69.04120725173271], [-0.012494185830576043, 69.03801677909661]]}, "properties": {"source": "16126331", "target": "15829531"}}, {"type": "Feature", "geometry": {"type": "LineString", "coordinates": [[-0.0019924850268751015, 69.04120725173271], [-0.011598500552963742, 69.03803149823355]]}, "properties": {"source": "16126331", "target": "10366772"}}]}