{"type": "FeatureCollection", "features": [{"type": "Feature", "geometry": {"type": "LineString", "coordinates": [[-13.443055345205607, 69.23117269895036], [-13.446288514347174, 69.2309960892091]]}, "properties": {"source": "199394", "target": "750524"}}, {"type": "Feature", "geometry": {"type": "LineString", "coordinates": [[-13.443055345205607, 69.23117269895036], [-13.442206304282166, 69.23192488581122]]}, "properties": {"source": "199394", "target": "22881466"}}, {"type": "Feature", "geometry": {"type": "LineString", "coordinates": [[-13.439882181929306, 69.23195472748216], [-13.442350757775813, 69.2326409971638]]}, "properties": {"source": "273962", "target": "28583375"}}, {"type": "Feature", "geometry": {"type": "LineString", "coordinates": [[-13.439882181929306, 69.23195472748216], [-13.442056085259878, 69.23258813563274]]}, "properties": {"source": "273962", "target": "29916141"}}, {"type": "Feature", "geometry": {"type": "LineString", "coordinates": [[-13.439882181929306, 69.23195472748216], [-13.440593981098885, 69.22986949690247]]}, "properties": {"source": "273962", "target": "4447871"}}, {"type": "Feature", "geometry": {"type": "LineString", "coordinates": [[-13.44632938007743, 69.23240744102972], [-13.448392644003661, 69.22984642893636]]}, "properties": {"source": "30805260", "target": "29101476"}}, {"type": "Feature", "geometry": {"type": "LineString", "coordinates": [[-13.44632938007743, 69.23240744102972], [-13.441585253371755, 69.23311460438163]]}, "properties": {"source": "30805260", "target": "1416758"}}, {"type": "Feature", "geometry": {"type": "LineString", "coordinates": [[-13.44632938007743, 69.23240744102972], [-13.444336247357512, 69.23153798192902]]}, "properties": {"source": "30805260", "target": "13707581"}}, {"type": "Feature", "geometry": {"type": "LineString", "coordinates": [[-13.444289539640067, 69.22999357960151], [-13.443241024324806, 69.22994472268712]]}, "properties": {"source": "22101836", "target": "11456599"}}, {"type": "Feature", "geometry": {"type": "LineString", "coordinates": [[-13.442995267785932, 69.23146531802561], [-13.447830086227555, 69.23158545251616]]}, "properties": {"source": "20665594", "target": "671879"}}, {"type": "Feature", "geometry": {"type": "LineString", "coordinates": [[-13.439730075640824, 69.2299027306563], [-13.445748858883945, 69.2328238695398]]}, "properties": {"source": "9145288", "target": "9287621"}}, {"type": "Feature", "geometry": {"type": "LineString", "coordinates": [[-13.439730075640824, 69.2299027306563], [-13.440622578746058, 69.23303820427921]]}, "properties": {"source": "9145288", "target": "9456132"}}, {"type": "Feature", "geometry": {"type": "LineString", "coordinates": [[-13.439730075640824, 69.2299027306563], [-13.44565921693777, 69.2322086368155]]}, "properties": {"source": "9145288", "target": "9249686"}}, {"type": "Feature", "geometry": {"type": "LineString", "coordinates": [[-13.443241024324806, 69.22994472268712], [-13.439730075640824, 69.2299027306563]]}, "properties": {"source": "11456599", "target": "9145288"}}, {"type": "Feature", "geometry": {"type": "LineString", "coordinates": [[-13.443241024324806, 69.22994472268712], [-13.443557235713683, 69.23089712310218]]}, "properties": {"source": "11456599", "target": "17897406"}}, {"type": "Feature", "geometry": {"type": "LineString", "coordinates": [[-13.443241024324806, 69.22994472268712], [-13.446187142445353, 69.23136495709977]]}, "properties": {"source": "11456599", "target": "25545350"}}, {"type": "Feature", "geometry": {"type": "LineString", "coordinates": [[-13.443055345205607, 69.23117269895036], [-13.447830086227555, 69.23158545251616]]}, "properties": {"source": "199394", "target": "671879"}}, {"type": "Feature", "geometry": {"type": "LineString", "coordinates": [[-13.443055345205607, 69.23117269895036], [-13.441219254674678, 69.23282960765778]]}, "properties": {"source": "199394", "target": "6750964"}}, {"type": "Feature", "geometry": {"type": "LineString", "coordinates": [[-13.443055345205607, 69.23117269895036], [-13.448690910448278, 69.2320330640062]]}, "properties": {"source": "199394", "target": "1009384"}}, {"type": "Feature", "geometry": {"type": "LineString", "coordinates": [[-13.443055345205607, 69.23117269895036], [-13.446079629745014, 69.23186254903052]]}, "properties": {"source": "199394", "target": "1726368"}}, {"type": "Feature", "geometry": {"type": "LineString", "coordinates": [[-13.443055345205607, 69.23117269895036], [-13.442995267785932, 69.23146531802561]]}, "properties": {"source": "199394", "target": "20665594"}}, {"type": "Feature", "geometry": {"type": "LineString", "coordinates": [[-13.446288514347174, 69.2309960892091], [-13.446079629745014, 69.23186254903052]]}, "properties": {"source": "750524", "target": "1726368"}}, {"type": "Feature", "geometry": {"type": "LineString", "coordinates": [[-13.44305708057729, 69.23149254081116], [-13.448375183692946, 69.23167902357005]]}, "properties": {"source": "1028908", "target": "8583716"}}, {"type": "Feature", "geometry": {"type": "LineString", "coordinates": [[-13.44305708057729, 69.23149254081116], [-13.445273745099655, 69.23085500663709]]}, "properties": {"source": "1028908", "target": "12987139"}}, {"type": "Feature", "geometry": {"type": "LineString", "coordinates": [[-13.44305708057729, 69.23149254081116], [-13.439730075640824, 69.2299027306563]]}, "properties": {"source": "1028908", "target": "9145288"}}, {"type": "Feature", "geometry": {"type": "LineString", "coordinates": [[-13.44305708057729, 69.23149254081116], [-13.444289539640067, 69.22999357960151]]}, "properties": {"source": "1028908", "target": "22101836"}}, {"type": "Feature", "geometry": {"type": "LineString", "coordinates": [[-13.448375183692946, 69.23167902357005], [-13.439730075640824, 69.2299027306563]]}, "properties": {"source": "8583716", "target": "9145288"}}, {"type": "Feature", "geometry": {"type": "LineString", "coordinates": [[-13.448375183692946, 69.23167902357005], [-13.443241024324806, 69.22994472268712]]}, "properties": {"source": "8583716", "target": "11456599"}}, {"type": "Feature", "geometry": {"type": "LineString", "coordinates": [[-13.448375183692946, 69.23167902357005], [-13.445748858883945, 69.2328238695398]]}, "properties": {"source": "8583716", "target": "9287621"}}, {"type": "Feature", "geometry": {"type": "LineString", "coordinates": [[-13.448375183692946, 69.23167902357005], [-13.440622578746058, 69.23303820427921]]}, "properties": {"source": "8583716", "target": "9456132"}}, {"type": "Feature", "geometry": {"type": "LineString", "coordinates": [[-13.448375183692946, 69.23167902357005], [-13.44565921693777, 69.2322086368155]]}, "properties": {"source": "8583716", "target": "9249686"}}, {"type": "Feature", "geometry": {"type": "LineString", "coordinates": [[-13.445273745099655, 69.23085500663709], [-13.448375183692946, 69.23167902357005]]}, "properties": {"source": "12987139", "target": "8583716"}}, {"type": "Feature", "geometry": {"type": "LineString", "coordinates": [[-13.445273745099655, 69.23085500663709], [-13.439730075640824, 69.2299027306563]]}, "properties": {"source": "12987139", "target": "9145288"}}, {"type": "Feature", "geometry": {"type": "LineString", "coordinates": [[-13.445273745099655, 69.23085500663709], [-13.443241024324806, 69.22994472268712]]}, "properties": {"source": "12987139", "target": "11456599"}}, {"type": "Feature", "geometry": {"type": "LineString", "coordinates": [[-13.445273745099655, 69.23085500663709], [-13.447208247607648, 69.23156554198874]]}, "properties": {"source": "12987139", "target": "11218295"}}, {"type": "Feature", "geometry": {"type": "LineString", "coordinates": [[-13.445273745099655, 69.23085500663709], [-13.445748858883945, 69.2328238695398]]}, "properties": {"source": "12987139", "target": "9287621"}}, {"type": "Feature", "geometry": {"type": "LineString", "coordinates": [[-13.445273745099655, 69.23085500663709], [-13.440622578746058, 69.23303820427921]]}, "properties": {"source": "12987139", "target": "9456132"}}, {"type": "Feature", "geometry": {"type": "LineString", "coordinates": [[-13.446593619526254, 69.22990496696295], [-13.44624182770832, 69.23071339403086]]}, "properties": {"source": "15717614", "target": "21213617"}}, {"type": "Feature", "geometry": {"type": "LineString", "coordinates": [[-13.442206304282166, 69.23192488581122], [-13.447830086227555, 69.23158545251616]]}, "properties": {"source": "22881466", "target": "671879"}}, {"type": "Feature", "geometry": {"type": "LineString", "coordinates": [[-13.442206304282166, 69.23192488581122], [-13.441219254674678, 69.23282960765778]]}, "properties": {"source": "22881466", "target": "6750964"}}, {"type": "Feature", "geometry": {"type": "LineString", "coordinates": [[-13.444336247357512, 69.23153798192902], [-13.43967922291344, 69.23297730069746]]}, "properties": {"source": "13707581", "target": "16488698"}}, {"type": "Feature", "geometry": {"type": "LineString", "coordinates": [[-13.448728499368997, 69.23165887325536], [-13.441585253371755, 69.23311460438163]]}, "properties": {"source": "15719404", "target": "1416758"}}, {"type": "Feature", "geometry": {"type": "LineString", "coordinates": [[-13.44907599571016, 69.23123160055707], [-13.441585253371755, 69.23311460438163]]}, "properties": {"source": "3739680", "target": "1416758"}}, {"type": "Feature", "geometry": {"type": "LineString", "coordinates": [[-13.44907599571016, 69.23123160055707], [-13.444336247357512, 69.23153798192902]]}, "properties": {"source": "3739680", "target": "13707581"}}, {"type": "Feature", "geometry": {"type": "LineString", "coordinates": [[-13.449152959755907, 69.22984000188526], [-13.448375183692946, 69.23167902357005]]}, "properties": {"source": "8350283", "target": "8583716"}}, {"type": "Feature", "geometry": {"type": "LineString", "coordinates": [[-13.449152959755907, 69.22984000188526], [-13.439730075640824, 69.2299027306563]]}, "properties": {"source": "8350283", "target": "9145288"}}, {"type": "Feature", "geometry": {"type": "LineString", "coordinates": [[-13.449152959755907, 69.22984000188526], [-13.445748858883945, 69.2328238695398]]}, "properties": {"source": "8350283", "target": "9287621"}}, {"type": "Feature", "geometry": {"type": "LineString", "coordinates": [[-13.449152959755907, 69.22984000188526], [-13.440622578746058, 69.23303820427921]]}, "properties": {"source": "8350283", "target": "9456132"}}, {"type": "Feature", "geometry": {"type": "LineString", "coordinates": [[-13.449152959755907, 69.22984000188526], [-13.439528619251604, 69.23097839895675]]}, "properties": {"source": "8350283", "target": "7713442"}}, {"type": "Feature", "geometry": {"type": "LineString", "coordinates": [[-13.441966923485722, 69.23234095956022], [-13.442350757775813, 69.2326409971638]]}, "properties": {"source": "274100", "target": "28583375"}}, {"type": "Feature", "geometry": {"type": "LineString", "coordinates": [[-13.441966923485722, 69.23234095956022], [-13.442056085259878, 69.23258813563274]]}, "properties": {"source": "274100", "target": "29916141"}}, {"type": "Feature", "geometry": {"type": "LineString", "coordinates": [[-13.441966923485722, 69.23234095956022], [-13.440593981098885, 69.22986949690247]]}, "properties": {"source": "274100", "target": "4447871"}}, {"type": "Feature", "geometry": {"type": "LineString", "coordinates": [[-13.441966923485722, 69.23234095956022], [-13.44624182770832, 69.23071339403086]]}, "properties": {"source": "274100", "target": "21213617"}}, {"type": "Feature", "geometry": {"type": "LineString", "coordinates": [[-13.448728499368997, 69.23165887325536], [-13.44426326065954, 69.23238158313083]]}, "properties": {"source": "15719404", "target": "15719390"}}, {"type": "Feature", "geometry": {"type": "LineString", "coordinates": [[-13.448451080225396, 69.23208061948972], [-13.448392644003661, 69.22984642893636]]}, "properties": {"source": "25663737", "target": "29101476"}}, {"type": "Feature", "geometry": {"type": "LineString", "coordinates": [[-13.43951452262408, 69.2310866239408], [-13.443557235713683, 69.23089712310218]]}, "properties": {"source": "15843116", "target": "17897406"}}, {"type": "Feature", "geometry": {"type": "LineString", "coordinates": [[-13.448858429540252, 69.23233235846183], [-13.447830086227555, 69.23158545251616]]}, "properties": {"source": "7097128", "target": "671879"}}, {"type": "Feature", "geometry": {"type": "LineString", "coordinates": [[-13.44160687504015, 69.22975153200326], [-13.44565921693777, 69.2322086368155]]}, "properties": {"source": "12339476", "target": "9249686"}}, {"type": "Feature", "geometry": {"type": "LineString", "coordinates": [[-13.439882181929306, 69.23195472748216], [-13.44624182770832, 69.23071339403086]]}, "properties": {"source": "273962", "target": "21213617"}}, {"type": "Feature", "geometry": {"type": "LineString", "coordinates": [[-13.439882181929306, 69.23195472748216], [-13.441966923485722, 69.23234095956022]]}, "properties": {"source": "273962", "target": "274100"}}, {"type": "Feature", "geometry": {"type": "LineString", "coordinates": [[-13.439882181929306, 69.23195472748216], [-13.44320076282952, 69.23020125431233]]}, "properties": {"source": "273962", "target": "355501"}}, {"type": "Feature", "geometry": {"type": "LineString", "coordinates": [[-13.439882181929306, 69.23195472748216], [-13.44489406016936, 69.23296365863658]]}, "properties": {"source": "273962", "target": "4437829"}}, {"type": "Feature", "geometry": {"type": "LineString", "coordinates": [[-13.441867300705752, 69.23264077713429], [-13.448375183692946, 69.23167902357005]]}, "properties": {"source": "12017967", "target": "8583716"}}, {"type": "Feature", "geometry": {"type": "LineString", "coordinates": [[-13.441867300705752, 69.23264077713429], [-13.445273745099655, 69.23085500663709]]}, "properties": {"source": "12017967", "target": "12987139"}}, {"type": "Feature", "geometry": {"type": "LineString", "coordinates": [[-13.441867300705752, 69.23264077713429], [-13.439730075640824, 69.2299027306563]]}, "properties": {"source": "12017967", "target": "9145288"}}, {"type": "Feature", "geometry": {"type": "LineString", "coordinates": [[-13.441867300705752, 69.23264077713429], [-13.443241024324806, 69.22994472268712]]}, "properties": {"source": "12017967", "target": "11456599"}}, {"type": "Feature", "geometry": {"type": "LineString", "coordinates": [[-13.441867300705752, 69.23264077713429], [-13.444289539640067, 69.22999357960151]]}, "properties": {"source": "12017967", "target": "22101836"}}, {"type": "Feature", "geometry": {"type": "LineString", "coordinates": [[-13.441867300705752, 69.23264077713429], [-13.439528619251604, 69.23097839895675]]}, "properties": {"source": "12017967", "target": "7713442"}}, {"type": "Feature", "geometry": {"type": "LineString", "coordinates": [[-13.441867300705752, 69.23264077713429], [-13.443557235713683, 69.23089712310218]]}, "properties": {"source": "12017967", "target": "17897406"}}, {"type": "Feature", "geometry": {"type": "LineString", "coordinates": [[-13.440593981098885, 69.22986949690247], [-13.442350757775813, 69.2326409971638]]}, "properties": {"source": "4447871", "target": "28583375"}}, {"type": "Feature", "geometry": {"type": "LineString", "coordinates": [[-13.440593981098885, 69.22986949690247], [-13.442056085259878, 69.23258813563274]]}, "properties": {"source": "4447871", "target": "29916141"}}, {"type": "Feature", "geometry": {"type": "LineString", "coordinates": [[-13.440593981098885, 69.22986949690247], [-13.441219254674678, 69.23282960765778]]}, "properties": {"source": "4447871", "target": "6750964"}}, {"type": "Feature", "geometry": {"type": "LineString", "coordinates": [[-13.441219254674678, 69.23282960765778], [-13.447830086227555, 69.23158545251616]]}, "properties": {"source": "6750964", "target": "671879"}}, {"type": "Feature", "geometry": {"type": "LineString", "coordinates": [[-13.441219254674678, 69.23282960765778], [-13.446079629745014, 69.23186254903052]]}, "properties": {"source": "6750964", "target": "1726368"}}, {"type": "Feature", "geometry": {"type": "LineString", "coordinates": [[-13.441219254674678, 69.23282960765778], [-13.442995267785932, 69.23146531802561]]}, "properties": {"source": "6750964", "target": "20665594"}}, {"type": "Feature", "geometry": {"type": "LineString", "coordinates": [[-13.448690910448278, 69.2320330640062], [-13.447830086227555, 69.23158545251616]]}, "properties": {"source": "1009384", "target": "671879"}}, {"type": "Feature", "geometry": {"type": "LineString", "coordinates": [[-13.448690910448278, 69.2320330640062], [-13.441219254674678, 69.23282960765778]]}, "properties": {"source": "1009384", "target": "6750964"}}, {"type": "Feature", "geometry": {"type": "LineString", "coordinates": [[-13.448690910448278, 69.2320330640062], [-13.446079629745014, 69.23186254903052]]}, "properties": {"source": "1009384", "target": "1726368"}}, {"type": "Feature", "geometry": {"type": "LineString", "coordinates": [[-13.448690910448278, 69.2320330640062], [-13.442995267785932, 69.23146531802561]]}, "properties": {"source": "1009384", "target": "20665594"}}, {"type": "Feature", "geometry": {"type": "LineString", "coordinates": [[-13.447208247607648, 69.23156554198874], [-13.448375183692946, 69.23167902357005]]}, "properties": {"source": "11218295", "target": "8583716"}}, {"type": "Feature", "geometry": {"type": "LineString", "coordinates": [[-13.447208247607648, 69.23156554198874], [-13.442350757775813, 69.2326409971638]]}, "properties": {"source": "11218295", "target": "28583375"}}, {"type": "Feature", "geometry": {"type": "LineString", "coordinates": [[-13.447208247607648, 69.23156554198874], [-13.442056085259878, 69.23258813563274]]}, "properties": {"source": "11218295", "target": "29916141"}}, {"type": "Feature", "geometry": {"type": "LineString", "coordinates": [[-13.447208247607648, 69.23156554198874], [-13.44624182770832, 69.23071339403086]]}, "properties": {"source": "11218295", "target": "21213617"}}, {"type": "Feature", "geometry": {"type": "LineString", "coordinates": [[-13.447208247607648, 69.23156554198874], [-13.444289539640067, 69.22999357960151]]}, "properties": {"source": "11218295", "target": "22101836"}}, {"type": "Feature", "geometry": {"type": "LineString", "coordinates": [[-13.446079629745014, 69.23186254903052], [-13.447830086227555, 69.23158545251616]]}, "properties": {"source": "1726368", "target": "671879"}}, {"type": "Feature", "geometry": {"type": "LineString", "coordinates": [[-13.446079629745014, 69.23186254903052], [-13.442995267785932, 69.23146531802561]]}, "properties": {"source": "1726368", "target": "20665594"}}, {"type": "Feature", "geometry": {"type": "LineString", "coordinates": [[-13.445748858883945, 69.2328238695398], [-13.440622578746058, 69.23303820427921]]}, "properties": {"source": "9287621", "target": "9456132"}}, {"type": "Feature", "geometry": {"type": "LineString", "coordinates": [[-13.44907599571016, 69.23123160055707], [-13.443241024324806, 69.22994472268712]]}, "properties": {"source": "3739680", "target": "11456599"}}, {"type": "Feature", "geometry": {"type": "LineString", "coordinates": [[-13.44907599571016, 69.23123160055707], [-13.44632938007743, 69.23240744102972]]}, "properties": {"source": "3739680", "target": "30805260"}}, {"type": "Feature", "geometry": {"type": "LineString", "coordinates": [[-13.44907599571016, 69.23123160055707], [-13.448392644003661, 69.22984642893636]]}, "properties": {"source": "3739680", "target": "29101476"}}, {"type": "Feature", "geometry": {"type": "LineString", "coordinates": [[-13.44565921693777, 69.2322086368155], [-13.445748858883945, 69.2328238695398]]}, "properties": {"source": "9249686", "target": "9287621"}}, {"type": "Feature", "geometry": {"type": "LineString", "coordinates": [[-13.44565921693777, 69.2322086368155], [-13.440622578746058, 69.23303820427921]]}, "properties": {"source": "9249686", "target": "9456132"}}, {"type": "Feature", "geometry": {"type": "LineString", "coordinates": [[-13.44905853025378, 69.23265571113762], [-13.442350757775813, 69.2326409971638]]}, "properties": {"source": "1080901", "target": "28583375"}}, {"type": "Feature", "geometry": {"type": "LineString", "coordinates": [[-13.44905853025378, 69.23265571113762], [-13.442056085259878, 69.23258813563274]]}, "properties": {"source": "1080901", "target": "29916141"}}, {"type": "Feature", "geometry": {"type": "LineString", "coordinates": [[-13.44905853025378, 69.23265571113762], [-13.44624182770832, 69.23071339403086]]}, "properties": {"source": "1080901", "target": "21213617"}}, {"type": "Feature", "geometry": {"type": "LineString", "coordinates": [[-13.44905853025378, 69.23265571113762], [-13.449009223980028, 69.23127984337114]]}, "properties": {"source": "1080901", "target": "13536038"}}, {"type": "Feature", "geometry": {"type": "LineString", "coordinates": [[-13.44320076282952, 69.23020125431233], [-13.442350757775813, 69.2326409971638]]}, "properties": {"source": "355501", "target": "28583375"}}, {"type": "Feature", "geometry": {"type": "LineString", "coordinates": [[-13.44320076282952, 69.23020125431233], [-13.442056085259878, 69.23258813563274]]}, "properties": {"source": "355501", "target": "29916141"}}, {"type": "Feature", "geometry": {"type": "LineString", "coordinates": [[-13.44320076282952, 69.23020125431233], [-13.440593981098885, 69.22986949690247]]}, "properties": {"source": "355501", "target": "4447871"}}, {"type": "Feature", "geometry": {"type": "LineString", "coordinates": [[-13.446288514347174, 69.2309960892091], [-13.447830086227555, 69.23158545251616]]}, "properties": {"source": "750524", "target": "671879"}}, {"type": "Feature", "geometry": {"type": "LineString", "coordinates": [[-13.446288514347174, 69.2309960892091], [-13.448690910448278, 69.2320330640062]]}, "properties": {"source": "750524", "target": "1009384"}}, {"type": "Feature", "geometry": {"type": "LineString", "coordinates": [[-13.445273745099655, 69.23085500663709], [-13.444289539640067, 69.22999357960151]]}, "properties": {"source": "12987139", "target": "22101836"}}, {"type": "Feature", "geometry": {"type": "LineString", "coordinates": [[-13.445273745099655, 69.23085500663709], [-13.446243321356775, 69.23072002901898]]}, "properties": {"source": "12987139", "target": "6436833"}}, {"type": "Feature", "geometry": {"type": "LineString", "coordinates": [[-13.442350757775813, 69.2326409971638], [-13.442056085259878, 69.23258813563274]]}, "properties": {"source": "28583375", "target": "29916141"}}, {"type": "Feature", "geometry": {"type": "LineString", "coordinates": [[-13.442350757775813, 69.2326409971638], [-13.44624182770832, 69.23071339403086]]}, "properties": {"source": "28583375", "target": "21213617"}}, {"type": "Feature", "geometry": {"type": "LineString", "coordinates": [[-13.442056085259878, 69.23258813563274], [-13.44624182770832, 69.23071339403086]]}, "properties": {"source": "29916141", "target": "21213617"}}, {"type": "Feature", "geometry": {"type": "LineString", "coordinates": [[-13.44489406016936, 69.23296365863658], [-13.442350757775813, 69.2326409971638]]}, "properties": {"source": "4437829", "target": "28583375"}}, {"type": "Feature", "geometry": {"type": "LineString", "coordinates": [[-13.44489406016936, 69.23296365863658], [-13.442056085259878, 69.23258813563274]]}, "properties": {"source": "4437829", "target": "29916141"}}, {"type": "Feature", "geometry": {"type": "LineString", "coordinates": [[-13.44489406016936, 69.23296365863658], [-13.440593981098885, 69.22986949690247]]}, "properties": {"source": "4437829", "target": "4447871"}}, {"type": "Feature", "geometry": {"type": "LineString", "coordinates": [[-13.439528619251604, 69.23097839895675], [-13.448375183692946, 69.23167902357005]]}, "properties": {"source": "7713442", "target": "8583716"}}, {"type": "Feature", "geometry": {"type": "LineString", "coordinates": [[-13.439528619251604, 69.23097839895675], [-13.446243321356775, 69.23072002901898]]}, "properties": {"source": "7713442", "target": "6436833"}}, {"type": "Feature", "geometry": {"type": "LineString", "coordinates": [[-13.441585253371755, 69.23311460438163], [-13.448392644003661, 69.22984642893636]]}, "properties": {"source": "1416758", "target": "29101476"}}, {"type": "Feature", "geometry": {"type": "LineString", "coordinates": [[-13.441675216517467, 69.23060219181414], [-13.44632938007743, 69.23240744102972]]}, "properties": {"source": "25991112", "target": "30805260"}}, {"type": "Feature", "geometry": {"type": "LineString", "coordinates": [[-13.441675216517467, 69.23060219181414], [-13.448392644003661, 69.22984642893636]]}, "properties": {"source": "25991112", "target": "29101476"}}, {"type": "Feature", "geometry": {"type": "LineString", "coordinates": [[-13.441675216517467, 69.23060219181414], [-13.448451080225396, 69.23208061948972]]}, "properties": {"source": "25991112", "target": "25663737"}}, {"type": "Feature", "geometry": {"type": "LineString", "coordinates": [[-13.446593619526254, 69.22990496696295], [-13.442350757775813, 69.2326409971638]]}, "properties": {"source": "15717614", "target": "28583375"}}, {"type": "Feature", "geometry": {"type": "LineString", "coordinates": [[-13.446593619526254, 69.22990496696295], [-13.442056085259878, 69.23258813563274]]}, "properties": {"source": "15717614", "target": "29916141"}}]}