{"type": "FeatureCollection", "features": [{"type": "Feature", "geometry": {"type": "LineString", "coordinates": [[152.51281517956903, 69.22994292578184], [152.51294739015123, 69.22988999519796]]}, "properties": {"source": "18772019", "target": "14446951"}}, {"type": "Feature", "geometry": {"type": "LineString", "coordinates": [[152.51281517956903, 69.22994292578184], [152.51295322011936, 69.22973432307893]]}, "properties": {"source": "18772019", "target": "17141018"}}, {"type": "Feature", "geometry": {"type": "LineString", "coordinates": [[152.51281517956903, 69.22994292578184], [152.51282064211523, 69.22992221742786]]}, "properties": {"source": "18772019", "target": "18772020"}}, {"type": "Feature", "geometry": {"type": "LineString", "coordinates": [[152.51294739015123, 69.22988999519796], [152.51295322011936, 69.22973432307893]]}, "properties": {"source": "14446951", "target": "17141018"}}, {"type": "Feature", "geometry": {"type": "LineString", "coordinates": [[152.51294739015123, 69.22988999519796], [152.51282064211523, 69.22992221742786]]}, "properties": {"source": "14446951", "target": "18772020"}}, {"type": "Feature", "geometry": {"type": "LineString", "coordinates": [[152.51295322011936, 69.22973432307893], [152.51282064211523, 69.22992221742786]]}, "properties": {"source": "17141018", "target": "18772020"}}]}