{"type": "FeatureCollection", "features": [{"type": "Feature", "geometry": {"type": "LineString", "coordinates": [[153.8174515956464, 69.22982084969641], [153.8176011080668, 69.22970794302049]]}, "properties": {"source": "22232491", "target": "26799105"}}, {"type": "Feature", "geometry": {"type": "LineString", "coordinates": [[153.8174515956464, 69.22982084969641], [153.8174415066025, 69.22984942882573]]}, "properties": {"source": "22232491", "target": "23389434"}}, {"type": "Feature", "geometry": {"type": "LineString", "coordinates": [[153.8176011080668, 69.22970794302049], [153.8174415066025, 69.22984942882573]]}, "properties": {"source": "26799105", "target": "23389434"}}]}