{"type": "FeatureCollection", "features": [{"type": "Feature", "geometry": {"type": "LineString", "coordinates": [[154.17067115725195, 69.22980939445333], [154.17014768625518, 69.22975193987216]]}, "properties": {"source": "33400813", "target": "30297162"}}, {"type": "Feature", "geometry": {"type": "LineString", "coordinates": [[154.17067115725195, 69.22980939445333], [154.17013614664432, 69.22976681313617]]}, "properties": {"source": "33400813", "target": "33893362"}}, {"type": "Feature", "geometry": {"type": "LineString", "coordinates": [[154.17014768625518, 69.22975193987216], [154.17013614664432, 69.22976681313617]]}, "properties": {"source": "30297162", "target": "33893362"}}]}