{"type": "FeatureCollection", "features": [{"type": "Feature", "geometry": {"type": "LineString", "coordinates": [[-54.028584838986134, 68.80233444394685], [-54.03325715679617, 68.80471312410711]]}, "properties": {"source": "23375467", "target": "23093519"}}, {"type": "Feature", "geometry": {"type": "LineString", "coordinates": [[-54.028584838986134, 68.80233444394685], [-54.034686829965054, 68.80248641922668]]}, "properties": {"source": "23375467", "target": "25254476"}}, {"type": "Feature", "geometry": {"type": "LineString", "coordinates": [[-54.028584838986134, 68.80233444394685], [-54.025329109048656, 68.80306671172693]]}, "properties": {"source": "23375467", "target": "24986803"}}, {"type": "Feature", "geometry": {"type": "LineString", "coordinates": [[-54.028584838986134, 68.80233444394685], [-54.02773938184026, 68.79994427206111]]}, "properties": {"source": "23375467", "target": "23274644"}}, {"type": "Feature", "geometry": {"type": "LineString", "coordinates": [[-54.028584838986134, 68.80233444394685], [-54.03757501407638, 68.80529484566424]]}, "properties": {"source": "23375467", "target": "1855376"}}, {"type": "Feature", "geometry": {"type": "LineString", "coordinates": [[-54.028584838986134, 68.80233444394685], [-54.03721297259453, 68.80184485113264]]}, "properties": {"source": "23375467", "target": "20565918"}}, {"type": "Feature", "geometry": {"type": "LineString", "coordinates": [[-54.028584838986134, 68.80233444394685], [-54.0265317071499, 68.80200129880316]]}, "properties": {"source": "23375467", "target": "22570801"}}, {"type": "Feature", "geometry": {"type": "LineString", "coordinates": [[-54.04666278778444, 68.80445971029647], [-54.04255295081738, 68.8033094343453]]}, "properties": {"source": "6641838", "target": "4727151"}}, {"type": "Feature", "geometry": {"type": "LineString", "coordinates": [[-54.04666278778444, 68.80445971029647], [-54.045716886836615, 68.80216494054073]]}, "properties": {"source": "6641838", "target": "5936464"}}, {"type": "Feature", "geometry": {"type": "LineString", "coordinates": [[-54.04666278778444, 68.80445971029647], [-54.033258447186, 68.80158810584905]]}, "properties": {"source": "6641838", "target": "16087431"}}, {"type": "Feature", "geometry": {"type": "LineString", "coordinates": [[-54.04666278778444, 68.80445971029647], [-54.04212562159212, 68.80311930100294]]}, "properties": {"source": "6641838", "target": "11316372"}}, {"type": "Feature", "geometry": {"type": "LineString", "coordinates": [[-54.04666278778444, 68.80445971029647], [-54.03748694151555, 68.80580899898507]]}, "properties": {"source": "6641838", "target": "11345643"}}, {"type": "Feature", "geometry": {"type": "LineString", "coordinates": [[-54.04666278778444, 68.80445971029647], [-54.03949089784494, 68.80103111720345]]}, "properties": {"source": "6641838", "target": "6383603"}}, {"type": "Feature", "geometry": {"type": "LineString", "coordinates": [[-54.04666278778444, 68.80445971029647], [-54.03730657802501, 68.80212659892919]]}, "properties": {"source": "6641838", "target": "9130714"}}, {"type": "Feature", "geometry": {"type": "LineString", "coordinates": [[-54.04666278778444, 68.80445971029647], [-54.04353291406679, 68.80457762592172]]}, "properties": {"source": "6641838", "target": "8141642"}}, {"type": "Feature", "geometry": {"type": "LineString", "coordinates": [[-54.04666278778444, 68.80445971029647], [-54.0448525869939, 68.80418029516065]]}, "properties": {"source": "6641838", "target": "6524993"}}, {"type": "Feature", "geometry": {"type": "LineString", "coordinates": [[-54.04526089883751, 68.80609757479178], [-54.03321466976878, 68.79991822266442]]}, "properties": {"source": "26378913", "target": "5396177"}}, {"type": "Feature", "geometry": {"type": "LineString", "coordinates": [[-54.04526089883751, 68.80609757479178], [-54.026167302967906, 68.80302242191325]]}, "properties": {"source": "26378913", "target": "295598"}}, {"type": "Feature", "geometry": {"type": "LineString", "coordinates": [[-54.04526089883751, 68.80609757479178], [-54.03003867258478, 68.804385915204]]}, "properties": {"source": "26378913", "target": "12904790"}}, {"type": "Feature", "geometry": {"type": "LineString", "coordinates": [[-54.04526089883751, 68.80609757479178], [-54.04288747182282, 68.80512124378325]]}, "properties": {"source": "26378913", "target": "26312327"}}, {"type": "Feature", "geometry": {"type": "LineString", "coordinates": [[-54.04526089883751, 68.80609757479178], [-54.044580159866854, 68.80664687386425]]}, "properties": {"source": "26378913", "target": "28955084"}}, {"type": "Feature", "geometry": {"type": "LineString", "coordinates": [[-54.04526089883751, 68.80609757479178], [-54.04427617976249, 68.8011286915555]]}, "properties": {"source": "26378913", "target": "5269066"}}, {"type": "Feature", "geometry": {"type": "LineString", "coordinates": [[-54.04526089883751, 68.80609757479178], [-54.027002809269575, 68.79992901023624]]}, "properties": {"source": "26378913", "target": "1052645"}}, {"type": "Feature", "geometry": {"type": "LineString", "coordinates": [[-54.039435953023585, 68.80552504606817], [-54.04464091730213, 68.80637851390722]]}, "properties": {"source": "27413258", "target": "3108381"}}, {"type": "Feature", "geometry": {"type": "LineString", "coordinates": [[-54.039435953023585, 68.80552504606817], [-54.042374199732876, 68.80339440226481]]}, "properties": {"source": "27413258", "target": "26005812"}}, {"type": "Feature", "geometry": {"type": "LineString", "coordinates": [[-54.039435953023585, 68.80552504606817], [-54.04526089883751, 68.80609757479178]]}, "properties": {"source": "27413258", "target": "26378913"}}, {"type": "Feature", "geometry": {"type": "LineString", "coordinates": [[-54.039435953023585, 68.80552504606817], [-54.032857086086935, 68.80534885798124]]}, "properties": {"source": "27413258", "target": "29507955"}}, {"type": "Feature", "geometry": {"type": "LineString", "coordinates": [[-54.039435953023585, 68.80552504606817], [-54.034686829965054, 68.80248641922668]]}, "properties": {"source": "27413258", "target": "25254476"}}, {"type": "Feature", "geometry": {"type": "LineString", "coordinates": [[-54.039435953023585, 68.80552504606817], [-54.025329109048656, 68.80306671172693]]}, "properties": {"source": "27413258", "target": "24986803"}}, {"type": "Feature", "geometry": {"type": "LineString", "coordinates": [[-54.039435953023585, 68.80552504606817], [-54.03657964768799, 68.80164221125915]]}, "properties": {"source": "27413258", "target": "339148"}}, {"type": "Feature", "geometry": {"type": "LineString", "coordinates": [[-54.039435953023585, 68.80552504606817], [-54.025739455221085, 68.80403713902007]]}, "properties": {"source": "27413258", "target": "25361227"}}, {"type": "Feature", "geometry": {"type": "LineString", "coordinates": [[-54.039435953023585, 68.80552504606817], [-54.04255295081738, 68.8033094343453]]}, "properties": {"source": "27413258", "target": "4727151"}}, {"type": "Feature", "geometry": {"type": "LineString", "coordinates": [[-54.04255295081738, 68.8033094343453], [-54.04427617976249, 68.8011286915555]]}, "properties": {"source": "4727151", "target": "5269066"}}, {"type": "Feature", "geometry": {"type": "LineString", "coordinates": [[-54.04255295081738, 68.8033094343453], [-54.0448525869939, 68.80418029516065]]}, "properties": {"source": "4727151", "target": "6524993"}}, {"type": "Feature", "geometry": {"type": "LineString", "coordinates": [[-54.025425989542754, 68.80215949171057], [-54.04464091730213, 68.80637851390722]]}, "properties": {"source": "6235839", "target": "3108381"}}, {"type": "Feature", "geometry": {"type": "LineString", "coordinates": [[-54.025425989542754, 68.80215949171057], [-54.04040028525233, 68.80376329890672]]}, "properties": {"source": "6235839", "target": "5060857"}}, {"type": "Feature", "geometry": {"type": "LineString", "coordinates": [[-54.025425989542754, 68.80215949171057], [-54.03847490114052, 68.8002577954916]]}, "properties": {"source": "6235839", "target": "2520017"}}, {"type": "Feature", "geometry": {"type": "LineString", "coordinates": [[-54.025425989542754, 68.80215949171057], [-54.03057306367242, 68.80359869645645]]}, "properties": {"source": "6235839", "target": "722304"}}, {"type": "Feature", "geometry": {"type": "LineString", "coordinates": [[-54.025425989542754, 68.80215949171057], [-54.04488527337955, 68.80595600152333]]}, "properties": {"source": "6235839", "target": "2694910"}}, {"type": "Feature", "geometry": {"type": "LineString", "coordinates": [[-54.025425989542754, 68.80215949171057], [-54.04630141651482, 68.80476158554859]]}, "properties": {"source": "6235839", "target": "588438"}}, {"type": "Feature", "geometry": {"type": "LineString", "coordinates": [[-54.025425989542754, 68.80215949171057], [-54.04476009047109, 68.80394280877937]]}, "properties": {"source": "6235839", "target": "2032308"}}, {"type": "Feature", "geometry": {"type": "LineString", "coordinates": [[-54.025425989542754, 68.80215949171057], [-54.03642981844591, 68.80054228827618]]}, "properties": {"source": "6235839", "target": "2237115"}}, {"type": "Feature", "geometry": {"type": "LineString", "coordinates": [[-54.045716886836615, 68.80216494054073], [-54.04464091730213, 68.80637851390722]]}, "properties": {"source": "5936464", "target": "3108381"}}, {"type": "Feature", "geometry": {"type": "LineString", "coordinates": [[-54.045716886836615, 68.80216494054073], [-54.03321466976878, 68.79991822266442]]}, "properties": {"source": "5936464", "target": "5396177"}}, {"type": "Feature", "geometry": {"type": "LineString", "coordinates": [[-54.045716886836615, 68.80216494054073], [-54.03730657802501, 68.80212659892919]]}, "properties": {"source": "5936464", "target": "9130714"}}, {"type": "Feature", "geometry": {"type": "LineString", "coordinates": [[-54.045716886836615, 68.80216494054073], [-54.0448525869939, 68.80418029516065]]}, "properties": {"source": "5936464", "target": "6524993"}}, {"type": "Feature", "geometry": {"type": "LineString", "coordinates": [[-54.03847490114052, 68.8002577954916], [-54.04464091730213, 68.80637851390722]]}, "properties": {"source": "2520017", "target": "3108381"}}, {"type": "Feature", "geometry": {"type": "LineString", "coordinates": [[-54.03847490114052, 68.8002577954916], [-54.04040028525233, 68.80376329890672]]}, "properties": {"source": "2520017", "target": "5060857"}}, {"type": "Feature", "geometry": {"type": "LineString", "coordinates": [[-54.0314731893085, 68.8047369717853], [-54.03123533361797, 68.80365728410541]]}, "properties": {"source": "722292", "target": "722293"}}, {"type": "Feature", "geometry": {"type": "LineString", "coordinates": [[-54.0314731893085, 68.8047369717853], [-54.02877687844402, 68.80520623748086]]}, "properties": {"source": "722292", "target": "236537"}}, {"type": "Feature", "geometry": {"type": "LineString", "coordinates": [[-54.0314731893085, 68.8047369717853], [-54.044394541486724, 68.80626416452444]]}, "properties": {"source": "722292", "target": "3097272"}}, {"type": "Feature", "geometry": {"type": "LineString", "coordinates": [[-54.0314731893085, 68.8047369717853], [-54.03873850222047, 68.80582195533893]]}, "properties": {"source": "722292", "target": "419703"}}, {"type": "Feature", "geometry": {"type": "LineString", "coordinates": [[-54.036273714324835, 68.80597546552013], [-54.0349073284944, 68.80666428258874]]}, "properties": {"source": "24724766", "target": "25261905"}}, {"type": "Feature", "geometry": {"type": "LineString", "coordinates": [[-54.040934854791516, 68.80026704837624], [-54.03325715679617, 68.80471312410711]]}, "properties": {"source": "11145688", "target": "23093519"}}, {"type": "Feature", "geometry": {"type": "LineString", "coordinates": [[-54.040934854791516, 68.80026704837624], [-54.04212562159212, 68.80311930100294]]}, "properties": {"source": "11145688", "target": "11316372"}}, {"type": "Feature", "geometry": {"type": "LineString", "coordinates": [[-54.040934854791516, 68.80026704837624], [-54.025685595909906, 68.80713331282331]]}, "properties": {"source": "11145688", "target": "11301518"}}, {"type": "Feature", "geometry": {"type": "LineString", "coordinates": [[-54.02867318634689, 68.80005980882117], [-54.03547394786055, 68.80290835040279]]}, "properties": {"source": "18167484", "target": "13613777"}}, {"type": "Feature", "geometry": {"type": "LineString", "coordinates": [[-54.030538133191456, 68.80235122778763], [-54.04159109704953, 68.80546875409627]]}, "properties": {"source": "451066", "target": "2650238"}}, {"type": "Feature", "geometry": {"type": "LineString", "coordinates": [[-54.030538133191456, 68.80235122778763], [-54.030222694550616, 68.8038351009155]]}, "properties": {"source": "451066", "target": "1483375"}}, {"type": "Feature", "geometry": {"type": "LineString", "coordinates": [[-54.030538133191456, 68.80235122778763], [-54.04088670163057, 68.79999918676214]]}, "properties": {"source": "451066", "target": "21311039"}}, {"type": "Feature", "geometry": {"type": "LineString", "coordinates": [[-54.02878103217225, 68.80385867843296], [-54.03547394786055, 68.80290835040279]]}, "properties": {"source": "22557282", "target": "13613777"}}, {"type": "Feature", "geometry": {"type": "LineString", "coordinates": [[-54.02878103217225, 68.80385867843296], [-54.02867318634689, 68.80005980882117]]}, "properties": {"source": "22557282", "target": "18167484"}}, {"type": "Feature", "geometry": {"type": "LineString", "coordinates": [[-54.0260161001664, 68.79987393386696], [-54.04040028525233, 68.80376329890672]]}, "properties": {"source": "917645", "target": "5060857"}}, {"type": "Feature", "geometry": {"type": "LineString", "coordinates": [[-54.0260161001664, 68.79987393386696], [-54.025425989542754, 68.80215949171057]]}, "properties": {"source": "917645", "target": "6235839"}}, {"type": "Feature", "geometry": {"type": "LineString", "coordinates": [[-54.03123533361797, 68.80365728410541], [-54.04464091730213, 68.80637851390722]]}, "properties": {"source": "722293", "target": "3108381"}}, {"type": "Feature", "geometry": {"type": "LineString", "coordinates": [[-54.03123533361797, 68.80365728410541], [-54.04040028525233, 68.80376329890672]]}, "properties": {"source": "722293", "target": "5060857"}}, {"type": "Feature", "geometry": {"type": "LineString", "coordinates": [[-54.03123533361797, 68.80365728410541], [-54.025425989542754, 68.80215949171057]]}, "properties": {"source": "722293", "target": "6235839"}}, {"type": "Feature", "geometry": {"type": "LineString", "coordinates": [[-54.03123533361797, 68.80365728410541], [-54.028561236218394, 68.80188878783818]]}, "properties": {"source": "722293", "target": "64185"}}, {"type": "Feature", "geometry": {"type": "LineString", "coordinates": [[-54.03123533361797, 68.80365728410541], [-54.03057306367242, 68.80359869645645]]}, "properties": {"source": "722293", "target": "722304"}}, {"type": "Feature", "geometry": {"type": "LineString", "coordinates": [[-54.03123533361797, 68.80365728410541], [-54.02877687844402, 68.80520623748086]]}, "properties": {"source": "722293", "target": "236537"}}, {"type": "Feature", "geometry": {"type": "LineString", "coordinates": [[-54.0417003983176, 68.80381928996451], [-54.040536006794994, 68.80200028367389]]}, "properties": {"source": "792630", "target": "76469"}}, {"type": "Feature", "geometry": {"type": "LineString", "coordinates": [[-54.0417003983176, 68.80381928996451], [-54.044028881194066, 68.80395890822189]]}, "properties": {"source": "792630", "target": "977158"}}, {"type": "Feature", "geometry": {"type": "LineString", "coordinates": [[-54.0464773335425, 68.80030769275015], [-54.04464091730213, 68.80637851390722]]}, "properties": {"source": "1923264", "target": "3108381"}}, {"type": "Feature", "geometry": {"type": "LineString", "coordinates": [[-54.0464773335425, 68.80030769275015], [-54.04040028525233, 68.80376329890672]]}, "properties": {"source": "1923264", "target": "5060857"}}, {"type": "Feature", "geometry": {"type": "LineString", "coordinates": [[-54.0464773335425, 68.80030769275015], [-54.025425989542754, 68.80215949171057]]}, "properties": {"source": "1923264", "target": "6235839"}}, {"type": "Feature", "geometry": {"type": "LineString", "coordinates": [[-54.0464773335425, 68.80030769275015], [-54.03847490114052, 68.8002577954916]]}, "properties": {"source": "1923264", "target": "2520017"}}, {"type": "Feature", "geometry": {"type": "LineString", "coordinates": [[-54.0464773335425, 68.80030769275015], [-54.028561236218394, 68.80188878783818]]}, "properties": {"source": "1923264", "target": "64185"}}, {"type": "Feature", "geometry": {"type": "LineString", "coordinates": [[-54.039895952573914, 68.80624620047527], [-54.034686829965054, 68.80248641922668]]}, "properties": {"source": "23453130", "target": "25254476"}}, {"type": "Feature", "geometry": {"type": "LineString", "coordinates": [[-54.039895952573914, 68.80624620047527], [-54.04288747182282, 68.80512124378325]]}, "properties": {"source": "23453130", "target": "26312327"}}, {"type": "Feature", "geometry": {"type": "LineString", "coordinates": [[-54.039895952573914, 68.80624620047527], [-54.028403010215214, 68.80243096125957]]}, "properties": {"source": "23453130", "target": "25784618"}}, {"type": "Feature", "geometry": {"type": "LineString", "coordinates": [[-54.0464773335425, 68.80030769275015], [-54.02633581234599, 68.80106821485796]]}, "properties": {"source": "1923264", "target": "2309699"}}, {"type": "Feature", "geometry": {"type": "LineString", "coordinates": [[-54.0464773335425, 68.80030769275015], [-54.04476009047109, 68.80394280877937]]}, "properties": {"source": "1923264", "target": "2032308"}}, {"type": "Feature", "geometry": {"type": "LineString", "coordinates": [[-54.0464773335425, 68.80030769275015], [-54.033788576029195, 68.8044667932138]]}, "properties": {"source": "1923264", "target": "1183594"}}, {"type": "Feature", "geometry": {"type": "LineString", "coordinates": [[-54.03475737436351, 68.80285849809616], [-54.046071077684715, 68.80616929339791]]}, "properties": {"source": "23212464", "target": "23383504"}}, {"type": "Feature", "geometry": {"type": "LineString", "coordinates": [[-54.03475737436351, 68.80285849809616], [-54.03325715679617, 68.80471312410711]]}, "properties": {"source": "23212464", "target": "23093519"}}, {"type": "Feature", "geometry": {"type": "LineString", "coordinates": [[-54.03475737436351, 68.80285849809616], [-54.034686829965054, 68.80248641922668]]}, "properties": {"source": "23212464", "target": "25254476"}}, {"type": "Feature", "geometry": {"type": "LineString", "coordinates": [[-54.03475737436351, 68.80285849809616], [-54.025329109048656, 68.80306671172693]]}, "properties": {"source": "23212464", "target": "24986803"}}, {"type": "Feature", "geometry": {"type": "LineString", "coordinates": [[-54.03475737436351, 68.80285849809616], [-54.025739455221085, 68.80403713902007]]}, "properties": {"source": "23212464", "target": "25361227"}}, {"type": "Feature", "geometry": {"type": "LineString", "coordinates": [[-54.03475737436351, 68.80285849809616], [-54.02773938184026, 68.79994427206111]]}, "properties": {"source": "23212464", "target": "23274644"}}, {"type": "Feature", "geometry": {"type": "LineString", "coordinates": [[-54.03475737436351, 68.80285849809616], [-54.028584838986134, 68.80233444394685]]}, "properties": {"source": "23212464", "target": "23375467"}}, {"type": "Feature", "geometry": {"type": "LineString", "coordinates": [[-54.03475737436351, 68.80285849809616], [-54.03757501407638, 68.80529484566424]]}, "properties": {"source": "23212464", "target": "1855376"}}, {"type": "Feature", "geometry": {"type": "LineString", "coordinates": [[-54.03748694151555, 68.80580899898507], [-54.03325715679617, 68.80471312410711]]}, "properties": {"source": "11345643", "target": "23093519"}}, {"type": "Feature", "geometry": {"type": "LineString", "coordinates": [[-54.03748694151555, 68.80580899898507], [-54.045716886836615, 68.80216494054073]]}, "properties": {"source": "11345643", "target": "5936464"}}, {"type": "Feature", "geometry": {"type": "LineString", "coordinates": [[-54.03748694151555, 68.80580899898507], [-54.04212562159212, 68.80311930100294]]}, "properties": {"source": "11345643", "target": "11316372"}}, {"type": "Feature", "geometry": {"type": "LineString", "coordinates": [[-54.03609544916057, 68.80617656608209], [-54.04464091730213, 68.80637851390722]]}, "properties": {"source": "25363115", "target": "3108381"}}, {"type": "Feature", "geometry": {"type": "LineString", "coordinates": [[-54.03609544916057, 68.80617656608209], [-54.03325715679617, 68.80471312410711]]}, "properties": {"source": "25363115", "target": "23093519"}}, {"type": "Feature", "geometry": {"type": "LineString", "coordinates": [[-54.0260161001664, 68.79987393386696], [-54.03057306367242, 68.80359869645645]]}, "properties": {"source": "917645", "target": "722304"}}, {"type": "Feature", "geometry": {"type": "LineString", "coordinates": [[-54.03301500240744, 68.80163613957777], [-54.036273714324835, 68.80597546552013]]}, "properties": {"source": "24945124", "target": "24724766"}}, {"type": "Feature", "geometry": {"type": "LineString", "coordinates": [[-54.03301500240744, 68.80163613957777], [-54.0349073284944, 68.80666428258874]]}, "properties": {"source": "24945124", "target": "25261905"}}, {"type": "Feature", "geometry": {"type": "LineString", "coordinates": [[-54.025685595909906, 68.80713331282331], [-54.04212562159212, 68.80311930100294]]}, "properties": {"source": "11301518", "target": "11316372"}}, {"type": "Feature", "geometry": {"type": "LineString", "coordinates": [[-54.044394541486724, 68.80626416452444], [-54.02877687844402, 68.80520623748086]]}, "properties": {"source": "3097272", "target": "236537"}}, {"type": "Feature", "geometry": {"type": "LineString", "coordinates": [[-54.030222694550616, 68.8038351009155], [-54.04159109704953, 68.80546875409627]]}, "properties": {"source": "1483375", "target": "2650238"}}, {"type": "Feature", "geometry": {"type": "LineString", "coordinates": [[-54.045586912841515, 68.80480618678527], [-54.0367676818539, 68.8067310579838]]}, "properties": {"source": "11282007", "target": "17674811"}}, {"type": "Feature", "geometry": {"type": "LineString", "coordinates": [[-54.042561433721986, 68.80678146031721], [-54.044394541486724, 68.80626416452444]]}, "properties": {"source": "3419925", "target": "3097272"}}, {"type": "Feature", "geometry": {"type": "LineString", "coordinates": [[-54.04244542906058, 68.80328003127653], [-54.02633581234599, 68.80106821485796]]}, "properties": {"source": "2273012", "target": "2309699"}}, {"type": "Feature", "geometry": {"type": "LineString", "coordinates": [[-54.036339757506624, 68.80162001867279], [-54.03321466976878, 68.79991822266442]]}, "properties": {"source": "18870580", "target": "5396177"}}, {"type": "Feature", "geometry": {"type": "LineString", "coordinates": [[-54.0366283666808, 68.8061551433766], [-54.04476009047109, 68.80394280877937]]}, "properties": {"source": "22928633", "target": "2032308"}}, {"type": "Feature", "geometry": {"type": "LineString", "coordinates": [[-54.03380472848235, 68.80296547034547], [-54.04088670163057, 68.79999918676214]]}, "properties": {"source": "18934977", "target": "21311039"}}, {"type": "Feature", "geometry": {"type": "LineString", "coordinates": [[-54.03211979351663, 68.80119292156476], [-54.04288747182282, 68.80512124378325]]}, "properties": {"source": "18221859", "target": "26312327"}}, {"type": "Feature", "geometry": {"type": "LineString", "coordinates": [[-54.04470444536136, 68.80394471413479], [-54.04464091730213, 68.80637851390722]]}, "properties": {"source": "2092973", "target": "3108381"}}, {"type": "Feature", "geometry": {"type": "LineString", "coordinates": [[-54.04470444536136, 68.80394471413479], [-54.04040028525233, 68.80376329890672]]}, "properties": {"source": "2092973", "target": "5060857"}}, {"type": "Feature", "geometry": {"type": "LineString", "coordinates": [[-54.04470444536136, 68.80394471413479], [-54.03847490114052, 68.8002577954916]]}, "properties": {"source": "2092973", "target": "2520017"}}, {"type": "Feature", "geometry": {"type": "LineString", "coordinates": [[-54.03847490114052, 68.8002577954916], [-54.04488527337955, 68.80595600152333]]}, "properties": {"source": "2520017", "target": "2694910"}}, {"type": "Feature", "geometry": {"type": "LineString", "coordinates": [[-54.03847490114052, 68.8002577954916], [-54.04630141651482, 68.80476158554859]]}, "properties": {"source": "2520017", "target": "588438"}}, {"type": "Feature", "geometry": {"type": "LineString", "coordinates": [[-54.03847490114052, 68.8002577954916], [-54.04476009047109, 68.80394280877937]]}, "properties": {"source": "2520017", "target": "2032308"}}, {"type": "Feature", "geometry": {"type": "LineString", "coordinates": [[-54.03847490114052, 68.8002577954916], [-54.033788576029195, 68.8044667932138]]}, "properties": {"source": "2520017", "target": "1183594"}}, {"type": "Feature", "geometry": {"type": "LineString", "coordinates": [[-54.03847490114052, 68.8002577954916], [-54.0319657465828, 68.80140474693096]]}, "properties": {"source": "2520017", "target": "1197776"}}, {"type": "Feature", "geometry": {"type": "LineString", "coordinates": [[-54.03544349402493, 68.80014910487253], [-54.039482830845145, 68.80004242570803]]}, "properties": {"source": "76467", "target": "76473"}}, {"type": "Feature", "geometry": {"type": "LineString", "coordinates": [[-54.03544349402493, 68.80014910487253], [-54.03353644529753, 68.80301509673433]]}, "properties": {"source": "76467", "target": "76471"}}, {"type": "Feature", "geometry": {"type": "LineString", "coordinates": [[-54.03544349402493, 68.80014910487253], [-54.040536006794994, 68.80200028367389]]}, "properties": {"source": "76467", "target": "76469"}}, {"type": "Feature", "geometry": {"type": "LineString", "coordinates": [[-54.03544349402493, 68.80014910487253], [-54.0417003983176, 68.80381928996451]]}, "properties": {"source": "76467", "target": "792630"}}, {"type": "Feature", "geometry": {"type": "LineString", "coordinates": [[-54.03544349402493, 68.80014910487253], [-54.03973119317021, 68.80013499675198]]}, "properties": {"source": "76467", "target": "1032415"}}, {"type": "Feature", "geometry": {"type": "LineString", "coordinates": [[-54.039482830845145, 68.80004242570803], [-54.03353644529753, 68.80301509673433]]}, "properties": {"source": "76473", "target": "76471"}}, {"type": "Feature", "geometry": {"type": "LineString", "coordinates": [[-54.039482830845145, 68.80004242570803], [-54.040536006794994, 68.80200028367389]]}, "properties": {"source": "76473", "target": "76469"}}, {"type": "Feature", "geometry": {"type": "LineString", "coordinates": [[-54.039482830845145, 68.80004242570803], [-54.0417003983176, 68.80381928996451]]}, "properties": {"source": "76473", "target": "792630"}}, {"type": "Feature", "geometry": {"type": "LineString", "coordinates": [[-54.039482830845145, 68.80004242570803], [-54.03973119317021, 68.80013499675198]]}, "properties": {"source": "76473", "target": "1032415"}}, {"type": "Feature", "geometry": {"type": "LineString", "coordinates": [[-54.03353644529753, 68.80301509673433], [-54.040536006794994, 68.80200028367389]]}, "properties": {"source": "76471", "target": "76469"}}, {"type": "Feature", "geometry": {"type": "LineString", "coordinates": [[-54.028403010215214, 68.80243096125957], [-54.04464091730213, 68.80637851390722]]}, "properties": {"source": "25784618", "target": "3108381"}}, {"type": "Feature", "geometry": {"type": "LineString", "coordinates": [[-54.04040028525233, 68.80376329890672], [-54.04488527337955, 68.80595600152333]]}, "properties": {"source": "5060857", "target": "2694910"}}, {"type": "Feature", "geometry": {"type": "LineString", "coordinates": [[-54.04040028525233, 68.80376329890672], [-54.04476009047109, 68.80394280877937]]}, "properties": {"source": "5060857", "target": "2032308"}}, {"type": "Feature", "geometry": {"type": "LineString", "coordinates": [[-54.04040028525233, 68.80376329890672], [-54.033788576029195, 68.8044667932138]]}, "properties": {"source": "5060857", "target": "1183594"}}, {"type": "Feature", "geometry": {"type": "LineString", "coordinates": [[-54.04040028525233, 68.80376329890672], [-54.0319657465828, 68.80140474693096]]}, "properties": {"source": "5060857", "target": "1197776"}}, {"type": "Feature", "geometry": {"type": "LineString", "coordinates": [[-54.025329109048656, 68.80306671172693], [-54.04464091730213, 68.80637851390722]]}, "properties": {"source": "24986803", "target": "3108381"}}, {"type": "Feature", "geometry": {"type": "LineString", "coordinates": [[-54.025329109048656, 68.80306671172693], [-54.03325715679617, 68.80471312410711]]}, "properties": {"source": "24986803", "target": "23093519"}}, {"type": "Feature", "geometry": {"type": "LineString", "coordinates": [[-54.025329109048656, 68.80306671172693], [-54.032857086086935, 68.80534885798124]]}, "properties": {"source": "24986803", "target": "29507955"}}, {"type": "Feature", "geometry": {"type": "LineString", "coordinates": [[-54.025329109048656, 68.80306671172693], [-54.034686829965054, 68.80248641922668]]}, "properties": {"source": "24986803", "target": "25254476"}}, {"type": "Feature", "geometry": {"type": "LineString", "coordinates": [[-54.025329109048656, 68.80306671172693], [-54.034657561111246, 68.80569903773812]]}, "properties": {"source": "24986803", "target": "24897241"}}, {"type": "Feature", "geometry": {"type": "LineString", "coordinates": [[-54.03657964768799, 68.80164221125915], [-54.04464091730213, 68.80637851390722]]}, "properties": {"source": "339148", "target": "3108381"}}, {"type": "Feature", "geometry": {"type": "LineString", "coordinates": [[-54.03657964768799, 68.80164221125915], [-54.042374199732876, 68.80339440226481]]}, "properties": {"source": "339148", "target": "26005812"}}, {"type": "Feature", "geometry": {"type": "LineString", "coordinates": [[-54.03657964768799, 68.80164221125915], [-54.04526089883751, 68.80609757479178]]}, "properties": {"source": "339148", "target": "26378913"}}, {"type": "Feature", "geometry": {"type": "LineString", "coordinates": [[-54.03657964768799, 68.80164221125915], [-54.032857086086935, 68.80534885798124]]}, "properties": {"source": "339148", "target": "29507955"}}, {"type": "Feature", "geometry": {"type": "LineString", "coordinates": [[-54.03657964768799, 68.80164221125915], [-54.034686829965054, 68.80248641922668]]}, "properties": {"source": "339148", "target": "25254476"}}, {"type": "Feature", "geometry": {"type": "LineString", "coordinates": [[-54.03657964768799, 68.80164221125915], [-54.025739455221085, 68.80403713902007]]}, "properties": {"source": "339148", "target": "25361227"}}, {"type": "Feature", "geometry": {"type": "LineString", "coordinates": [[-54.025329109048656, 68.80306671172693], [-54.039895952573914, 68.80624620047527]]}, "properties": {"source": "24986803", "target": "23453130"}}, {"type": "Feature", "geometry": {"type": "LineString", "coordinates": [[-54.033258447186, 68.80158810584905], [-54.042374199732876, 68.80339440226481]]}, "properties": {"source": "16087431", "target": "26005812"}}, {"type": "Feature", "geometry": {"type": "LineString", "coordinates": [[-54.033258447186, 68.80158810584905], [-54.03325715679617, 68.80471312410711]]}, "properties": {"source": "16087431", "target": "23093519"}}, {"type": "Feature", "geometry": {"type": "LineString", "coordinates": [[-54.033258447186, 68.80158810584905], [-54.032857086086935, 68.80534885798124]]}, "properties": {"source": "16087431", "target": "29507955"}}, {"type": "Feature", "geometry": {"type": "LineString", "coordinates": [[-54.033258447186, 68.80158810584905], [-54.04255295081738, 68.8033094343453]]}, "properties": {"source": "16087431", "target": "4727151"}}, {"type": "Feature", "geometry": {"type": "LineString", "coordinates": [[-54.033258447186, 68.80158810584905], [-54.045716886836615, 68.80216494054073]]}, "properties": {"source": "16087431", "target": "5936464"}}, {"type": "Feature", "geometry": {"type": "LineString", "coordinates": [[-54.033258447186, 68.80158810584905], [-54.03730657802501, 68.80212659892919]]}, "properties": {"source": "16087431", "target": "9130714"}}, {"type": "Feature", "geometry": {"type": "LineString", "coordinates": [[-54.02633581234599, 68.80106821485796], [-54.04464091730213, 68.80637851390722]]}, "properties": {"source": "2309699", "target": "3108381"}}, {"type": "Feature", "geometry": {"type": "LineString", "coordinates": [[-54.02633581234599, 68.80106821485796], [-54.04040028525233, 68.80376329890672]]}, "properties": {"source": "2309699", "target": "5060857"}}, {"type": "Feature", "geometry": {"type": "LineString", "coordinates": [[-54.02633581234599, 68.80106821485796], [-54.03847490114052, 68.8002577954916]]}, "properties": {"source": "2309699", "target": "2520017"}}, {"type": "Feature", "geometry": {"type": "LineString", "coordinates": [[-54.02633581234599, 68.80106821485796], [-54.04488527337955, 68.80595600152333]]}, "properties": {"source": "2309699", "target": "2694910"}}, {"type": "Feature", "geometry": {"type": "LineString", "coordinates": [[-54.02633581234599, 68.80106821485796], [-54.04630141651482, 68.80476158554859]]}, "properties": {"source": "2309699", "target": "588438"}}, {"type": "Feature", "geometry": {"type": "LineString", "coordinates": [[-54.02633581234599, 68.80106821485796], [-54.04476009047109, 68.80394280877937]]}, "properties": {"source": "2309699", "target": "2032308"}}, {"type": "Feature", "geometry": {"type": "LineString", "coordinates": [[-54.02633581234599, 68.80106821485796], [-54.04159109704953, 68.80546875409627]]}, "properties": {"source": "2309699", "target": "2650238"}}, {"type": "Feature", "geometry": {"type": "LineString", "coordinates": [[-54.04021884932732, 68.80539756944972], [-54.03544349402493, 68.80014910487253]]}, "properties": {"source": "76474", "target": "76467"}}, {"type": "Feature", "geometry": {"type": "LineString", "coordinates": [[-54.04021884932732, 68.80539756944972], [-54.039482830845145, 68.80004242570803]]}, "properties": {"source": "76474", "target": "76473"}}, {"type": "Feature", "geometry": {"type": "LineString", "coordinates": [[-54.04021884932732, 68.80539756944972], [-54.03353644529753, 68.80301509673433]]}, "properties": {"source": "76474", "target": "76471"}}, {"type": "Feature", "geometry": {"type": "LineString", "coordinates": [[-54.03730657802501, 68.80212659892919], [-54.0448525869939, 68.80418029516065]]}, "properties": {"source": "9130714", "target": "6524993"}}, {"type": "Feature", "geometry": {"type": "LineString", "coordinates": [[-54.04625078495097, 68.80418148333786], [-54.04464091730213, 68.80637851390722]]}, "properties": {"source": "28324274", "target": "3108381"}}, {"type": "Feature", "geometry": {"type": "LineString", "coordinates": [[-54.04625078495097, 68.80418148333786], [-54.042374199732876, 68.80339440226481]]}, "properties": {"source": "28324274", "target": "26005812"}}, {"type": "Feature", "geometry": {"type": "LineString", "coordinates": [[-54.04625078495097, 68.80418148333786], [-54.04526089883751, 68.80609757479178]]}, "properties": {"source": "28324274", "target": "26378913"}}, {"type": "Feature", "geometry": {"type": "LineString", "coordinates": [[-54.04625078495097, 68.80418148333786], [-54.039435953023585, 68.80552504606817]]}, "properties": {"source": "28324274", "target": "27413258"}}, {"type": "Feature", "geometry": {"type": "LineString", "coordinates": [[-54.04625078495097, 68.80418148333786], [-54.032857086086935, 68.80534885798124]]}, "properties": {"source": "28324274", "target": "29507955"}}, {"type": "Feature", "geometry": {"type": "LineString", "coordinates": [[-54.04625078495097, 68.80418148333786], [-54.03657964768799, 68.80164221125915]]}, "properties": {"source": "28324274", "target": "339148"}}, {"type": "Feature", "geometry": {"type": "LineString", "coordinates": [[-54.04200239149543, 68.80711784093882], [-54.03544349402493, 68.80014910487253]]}, "properties": {"source": "1032414", "target": "76467"}}, {"type": "Feature", "geometry": {"type": "LineString", "coordinates": [[-54.04200239149543, 68.80711784093882], [-54.039482830845145, 68.80004242570803]]}, "properties": {"source": "1032414", "target": "76473"}}, {"type": "Feature", "geometry": {"type": "LineString", "coordinates": [[-54.04200239149543, 68.80711784093882], [-54.03353644529753, 68.80301509673433]]}, "properties": {"source": "1032414", "target": "76471"}}, {"type": "Feature", "geometry": {"type": "LineString", "coordinates": [[-54.04200239149543, 68.80711784093882], [-54.03463665362672, 68.80244810686702]]}, "properties": {"source": "1032414", "target": "93174"}}, {"type": "Feature", "geometry": {"type": "LineString", "coordinates": [[-54.04200239149543, 68.80711784093882], [-54.03187345341745, 68.80409715862112]]}, "properties": {"source": "1032414", "target": "76475"}}, {"type": "Feature", "geometry": {"type": "LineString", "coordinates": [[-54.04200239149543, 68.80711784093882], [-54.03973119317021, 68.80013499675198]]}, "properties": {"source": "1032414", "target": "1032415"}}, {"type": "Feature", "geometry": {"type": "LineString", "coordinates": [[-54.03721297259453, 68.80184485113264], [-54.03325715679617, 68.80471312410711]]}, "properties": {"source": "20565918", "target": "23093519"}}, {"type": "Feature", "geometry": {"type": "LineString", "coordinates": [[-54.03721297259453, 68.80184485113264], [-54.0367676818539, 68.8067310579838]]}, "properties": {"source": "20565918", "target": "17674811"}}, {"type": "Feature", "geometry": {"type": "LineString", "coordinates": [[-54.0265317071499, 68.80200129880316], [-54.03325715679617, 68.80471312410711]]}, "properties": {"source": "22570801", "target": "23093519"}}, {"type": "Feature", "geometry": {"type": "LineString", "coordinates": [[-54.04084689445065, 68.80477833920358], [-54.03057306367242, 68.80359869645645]]}, "properties": {"source": "6485097", "target": "722304"}}, {"type": "Feature", "geometry": {"type": "LineString", "coordinates": [[-54.04084689445065, 68.80477833920358], [-54.03123533361797, 68.80365728410541]]}, "properties": {"source": "6485097", "target": "722293"}}, {"type": "Feature", "geometry": {"type": "LineString", "coordinates": [[-54.04159109704953, 68.80546875409627], [-54.03847490114052, 68.8002577954916]]}, "properties": {"source": "2650238", "target": "2520017"}}, {"type": "Feature", "geometry": {"type": "LineString", "coordinates": [[-54.04159109704953, 68.80546875409627], [-54.04488527337955, 68.80595600152333]]}, "properties": {"source": "2650238", "target": "2694910"}}, {"type": "Feature", "geometry": {"type": "LineString", "coordinates": [[-54.04353291406679, 68.80457762592172], [-54.04255295081738, 68.8033094343453]]}, "properties": {"source": "8141642", "target": "4727151"}}, {"type": "Feature", "geometry": {"type": "LineString", "coordinates": [[-54.04353291406679, 68.80457762592172], [-54.045716886836615, 68.80216494054073]]}, "properties": {"source": "8141642", "target": "5936464"}}, {"type": "Feature", "geometry": {"type": "LineString", "coordinates": [[-54.04353291406679, 68.80457762592172], [-54.03949089784494, 68.80103111720345]]}, "properties": {"source": "8141642", "target": "6383603"}}, {"type": "Feature", "geometry": {"type": "LineString", "coordinates": [[-54.04353291406679, 68.80457762592172], [-54.03730657802501, 68.80212659892919]]}, "properties": {"source": "8141642", "target": "9130714"}}, {"type": "Feature", "geometry": {"type": "LineString", "coordinates": [[-54.044580159866854, 68.80664687386425], [-54.04464091730213, 68.80637851390722]]}, "properties": {"source": "28955084", "target": "3108381"}}, {"type": "Feature", "geometry": {"type": "LineString", "coordinates": [[-54.044580159866854, 68.80664687386425], [-54.032857086086935, 68.80534885798124]]}, "properties": {"source": "28955084", "target": "29507955"}}, {"type": "Feature", "geometry": {"type": "LineString", "coordinates": [[-54.04277808012685, 68.80483822507736], [-54.036273714324835, 68.80597546552013]]}, "properties": {"source": "25394218", "target": "24724766"}}, {"type": "Feature", "geometry": {"type": "LineString", "coordinates": [[-54.03410849177891, 68.80205384011416], [-54.04040028525233, 68.80376329890672]]}, "properties": {"source": "933790", "target": "5060857"}}, {"type": "Feature", "geometry": {"type": "LineString", "coordinates": [[-54.03410849177891, 68.80205384011416], [-54.025425989542754, 68.80215949171057]]}, "properties": {"source": "933790", "target": "6235839"}}, {"type": "Feature", "geometry": {"type": "LineString", "coordinates": [[-54.03410849177891, 68.80205384011416], [-54.028561236218394, 68.80188878783818]]}, "properties": {"source": "933790", "target": "64185"}}, {"type": "Feature", "geometry": {"type": "LineString", "coordinates": [[-54.03410849177891, 68.80205384011416], [-54.03057306367242, 68.80359869645645]]}, "properties": {"source": "933790", "target": "722304"}}, {"type": "Feature", "geometry": {"type": "LineString", "coordinates": [[-54.04277808012685, 68.80483822507736], [-54.028403010215214, 68.80243096125957]]}, "properties": {"source": "25394218", "target": "25784618"}}, {"type": "Feature", "geometry": {"type": "LineString", "coordinates": [[-54.04021884932732, 68.80539756944972], [-54.03463665362672, 68.80244810686702]]}, "properties": {"source": "76474", "target": "93174"}}, {"type": "Feature", "geometry": {"type": "LineString", "coordinates": [[-54.04021884932732, 68.80539756944972], [-54.040536006794994, 68.80200028367389]]}, "properties": {"source": "76474", "target": "76469"}}, {"type": "Feature", "geometry": {"type": "LineString", "coordinates": [[-54.04021884932732, 68.80539756944972], [-54.03187345341745, 68.80409715862112]]}, "properties": {"source": "76474", "target": "76475"}}, {"type": "Feature", "geometry": {"type": "LineString", "coordinates": [[-54.04021884932732, 68.80539756944972], [-54.0417003983176, 68.80381928996451]]}, "properties": {"source": "76474", "target": "792630"}}, {"type": "Feature", "geometry": {"type": "LineString", "coordinates": [[-54.03187345341745, 68.80409715862112], [-54.03544349402493, 68.80014910487253]]}, "properties": {"source": "76475", "target": "76467"}}, {"type": "Feature", "geometry": {"type": "LineString", "coordinates": [[-54.03187345341745, 68.80409715862112], [-54.039482830845145, 68.80004242570803]]}, "properties": {"source": "76475", "target": "76473"}}, {"type": "Feature", "geometry": {"type": "LineString", "coordinates": [[-54.03187345341745, 68.80409715862112], [-54.03353644529753, 68.80301509673433]]}, "properties": {"source": "76475", "target": "76471"}}, {"type": "Feature", "geometry": {"type": "LineString", "coordinates": [[-54.03187345341745, 68.80409715862112], [-54.040536006794994, 68.80200028367389]]}, "properties": {"source": "76475", "target": "76469"}}, {"type": "Feature", "geometry": {"type": "LineString", "coordinates": [[-54.03187345341745, 68.80409715862112], [-54.0417003983176, 68.80381928996451]]}, "properties": {"source": "76475", "target": "792630"}}, {"type": "Feature", "geometry": {"type": "LineString", "coordinates": [[-54.04212562159212, 68.80311930100294], [-54.045716886836615, 68.80216494054073]]}, "properties": {"source": "11316372", "target": "5936464"}}, {"type": "Feature", "geometry": {"type": "LineString", "coordinates": [[-54.03057306367242, 68.80359869645645], [-54.02877687844402, 68.80520623748086]]}, "properties": {"source": "722304", "target": "236537"}}, {"type": "Feature", "geometry": {"type": "LineString", "coordinates": [[-54.03757501407638, 68.80529484566424], [-54.03325715679617, 68.80471312410711]]}, "properties": {"source": "1855376", "target": "23093519"}}, {"type": "Feature", "geometry": {"type": "LineString", "coordinates": [[-54.03757501407638, 68.80529484566424], [-54.03721297259453, 68.80184485113264]]}, "properties": {"source": "1855376", "target": "20565918"}}, {"type": "Feature", "geometry": {"type": "LineString", "coordinates": [[-54.03757501407638, 68.80529484566424], [-54.02867318634689, 68.80005980882117]]}, "properties": {"source": "1855376", "target": "18167484"}}, {"type": "Feature", "geometry": {"type": "LineString", "coordinates": [[-54.03757501407638, 68.80529484566424], [-54.0367676818539, 68.8067310579838]]}, "properties": {"source": "1855376", "target": "17674811"}}, {"type": "Feature", "geometry": {"type": "LineString", "coordinates": [[-54.03757501407638, 68.80529484566424], [-54.039895952573914, 68.80624620047527]]}, "properties": {"source": "1855376", "target": "23453130"}}, {"type": "Feature", "geometry": {"type": "LineString", "coordinates": [[-54.0265317071499, 68.80200129880316], [-54.034686829965054, 68.80248641922668]]}, "properties": {"source": "22570801", "target": "25254476"}}, {"type": "Feature", "geometry": {"type": "LineString", "coordinates": [[-54.0265317071499, 68.80200129880316], [-54.025329109048656, 68.80306671172693]]}, "properties": {"source": "22570801", "target": "24986803"}}, {"type": "Feature", "geometry": {"type": "LineString", "coordinates": [[-54.03003867258478, 68.804385915204], [-54.03325715679617, 68.80471312410711]]}, "properties": {"source": "12904790", "target": "23093519"}}, {"type": "Feature", "geometry": {"type": "LineString", "coordinates": [[-54.03003867258478, 68.804385915204], [-54.045716886836615, 68.80216494054073]]}, "properties": {"source": "12904790", "target": "5936464"}}, {"type": "Feature", "geometry": {"type": "LineString", "coordinates": [[-54.03973119317021, 68.80013499675198], [-54.03353644529753, 68.80301509673433]]}, "properties": {"source": "1032415", "target": "76471"}}, {"type": "Feature", "geometry": {"type": "LineString", "coordinates": [[-54.03973119317021, 68.80013499675198], [-54.044028881194066, 68.80395890822189]]}, "properties": {"source": "1032415", "target": "977158"}}, {"type": "Feature", "geometry": {"type": "LineString", "coordinates": [[-54.033788576029195, 68.8044667932138], [-54.04464091730213, 68.80637851390722]]}, "properties": {"source": "1183594", "target": "3108381"}}, {"type": "Feature", "geometry": {"type": "LineString", "coordinates": [[-54.033788576029195, 68.8044667932138], [-54.044028881194066, 68.80395890822189]]}, "properties": {"source": "1183594", "target": "977158"}}, {"type": "Feature", "geometry": {"type": "LineString", "coordinates": [[-54.04548681055414, 68.80245657379373], [-54.03544349402493, 68.80014910487253]]}, "properties": {"source": "656451", "target": "76467"}}, {"type": "Feature", "geometry": {"type": "LineString", "coordinates": [[-54.04548681055414, 68.80245657379373], [-54.03353644529753, 68.80301509673433]]}, "properties": {"source": "656451", "target": "76471"}}, {"type": "Feature", "geometry": {"type": "LineString", "coordinates": [[-54.04548681055414, 68.80245657379373], [-54.03332976657289, 68.80371930263391]]}, "properties": {"source": "656451", "target": "76472"}}, {"type": "Feature", "geometry": {"type": "LineString", "coordinates": [[-54.04548681055414, 68.80245657379373], [-54.040536006794994, 68.80200028367389]]}, "properties": {"source": "656451", "target": "76469"}}, {"type": "Feature", "geometry": {"type": "LineString", "coordinates": [[-54.04548681055414, 68.80245657379373], [-54.02783185875026, 68.80238527307841]]}, "properties": {"source": "656451", "target": "656650"}}, {"type": "Feature", "geometry": {"type": "LineString", "coordinates": [[-54.04084689445065, 68.80477833920358], [-54.038746256836006, 68.80589709284473]]}, "properties": {"source": "6485097", "target": "857980"}}, {"type": "Feature", "geometry": {"type": "LineString", "coordinates": [[-54.04084689445065, 68.80477833920358], [-54.04040028525233, 68.80376329890672]]}, "properties": {"source": "6485097", "target": "5060857"}}, {"type": "Feature", "geometry": {"type": "LineString", "coordinates": [[-54.04084689445065, 68.80477833920358], [-54.025425989542754, 68.80215949171057]]}, "properties": {"source": "6485097", "target": "6235839"}}, {"type": "Feature", "geometry": {"type": "LineString", "coordinates": [[-54.039435953023585, 68.80552504606817], [-54.033258447186, 68.80158810584905]]}, "properties": {"source": "27413258", "target": "16087431"}}, {"type": "Feature", "geometry": {"type": "LineString", "coordinates": [[-54.039435953023585, 68.80552504606817], [-54.04212562159212, 68.80311930100294]]}, "properties": {"source": "27413258", "target": "11316372"}}, {"type": "Feature", "geometry": {"type": "LineString", "coordinates": [[-54.039435953023585, 68.80552504606817], [-54.03748694151555, 68.80580899898507]]}, "properties": {"source": "27413258", "target": "11345643"}}, {"type": "Feature", "geometry": {"type": "LineString", "coordinates": [[-54.039435953023585, 68.80552504606817], [-54.03609544916057, 68.80617656608209]]}, "properties": {"source": "27413258", "target": "25363115"}}, {"type": "Feature", "geometry": {"type": "LineString", "coordinates": [[-54.039435953023585, 68.80552504606817], [-54.03321466976878, 68.79991822266442]]}, "properties": {"source": "27413258", "target": "5396177"}}, {"type": "Feature", "geometry": {"type": "LineString", "coordinates": [[-54.039435953023585, 68.80552504606817], [-54.026167302967906, 68.80302242191325]]}, "properties": {"source": "27413258", "target": "295598"}}, {"type": "Feature", "geometry": {"type": "LineString", "coordinates": [[-54.039435953023585, 68.80552504606817], [-54.03003867258478, 68.804385915204]]}, "properties": {"source": "27413258", "target": "12904790"}}, {"type": "Feature", "geometry": {"type": "LineString", "coordinates": [[-54.039435953023585, 68.80552504606817], [-54.04288747182282, 68.80512124378325]]}, "properties": {"source": "27413258", "target": "26312327"}}, {"type": "Feature", "geometry": {"type": "LineString", "coordinates": [[-54.039435953023585, 68.80552504606817], [-54.044580159866854, 68.80664687386425]]}, "properties": {"source": "27413258", "target": "28955084"}}, {"type": "Feature", "geometry": {"type": "LineString", "coordinates": [[-54.039435953023585, 68.80552504606817], [-54.04427617976249, 68.8011286915555]]}, "properties": {"source": "27413258", "target": "5269066"}}, {"type": "Feature", "geometry": {"type": "LineString", "coordinates": [[-54.03325715679617, 68.80471312410711], [-54.04212562159212, 68.80311930100294]]}, "properties": {"source": "23093519", "target": "11316372"}}, {"type": "Feature", "geometry": {"type": "LineString", "coordinates": [[-54.03325715679617, 68.80471312410711], [-54.03547394786055, 68.80290835040279]]}, "properties": {"source": "23093519", "target": "13613777"}}, {"type": "Feature", "geometry": {"type": "LineString", "coordinates": [[-54.03325715679617, 68.80471312410711], [-54.027002809269575, 68.79992901023624]]}, "properties": {"source": "23093519", "target": "1052645"}}, {"type": "Feature", "geometry": {"type": "LineString", "coordinates": [[-54.038746256836006, 68.80589709284473], [-54.04040028525233, 68.80376329890672]]}, "properties": {"source": "857980", "target": "5060857"}}, {"type": "Feature", "geometry": {"type": "LineString", "coordinates": [[-54.039435953023585, 68.80552504606817], [-54.028403010215214, 68.80243096125957]]}, "properties": {"source": "27413258", "target": "25784618"}}, {"type": "Feature", "geometry": {"type": "LineString", "coordinates": [[-54.03325715679617, 68.80471312410711], [-54.028403010215214, 68.80243096125957]]}, "properties": {"source": "23093519", "target": "25784618"}}, {"type": "Feature", "geometry": {"type": "LineString", "coordinates": [[-54.032857086086935, 68.80534885798124], [-54.04464091730213, 68.80637851390722]]}, "properties": {"source": "29507955", "target": "3108381"}}, {"type": "Feature", "geometry": {"type": "LineString", "coordinates": [[-54.032857086086935, 68.80534885798124], [-54.034686829965054, 68.80248641922668]]}, "properties": {"source": "29507955", "target": "25254476"}}, {"type": "Feature", "geometry": {"type": "LineString", "coordinates": [[-54.032857086086935, 68.80534885798124], [-54.045716886836615, 68.80216494054073]]}, "properties": {"source": "29507955", "target": "5936464"}}, {"type": "Feature", "geometry": {"type": "LineString", "coordinates": [[-54.032857086086935, 68.80534885798124], [-54.03609544916057, 68.80617656608209]]}, "properties": {"source": "29507955", "target": "25363115"}}, {"type": "Feature", "geometry": {"type": "LineString", "coordinates": [[-54.032857086086935, 68.80534885798124], [-54.03321466976878, 68.79991822266442]]}, "properties": {"source": "29507955", "target": "5396177"}}, {"type": "Feature", "geometry": {"type": "LineString", "coordinates": [[-54.032857086086935, 68.80534885798124], [-54.026167302967906, 68.80302242191325]]}, "properties": {"source": "29507955", "target": "295598"}}, {"type": "Feature", "geometry": {"type": "LineString", "coordinates": [[-54.032857086086935, 68.80534885798124], [-54.04427617976249, 68.8011286915555]]}, "properties": {"source": "29507955", "target": "5269066"}}, {"type": "Feature", "geometry": {"type": "LineString", "coordinates": [[-54.034686829965054, 68.80248641922668], [-54.04464091730213, 68.80637851390722]]}, "properties": {"source": "25254476", "target": "3108381"}}, {"type": "Feature", "geometry": {"type": "LineString", "coordinates": [[-54.034686829965054, 68.80248641922668], [-54.03325715679617, 68.80471312410711]]}, "properties": {"source": "25254476", "target": "23093519"}}, {"type": "Feature", "geometry": {"type": "LineString", "coordinates": [[-54.034686829965054, 68.80248641922668], [-54.04288747182282, 68.80512124378325]]}, "properties": {"source": "25254476", "target": "26312327"}}, {"type": "Feature", "geometry": {"type": "LineString", "coordinates": [[-54.02945136927663, 68.80543608975935], [-54.04464091730213, 68.80637851390722]]}, "properties": {"source": "25404397", "target": "3108381"}}, {"type": "Feature", "geometry": {"type": "LineString", "coordinates": [[-54.02945136927663, 68.80543608975935], [-54.042374199732876, 68.80339440226481]]}, "properties": {"source": "25404397", "target": "26005812"}}, {"type": "Feature", "geometry": {"type": "LineString", "coordinates": [[-54.02945136927663, 68.80543608975935], [-54.046071077684715, 68.80616929339791]]}, "properties": {"source": "25404397", "target": "23383504"}}, {"type": "Feature", "geometry": {"type": "LineString", "coordinates": [[-54.02945136927663, 68.80543608975935], [-54.04526089883751, 68.80609757479178]]}, "properties": {"source": "25404397", "target": "26378913"}}, {"type": "Feature", "geometry": {"type": "LineString", "coordinates": [[-54.032857086086935, 68.80534885798124], [-54.028403010215214, 68.80243096125957]]}, "properties": {"source": "29507955", "target": "25784618"}}, {"type": "Feature", "geometry": {"type": "LineString", "coordinates": [[-54.034686829965054, 68.80248641922668], [-54.028403010215214, 68.80243096125957]]}, "properties": {"source": "25254476", "target": "25784618"}}, {"type": "Feature", "geometry": {"type": "LineString", "coordinates": [[-54.04277808012685, 68.80483822507736], [-54.0349073284944, 68.80666428258874]]}, "properties": {"source": "25394218", "target": "25261905"}}, {"type": "Feature", "geometry": {"type": "LineString", "coordinates": [[-54.037214645152645, 68.80590225517193], [-54.045716886836615, 68.80216494054073]]}, "properties": {"source": "8896819", "target": "5936464"}}, {"type": "Feature", "geometry": {"type": "LineString", "coordinates": [[-54.037214645152645, 68.80590225517193], [-54.04666278778444, 68.80445971029647]]}, "properties": {"source": "8896819", "target": "6641838"}}, {"type": "Feature", "geometry": {"type": "LineString", "coordinates": [[-54.037214645152645, 68.80590225517193], [-54.03949089784494, 68.80103111720345]]}, "properties": {"source": "8896819", "target": "6383603"}}, {"type": "Feature", "geometry": {"type": "LineString", "coordinates": [[-54.037214645152645, 68.80590225517193], [-54.03730657802501, 68.80212659892919]]}, "properties": {"source": "8896819", "target": "9130714"}}, {"type": "Feature", "geometry": {"type": "LineString", "coordinates": [[-54.04442834016443, 68.80475256627605], [-54.038746256836006, 68.80589709284473]]}, "properties": {"source": "982929", "target": "857980"}}, {"type": "Feature", "geometry": {"type": "LineString", "coordinates": [[-54.04442834016443, 68.80475256627605], [-54.03463665362672, 68.80244810686702]]}, "properties": {"source": "982929", "target": "93174"}}, {"type": "Feature", "geometry": {"type": "LineString", "coordinates": [[-54.04442834016443, 68.80475256627605], [-54.0417003983176, 68.80381928996451]]}, "properties": {"source": "982929", "target": "792630"}}, {"type": "Feature", "geometry": {"type": "LineString", "coordinates": [[-54.04442834016443, 68.80475256627605], [-54.044028881194066, 68.80395890822189]]}, "properties": {"source": "982929", "target": "977158"}}, {"type": "Feature", "geometry": {"type": "LineString", "coordinates": [[-54.03564115478494, 68.80424323328396], [-54.03847490114052, 68.8002577954916]]}, "properties": {"source": "2229713", "target": "2520017"}}, {"type": "Feature", "geometry": {"type": "LineString", "coordinates": [[-54.03564115478494, 68.80424323328396], [-54.02633581234599, 68.80106821485796]]}, "properties": {"source": "2229713", "target": "2309699"}}, {"type": "Feature", "geometry": {"type": "LineString", "coordinates": [[-54.03564115478494, 68.80424323328396], [-54.04488527337955, 68.80595600152333]]}, "properties": {"source": "2229713", "target": "2694910"}}, {"type": "Feature", "geometry": {"type": "LineString", "coordinates": [[-54.03564115478494, 68.80424323328396], [-54.02962353209412, 68.8067448312629]]}, "properties": {"source": "2229713", "target": "17630618"}}, {"type": "Feature", "geometry": {"type": "LineString", "coordinates": [[-54.04654126336564, 68.80346725007792], [-54.03325715679617, 68.80471312410711]]}, "properties": {"source": "11165308", "target": "23093519"}}, {"type": "Feature", "geometry": {"type": "LineString", "coordinates": [[-54.04654126336564, 68.80346725007792], [-54.040934854791516, 68.80026704837624]]}, "properties": {"source": "11165308", "target": "11145688"}}, {"type": "Feature", "geometry": {"type": "LineString", "coordinates": [[-54.04654126336564, 68.80346725007792], [-54.025685595909906, 68.80713331282331]]}, "properties": {"source": "11165308", "target": "11301518"}}, {"type": "Feature", "geometry": {"type": "LineString", "coordinates": [[-54.028561236218394, 68.80188878783818], [-54.025425989542754, 68.80215949171057]]}, "properties": {"source": "64185", "target": "6235839"}}, {"type": "Feature", "geometry": {"type": "LineString", "coordinates": [[-54.028561236218394, 68.80188878783818], [-54.03847490114052, 68.8002577954916]]}, "properties": {"source": "64185", "target": "2520017"}}, {"type": "Feature", "geometry": {"type": "LineString", "coordinates": [[-54.028561236218394, 68.80188878783818], [-54.03057306367242, 68.80359869645645]]}, "properties": {"source": "64185", "target": "722304"}}, {"type": "Feature", "geometry": {"type": "LineString", "coordinates": [[-54.028561236218394, 68.80188878783818], [-54.04488527337955, 68.80595600152333]]}, "properties": {"source": "64185", "target": "2694910"}}, {"type": "Feature", "geometry": {"type": "LineString", "coordinates": [[-54.028561236218394, 68.80188878783818], [-54.04630141651482, 68.80476158554859]]}, "properties": {"source": "64185", "target": "588438"}}, {"type": "Feature", "geometry": {"type": "LineString", "coordinates": [[-54.038418458738235, 68.8072336850554], [-54.042374199732876, 68.80339440226481]]}, "properties": {"source": "24388453", "target": "26005812"}}, {"type": "Feature", "geometry": {"type": "LineString", "coordinates": [[-54.038418458738235, 68.8072336850554], [-54.046071077684715, 68.80616929339791]]}, "properties": {"source": "24388453", "target": "23383504"}}, {"type": "Feature", "geometry": {"type": "LineString", "coordinates": [[-54.038418458738235, 68.8072336850554], [-54.034686829965054, 68.80248641922668]]}, "properties": {"source": "24388453", "target": "25254476"}}, {"type": "Feature", "geometry": {"type": "LineString", "coordinates": [[-54.038418458738235, 68.8072336850554], [-54.025329109048656, 68.80306671172693]]}, "properties": {"source": "24388453", "target": "24986803"}}, {"type": "Feature", "geometry": {"type": "LineString", "coordinates": [[-54.038418458738235, 68.8072336850554], [-54.025739455221085, 68.80403713902007]]}, "properties": {"source": "24388453", "target": "25361227"}}, {"type": "Feature", "geometry": {"type": "LineString", "coordinates": [[-54.038418458738235, 68.8072336850554], [-54.02773938184026, 68.79994427206111]]}, "properties": {"source": "24388453", "target": "23274644"}}, {"type": "Feature", "geometry": {"type": "LineString", "coordinates": [[-54.038418458738235, 68.8072336850554], [-54.03547394786055, 68.80290835040279]]}, "properties": {"source": "24388453", "target": "13613777"}}, {"type": "Feature", "geometry": {"type": "LineString", "coordinates": [[-54.038418458738235, 68.8072336850554], [-54.02867318634689, 68.80005980882117]]}, "properties": {"source": "24388453", "target": "18167484"}}, {"type": "Feature", "geometry": {"type": "LineString", "coordinates": [[-54.038418458738235, 68.8072336850554], [-54.02878103217225, 68.80385867843296]]}, "properties": {"source": "24388453", "target": "22557282"}}, {"type": "Feature", "geometry": {"type": "LineString", "coordinates": [[-54.028584838986134, 68.80233444394685], [-54.042374199732876, 68.80339440226481]]}, "properties": {"source": "23375467", "target": "26005812"}}, {"type": "Feature", "geometry": {"type": "LineString", "coordinates": [[-54.028584838986134, 68.80233444394685], [-54.046071077684715, 68.80616929339791]]}, "properties": {"source": "23375467", "target": "23383504"}}, {"type": "Feature", "geometry": {"type": "LineString", "coordinates": [[-54.046071077684715, 68.80616929339791], [-54.03003867258478, 68.804385915204]]}, "properties": {"source": "23383504", "target": "12904790"}}, {"type": "Feature", "geometry": {"type": "LineString", "coordinates": [[-54.046071077684715, 68.80616929339791], [-54.03547394786055, 68.80290835040279]]}, "properties": {"source": "23383504", "target": "13613777"}}, {"type": "Feature", "geometry": {"type": "LineString", "coordinates": [[-54.046071077684715, 68.80616929339791], [-54.04654126336564, 68.80346725007792]]}, "properties": {"source": "23383504", "target": "11165308"}}, {"type": "Feature", "geometry": {"type": "LineString", "coordinates": [[-54.046071077684715, 68.80616929339791], [-54.034657561111246, 68.80569903773812]]}, "properties": {"source": "23383504", "target": "24897241"}}, {"type": "Feature", "geometry": {"type": "LineString", "coordinates": [[-54.046071077684715, 68.80616929339791], [-54.027002809269575, 68.79992901023624]]}, "properties": {"source": "23383504", "target": "1052645"}}, {"type": "Feature", "geometry": {"type": "LineString", "coordinates": [[-54.04526089883751, 68.80609757479178], [-54.04464091730213, 68.80637851390722]]}, "properties": {"source": "26378913", "target": "3108381"}}, {"type": "Feature", "geometry": {"type": "LineString", "coordinates": [[-54.04526089883751, 68.80609757479178], [-54.042374199732876, 68.80339440226481]]}, "properties": {"source": "26378913", "target": "26005812"}}, {"type": "Feature", "geometry": {"type": "LineString", "coordinates": [[-54.04526089883751, 68.80609757479178], [-54.032857086086935, 68.80534885798124]]}, "properties": {"source": "26378913", "target": "29507955"}}, {"type": "Feature", "geometry": {"type": "LineString", "coordinates": [[-54.04526089883751, 68.80609757479178], [-54.034686829965054, 68.80248641922668]]}, "properties": {"source": "26378913", "target": "25254476"}}, {"type": "Feature", "geometry": {"type": "LineString", "coordinates": [[-54.04526089883751, 68.80609757479178], [-54.025329109048656, 68.80306671172693]]}, "properties": {"source": "26378913", "target": "24986803"}}, {"type": "Feature", "geometry": {"type": "LineString", "coordinates": [[-54.04526089883751, 68.80609757479178], [-54.04255295081738, 68.8033094343453]]}, "properties": {"source": "26378913", "target": "4727151"}}, {"type": "Feature", "geometry": {"type": "LineString", "coordinates": [[-54.04526089883751, 68.80609757479178], [-54.033258447186, 68.80158810584905]]}, "properties": {"source": "26378913", "target": "16087431"}}, {"type": "Feature", "geometry": {"type": "LineString", "coordinates": [[-54.04526089883751, 68.80609757479178], [-54.04212562159212, 68.80311930100294]]}, "properties": {"source": "26378913", "target": "11316372"}}, {"type": "Feature", "geometry": {"type": "LineString", "coordinates": [[-54.04526089883751, 68.80609757479178], [-54.03748694151555, 68.80580899898507]]}, "properties": {"source": "26378913", "target": "11345643"}}, {"type": "Feature", "geometry": {"type": "LineString", "coordinates": [[-54.04526089883751, 68.80609757479178], [-54.03609544916057, 68.80617656608209]]}, "properties": {"source": "26378913", "target": "25363115"}}, {"type": "Feature", "geometry": {"type": "LineString", "coordinates": [[-54.04526089883751, 68.80609757479178], [-54.028403010215214, 68.80243096125957]]}, "properties": {"source": "26378913", "target": "25784618"}}, {"type": "Feature", "geometry": {"type": "LineString", "coordinates": [[-54.03949089784494, 68.80103111720345], [-54.045716886836615, 68.80216494054073]]}, "properties": {"source": "6383603", "target": "5936464"}}, {"type": "Feature", "geometry": {"type": "LineString", "coordinates": [[-54.03949089784494, 68.80103111720345], [-54.03730657802501, 68.80212659892919]]}, "properties": {"source": "6383603", "target": "9130714"}}, {"type": "Feature", "geometry": {"type": "LineString", "coordinates": [[-54.03949089784494, 68.80103111720345], [-54.0448525869939, 68.80418029516065]]}, "properties": {"source": "6383603", "target": "6524993"}}, {"type": "Feature", "geometry": {"type": "LineString", "coordinates": [[-54.04488527337955, 68.80595600152333], [-54.04464091730213, 68.80637851390722]]}, "properties": {"source": "2694910", "target": "3108381"}}, {"type": "Feature", "geometry": {"type": "LineString", "coordinates": [[-54.03321466976878, 68.79991822266442], [-54.04464091730213, 68.80637851390722]]}, "properties": {"source": "5396177", "target": "3108381"}}, {"type": "Feature", "geometry": {"type": "LineString", "coordinates": [[-54.02783185875026, 68.80238527307841], [-54.03544349402493, 68.80014910487253]]}, "properties": {"source": "656650", "target": "76467"}}, {"type": "Feature", "geometry": {"type": "LineString", "coordinates": [[-54.02783185875026, 68.80238527307841], [-54.039482830845145, 68.80004242570803]]}, "properties": {"source": "656650", "target": "76473"}}, {"type": "Feature", "geometry": {"type": "LineString", "coordinates": [[-54.02783185875026, 68.80238527307841], [-54.03353644529753, 68.80301509673433]]}, "properties": {"source": "656650", "target": "76471"}}, {"type": "Feature", "geometry": {"type": "LineString", "coordinates": [[-54.02783185875026, 68.80238527307841], [-54.03332976657289, 68.80371930263391]]}, "properties": {"source": "656650", "target": "76472"}}, {"type": "Feature", "geometry": {"type": "LineString", "coordinates": [[-54.02783185875026, 68.80238527307841], [-54.040536006794994, 68.80200028367389]]}, "properties": {"source": "656650", "target": "76469"}}, {"type": "Feature", "geometry": {"type": "LineString", "coordinates": [[-54.02783185875026, 68.80238527307841], [-54.04021884932732, 68.80539756944972]]}, "properties": {"source": "656650", "target": "76474"}}, {"type": "Feature", "geometry": {"type": "LineString", "coordinates": [[-54.04630141651482, 68.80476158554859], [-54.04464091730213, 68.80637851390722]]}, "properties": {"source": "588438", "target": "3108381"}}, {"type": "Feature", "geometry": {"type": "LineString", "coordinates": [[-54.04630141651482, 68.80476158554859], [-54.04040028525233, 68.80376329890672]]}, "properties": {"source": "588438", "target": "5060857"}}, {"type": "Feature", "geometry": {"type": "LineString", "coordinates": [[-54.04630141651482, 68.80476158554859], [-54.030597552199566, 68.80547202836362]]}, "properties": {"source": "588438", "target": "588428"}}, {"type": "Feature", "geometry": {"type": "LineString", "coordinates": [[-54.026167302967906, 68.80302242191325], [-54.04464091730213, 68.80637851390722]]}, "properties": {"source": "295598", "target": "3108381"}}, {"type": "Feature", "geometry": {"type": "LineString", "coordinates": [[-54.04476009047109, 68.80394280877937], [-54.04464091730213, 68.80637851390722]]}, "properties": {"source": "2032308", "target": "3108381"}}, {"type": "Feature", "geometry": {"type": "LineString", "coordinates": [[-54.04464091730213, 68.80637851390722], [-54.03057306367242, 68.80359869645645]]}, "properties": {"source": "3108381", "target": "722304"}}, {"type": "Feature", "geometry": {"type": "LineString", "coordinates": [[-54.042374199732876, 68.80339440226481], [-54.04464091730213, 68.80637851390722]]}, "properties": {"source": "26005812", "target": "3108381"}}, {"type": "Feature", "geometry": {"type": "LineString", "coordinates": [[-54.042374199732876, 68.80339440226481], [-54.032857086086935, 68.80534885798124]]}, "properties": {"source": "26005812", "target": "29507955"}}, {"type": "Feature", "geometry": {"type": "LineString", "coordinates": [[-54.042374199732876, 68.80339440226481], [-54.034686829965054, 68.80248641922668]]}, "properties": {"source": "26005812", "target": "25254476"}}, {"type": "Feature", "geometry": {"type": "LineString", "coordinates": [[-54.042374199732876, 68.80339440226481], [-54.025329109048656, 68.80306671172693]]}, "properties": {"source": "26005812", "target": "24986803"}}, {"type": "Feature", "geometry": {"type": "LineString", "coordinates": [[-54.042374199732876, 68.80339440226481], [-54.04255295081738, 68.8033094343453]]}, "properties": {"source": "26005812", "target": "4727151"}}, {"type": "Feature", "geometry": {"type": "LineString", "coordinates": [[-54.042374199732876, 68.80339440226481], [-54.04212562159212, 68.80311930100294]]}, "properties": {"source": "26005812", "target": "11316372"}}, {"type": "Feature", "geometry": {"type": "LineString", "coordinates": [[-54.042374199732876, 68.80339440226481], [-54.03748694151555, 68.80580899898507]]}, "properties": {"source": "26005812", "target": "11345643"}}, {"type": "Feature", "geometry": {"type": "LineString", "coordinates": [[-54.042374199732876, 68.80339440226481], [-54.03609544916057, 68.80617656608209]]}, "properties": {"source": "26005812", "target": "25363115"}}, {"type": "Feature", "geometry": {"type": "LineString", "coordinates": [[-54.042374199732876, 68.80339440226481], [-54.026167302967906, 68.80302242191325]]}, "properties": {"source": "26005812", "target": "295598"}}, {"type": "Feature", "geometry": {"type": "LineString", "coordinates": [[-54.042374199732876, 68.80339440226481], [-54.03003867258478, 68.804385915204]]}, "properties": {"source": "26005812", "target": "12904790"}}, {"type": "Feature", "geometry": {"type": "LineString", "coordinates": [[-54.042374199732876, 68.80339440226481], [-54.04288747182282, 68.80512124378325]]}, "properties": {"source": "26005812", "target": "26312327"}}, {"type": "Feature", "geometry": {"type": "LineString", "coordinates": [[-54.042374199732876, 68.80339440226481], [-54.03547394786055, 68.80290835040279]]}, "properties": {"source": "26005812", "target": "13613777"}}, {"type": "Feature", "geometry": {"type": "LineString", "coordinates": [[-54.042374199732876, 68.80339440226481], [-54.044580159866854, 68.80664687386425]]}, "properties": {"source": "26005812", "target": "28955084"}}, {"type": "Feature", "geometry": {"type": "LineString", "coordinates": [[-54.042374199732876, 68.80339440226481], [-54.028403010215214, 68.80243096125957]]}, "properties": {"source": "26005812", "target": "25784618"}}, {"type": "Feature", "geometry": {"type": "LineString", "coordinates": [[-54.042374199732876, 68.80339440226481], [-54.039895952573914, 68.80624620047527]]}, "properties": {"source": "26005812", "target": "23453130"}}, {"type": "Feature", "geometry": {"type": "LineString", "coordinates": [[-54.042374199732876, 68.80339440226481], [-54.027002809269575, 68.79992901023624]]}, "properties": {"source": "26005812", "target": "1052645"}}, {"type": "Feature", "geometry": {"type": "LineString", "coordinates": [[-54.046071077684715, 68.80616929339791], [-54.042374199732876, 68.80339440226481]]}, "properties": {"source": "23383504", "target": "26005812"}}, {"type": "Feature", "geometry": {"type": "LineString", "coordinates": [[-54.046071077684715, 68.80616929339791], [-54.03325715679617, 68.80471312410711]]}, "properties": {"source": "23383504", "target": "23093519"}}, {"type": "Feature", "geometry": {"type": "LineString", "coordinates": [[-54.046071077684715, 68.80616929339791], [-54.034686829965054, 68.80248641922668]]}, "properties": {"source": "23383504", "target": "25254476"}}, {"type": "Feature", "geometry": {"type": "LineString", "coordinates": [[-54.046071077684715, 68.80616929339791], [-54.025329109048656, 68.80306671172693]]}, "properties": {"source": "23383504", "target": "24986803"}}, {"type": "Feature", "geometry": {"type": "LineString", "coordinates": [[-54.046071077684715, 68.80616929339791], [-54.025739455221085, 68.80403713902007]]}, "properties": {"source": "23383504", "target": "25361227"}}, {"type": "Feature", "geometry": {"type": "LineString", "coordinates": [[-54.046071077684715, 68.80616929339791], [-54.02773938184026, 68.79994427206111]]}, "properties": {"source": "23383504", "target": "23274644"}}, {"type": "Feature", "geometry": {"type": "LineString", "coordinates": [[-54.046071077684715, 68.80616929339791], [-54.033258447186, 68.80158810584905]]}, "properties": {"source": "23383504", "target": "16087431"}}, {"type": "Feature", "geometry": {"type": "LineString", "coordinates": [[-54.046071077684715, 68.80616929339791], [-54.04212562159212, 68.80311930100294]]}, "properties": {"source": "23383504", "target": "11316372"}}, {"type": "Feature", "geometry": {"type": "LineString", "coordinates": [[-54.046071077684715, 68.80616929339791], [-54.03757501407638, 68.80529484566424]]}, "properties": {"source": "23383504", "target": "1855376"}}, {"type": "Feature", "geometry": {"type": "LineString", "coordinates": [[-54.046071077684715, 68.80616929339791], [-54.03748694151555, 68.80580899898507]]}, "properties": {"source": "23383504", "target": "11345643"}}, {"type": "Feature", "geometry": {"type": "LineString", "coordinates": [[-54.046071077684715, 68.80616929339791], [-54.03609544916057, 68.80617656608209]]}, "properties": {"source": "23383504", "target": "25363115"}}, {"type": "Feature", "geometry": {"type": "LineString", "coordinates": [[-54.046071077684715, 68.80616929339791], [-54.03721297259453, 68.80184485113264]]}, "properties": {"source": "23383504", "target": "20565918"}}, {"type": "Feature", "geometry": {"type": "LineString", "coordinates": [[-54.046071077684715, 68.80616929339791], [-54.0265317071499, 68.80200129880316]]}, "properties": {"source": "23383504", "target": "22570801"}}, {"type": "Feature", "geometry": {"type": "LineString", "coordinates": [[-54.046071077684715, 68.80616929339791], [-54.028403010215214, 68.80243096125957]]}, "properties": {"source": "23383504", "target": "25784618"}}, {"type": "Feature", "geometry": {"type": "LineString", "coordinates": [[-54.046071077684715, 68.80616929339791], [-54.039895952573914, 68.80624620047527]]}, "properties": {"source": "23383504", "target": "23453130"}}, {"type": "Feature", "geometry": {"type": "LineString", "coordinates": [[-54.02945136927663, 68.80543608975935], [-54.039435953023585, 68.80552504606817]]}, "properties": {"source": "25404397", "target": "27413258"}}, {"type": "Feature", "geometry": {"type": "LineString", "coordinates": [[-54.02945136927663, 68.80543608975935], [-54.03325715679617, 68.80471312410711]]}, "properties": {"source": "25404397", "target": "23093519"}}, {"type": "Feature", "geometry": {"type": "LineString", "coordinates": [[-54.02945136927663, 68.80543608975935], [-54.032857086086935, 68.80534885798124]]}, "properties": {"source": "25404397", "target": "29507955"}}, {"type": "Feature", "geometry": {"type": "LineString", "coordinates": [[-54.02945136927663, 68.80543608975935], [-54.034686829965054, 68.80248641922668]]}, "properties": {"source": "25404397", "target": "25254476"}}, {"type": "Feature", "geometry": {"type": "LineString", "coordinates": [[-54.02945136927663, 68.80543608975935], [-54.025329109048656, 68.80306671172693]]}, "properties": {"source": "25404397", "target": "24986803"}}, {"type": "Feature", "geometry": {"type": "LineString", "coordinates": [[-54.02945136927663, 68.80543608975935], [-54.03657964768799, 68.80164221125915]]}, "properties": {"source": "25404397", "target": "339148"}}, {"type": "Feature", "geometry": {"type": "LineString", "coordinates": [[-54.02945136927663, 68.80543608975935], [-54.025739455221085, 68.80403713902007]]}, "properties": {"source": "25404397", "target": "25361227"}}, {"type": "Feature", "geometry": {"type": "LineString", "coordinates": [[-54.02945136927663, 68.80543608975935], [-54.02773938184026, 68.79994427206111]]}, "properties": {"source": "25404397", "target": "23274644"}}, {"type": "Feature", "geometry": {"type": "LineString", "coordinates": [[-54.02945136927663, 68.80543608975935], [-54.038418458738235, 68.8072336850554]]}, "properties": {"source": "25404397", "target": "24388453"}}, {"type": "Feature", "geometry": {"type": "LineString", "coordinates": [[-54.02945136927663, 68.80543608975935], [-54.04277808012685, 68.80483822507736]]}, "properties": {"source": "25404397", "target": "25394218"}}, {"type": "Feature", "geometry": {"type": "LineString", "coordinates": [[-54.02945136927663, 68.80543608975935], [-54.036273714324835, 68.80597546552013]]}, "properties": {"source": "25404397", "target": "24724766"}}, {"type": "Feature", "geometry": {"type": "LineString", "coordinates": [[-54.02945136927663, 68.80543608975935], [-54.0349073284944, 68.80666428258874]]}, "properties": {"source": "25404397", "target": "25261905"}}, {"type": "Feature", "geometry": {"type": "LineString", "coordinates": [[-54.02945136927663, 68.80543608975935], [-54.03301500240744, 68.80163613957777]]}, "properties": {"source": "25404397", "target": "24945124"}}, {"type": "Feature", "geometry": {"type": "LineString", "coordinates": [[-54.04040028525233, 68.80376329890672], [-54.04464091730213, 68.80637851390722]]}, "properties": {"source": "5060857", "target": "3108381"}}, {"type": "Feature", "geometry": {"type": "LineString", "coordinates": [[-54.04040028525233, 68.80376329890672], [-54.03057306367242, 68.80359869645645]]}, "properties": {"source": "5060857", "target": "722304"}}, {"type": "Feature", "geometry": {"type": "LineString", "coordinates": [[-54.02945136927663, 68.80543608975935], [-54.039895952573914, 68.80624620047527]]}, "properties": {"source": "25404397", "target": "23453130"}}, {"type": "Feature", "geometry": {"type": "LineString", "coordinates": [[-54.03332976657289, 68.80371930263391], [-54.03544349402493, 68.80014910487253]]}, "properties": {"source": "76472", "target": "76467"}}, {"type": "Feature", "geometry": {"type": "LineString", "coordinates": [[-54.03332976657289, 68.80371930263391], [-54.039482830845145, 68.80004242570803]]}, "properties": {"source": "76472", "target": "76473"}}, {"type": "Feature", "geometry": {"type": "LineString", "coordinates": [[-54.03332976657289, 68.80371930263391], [-54.03353644529753, 68.80301509673433]]}, "properties": {"source": "76472", "target": "76471"}}, {"type": "Feature", "geometry": {"type": "LineString", "coordinates": [[-54.03332976657289, 68.80371930263391], [-54.03463665362672, 68.80244810686702]]}, "properties": {"source": "76472", "target": "93174"}}, {"type": "Feature", "geometry": {"type": "LineString", "coordinates": [[-54.03332976657289, 68.80371930263391], [-54.040536006794994, 68.80200028367389]]}, "properties": {"source": "76472", "target": "76469"}}, {"type": "Feature", "geometry": {"type": "LineString", "coordinates": [[-54.03332976657289, 68.80371930263391], [-54.04021884932732, 68.80539756944972]]}, "properties": {"source": "76472", "target": "76474"}}, {"type": "Feature", "geometry": {"type": "LineString", "coordinates": [[-54.03332976657289, 68.80371930263391], [-54.03187345341745, 68.80409715862112]]}, "properties": {"source": "76472", "target": "76475"}}, {"type": "Feature", "geometry": {"type": "LineString", "coordinates": [[-54.03332976657289, 68.80371930263391], [-54.0417003983176, 68.80381928996451]]}, "properties": {"source": "76472", "target": "792630"}}, {"type": "Feature", "geometry": {"type": "LineString", "coordinates": [[-54.03463665362672, 68.80244810686702], [-54.039482830845145, 68.80004242570803]]}, "properties": {"source": "93174", "target": "76473"}}, {"type": "Feature", "geometry": {"type": "LineString", "coordinates": [[-54.03463665362672, 68.80244810686702], [-54.03353644529753, 68.80301509673433]]}, "properties": {"source": "93174", "target": "76471"}}, {"type": "Feature", "geometry": {"type": "LineString", "coordinates": [[-54.03463665362672, 68.80244810686702], [-54.040536006794994, 68.80200028367389]]}, "properties": {"source": "93174", "target": "76469"}}, {"type": "Feature", "geometry": {"type": "LineString", "coordinates": [[-54.03463665362672, 68.80244810686702], [-54.03187345341745, 68.80409715862112]]}, "properties": {"source": "93174", "target": "76475"}}, {"type": "Feature", "geometry": {"type": "LineString", "coordinates": [[-54.03463665362672, 68.80244810686702], [-54.03973119317021, 68.80013499675198]]}, "properties": {"source": "93174", "target": "1032415"}}, {"type": "Feature", "geometry": {"type": "LineString", "coordinates": [[-54.03463665362672, 68.80244810686702], [-54.044028881194066, 68.80395890822189]]}, "properties": {"source": "93174", "target": "977158"}}, {"type": "Feature", "geometry": {"type": "LineString", "coordinates": [[-54.028561236218394, 68.80188878783818], [-54.04464091730213, 68.80637851390722]]}, "properties": {"source": "64185", "target": "3108381"}}, {"type": "Feature", "geometry": {"type": "LineString", "coordinates": [[-54.028561236218394, 68.80188878783818], [-54.04040028525233, 68.80376329890672]]}, "properties": {"source": "64185", "target": "5060857"}}, {"type": "Feature", "geometry": {"type": "LineString", "coordinates": [[-54.038746256836006, 68.80589709284473], [-54.025425989542754, 68.80215949171057]]}, "properties": {"source": "857980", "target": "6235839"}}, {"type": "Feature", "geometry": {"type": "LineString", "coordinates": [[-54.038746256836006, 68.80589709284473], [-54.03544349402493, 68.80014910487253]]}, "properties": {"source": "857980", "target": "76467"}}, {"type": "Feature", "geometry": {"type": "LineString", "coordinates": [[-54.038746256836006, 68.80589709284473], [-54.039482830845145, 68.80004242570803]]}, "properties": {"source": "857980", "target": "76473"}}, {"type": "Feature", "geometry": {"type": "LineString", "coordinates": [[-54.038746256836006, 68.80589709284473], [-54.03353644529753, 68.80301509673433]]}, "properties": {"source": "857980", "target": "76471"}}, {"type": "Feature", "geometry": {"type": "LineString", "coordinates": [[-54.038746256836006, 68.80589709284473], [-54.03332976657289, 68.80371930263391]]}, "properties": {"source": "857980", "target": "76472"}}, {"type": "Feature", "geometry": {"type": "LineString", "coordinates": [[-54.038746256836006, 68.80589709284473], [-54.03463665362672, 68.80244810686702]]}, "properties": {"source": "857980", "target": "93174"}}, {"type": "Feature", "geometry": {"type": "LineString", "coordinates": [[-54.038746256836006, 68.80589709284473], [-54.028561236218394, 68.80188878783818]]}, "properties": {"source": "857980", "target": "64185"}}, {"type": "Feature", "geometry": {"type": "LineString", "coordinates": [[-54.038746256836006, 68.80589709284473], [-54.040536006794994, 68.80200028367389]]}, "properties": {"source": "857980", "target": "76469"}}, {"type": "Feature", "geometry": {"type": "LineString", "coordinates": [[-54.038746256836006, 68.80589709284473], [-54.04021884932732, 68.80539756944972]]}, "properties": {"source": "857980", "target": "76474"}}, {"type": "Feature", "geometry": {"type": "LineString", "coordinates": [[-54.038746256836006, 68.80589709284473], [-54.03187345341745, 68.80409715862112]]}, "properties": {"source": "857980", "target": "76475"}}, {"type": "Feature", "geometry": {"type": "LineString", "coordinates": [[-54.038746256836006, 68.80589709284473], [-54.03057306367242, 68.80359869645645]]}, "properties": {"source": "857980", "target": "722304"}}, {"type": "Feature", "geometry": {"type": "LineString", "coordinates": [[-54.038746256836006, 68.80589709284473], [-54.03123533361797, 68.80365728410541]]}, "properties": {"source": "857980", "target": "722293"}}, {"type": "Feature", "geometry": {"type": "LineString", "coordinates": [[-54.038746256836006, 68.80589709284473], [-54.0417003983176, 68.80381928996451]]}, "properties": {"source": "857980", "target": "792630"}}, {"type": "Feature", "geometry": {"type": "LineString", "coordinates": [[-54.038746256836006, 68.80589709284473], [-54.033788576029195, 68.8044667932138]]}, "properties": {"source": "857980", "target": "1183594"}}, {"type": "Feature", "geometry": {"type": "LineString", "coordinates": [[-54.038746256836006, 68.80589709284473], [-54.044028881194066, 68.80395890822189]]}, "properties": {"source": "857980", "target": "977158"}}, {"type": "Feature", "geometry": {"type": "LineString", "coordinates": [[-54.038746256836006, 68.80589709284473], [-54.03410849177891, 68.80205384011416]]}, "properties": {"source": "857980", "target": "933790"}}, {"type": "Feature", "geometry": {"type": "LineString", "coordinates": [[-54.03657964768799, 68.80164221125915], [-54.04255295081738, 68.8033094343453]]}, "properties": {"source": "339148", "target": "4727151"}}, {"type": "Feature", "geometry": {"type": "LineString", "coordinates": [[-54.03657964768799, 68.80164221125915], [-54.045716886836615, 68.80216494054073]]}, "properties": {"source": "339148", "target": "5936464"}}, {"type": "Feature", "geometry": {"type": "LineString", "coordinates": [[-54.03657964768799, 68.80164221125915], [-54.03949089784494, 68.80103111720345]]}, "properties": {"source": "339148", "target": "6383603"}}, {"type": "Feature", "geometry": {"type": "LineString", "coordinates": [[-54.03657964768799, 68.80164221125915], [-54.03321466976878, 68.79991822266442]]}, "properties": {"source": "339148", "target": "5396177"}}, {"type": "Feature", "geometry": {"type": "LineString", "coordinates": [[-54.03657964768799, 68.80164221125915], [-54.026167302967906, 68.80302242191325]]}, "properties": {"source": "339148", "target": "295598"}}, {"type": "Feature", "geometry": {"type": "LineString", "coordinates": [[-54.03657964768799, 68.80164221125915], [-54.04427617976249, 68.8011286915555]]}, "properties": {"source": "339148", "target": "5269066"}}, {"type": "Feature", "geometry": {"type": "LineString", "coordinates": [[-54.025739455221085, 68.80403713902007], [-54.04464091730213, 68.80637851390722]]}, "properties": {"source": "25361227", "target": "3108381"}}, {"type": "Feature", "geometry": {"type": "LineString", "coordinates": [[-54.025739455221085, 68.80403713902007], [-54.042374199732876, 68.80339440226481]]}, "properties": {"source": "25361227", "target": "26005812"}}, {"type": "Feature", "geometry": {"type": "LineString", "coordinates": [[-54.025739455221085, 68.80403713902007], [-54.04526089883751, 68.80609757479178]]}, "properties": {"source": "25361227", "target": "26378913"}}, {"type": "Feature", "geometry": {"type": "LineString", "coordinates": [[-54.025739455221085, 68.80403713902007], [-54.03325715679617, 68.80471312410711]]}, "properties": {"source": "25361227", "target": "23093519"}}, {"type": "Feature", "geometry": {"type": "LineString", "coordinates": [[-54.025739455221085, 68.80403713902007], [-54.032857086086935, 68.80534885798124]]}, "properties": {"source": "25361227", "target": "29507955"}}, {"type": "Feature", "geometry": {"type": "LineString", "coordinates": [[-54.025739455221085, 68.80403713902007], [-54.034686829965054, 68.80248641922668]]}, "properties": {"source": "25361227", "target": "25254476"}}, {"type": "Feature", "geometry": {"type": "LineString", "coordinates": [[-54.025739455221085, 68.80403713902007], [-54.025329109048656, 68.80306671172693]]}, "properties": {"source": "25361227", "target": "24986803"}}, {"type": "Feature", "geometry": {"type": "LineString", "coordinates": [[-54.025739455221085, 68.80403713902007], [-54.02773938184026, 68.79994427206111]]}, "properties": {"source": "25361227", "target": "23274644"}}, {"type": "Feature", "geometry": {"type": "LineString", "coordinates": [[-54.03657964768799, 68.80164221125915], [-54.028403010215214, 68.80243096125957]]}, "properties": {"source": "339148", "target": "25784618"}}, {"type": "Feature", "geometry": {"type": "LineString", "coordinates": [[-54.025739455221085, 68.80403713902007], [-54.039895952573914, 68.80624620047527]]}, "properties": {"source": "25361227", "target": "23453130"}}, {"type": "Feature", "geometry": {"type": "LineString", "coordinates": [[-54.025739455221085, 68.80403713902007], [-54.034657561111246, 68.80569903773812]]}, "properties": {"source": "25361227", "target": "24897241"}}, {"type": "Feature", "geometry": {"type": "LineString", "coordinates": [[-54.02773938184026, 68.79994427206111], [-54.03325715679617, 68.80471312410711]]}, "properties": {"source": "23274644", "target": "23093519"}}, {"type": "Feature", "geometry": {"type": "LineString", "coordinates": [[-54.02773938184026, 68.79994427206111], [-54.034686829965054, 68.80248641922668]]}, "properties": {"source": "23274644", "target": "25254476"}}, {"type": "Feature", "geometry": {"type": "LineString", "coordinates": [[-54.02773938184026, 68.79994427206111], [-54.025329109048656, 68.80306671172693]]}, "properties": {"source": "23274644", "target": "24986803"}}, {"type": "Feature", "geometry": {"type": "LineString", "coordinates": [[-54.02773938184026, 68.79994427206111], [-54.03757501407638, 68.80529484566424]]}, "properties": {"source": "23274644", "target": "1855376"}}, {"type": "Feature", "geometry": {"type": "LineString", "coordinates": [[-54.02773938184026, 68.79994427206111], [-54.03609544916057, 68.80617656608209]]}, "properties": {"source": "23274644", "target": "25363115"}}, {"type": "Feature", "geometry": {"type": "LineString", "coordinates": [[-54.02773938184026, 68.79994427206111], [-54.03721297259453, 68.80184485113264]]}, "properties": {"source": "23274644", "target": "20565918"}}, {"type": "Feature", "geometry": {"type": "LineString", "coordinates": [[-54.02773938184026, 68.79994427206111], [-54.0265317071499, 68.80200129880316]]}, "properties": {"source": "23274644", "target": "22570801"}}, {"type": "Feature", "geometry": {"type": "LineString", "coordinates": [[-54.02773938184026, 68.79994427206111], [-54.034657561111246, 68.80569903773812]]}, "properties": {"source": "23274644", "target": "24897241"}}, {"type": "Feature", "geometry": {"type": "LineString", "coordinates": [[-54.04255295081738, 68.8033094343453], [-54.04464091730213, 68.80637851390722]]}, "properties": {"source": "4727151", "target": "3108381"}}, {"type": "Feature", "geometry": {"type": "LineString", "coordinates": [[-54.04255295081738, 68.8033094343453], [-54.032857086086935, 68.80534885798124]]}, "properties": {"source": "4727151", "target": "29507955"}}, {"type": "Feature", "geometry": {"type": "LineString", "coordinates": [[-54.04255295081738, 68.8033094343453], [-54.045716886836615, 68.80216494054073]]}, "properties": {"source": "4727151", "target": "5936464"}}, {"type": "Feature", "geometry": {"type": "LineString", "coordinates": [[-54.04255295081738, 68.8033094343453], [-54.03949089784494, 68.80103111720345]]}, "properties": {"source": "4727151", "target": "6383603"}}, {"type": "Feature", "geometry": {"type": "LineString", "coordinates": [[-54.04255295081738, 68.8033094343453], [-54.03321466976878, 68.79991822266442]]}, "properties": {"source": "4727151", "target": "5396177"}}, {"type": "Feature", "geometry": {"type": "LineString", "coordinates": [[-54.04255295081738, 68.8033094343453], [-54.026167302967906, 68.80302242191325]]}, "properties": {"source": "4727151", "target": "295598"}}, {"type": "Feature", "geometry": {"type": "LineString", "coordinates": [[-54.02773938184026, 68.79994427206111], [-54.028403010215214, 68.80243096125957]]}, "properties": {"source": "23274644", "target": "25784618"}}]}