{"type": "FeatureCollection", "features": [{"type": "Feature", "geometry": {"type": "LineString", "coordinates": [[163.12847821955893, 69.03894121908414], [163.12230849721652, 69.03958079578354]]}, "properties": {"source": "1183143", "target": "16006529"}}, {"type": "Feature", "geometry": {"type": "LineString", "coordinates": [[163.12847821955893, 69.03894121908414], [163.12841109611827, 69.04043348441002]]}, "properties": {"source": "1183143", "target": "17733600"}}, {"type": "Feature", "geometry": {"type": "LineString", "coordinates": [[163.12847821955893, 69.03894121908414], [163.1230605235624, 69.04057024880737]]}, "properties": {"source": "1183143", "target": "15835437"}}, {"type": "Feature", "geometry": {"type": "LineString", "coordinates": [[163.12847821955893, 69.03894121908414], [163.12376830781864, 69.04046971165593]]}, "properties": {"source": "1183143", "target": "18250844"}}, {"type": "Feature", "geometry": {"type": "LineString", "coordinates": [[163.12847821955893, 69.03894121908414], [163.12475081177882, 69.03988478587002]]}, "properties": {"source": "1183143", "target": "18693225"}}, {"type": "Feature", "geometry": {"type": "LineString", "coordinates": [[163.12847821955893, 69.03894121908414], [163.12887673035073, 69.04168562811347]]}, "properties": {"source": "1183143", "target": "24200612"}}, {"type": "Feature", "geometry": {"type": "LineString", "coordinates": [[163.13397821242148, 69.03721344627536], [163.12704633608678, 69.03858819023381]]}, "properties": {"source": "1291810", "target": "17826743"}}, {"type": "Feature", "geometry": {"type": "LineString", "coordinates": [[163.13397821242148, 69.03721344627536], [163.1312177642169, 69.03873323025778]]}, "properties": {"source": "1291810", "target": "17266130"}}, {"type": "Feature", "geometry": {"type": "LineString", "coordinates": [[163.13397821242148, 69.03721344627536], [163.12230849721652, 69.03958079578354]]}, "properties": {"source": "1291810", "target": "16006529"}}, {"type": "Feature", "geometry": {"type": "LineString", "coordinates": [[163.13397821242148, 69.03721344627536], [163.12841109611827, 69.04043348441002]]}, "properties": {"source": "1291810", "target": "17733600"}}, {"type": "Feature", "geometry": {"type": "LineString", "coordinates": [[163.13397821242148, 69.03721344627536], [163.1230605235624, 69.04057024880737]]}, "properties": {"source": "1291810", "target": "15835437"}}, {"type": "Feature", "geometry": {"type": "LineString", "coordinates": [[163.13397821242148, 69.03721344627536], [163.12376830781864, 69.04046971165593]]}, "properties": {"source": "1291810", "target": "18250844"}}, {"type": "Feature", "geometry": {"type": "LineString", "coordinates": [[163.13397821242148, 69.03721344627536], [163.12475081177882, 69.03988478587002]]}, "properties": {"source": "1291810", "target": "18693225"}}, {"type": "Feature", "geometry": {"type": "LineString", "coordinates": [[163.13397821242148, 69.03721344627536], [163.12887673035073, 69.04168562811347]]}, "properties": {"source": "1291810", "target": "24200612"}}, {"type": "Feature", "geometry": {"type": "LineString", "coordinates": [[163.1313853513479, 69.03898846295624], [163.12704633608678, 69.03858819023381]]}, "properties": {"source": "1216579", "target": "17826743"}}, {"type": "Feature", "geometry": {"type": "LineString", "coordinates": [[163.1313853513479, 69.03898846295624], [163.1312177642169, 69.03873323025778]]}, "properties": {"source": "1216579", "target": "17266130"}}, {"type": "Feature", "geometry": {"type": "LineString", "coordinates": [[163.1313853513479, 69.03898846295624], [163.12230849721652, 69.03958079578354]]}, "properties": {"source": "1216579", "target": "16006529"}}, {"type": "Feature", "geometry": {"type": "LineString", "coordinates": [[163.1313853513479, 69.03898846295624], [163.12841109611827, 69.04043348441002]]}, "properties": {"source": "1216579", "target": "17733600"}}, {"type": "Feature", "geometry": {"type": "LineString", "coordinates": [[163.1313853513479, 69.03898846295624], [163.1230605235624, 69.04057024880737]]}, "properties": {"source": "1216579", "target": "15835437"}}, {"type": "Feature", "geometry": {"type": "LineString", "coordinates": [[163.1313853513479, 69.03898846295624], [163.12376830781864, 69.04046971165593]]}, "properties": {"source": "1216579", "target": "18250844"}}, {"type": "Feature", "geometry": {"type": "LineString", "coordinates": [[163.1313853513479, 69.03898846295624], [163.12887673035073, 69.04168562811347]]}, "properties": {"source": "1216579", "target": "24200612"}}, {"type": "Feature", "geometry": {"type": "LineString", "coordinates": [[163.1216647393681, 69.04018015573882], [163.1230605235624, 69.04057024880737]]}, "properties": {"source": "10774224", "target": "15835437"}}, {"type": "Feature", "geometry": {"type": "LineString", "coordinates": [[163.1216647393681, 69.04018015573882], [163.12376830781864, 69.04046971165593]]}, "properties": {"source": "10774224", "target": "18250844"}}, {"type": "Feature", "geometry": {"type": "LineString", "coordinates": [[163.12472765583675, 69.04149029727688], [163.1230605235624, 69.04057024880737]]}, "properties": {"source": "1555332", "target": "15835437"}}, {"type": "Feature", "geometry": {"type": "LineString", "coordinates": [[163.12354602434226, 69.03986976860037], [163.1256112817863, 69.03826721533363]]}, "properties": {"source": "1720749", "target": "994609"}}, {"type": "Feature", "geometry": {"type": "LineString", "coordinates": [[163.12354602434226, 69.03986976860037], [163.12280311908552, 69.03977610270638]]}, "properties": {"source": "1720749", "target": "24641971"}}, {"type": "Feature", "geometry": {"type": "LineString", "coordinates": [[163.12354602434226, 69.03986976860037], [163.13267573102434, 69.03744958451111]]}, "properties": {"source": "1720749", "target": "2141654"}}, {"type": "Feature", "geometry": {"type": "LineString", "coordinates": [[163.12354602434226, 69.03986976860037], [163.12692446570628, 69.03784910879992]]}, "properties": {"source": "1720749", "target": "1572240"}}, {"type": "Feature", "geometry": {"type": "LineString", "coordinates": [[163.12830169453485, 69.04099900911666], [163.12280311908552, 69.03977610270638]]}, "properties": {"source": "7723308", "target": "24641971"}}, {"type": "Feature", "geometry": {"type": "LineString", "coordinates": [[163.12830169453485, 69.04099900911666], [163.13267573102434, 69.03744958451111]]}, "properties": {"source": "7723308", "target": "2141654"}}, {"type": "Feature", "geometry": {"type": "LineString", "coordinates": [[163.12830169453485, 69.04099900911666], [163.12190040223192, 69.03825844464544]]}, "properties": {"source": "7723308", "target": "1367403"}}, {"type": "Feature", "geometry": {"type": "LineString", "coordinates": [[163.12830169453485, 69.04099900911666], [163.12388274350315, 69.03969854430926]]}, "properties": {"source": "7723308", "target": "12169412"}}, {"type": "Feature", "geometry": {"type": "LineString", "coordinates": [[163.12472491295063, 69.04134533765054], [163.12376830781864, 69.04046971165593]]}, "properties": {"source": "174949", "target": "18250844"}}, {"type": "Feature", "geometry": {"type": "LineString", "coordinates": [[163.12472491295063, 69.04134533765054], [163.1352513884762, 69.03738232214425]]}, "properties": {"source": "174949", "target": "1690826"}}, {"type": "Feature", "geometry": {"type": "LineString", "coordinates": [[163.12472491295063, 69.04134533765054], [163.12818776761623, 69.03837138637999]]}, "properties": {"source": "174949", "target": "1433276"}}, {"type": "Feature", "geometry": {"type": "LineString", "coordinates": [[163.12472491295063, 69.04134533765054], [163.13290420673604, 69.03964096117036]]}, "properties": {"source": "174949", "target": "1348837"}}, {"type": "Feature", "geometry": {"type": "LineString", "coordinates": [[163.12533872671395, 69.03765349526998], [163.12704633608678, 69.03858819023381]]}, "properties": {"source": "10697657", "target": "17826743"}}, {"type": "Feature", "geometry": {"type": "LineString", "coordinates": [[163.12533872671395, 69.03765349526998], [163.12841109611827, 69.04043348441002]]}, "properties": {"source": "10697657", "target": "17733600"}}, {"type": "Feature", "geometry": {"type": "LineString", "coordinates": [[163.12533872671395, 69.03765349526998], [163.1230605235624, 69.04057024880737]]}, "properties": {"source": "10697657", "target": "15835437"}}, {"type": "Feature", "geometry": {"type": "LineString", "coordinates": [[163.12533872671395, 69.03765349526998], [163.12376830781864, 69.04046971165593]]}, "properties": {"source": "10697657", "target": "18250844"}}, {"type": "Feature", "geometry": {"type": "LineString", "coordinates": [[163.12533872671395, 69.03765349526998], [163.12887673035073, 69.04168562811347]]}, "properties": {"source": "10697657", "target": "24200612"}}, {"type": "Feature", "geometry": {"type": "LineString", "coordinates": [[163.12833562850938, 69.03900787481857], [163.12704633608678, 69.03858819023381]]}, "properties": {"source": "18299043", "target": "17826743"}}, {"type": "Feature", "geometry": {"type": "LineString", "coordinates": [[163.12833562850938, 69.03900787481857], [163.12376830781864, 69.04046971165593]]}, "properties": {"source": "18299043", "target": "18250844"}}, {"type": "Feature", "geometry": {"type": "LineString", "coordinates": [[163.12833562850938, 69.03900787481857], [163.12887673035073, 69.04168562811347]]}, "properties": {"source": "18299043", "target": "24200612"}}, {"type": "Feature", "geometry": {"type": "LineString", "coordinates": [[163.1352513884762, 69.03738232214425], [163.13290420673604, 69.03964096117036]]}, "properties": {"source": "1690826", "target": "1348837"}}, {"type": "Feature", "geometry": {"type": "LineString", "coordinates": [[163.12818776761623, 69.03837138637999], [163.1230605235624, 69.04057024880737]]}, "properties": {"source": "1433276", "target": "15835437"}}, {"type": "Feature", "geometry": {"type": "LineString", "coordinates": [[163.12818776761623, 69.03837138637999], [163.13290420673604, 69.03964096117036]]}, "properties": {"source": "1433276", "target": "1348837"}}, {"type": "Feature", "geometry": {"type": "LineString", "coordinates": [[163.12330047116336, 69.04005196233811], [163.12830169453485, 69.04099900911666]]}, "properties": {"source": "2773044", "target": "7723308"}}, {"type": "Feature", "geometry": {"type": "LineString", "coordinates": [[163.12830169453485, 69.04099900911666], [163.12692446570628, 69.03784910879992]]}, "properties": {"source": "7723308", "target": "1572240"}}, {"type": "Feature", "geometry": {"type": "LineString", "coordinates": [[163.12830169453485, 69.04099900911666], [163.13307427853414, 69.03980186052547]]}, "properties": {"source": "7723308", "target": "1389331"}}, {"type": "Feature", "geometry": {"type": "LineString", "coordinates": [[163.12830169453485, 69.04099900911666], [163.1261324526751, 69.04073008282091]]}, "properties": {"source": "7723308", "target": "6993168"}}, {"type": "Feature", "geometry": {"type": "LineString", "coordinates": [[163.12830169453485, 69.04099900911666], [163.12702297258778, 69.04082384343982]]}, "properties": {"source": "7723308", "target": "840587"}}, {"type": "Feature", "geometry": {"type": "LineString", "coordinates": [[163.1256112817863, 69.03826721533363], [163.12280311908552, 69.03977610270638]]}, "properties": {"source": "994609", "target": "24641971"}}, {"type": "Feature", "geometry": {"type": "LineString", "coordinates": [[163.1256112817863, 69.03826721533363], [163.13267573102434, 69.03744958451111]]}, "properties": {"source": "994609", "target": "2141654"}}, {"type": "Feature", "geometry": {"type": "LineString", "coordinates": [[163.1256112817863, 69.03826721533363], [163.12692446570628, 69.03784910879992]]}, "properties": {"source": "994609", "target": "1572240"}}, {"type": "Feature", "geometry": {"type": "LineString", "coordinates": [[163.1256112817863, 69.03826721533363], [163.1261324526751, 69.04073008282091]]}, "properties": {"source": "994609", "target": "6993168"}}, {"type": "Feature", "geometry": {"type": "LineString", "coordinates": [[163.1256112817863, 69.03826721533363], [163.12702297258778, 69.04082384343982]]}, "properties": {"source": "994609", "target": "840587"}}, {"type": "Feature", "geometry": {"type": "LineString", "coordinates": [[163.12280311908552, 69.03977610270638], [163.13267573102434, 69.03744958451111]]}, "properties": {"source": "24641971", "target": "2141654"}}, {"type": "Feature", "geometry": {"type": "LineString", "coordinates": [[163.12280311908552, 69.03977610270638], [163.12692446570628, 69.03784910879992]]}, "properties": {"source": "24641971", "target": "1572240"}}, {"type": "Feature", "geometry": {"type": "LineString", "coordinates": [[163.12830169453485, 69.04099900911666], [163.12354602434226, 69.03986976860037]]}, "properties": {"source": "7723308", "target": "1720749"}}, {"type": "Feature", "geometry": {"type": "LineString", "coordinates": [[163.13267573102434, 69.03744958451111], [163.12692446570628, 69.03784910879992]]}, "properties": {"source": "2141654", "target": "1572240"}}, {"type": "Feature", "geometry": {"type": "LineString", "coordinates": [[163.12787111937666, 69.0392674596834], [163.12830169453485, 69.04099900911666]]}, "properties": {"source": "23666274", "target": "7723308"}}, {"type": "Feature", "geometry": {"type": "LineString", "coordinates": [[163.12787111937666, 69.0392674596834], [163.1256112817863, 69.03826721533363]]}, "properties": {"source": "23666274", "target": "994609"}}, {"type": "Feature", "geometry": {"type": "LineString", "coordinates": [[163.12787111937666, 69.0392674596834], [163.12280311908552, 69.03977610270638]]}, "properties": {"source": "23666274", "target": "24641971"}}, {"type": "Feature", "geometry": {"type": "LineString", "coordinates": [[163.12787111937666, 69.0392674596834], [163.13267573102434, 69.03744958451111]]}, "properties": {"source": "23666274", "target": "2141654"}}, {"type": "Feature", "geometry": {"type": "LineString", "coordinates": [[163.12787111937666, 69.0392674596834], [163.12190040223192, 69.03825844464544]]}, "properties": {"source": "23666274", "target": "1367403"}}, {"type": "Feature", "geometry": {"type": "LineString", "coordinates": [[163.12787111937666, 69.0392674596834], [163.12388274350315, 69.03969854430926]]}, "properties": {"source": "23666274", "target": "12169412"}}, {"type": "Feature", "geometry": {"type": "LineString", "coordinates": [[163.12787111937666, 69.0392674596834], [163.12692446570628, 69.03784910879992]]}, "properties": {"source": "23666274", "target": "1572240"}}, {"type": "Feature", "geometry": {"type": "LineString", "coordinates": [[163.12787111937666, 69.0392674596834], [163.1261324526751, 69.04073008282091]]}, "properties": {"source": "23666274", "target": "6993168"}}, {"type": "Feature", "geometry": {"type": "LineString", "coordinates": [[163.12787111937666, 69.0392674596834], [163.12702297258778, 69.04082384343982]]}, "properties": {"source": "23666274", "target": "840587"}}, {"type": "Feature", "geometry": {"type": "LineString", "coordinates": [[163.12945478525586, 69.04103698389451], [163.12704633608678, 69.03858819023381]]}, "properties": {"source": "20371515", "target": "17826743"}}, {"type": "Feature", "geometry": {"type": "LineString", "coordinates": [[163.12945478525586, 69.04103698389451], [163.12376830781864, 69.04046971165593]]}, "properties": {"source": "20371515", "target": "18250844"}}, {"type": "Feature", "geometry": {"type": "LineString", "coordinates": [[163.12280311908552, 69.03977610270638], [163.1261324526751, 69.04073008282091]]}, "properties": {"source": "24641971", "target": "6993168"}}, {"type": "Feature", "geometry": {"type": "LineString", "coordinates": [[163.12280311908552, 69.03977610270638], [163.12702297258778, 69.04082384343982]]}, "properties": {"source": "24641971", "target": "840587"}}, {"type": "Feature", "geometry": {"type": "LineString", "coordinates": [[163.12881151667176, 69.037950519851], [163.12704633608678, 69.03858819023381]]}, "properties": {"source": "174953", "target": "17826743"}}, {"type": "Feature", "geometry": {"type": "LineString", "coordinates": [[163.12881151667176, 69.037950519851], [163.12230849721652, 69.03958079578354]]}, "properties": {"source": "174953", "target": "16006529"}}, {"type": "Feature", "geometry": {"type": "LineString", "coordinates": [[163.12660929401756, 69.04020334139227], [163.13454674479914, 69.0398458442265]]}, "properties": {"source": "18170105", "target": "36157818"}}, {"type": "Feature", "geometry": {"type": "LineString", "coordinates": [[163.12660929401756, 69.04020334139227], [163.1269937799446, 69.04169919332259]]}, "properties": {"source": "18170105", "target": "18468870"}}, {"type": "Feature", "geometry": {"type": "LineString", "coordinates": [[163.12660929401756, 69.04020334139227], [163.130249277598, 69.03841104019014]]}, "properties": {"source": "18170105", "target": "25364660"}}, {"type": "Feature", "geometry": {"type": "LineString", "coordinates": [[163.12660929401756, 69.04020334139227], [163.13158749518794, 69.0400853440035]]}, "properties": {"source": "18170105", "target": "18170132"}}, {"type": "Feature", "geometry": {"type": "LineString", "coordinates": [[163.12660929401756, 69.04020334139227], [163.1280104942415, 69.03990165980662]]}, "properties": {"source": "18170105", "target": "18170121"}}, {"type": "Feature", "geometry": {"type": "LineString", "coordinates": [[163.12784867085662, 69.04021096536107], [163.12704633608678, 69.03858819023381]]}, "properties": {"source": "1173009", "target": "17826743"}}, {"type": "Feature", "geometry": {"type": "LineString", "coordinates": [[163.12784867085662, 69.04021096536107], [163.12230849721652, 69.03958079578354]]}, "properties": {"source": "1173009", "target": "16006529"}}, {"type": "Feature", "geometry": {"type": "LineString", "coordinates": [[163.12784867085662, 69.04021096536107], [163.1230605235624, 69.04057024880737]]}, "properties": {"source": "1173009", "target": "15835437"}}, {"type": "Feature", "geometry": {"type": "LineString", "coordinates": [[163.12784867085662, 69.04021096536107], [163.12887673035073, 69.04168562811347]]}, "properties": {"source": "1173009", "target": "24200612"}}, {"type": "Feature", "geometry": {"type": "LineString", "coordinates": [[163.12784867085662, 69.04021096536107], [163.134766422712, 69.03924027854018]]}, "properties": {"source": "1173009", "target": "1254569"}}, {"type": "Feature", "geometry": {"type": "LineString", "coordinates": [[163.125330509543, 69.03824640966204], [163.12376830781864, 69.04046971165593]]}, "properties": {"source": "163791", "target": "18250844"}}, {"type": "Feature", "geometry": {"type": "LineString", "coordinates": [[163.125330509543, 69.03824640966204], [163.13290420673604, 69.03964096117036]]}, "properties": {"source": "163791", "target": "1348837"}}, {"type": "Feature", "geometry": {"type": "LineString", "coordinates": [[163.12945478525586, 69.04103698389451], [163.13040682659317, 69.03748883363622]]}, "properties": {"source": "20371515", "target": "1883267"}}, {"type": "Feature", "geometry": {"type": "LineString", "coordinates": [[163.12945478525586, 69.04103698389451], [163.1281609036277, 69.03908837887306]]}, "properties": {"source": "20371515", "target": "1901005"}}, {"type": "Feature", "geometry": {"type": "LineString", "coordinates": [[163.12945478525586, 69.04103698389451], [163.13225861750738, 69.0417226909482]]}, "properties": {"source": "20371515", "target": "2108565"}}, {"type": "Feature", "geometry": {"type": "LineString", "coordinates": [[163.12945478525586, 69.04103698389451], [163.13038684367405, 69.03893087133395]]}, "properties": {"source": "20371515", "target": "18876889"}}, {"type": "Feature", "geometry": {"type": "LineString", "coordinates": [[163.12881151667176, 69.037950519851], [163.12841109611827, 69.04043348441002]]}, "properties": {"source": "174953", "target": "17733600"}}, {"type": "Feature", "geometry": {"type": "LineString", "coordinates": [[163.12881151667176, 69.037950519851], [163.1230605235624, 69.04057024880737]]}, "properties": {"source": "174953", "target": "15835437"}}, {"type": "Feature", "geometry": {"type": "LineString", "coordinates": [[163.12881151667176, 69.037950519851], [163.12376830781864, 69.04046971165593]]}, "properties": {"source": "174953", "target": "18250844"}}, {"type": "Feature", "geometry": {"type": "LineString", "coordinates": [[163.12881151667176, 69.037950519851], [163.12480510173054, 69.0390721521106]]}, "properties": {"source": "174953", "target": "17789059"}}, {"type": "Feature", "geometry": {"type": "LineString", "coordinates": [[163.12881151667176, 69.037950519851], [163.1352513884762, 69.03738232214425]]}, "properties": {"source": "174953", "target": "1690826"}}, {"type": "Feature", "geometry": {"type": "LineString", "coordinates": [[163.13038684367405, 69.03893087133395], [163.12704633608678, 69.03858819023381]]}, "properties": {"source": "18876889", "target": "17826743"}}, {"type": "Feature", "geometry": {"type": "LineString", "coordinates": [[163.13038684367405, 69.03893087133395], [163.12376830781864, 69.04046971165593]]}, "properties": {"source": "18876889", "target": "18250844"}}, {"type": "Feature", "geometry": {"type": "LineString", "coordinates": [[163.13038684367405, 69.03893087133395], [163.12887673035073, 69.04168562811347]]}, "properties": {"source": "18876889", "target": "24200612"}}, {"type": "Feature", "geometry": {"type": "LineString", "coordinates": [[163.13038684367405, 69.03893087133395], [163.13040682659317, 69.03748883363622]]}, "properties": {"source": "18876889", "target": "1883267"}}, {"type": "Feature", "geometry": {"type": "LineString", "coordinates": [[163.13038684367405, 69.03893087133395], [163.13225861750738, 69.0417226909482]]}, "properties": {"source": "18876889", "target": "2108565"}}, {"type": "Feature", "geometry": {"type": "LineString", "coordinates": [[163.13038684367405, 69.03893087133395], [163.13423619096352, 69.03797664116055]]}, "properties": {"source": "18876889", "target": "1932023"}}, {"type": "Feature", "geometry": {"type": "LineString", "coordinates": [[163.12604197746907, 69.03752184533522], [163.12533872671395, 69.03765349526998]]}, "properties": {"source": "10399559", "target": "10697657"}}, {"type": "Feature", "geometry": {"type": "LineString", "coordinates": [[163.12472491295063, 69.04134533765054], [163.12704633608678, 69.03858819023381]]}, "properties": {"source": "174949", "target": "17826743"}}, {"type": "Feature", "geometry": {"type": "LineString", "coordinates": [[163.12472491295063, 69.04134533765054], [163.12841109611827, 69.04043348441002]]}, "properties": {"source": "174949", "target": "17733600"}}, {"type": "Feature", "geometry": {"type": "LineString", "coordinates": [[163.12472491295063, 69.04134533765054], [163.1230605235624, 69.04057024880737]]}, "properties": {"source": "174949", "target": "15835437"}}, {"type": "Feature", "geometry": {"type": "LineString", "coordinates": [[163.12881151667176, 69.037950519851], [163.13038684367405, 69.03893087133395]]}, "properties": {"source": "174953", "target": "18876889"}}, {"type": "Feature", "geometry": {"type": "LineString", "coordinates": [[163.12945478525586, 69.04103698389451], [163.13423619096352, 69.03797664116055]]}, "properties": {"source": "20371515", "target": "1932023"}}, {"type": "Feature", "geometry": {"type": "LineString", "coordinates": [[163.12494302406867, 69.04089777830595], [163.12704633608678, 69.03858819023381]]}, "properties": {"source": "176953", "target": "17826743"}}, {"type": "Feature", "geometry": {"type": "LineString", "coordinates": [[163.12494302406867, 69.04089777830595], [163.12230849721652, 69.03958079578354]]}, "properties": {"source": "176953", "target": "16006529"}}, {"type": "Feature", "geometry": {"type": "LineString", "coordinates": [[163.12494302406867, 69.04089777830595], [163.12841109611827, 69.04043348441002]]}, "properties": {"source": "176953", "target": "17733600"}}, {"type": "Feature", "geometry": {"type": "LineString", "coordinates": [[163.12494302406867, 69.04089777830595], [163.1230605235624, 69.04057024880737]]}, "properties": {"source": "176953", "target": "15835437"}}, {"type": "Feature", "geometry": {"type": "LineString", "coordinates": [[163.12494302406867, 69.04089777830595], [163.12376830781864, 69.04046971165593]]}, "properties": {"source": "176953", "target": "18250844"}}, {"type": "Feature", "geometry": {"type": "LineString", "coordinates": [[163.12494302406867, 69.04089777830595], [163.12480510173054, 69.0390721521106]]}, "properties": {"source": "176953", "target": "17789059"}}, {"type": "Feature", "geometry": {"type": "LineString", "coordinates": [[163.12494302406867, 69.04089777830595], [163.13132186421996, 69.04153030771639]]}, "properties": {"source": "176953", "target": "18053587"}}, {"type": "Feature", "geometry": {"type": "LineString", "coordinates": [[163.12494302406867, 69.04089777830595], [163.12945478525586, 69.04103698389451]]}, "properties": {"source": "176953", "target": "20371515"}}, {"type": "Feature", "geometry": {"type": "LineString", "coordinates": [[163.12494302406867, 69.04089777830595], [163.1352513884762, 69.03738232214425]]}, "properties": {"source": "176953", "target": "1690826"}}, {"type": "Feature", "geometry": {"type": "LineString", "coordinates": [[163.12494302406867, 69.04089777830595], [163.12818776761623, 69.03837138637999]]}, "properties": {"source": "176953", "target": "1433276"}}, {"type": "Feature", "geometry": {"type": "LineString", "coordinates": [[163.12480510173054, 69.0390721521106], [163.12472765583675, 69.04149029727688]]}, "properties": {"source": "17789059", "target": "1555332"}}, {"type": "Feature", "geometry": {"type": "LineString", "coordinates": [[163.13132186421996, 69.04153030771639], [163.12704633608678, 69.03858819023381]]}, "properties": {"source": "18053587", "target": "17826743"}}, {"type": "Feature", "geometry": {"type": "LineString", "coordinates": [[163.13132186421996, 69.04153030771639], [163.12230849721652, 69.03958079578354]]}, "properties": {"source": "18053587", "target": "16006529"}}, {"type": "Feature", "geometry": {"type": "LineString", "coordinates": [[163.13132186421996, 69.04153030771639], [163.12841109611827, 69.04043348441002]]}, "properties": {"source": "18053587", "target": "17733600"}}, {"type": "Feature", "geometry": {"type": "LineString", "coordinates": [[163.12494302406867, 69.04089777830595], [163.13038684367405, 69.03893087133395]]}, "properties": {"source": "176953", "target": "18876889"}}, {"type": "Feature", "geometry": {"type": "LineString", "coordinates": [[163.13387552125573, 69.03743511227131], [163.12230849721652, 69.03958079578354]]}, "properties": {"source": "126191", "target": "16006529"}}, {"type": "Feature", "geometry": {"type": "LineString", "coordinates": [[163.13387552125573, 69.03743511227131], [163.1230605235624, 69.04057024880737]]}, "properties": {"source": "126191", "target": "15835437"}}, {"type": "Feature", "geometry": {"type": "LineString", "coordinates": [[163.13387552125573, 69.03743511227131], [163.12887673035073, 69.04168562811347]]}, "properties": {"source": "126191", "target": "24200612"}}, {"type": "Feature", "geometry": {"type": "LineString", "coordinates": [[163.13454674479914, 69.0398458442265], [163.12841109611827, 69.04043348441002]]}, "properties": {"source": "36157818", "target": "17733600"}}, {"type": "Feature", "geometry": {"type": "LineString", "coordinates": [[163.13454674479914, 69.0398458442265], [163.1269937799446, 69.04169919332259]]}, "properties": {"source": "36157818", "target": "18468870"}}, {"type": "Feature", "geometry": {"type": "LineString", "coordinates": [[163.1269937799446, 69.04169919332259], [163.130249277598, 69.03841104019014]]}, "properties": {"source": "18468870", "target": "25364660"}}, {"type": "Feature", "geometry": {"type": "LineString", "coordinates": [[163.12279112647883, 69.03904406531933], [163.12704633608678, 69.03858819023381]]}, "properties": {"source": "12275643", "target": "17826743"}}, {"type": "Feature", "geometry": {"type": "LineString", "coordinates": [[163.12279112647883, 69.03904406531933], [163.1230605235624, 69.04057024880737]]}, "properties": {"source": "12275643", "target": "15835437"}}, {"type": "Feature", "geometry": {"type": "LineString", "coordinates": [[163.12279112647883, 69.03904406531933], [163.12887673035073, 69.04168562811347]]}, "properties": {"source": "12275643", "target": "24200612"}}, {"type": "Feature", "geometry": {"type": "LineString", "coordinates": [[163.13444319672396, 69.04145444034407], [163.1230605235624, 69.04057024880737]]}, "properties": {"source": "13707570", "target": "15835437"}}, {"type": "Feature", "geometry": {"type": "LineString", "coordinates": [[163.13444319672396, 69.04145444034407], [163.12818776761623, 69.03837138637999]]}, "properties": {"source": "13707570", "target": "1433276"}}, {"type": "Feature", "geometry": {"type": "LineString", "coordinates": [[163.13444319672396, 69.04145444034407], [163.13290420673604, 69.03964096117036]]}, "properties": {"source": "13707570", "target": "1348837"}}, {"type": "Feature", "geometry": {"type": "LineString", "coordinates": [[163.12881151667176, 69.037950519851], [163.12818776761623, 69.03837138637999]]}, "properties": {"source": "174953", "target": "1433276"}}, {"type": "Feature", "geometry": {"type": "LineString", "coordinates": [[163.12881151667176, 69.037950519851], [163.13040682659317, 69.03748883363622]]}, "properties": {"source": "174953", "target": "1883267"}}, {"type": "Feature", "geometry": {"type": "LineString", "coordinates": [[163.12881151667176, 69.037950519851], [163.1281609036277, 69.03908837887306]]}, "properties": {"source": "174953", "target": "1901005"}}, {"type": "Feature", "geometry": {"type": "LineString", "coordinates": [[163.12881151667176, 69.037950519851], [163.12833562850938, 69.03900787481857]]}, "properties": {"source": "174953", "target": "18299043"}}, {"type": "Feature", "geometry": {"type": "LineString", "coordinates": [[163.12337160165907, 69.03894268049251], [163.12704633608678, 69.03858819023381]]}, "properties": {"source": "101600", "target": "17826743"}}, {"type": "Feature", "geometry": {"type": "LineString", "coordinates": [[163.12337160165907, 69.03894268049251], [163.1230605235624, 69.04057024880737]]}, "properties": {"source": "101600", "target": "15835437"}}, {"type": "Feature", "geometry": {"type": "LineString", "coordinates": [[163.12337160165907, 69.03894268049251], [163.12887673035073, 69.04168562811347]]}, "properties": {"source": "101600", "target": "24200612"}}, {"type": "Feature", "geometry": {"type": "LineString", "coordinates": [[163.12543496689148, 69.03899467897145], [163.12230849721652, 69.03958079578354]]}, "properties": {"source": "1348835", "target": "16006529"}}, {"type": "Feature", "geometry": {"type": "LineString", "coordinates": [[163.12543496689148, 69.03899467897145], [163.1230605235624, 69.04057024880737]]}, "properties": {"source": "1348835", "target": "15835437"}}, {"type": "Feature", "geometry": {"type": "LineString", "coordinates": [[163.12543496689148, 69.03899467897145], [163.13290420673604, 69.03964096117036]]}, "properties": {"source": "1348835", "target": "1348837"}}, {"type": "Feature", "geometry": {"type": "LineString", "coordinates": [[163.13190636652098, 69.04119892050471], [163.12190040223192, 69.03825844464544]]}, "properties": {"source": "1709283", "target": "1367403"}}, {"type": "Feature", "geometry": {"type": "LineString", "coordinates": [[163.13190636652098, 69.04119892050471], [163.13224124132023, 69.03718994152209]]}, "properties": {"source": "1709283", "target": "16068993"}}, {"type": "Feature", "geometry": {"type": "LineString", "coordinates": [[163.13158749518794, 69.0400853440035], [163.1280104942415, 69.03990165980662]]}, "properties": {"source": "18170132", "target": "18170121"}}, {"type": "Feature", "geometry": {"type": "LineString", "coordinates": [[163.13059767715674, 69.03802276462184], [163.13454674479914, 69.0398458442265]]}, "properties": {"source": "34040329", "target": "36157818"}}, {"type": "Feature", "geometry": {"type": "LineString", "coordinates": [[163.13059767715674, 69.03802276462184], [163.130249277598, 69.03841104019014]]}, "properties": {"source": "34040329", "target": "25364660"}}, {"type": "Feature", "geometry": {"type": "LineString", "coordinates": [[163.12399177064134, 69.04055519494085], [163.12376830781864, 69.04046971165593]]}, "properties": {"source": "1104328", "target": "18250844"}}, {"type": "Feature", "geometry": {"type": "LineString", "coordinates": [[163.12472765583675, 69.04149029727688], [163.13290420673604, 69.03964096117036]]}, "properties": {"source": "1555332", "target": "1348837"}}, {"type": "Feature", "geometry": {"type": "LineString", "coordinates": [[163.13225861750738, 69.0417226909482], [163.12376830781864, 69.04046971165593]]}, "properties": {"source": "2108565", "target": "18250844"}}, {"type": "Feature", "geometry": {"type": "LineString", "coordinates": [[163.13225861750738, 69.0417226909482], [163.13040682659317, 69.03748883363622]]}, "properties": {"source": "2108565", "target": "1883267"}}, {"type": "Feature", "geometry": {"type": "LineString", "coordinates": [[163.12391608746213, 69.03908317937191], [163.12830169453485, 69.04099900911666]]}, "properties": {"source": "2631502", "target": "7723308"}}, {"type": "Feature", "geometry": {"type": "LineString", "coordinates": [[163.12959907767157, 69.03969211177838], [163.12787111937666, 69.0392674596834]]}, "properties": {"source": "4479015", "target": "23666274"}}, {"type": "Feature", "geometry": {"type": "LineString", "coordinates": [[163.12959907767157, 69.03969211177838], [163.12330047116336, 69.04005196233811]]}, "properties": {"source": "4479015", "target": "2773044"}}, {"type": "Feature", "geometry": {"type": "LineString", "coordinates": [[163.12959907767157, 69.03969211177838], [163.12190040223192, 69.03825844464544]]}, "properties": {"source": "4479015", "target": "1367403"}}, {"type": "Feature", "geometry": {"type": "LineString", "coordinates": [[163.12959907767157, 69.03969211177838], [163.12388274350315, 69.03969854430926]]}, "properties": {"source": "4479015", "target": "12169412"}}, {"type": "Feature", "geometry": {"type": "LineString", "coordinates": [[163.12959907767157, 69.03969211177838], [163.12692446570628, 69.03784910879992]]}, "properties": {"source": "4479015", "target": "1572240"}}, {"type": "Feature", "geometry": {"type": "LineString", "coordinates": [[163.12959907767157, 69.03969211177838], [163.1261324526751, 69.04073008282091]]}, "properties": {"source": "4479015", "target": "6993168"}}, {"type": "Feature", "geometry": {"type": "LineString", "coordinates": [[163.12959907767157, 69.03969211177838], [163.12702297258778, 69.04082384343982]]}, "properties": {"source": "4479015", "target": "840587"}}, {"type": "Feature", "geometry": {"type": "LineString", "coordinates": [[163.1352513884762, 69.03738232214425], [163.12704633608678, 69.03858819023381]]}, "properties": {"source": "1690826", "target": "17826743"}}, {"type": "Feature", "geometry": {"type": "LineString", "coordinates": [[163.1352513884762, 69.03738232214425], [163.12841109611827, 69.04043348441002]]}, "properties": {"source": "1690826", "target": "17733600"}}, {"type": "Feature", "geometry": {"type": "LineString", "coordinates": [[163.1352513884762, 69.03738232214425], [163.1230605235624, 69.04057024880737]]}, "properties": {"source": "1690826", "target": "15835437"}}, {"type": "Feature", "geometry": {"type": "LineString", "coordinates": [[163.1352513884762, 69.03738232214425], [163.12480510173054, 69.0390721521106]]}, "properties": {"source": "1690826", "target": "17789059"}}, {"type": "Feature", "geometry": {"type": "LineString", "coordinates": [[163.1352513884762, 69.03738232214425], [163.12818776761623, 69.03837138637999]]}, "properties": {"source": "1690826", "target": "1433276"}}, {"type": "Feature", "geometry": {"type": "LineString", "coordinates": [[163.12475081177882, 69.03988478587002], [163.12376830781864, 69.04046971165593]]}, "properties": {"source": "18693225", "target": "18250844"}}, {"type": "Feature", "geometry": {"type": "LineString", "coordinates": [[163.12475081177882, 69.03988478587002], [163.12887673035073, 69.04168562811347]]}, "properties": {"source": "18693225", "target": "24200612"}}, {"type": "Feature", "geometry": {"type": "LineString", "coordinates": [[163.12475081177882, 69.03988478587002], [163.12480510173054, 69.0390721521106]]}, "properties": {"source": "18693225", "target": "17789059"}}, {"type": "Feature", "geometry": {"type": "LineString", "coordinates": [[163.12475081177882, 69.03988478587002], [163.13132186421996, 69.04153030771639]]}, "properties": {"source": "18693225", "target": "18053587"}}, {"type": "Feature", "geometry": {"type": "LineString", "coordinates": [[163.12887673035073, 69.04168562811347], [163.13225861750738, 69.0417226909482]]}, "properties": {"source": "24200612", "target": "2108565"}}, {"type": "Feature", "geometry": {"type": "LineString", "coordinates": [[163.12887673035073, 69.04168562811347], [163.134766422712, 69.03924027854018]]}, "properties": {"source": "24200612", "target": "1254569"}}, {"type": "Feature", "geometry": {"type": "LineString", "coordinates": [[163.12480510173054, 69.0390721521106], [163.12704633608678, 69.03858819023381]]}, "properties": {"source": "17789059", "target": "17826743"}}, {"type": "Feature", "geometry": {"type": "LineString", "coordinates": [[163.12480510173054, 69.0390721521106], [163.12841109611827, 69.04043348441002]]}, "properties": {"source": "17789059", "target": "17733600"}}, {"type": "Feature", "geometry": {"type": "LineString", "coordinates": [[163.12480510173054, 69.0390721521106], [163.1230605235624, 69.04057024880737]]}, "properties": {"source": "17789059", "target": "15835437"}}, {"type": "Feature", "geometry": {"type": "LineString", "coordinates": [[163.12480510173054, 69.0390721521106], [163.12376830781864, 69.04046971165593]]}, "properties": {"source": "17789059", "target": "18250844"}}, {"type": "Feature", "geometry": {"type": "LineString", "coordinates": [[163.12480510173054, 69.0390721521106], [163.12945478525586, 69.04103698389451]]}, "properties": {"source": "17789059", "target": "20371515"}}, {"type": "Feature", "geometry": {"type": "LineString", "coordinates": [[163.12480510173054, 69.0390721521106], [163.12818776761623, 69.03837138637999]]}, "properties": {"source": "17789059", "target": "1433276"}}, {"type": "Feature", "geometry": {"type": "LineString", "coordinates": [[163.12480510173054, 69.0390721521106], [163.13040682659317, 69.03748883363622]]}, "properties": {"source": "17789059", "target": "1883267"}}, {"type": "Feature", "geometry": {"type": "LineString", "coordinates": [[163.12480510173054, 69.0390721521106], [163.1281609036277, 69.03908837887306]]}, "properties": {"source": "17789059", "target": "1901005"}}, {"type": "Feature", "geometry": {"type": "LineString", "coordinates": [[163.12480510173054, 69.0390721521106], [163.12833562850938, 69.03900787481857]]}, "properties": {"source": "17789059", "target": "18299043"}}, {"type": "Feature", "geometry": {"type": "LineString", "coordinates": [[163.13423619096352, 69.03797664116055], [163.12704633608678, 69.03858819023381]]}, "properties": {"source": "1932023", "target": "17826743"}}, {"type": "Feature", "geometry": {"type": "LineString", "coordinates": [[163.13423619096352, 69.03797664116055], [163.12887673035073, 69.04168562811347]]}, "properties": {"source": "1932023", "target": "24200612"}}, {"type": "Feature", "geometry": {"type": "LineString", "coordinates": [[163.13423619096352, 69.03797664116055], [163.13040682659317, 69.03748883363622]]}, "properties": {"source": "1932023", "target": "1883267"}}, {"type": "Feature", "geometry": {"type": "LineString", "coordinates": [[163.13423619096352, 69.03797664116055], [163.13225861750738, 69.0417226909482]]}, "properties": {"source": "1932023", "target": "2108565"}}, {"type": "Feature", "geometry": {"type": "LineString", "coordinates": [[163.12480510173054, 69.0390721521106], [163.13038684367405, 69.03893087133395]]}, "properties": {"source": "17789059", "target": "18876889"}}, {"type": "Feature", "geometry": {"type": "LineString", "coordinates": [[163.12704633608678, 69.03858819023381], [163.1216647393681, 69.04018015573882]]}, "properties": {"source": "17826743", "target": "10774224"}}, {"type": "Feature", "geometry": {"type": "LineString", "coordinates": [[163.12704633608678, 69.03858819023381], [163.12472765583675, 69.04149029727688]]}, "properties": {"source": "17826743", "target": "1555332"}}, {"type": "Feature", "geometry": {"type": "LineString", "coordinates": [[163.12704633608678, 69.03858819023381], [163.134766422712, 69.03924027854018]]}, "properties": {"source": "17826743", "target": "1254569"}}, {"type": "Feature", "geometry": {"type": "LineString", "coordinates": [[163.1312177642169, 69.03873323025778], [163.12704633608678, 69.03858819023381]]}, "properties": {"source": "17266130", "target": "17826743"}}, {"type": "Feature", "geometry": {"type": "LineString", "coordinates": [[163.1312177642169, 69.03873323025778], [163.12230849721652, 69.03958079578354]]}, "properties": {"source": "17266130", "target": "16006529"}}, {"type": "Feature", "geometry": {"type": "LineString", "coordinates": [[163.1312177642169, 69.03873323025778], [163.12841109611827, 69.04043348441002]]}, "properties": {"source": "17266130", "target": "17733600"}}, {"type": "Feature", "geometry": {"type": "LineString", "coordinates": [[163.1312177642169, 69.03873323025778], [163.1230605235624, 69.04057024880737]]}, "properties": {"source": "17266130", "target": "15835437"}}, {"type": "Feature", "geometry": {"type": "LineString", "coordinates": [[163.1312177642169, 69.03873323025778], [163.12376830781864, 69.04046971165593]]}, "properties": {"source": "17266130", "target": "18250844"}}, {"type": "Feature", "geometry": {"type": "LineString", "coordinates": [[163.1312177642169, 69.03873323025778], [163.12480510173054, 69.0390721521106]]}, "properties": {"source": "17266130", "target": "17789059"}}, {"type": "Feature", "geometry": {"type": "LineString", "coordinates": [[163.1312177642169, 69.03873323025778], [163.13132186421996, 69.04153030771639]]}, "properties": {"source": "17266130", "target": "18053587"}}, {"type": "Feature", "geometry": {"type": "LineString", "coordinates": [[163.1312177642169, 69.03873323025778], [163.12830169453485, 69.04099900911666]]}, "properties": {"source": "17266130", "target": "7723308"}}, {"type": "Feature", "geometry": {"type": "LineString", "coordinates": [[163.13307427853414, 69.03980186052547], [163.1256112817863, 69.03826721533363]]}, "properties": {"source": "1389331", "target": "994609"}}, {"type": "Feature", "geometry": {"type": "LineString", "coordinates": [[163.13307427853414, 69.03980186052547], [163.12280311908552, 69.03977610270638]]}, "properties": {"source": "1389331", "target": "24641971"}}, {"type": "Feature", "geometry": {"type": "LineString", "coordinates": [[163.13307427853414, 69.03980186052547], [163.13267573102434, 69.03744958451111]]}, "properties": {"source": "1389331", "target": "2141654"}}, {"type": "Feature", "geometry": {"type": "LineString", "coordinates": [[163.13387552125573, 69.03743511227131], [163.12704633608678, 69.03858819023381]]}, "properties": {"source": "126191", "target": "17826743"}}, {"type": "Feature", "geometry": {"type": "LineString", "coordinates": [[163.12704633608678, 69.03858819023381], [163.125330509543, 69.03824640966204]]}, "properties": {"source": "17826743", "target": "163791"}}, {"type": "Feature", "geometry": {"type": "LineString", "coordinates": [[163.12330047116336, 69.04005196233811], [163.1256112817863, 69.03826721533363]]}, "properties": {"source": "2773044", "target": "994609"}}, {"type": "Feature", "geometry": {"type": "LineString", "coordinates": [[163.12330047116336, 69.04005196233811], [163.12280311908552, 69.03977610270638]]}, "properties": {"source": "2773044", "target": "24641971"}}, {"type": "Feature", "geometry": {"type": "LineString", "coordinates": [[163.12330047116336, 69.04005196233811], [163.13267573102434, 69.03744958451111]]}, "properties": {"source": "2773044", "target": "2141654"}}, {"type": "Feature", "geometry": {"type": "LineString", "coordinates": [[163.12330047116336, 69.04005196233811], [163.12787111937666, 69.0392674596834]]}, "properties": {"source": "2773044", "target": "23666274"}}, {"type": "Feature", "geometry": {"type": "LineString", "coordinates": [[163.12330047116336, 69.04005196233811], [163.12190040223192, 69.03825844464544]]}, "properties": {"source": "2773044", "target": "1367403"}}, {"type": "Feature", "geometry": {"type": "LineString", "coordinates": [[163.12330047116336, 69.04005196233811], [163.12388274350315, 69.03969854430926]]}, "properties": {"source": "2773044", "target": "12169412"}}, {"type": "Feature", "geometry": {"type": "LineString", "coordinates": [[163.12330047116336, 69.04005196233811], [163.12692446570628, 69.03784910879992]]}, "properties": {"source": "2773044", "target": "1572240"}}, {"type": "Feature", "geometry": {"type": "LineString", "coordinates": [[163.12190040223192, 69.03825844464544], [163.1256112817863, 69.03826721533363]]}, "properties": {"source": "1367403", "target": "994609"}}, {"type": "Feature", "geometry": {"type": "LineString", "coordinates": [[163.12190040223192, 69.03825844464544], [163.12280311908552, 69.03977610270638]]}, "properties": {"source": "1367403", "target": "24641971"}}, {"type": "Feature", "geometry": {"type": "LineString", "coordinates": [[163.12190040223192, 69.03825844464544], [163.13267573102434, 69.03744958451111]]}, "properties": {"source": "1367403", "target": "2141654"}}, {"type": "Feature", "geometry": {"type": "LineString", "coordinates": [[163.13040682659317, 69.03748883363622], [163.12376830781864, 69.04046971165593]]}, "properties": {"source": "1883267", "target": "18250844"}}, {"type": "Feature", "geometry": {"type": "LineString", "coordinates": [[163.12475081177882, 69.03988478587002], [163.13225861750738, 69.0417226909482]]}, "properties": {"source": "18693225", "target": "2108565"}}, {"type": "Feature", "geometry": {"type": "LineString", "coordinates": [[163.12887673035073, 69.04168562811347], [163.12376830781864, 69.04046971165593]]}, "properties": {"source": "24200612", "target": "18250844"}}, {"type": "Feature", "geometry": {"type": "LineString", "coordinates": [[163.12887673035073, 69.04168562811347], [163.13040682659317, 69.03748883363622]]}, "properties": {"source": "24200612", "target": "1883267"}}, {"type": "Feature", "geometry": {"type": "LineString", "coordinates": [[163.12887673035073, 69.04168562811347], [163.1216647393681, 69.04018015573882]]}, "properties": {"source": "24200612", "target": "10774224"}}, {"type": "Feature", "geometry": {"type": "LineString", "coordinates": [[163.12190040223192, 69.03825844464544], [163.12354602434226, 69.03986976860037]]}, "properties": {"source": "1367403", "target": "1720749"}}, {"type": "Feature", "geometry": {"type": "LineString", "coordinates": [[163.13132186421996, 69.04153030771639], [163.1230605235624, 69.04057024880737]]}, "properties": {"source": "18053587", "target": "15835437"}}, {"type": "Feature", "geometry": {"type": "LineString", "coordinates": [[163.13132186421996, 69.04153030771639], [163.12376830781864, 69.04046971165593]]}, "properties": {"source": "18053587", "target": "18250844"}}, {"type": "Feature", "geometry": {"type": "LineString", "coordinates": [[163.13132186421996, 69.04153030771639], [163.12480510173054, 69.0390721521106]]}, "properties": {"source": "18053587", "target": "17789059"}}, {"type": "Feature", "geometry": {"type": "LineString", "coordinates": [[163.13132186421996, 69.04153030771639], [163.12881151667176, 69.037950519851]]}, "properties": {"source": "18053587", "target": "174953"}}, {"type": "Feature", "geometry": {"type": "LineString", "coordinates": [[163.13132186421996, 69.04153030771639], [163.12945478525586, 69.04103698389451]]}, "properties": {"source": "18053587", "target": "20371515"}}, {"type": "Feature", "geometry": {"type": "LineString", "coordinates": [[163.13132186421996, 69.04153030771639], [163.1352513884762, 69.03738232214425]]}, "properties": {"source": "18053587", "target": "1690826"}}, {"type": "Feature", "geometry": {"type": "LineString", "coordinates": [[163.13132186421996, 69.04153030771639], [163.1281609036277, 69.03908837887306]]}, "properties": {"source": "18053587", "target": "1901005"}}, {"type": "Feature", "geometry": {"type": "LineString", "coordinates": [[163.13132186421996, 69.04153030771639], [163.12833562850938, 69.03900787481857]]}, "properties": {"source": "18053587", "target": "18299043"}}, {"type": "Feature", "geometry": {"type": "LineString", "coordinates": [[163.13132186421996, 69.04153030771639], [163.12472765583675, 69.04149029727688]]}, "properties": {"source": "18053587", "target": "1555332"}}, {"type": "Feature", "geometry": {"type": "LineString", "coordinates": [[163.13132186421996, 69.04153030771639], [163.13225861750738, 69.0417226909482]]}, "properties": {"source": "18053587", "target": "2108565"}}, {"type": "Feature", "geometry": {"type": "LineString", "coordinates": [[163.12830169453485, 69.04099900911666], [163.1256112817863, 69.03826721533363]]}, "properties": {"source": "7723308", "target": "994609"}}, {"type": "Feature", "geometry": {"type": "LineString", "coordinates": [[163.12833562850938, 69.03900787481857], [163.12945478525586, 69.04103698389451]]}, "properties": {"source": "18299043", "target": "20371515"}}, {"type": "Feature", "geometry": {"type": "LineString", "coordinates": [[163.12847821955893, 69.03894121908414], [163.12704633608678, 69.03858819023381]]}, "properties": {"source": "1183143", "target": "17826743"}}, {"type": "Feature", "geometry": {"type": "LineString", "coordinates": [[163.12847821955893, 69.03894121908414], [163.1312177642169, 69.03873323025778]]}, "properties": {"source": "1183143", "target": "17266130"}}, {"type": "Feature", "geometry": {"type": "LineString", "coordinates": [[163.13132186421996, 69.04153030771639], [163.13038684367405, 69.03893087133395]]}, "properties": {"source": "18053587", "target": "18876889"}}, {"type": "Feature", "geometry": {"type": "LineString", "coordinates": [[163.12833562850938, 69.03900787481857], [163.13038684367405, 69.03893087133395]]}, "properties": {"source": "18299043", "target": "18876889"}}, {"type": "Feature", "geometry": {"type": "LineString", "coordinates": [[163.12841109611827, 69.04043348441002], [163.12945478525586, 69.04103698389451]]}, "properties": {"source": "17733600", "target": "20371515"}}, {"type": "Feature", "geometry": {"type": "LineString", "coordinates": [[163.12841109611827, 69.04043348441002], [163.12818776761623, 69.03837138637999]]}, "properties": {"source": "17733600", "target": "1433276"}}, {"type": "Feature", "geometry": {"type": "LineString", "coordinates": [[163.12841109611827, 69.04043348441002], [163.1216647393681, 69.04018015573882]]}, "properties": {"source": "17733600", "target": "10774224"}}, {"type": "Feature", "geometry": {"type": "LineString", "coordinates": [[163.12841109611827, 69.04043348441002], [163.12472765583675, 69.04149029727688]]}, "properties": {"source": "17733600", "target": "1555332"}}, {"type": "Feature", "geometry": {"type": "LineString", "coordinates": [[163.12841109611827, 69.04043348441002], [163.1269937799446, 69.04169919332259]]}, "properties": {"source": "17733600", "target": "18468870"}}, {"type": "Feature", "geometry": {"type": "LineString", "coordinates": [[163.12841109611827, 69.04043348441002], [163.130249277598, 69.03841104019014]]}, "properties": {"source": "17733600", "target": "25364660"}}, {"type": "Feature", "geometry": {"type": "LineString", "coordinates": [[163.1230605235624, 69.04057024880737], [163.13290420673604, 69.03964096117036]]}, "properties": {"source": "15835437", "target": "1348837"}}, {"type": "Feature", "geometry": {"type": "LineString", "coordinates": [[163.1230605235624, 69.04057024880737], [163.134766422712, 69.03924027854018]]}, "properties": {"source": "15835437", "target": "1254569"}}, {"type": "Feature", "geometry": {"type": "LineString", "coordinates": [[163.12475081177882, 69.03988478587002], [163.12704633608678, 69.03858819023381]]}, "properties": {"source": "18693225", "target": "17826743"}}, {"type": "Feature", "geometry": {"type": "LineString", "coordinates": [[163.12475081177882, 69.03988478587002], [163.1312177642169, 69.03873323025778]]}, "properties": {"source": "18693225", "target": "17266130"}}, {"type": "Feature", "geometry": {"type": "LineString", "coordinates": [[163.12475081177882, 69.03988478587002], [163.12841109611827, 69.04043348441002]]}, "properties": {"source": "18693225", "target": "17733600"}}, {"type": "Feature", "geometry": {"type": "LineString", "coordinates": [[163.12230849721652, 69.03958079578354], [163.12704633608678, 69.03858819023381]]}, "properties": {"source": "16006529", "target": "17826743"}}, {"type": "Feature", "geometry": {"type": "LineString", "coordinates": [[163.12230849721652, 69.03958079578354], [163.12841109611827, 69.04043348441002]]}, "properties": {"source": "16006529", "target": "17733600"}}, {"type": "Feature", "geometry": {"type": "LineString", "coordinates": [[163.12230849721652, 69.03958079578354], [163.1230605235624, 69.04057024880737]]}, "properties": {"source": "16006529", "target": "15835437"}}, {"type": "Feature", "geometry": {"type": "LineString", "coordinates": [[163.12230849721652, 69.03958079578354], [163.12480510173054, 69.0390721521106]]}, "properties": {"source": "16006529", "target": "17789059"}}, {"type": "Feature", "geometry": {"type": "LineString", "coordinates": [[163.12841109611827, 69.04043348441002], [163.125330509543, 69.03824640966204]]}, "properties": {"source": "17733600", "target": "163791"}}, {"type": "Feature", "geometry": {"type": "LineString", "coordinates": [[163.12230849721652, 69.03958079578354], [163.1352513884762, 69.03738232214425]]}, "properties": {"source": "16006529", "target": "1690826"}}, {"type": "Feature", "geometry": {"type": "LineString", "coordinates": [[163.12230849721652, 69.03958079578354], [163.12818776761623, 69.03837138637999]]}, "properties": {"source": "16006529", "target": "1433276"}}, {"type": "Feature", "geometry": {"type": "LineString", "coordinates": [[163.12230849721652, 69.03958079578354], [163.13290420673604, 69.03964096117036]]}, "properties": {"source": "16006529", "target": "1348837"}}, {"type": "Feature", "geometry": {"type": "LineString", "coordinates": [[163.12230849721652, 69.03958079578354], [163.12472491295063, 69.04134533765054]]}, "properties": {"source": "16006529", "target": "174949"}}, {"type": "Feature", "geometry": {"type": "LineString", "coordinates": [[163.12230849721652, 69.03958079578354], [163.12533872671395, 69.03765349526998]]}, "properties": {"source": "16006529", "target": "10697657"}}, {"type": "Feature", "geometry": {"type": "LineString", "coordinates": [[163.12230849721652, 69.03958079578354], [163.1216647393681, 69.04018015573882]]}, "properties": {"source": "16006529", "target": "10774224"}}, {"type": "Feature", "geometry": {"type": "LineString", "coordinates": [[163.12230849721652, 69.03958079578354], [163.12472765583675, 69.04149029727688]]}, "properties": {"source": "16006529", "target": "1555332"}}, {"type": "Feature", "geometry": {"type": "LineString", "coordinates": [[163.12230849721652, 69.03958079578354], [163.134766422712, 69.03924027854018]]}, "properties": {"source": "16006529", "target": "1254569"}}, {"type": "Feature", "geometry": {"type": "LineString", "coordinates": [[163.12230849721652, 69.03958079578354], [163.12279112647883, 69.03904406531933]]}, "properties": {"source": "16006529", "target": "12275643"}}, {"type": "Feature", "geometry": {"type": "LineString", "coordinates": [[163.12230849721652, 69.03958079578354], [163.13444319672396, 69.04145444034407]]}, "properties": {"source": "16006529", "target": "13707570"}}, {"type": "Feature", "geometry": {"type": "LineString", "coordinates": [[163.12230849721652, 69.03958079578354], [163.12337160165907, 69.03894268049251]]}, "properties": {"source": "16006529", "target": "101600"}}, {"type": "Feature", "geometry": {"type": "LineString", "coordinates": [[163.1312177642169, 69.03873323025778], [163.1256112817863, 69.03826721533363]]}, "properties": {"source": "17266130", "target": "994609"}}, {"type": "Feature", "geometry": {"type": "LineString", "coordinates": [[163.1312177642169, 69.03873323025778], [163.12280311908552, 69.03977610270638]]}, "properties": {"source": "17266130", "target": "24641971"}}, {"type": "Feature", "geometry": {"type": "LineString", "coordinates": [[163.1312177642169, 69.03873323025778], [163.13267573102434, 69.03744958451111]]}, "properties": {"source": "17266130", "target": "2141654"}}, {"type": "Feature", "geometry": {"type": "LineString", "coordinates": [[163.1312177642169, 69.03873323025778], [163.1352513884762, 69.03738232214425]]}, "properties": {"source": "17266130", "target": "1690826"}}, {"type": "Feature", "geometry": {"type": "LineString", "coordinates": [[163.12230849721652, 69.03958079578354], [163.125330509543, 69.03824640966204]]}, "properties": {"source": "16006529", "target": "163791"}}, {"type": "Feature", "geometry": {"type": "LineString", "coordinates": [[163.12391608746213, 69.03908317937191], [163.1256112817863, 69.03826721533363]]}, "properties": {"source": "2631502", "target": "994609"}}, {"type": "Feature", "geometry": {"type": "LineString", "coordinates": [[163.12391608746213, 69.03908317937191], [163.12280311908552, 69.03977610270638]]}, "properties": {"source": "2631502", "target": "24641971"}}, {"type": "Feature", "geometry": {"type": "LineString", "coordinates": [[163.12391608746213, 69.03908317937191], [163.13267573102434, 69.03744958451111]]}, "properties": {"source": "2631502", "target": "2141654"}}, {"type": "Feature", "geometry": {"type": "LineString", "coordinates": [[163.12391608746213, 69.03908317937191], [163.12787111937666, 69.0392674596834]]}, "properties": {"source": "2631502", "target": "23666274"}}, {"type": "Feature", "geometry": {"type": "LineString", "coordinates": [[163.12391608746213, 69.03908317937191], [163.12959907767157, 69.03969211177838]]}, "properties": {"source": "2631502", "target": "4479015"}}, {"type": "Feature", "geometry": {"type": "LineString", "coordinates": [[163.12391608746213, 69.03908317937191], [163.12330047116336, 69.04005196233811]]}, "properties": {"source": "2631502", "target": "2773044"}}, {"type": "Feature", "geometry": {"type": "LineString", "coordinates": [[163.13041804516962, 69.04008238718063], [163.12830169453485, 69.04099900911666]]}, "properties": {"source": "2699074", "target": "7723308"}}, {"type": "Feature", "geometry": {"type": "LineString", "coordinates": [[163.13041804516962, 69.04008238718063], [163.1256112817863, 69.03826721533363]]}, "properties": {"source": "2699074", "target": "994609"}}, {"type": "Feature", "geometry": {"type": "LineString", "coordinates": [[163.13041804516962, 69.04008238718063], [163.12280311908552, 69.03977610270638]]}, "properties": {"source": "2699074", "target": "24641971"}}, {"type": "Feature", "geometry": {"type": "LineString", "coordinates": [[163.13041804516962, 69.04008238718063], [163.13267573102434, 69.03744958451111]]}, "properties": {"source": "2699074", "target": "2141654"}}, {"type": "Feature", "geometry": {"type": "LineString", "coordinates": [[163.13041804516962, 69.04008238718063], [163.12787111937666, 69.0392674596834]]}, "properties": {"source": "2699074", "target": "23666274"}}, {"type": "Feature", "geometry": {"type": "LineString", "coordinates": [[163.13041804516962, 69.04008238718063], [163.12330047116336, 69.04005196233811]]}, "properties": {"source": "2699074", "target": "2773044"}}, {"type": "Feature", "geometry": {"type": "LineString", "coordinates": [[163.12388274350315, 69.03969854430926], [163.1256112817863, 69.03826721533363]]}, "properties": {"source": "12169412", "target": "994609"}}, {"type": "Feature", "geometry": {"type": "LineString", "coordinates": [[163.12388274350315, 69.03969854430926], [163.12280311908552, 69.03977610270638]]}, "properties": {"source": "12169412", "target": "24641971"}}, {"type": "Feature", "geometry": {"type": "LineString", "coordinates": [[163.12388274350315, 69.03969854430926], [163.13267573102434, 69.03744958451111]]}, "properties": {"source": "12169412", "target": "2141654"}}, {"type": "Feature", "geometry": {"type": "LineString", "coordinates": [[163.12388274350315, 69.03969854430926], [163.12190040223192, 69.03825844464544]]}, "properties": {"source": "12169412", "target": "1367403"}}, {"type": "Feature", "geometry": {"type": "LineString", "coordinates": [[163.1312177642169, 69.03873323025778], [163.12818776761623, 69.03837138637999]]}, "properties": {"source": "17266130", "target": "1433276"}}, {"type": "Feature", "geometry": {"type": "LineString", "coordinates": [[163.1312177642169, 69.03873323025778], [163.12190040223192, 69.03825844464544]]}, "properties": {"source": "17266130", "target": "1367403"}}, {"type": "Feature", "geometry": {"type": "LineString", "coordinates": [[163.1312177642169, 69.03873323025778], [163.12388274350315, 69.03969854430926]]}, "properties": {"source": "17266130", "target": "12169412"}}, {"type": "Feature", "geometry": {"type": "LineString", "coordinates": [[163.1312177642169, 69.03873323025778], [163.13290420673604, 69.03964096117036]]}, "properties": {"source": "17266130", "target": "1348837"}}, {"type": "Feature", "geometry": {"type": "LineString", "coordinates": [[163.1312177642169, 69.03873323025778], [163.12604197746907, 69.03752184533522]]}, "properties": {"source": "17266130", "target": "10399559"}}, {"type": "Feature", "geometry": {"type": "LineString", "coordinates": [[163.1312177642169, 69.03873323025778], [163.12533872671395, 69.03765349526998]]}, "properties": {"source": "17266130", "target": "10697657"}}, {"type": "Feature", "geometry": {"type": "LineString", "coordinates": [[163.1312177642169, 69.03873323025778], [163.12692446570628, 69.03784910879992]]}, "properties": {"source": "17266130", "target": "1572240"}}, {"type": "Feature", "geometry": {"type": "LineString", "coordinates": [[163.1312177642169, 69.03873323025778], [163.1216647393681, 69.04018015573882]]}, "properties": {"source": "17266130", "target": "10774224"}}, {"type": "Feature", "geometry": {"type": "LineString", "coordinates": [[163.1312177642169, 69.03873323025778], [163.12472765583675, 69.04149029727688]]}, "properties": {"source": "17266130", "target": "1555332"}}, {"type": "Feature", "geometry": {"type": "LineString", "coordinates": [[163.1312177642169, 69.03873323025778], [163.13307427853414, 69.03980186052547]]}, "properties": {"source": "17266130", "target": "1389331"}}, {"type": "Feature", "geometry": {"type": "LineString", "coordinates": [[163.12704633608678, 69.03858819023381], [163.1230605235624, 69.04057024880737]]}, "properties": {"source": "17826743", "target": "15835437"}}, {"type": "Feature", "geometry": {"type": "LineString", "coordinates": [[163.12704633608678, 69.03858819023381], [163.12376830781864, 69.04046971165593]]}, "properties": {"source": "17826743", "target": "18250844"}}, {"type": "Feature", "geometry": {"type": "LineString", "coordinates": [[163.12704633608678, 69.03858819023381], [163.12818776761623, 69.03837138637999]]}, "properties": {"source": "17826743", "target": "1433276"}}, {"type": "Feature", "geometry": {"type": "LineString", "coordinates": [[163.12704633608678, 69.03858819023381], [163.13040682659317, 69.03748883363622]]}, "properties": {"source": "17826743", "target": "1883267"}}, {"type": "Feature", "geometry": {"type": "LineString", "coordinates": [[163.1312177642169, 69.03873323025778], [163.12354602434226, 69.03986976860037]]}, "properties": {"source": "17266130", "target": "1720749"}}, {"type": "Feature", "geometry": {"type": "LineString", "coordinates": [[163.1312177642169, 69.03873323025778], [163.125330509543, 69.03824640966204]]}, "properties": {"source": "17266130", "target": "163791"}}, {"type": "Feature", "geometry": {"type": "LineString", "coordinates": [[163.1281609036277, 69.03908837887306], [163.12704633608678, 69.03858819023381]]}, "properties": {"source": "1901005", "target": "17826743"}}, {"type": "Feature", "geometry": {"type": "LineString", "coordinates": [[163.1281609036277, 69.03908837887306], [163.12376830781864, 69.04046971165593]]}, "properties": {"source": "1901005", "target": "18250844"}}, {"type": "Feature", "geometry": {"type": "LineString", "coordinates": [[163.1281609036277, 69.03908837887306], [163.12887673035073, 69.04168562811347]]}, "properties": {"source": "1901005", "target": "24200612"}}, {"type": "Feature", "geometry": {"type": "LineString", "coordinates": [[163.1281609036277, 69.03908837887306], [163.13040682659317, 69.03748883363622]]}, "properties": {"source": "1901005", "target": "1883267"}}, {"type": "Feature", "geometry": {"type": "LineString", "coordinates": [[163.12604197746907, 69.03752184533522], [163.12704633608678, 69.03858819023381]]}, "properties": {"source": "10399559", "target": "17826743"}}, {"type": "Feature", "geometry": {"type": "LineString", "coordinates": [[163.12604197746907, 69.03752184533522], [163.12230849721652, 69.03958079578354]]}, "properties": {"source": "10399559", "target": "16006529"}}, {"type": "Feature", "geometry": {"type": "LineString", "coordinates": [[163.12604197746907, 69.03752184533522], [163.12841109611827, 69.04043348441002]]}, "properties": {"source": "10399559", "target": "17733600"}}, {"type": "Feature", "geometry": {"type": "LineString", "coordinates": [[163.12604197746907, 69.03752184533522], [163.1230605235624, 69.04057024880737]]}, "properties": {"source": "10399559", "target": "15835437"}}, {"type": "Feature", "geometry": {"type": "LineString", "coordinates": [[163.12604197746907, 69.03752184533522], [163.12376830781864, 69.04046971165593]]}, "properties": {"source": "10399559", "target": "18250844"}}, {"type": "Feature", "geometry": {"type": "LineString", "coordinates": [[163.12604197746907, 69.03752184533522], [163.12887673035073, 69.04168562811347]]}, "properties": {"source": "10399559", "target": "24200612"}}, {"type": "Feature", "geometry": {"type": "LineString", "coordinates": [[163.12959907767157, 69.03969211177838], [163.12830169453485, 69.04099900911666]]}, "properties": {"source": "4479015", "target": "7723308"}}, {"type": "Feature", "geometry": {"type": "LineString", "coordinates": [[163.12959907767157, 69.03969211177838], [163.1256112817863, 69.03826721533363]]}, "properties": {"source": "4479015", "target": "994609"}}, {"type": "Feature", "geometry": {"type": "LineString", "coordinates": [[163.12959907767157, 69.03969211177838], [163.12280311908552, 69.03977610270638]]}, "properties": {"source": "4479015", "target": "24641971"}}, {"type": "Feature", "geometry": {"type": "LineString", "coordinates": [[163.12959907767157, 69.03969211177838], [163.13267573102434, 69.03744958451111]]}, "properties": {"source": "4479015", "target": "2141654"}}, {"type": "Feature", "geometry": {"type": "LineString", "coordinates": [[163.12388274350315, 69.03969854430926], [163.12354602434226, 69.03986976860037]]}, "properties": {"source": "12169412", "target": "1720749"}}, {"type": "Feature", "geometry": {"type": "LineString", "coordinates": [[163.1281609036277, 69.03908837887306], [163.13038684367405, 69.03893087133395]]}, "properties": {"source": "1901005", "target": "18876889"}}, {"type": "Feature", "geometry": {"type": "LineString", "coordinates": [[163.12475081177882, 69.03988478587002], [163.12881151667176, 69.037950519851]]}, "properties": {"source": "18693225", "target": "174953"}}, {"type": "Feature", "geometry": {"type": "LineString", "coordinates": [[163.12475081177882, 69.03988478587002], [163.12945478525586, 69.04103698389451]]}, "properties": {"source": "18693225", "target": "20371515"}}, {"type": "Feature", "geometry": {"type": "LineString", "coordinates": [[163.12475081177882, 69.03988478587002], [163.12494302406867, 69.04089777830595]]}, "properties": {"source": "18693225", "target": "176953"}}, {"type": "Feature", "geometry": {"type": "LineString", "coordinates": [[163.12475081177882, 69.03988478587002], [163.13040682659317, 69.03748883363622]]}, "properties": {"source": "18693225", "target": "1883267"}}, {"type": "Feature", "geometry": {"type": "LineString", "coordinates": [[163.12475081177882, 69.03988478587002], [163.1281609036277, 69.03908837887306]]}, "properties": {"source": "18693225", "target": "1901005"}}, {"type": "Feature", "geometry": {"type": "LineString", "coordinates": [[163.12475081177882, 69.03988478587002], [163.12604197746907, 69.03752184533522]]}, "properties": {"source": "18693225", "target": "10399559"}}, {"type": "Feature", "geometry": {"type": "LineString", "coordinates": [[163.12475081177882, 69.03988478587002], [163.12472491295063, 69.04134533765054]]}, "properties": {"source": "18693225", "target": "174949"}}, {"type": "Feature", "geometry": {"type": "LineString", "coordinates": [[163.12475081177882, 69.03988478587002], [163.12533872671395, 69.03765349526998]]}, "properties": {"source": "18693225", "target": "10697657"}}, {"type": "Feature", "geometry": {"type": "LineString", "coordinates": [[163.12475081177882, 69.03988478587002], [163.12833562850938, 69.03900787481857]]}, "properties": {"source": "18693225", "target": "18299043"}}, {"type": "Feature", "geometry": {"type": "LineString", "coordinates": [[163.12475081177882, 69.03988478587002], [163.1313853513479, 69.03898846295624]]}, "properties": {"source": "18693225", "target": "1216579"}}, {"type": "Feature", "geometry": {"type": "LineString", "coordinates": [[163.12475081177882, 69.03988478587002], [163.1216647393681, 69.04018015573882]]}, "properties": {"source": "18693225", "target": "10774224"}}, {"type": "Feature", "geometry": {"type": "LineString", "coordinates": [[163.12841109611827, 69.04043348441002], [163.12704633608678, 69.03858819023381]]}, "properties": {"source": "17733600", "target": "17826743"}}, {"type": "Feature", "geometry": {"type": "LineString", "coordinates": [[163.12841109611827, 69.04043348441002], [163.1230605235624, 69.04057024880737]]}, "properties": {"source": "17733600", "target": "15835437"}}, {"type": "Feature", "geometry": {"type": "LineString", "coordinates": [[163.12841109611827, 69.04043348441002], [163.12376830781864, 69.04046971165593]]}, "properties": {"source": "17733600", "target": "18250844"}}, {"type": "Feature", "geometry": {"type": "LineString", "coordinates": [[163.12475081177882, 69.03988478587002], [163.13038684367405, 69.03893087133395]]}, "properties": {"source": "18693225", "target": "18876889"}}, {"type": "Feature", "geometry": {"type": "LineString", "coordinates": [[163.12841109611827, 69.04043348441002], [163.13038684367405, 69.03893087133395]]}, "properties": {"source": "17733600", "target": "18876889"}}]}