{"type": "FeatureCollection", "features": [{"type": "Feature", "geometry": {"type": "LineString", "coordinates": [[147.7106526306083, 69.22970064626728], [147.7107653362828, 69.22989272763368]]}, "properties": {"source": "22085868", "target": "6571496"}}, {"type": "Feature", "geometry": {"type": "LineString", "coordinates": [[147.7106526306083, 69.22970064626728], [147.71100186772549, 69.22978640582099]]}, "properties": {"source": "22085868", "target": "18628548"}}, {"type": "Feature", "geometry": {"type": "LineString", "coordinates": [[147.71100186772549, 69.22978640582099], [147.71192884791395, 69.2301643849514]]}, "properties": {"source": "18628548", "target": "13141853"}}, {"type": "Feature", "geometry": {"type": "LineString", "coordinates": [[147.71100186772549, 69.22978640582099], [147.7107653362828, 69.22989272763368]]}, "properties": {"source": "18628548", "target": "6571496"}}, {"type": "Feature", "geometry": {"type": "LineString", "coordinates": [[147.711069511054, 69.22994176186683], [147.7107653362828, 69.22989272763368]]}, "properties": {"source": "4567115", "target": "6571496"}}, {"type": "Feature", "geometry": {"type": "LineString", "coordinates": [[147.7114849579483, 69.230097714767], [147.71192884791395, 69.2301643849514]]}, "properties": {"source": "10874726", "target": "13141853"}}, {"type": "Feature", "geometry": {"type": "LineString", "coordinates": [[147.71052011193615, 69.22983164787249], [147.71192884791395, 69.2301643849514]]}, "properties": {"source": "16061114", "target": "13141853"}}, {"type": "Feature", "geometry": {"type": "LineString", "coordinates": [[147.71052011193615, 69.22983164787249], [147.7107653362828, 69.22989272763368]]}, "properties": {"source": "16061114", "target": "6571496"}}, {"type": "Feature", "geometry": {"type": "LineString", "coordinates": [[147.71052011193615, 69.22983164787249], [147.71100186772549, 69.22978640582099]]}, "properties": {"source": "16061114", "target": "18628548"}}, {"type": "Feature", "geometry": {"type": "LineString", "coordinates": [[147.71052011193615, 69.22983164787249], [147.711069511054, 69.22994176186683]]}, "properties": {"source": "16061114", "target": "4567115"}}, {"type": "Feature", "geometry": {"type": "LineString", "coordinates": [[147.71052011193615, 69.22983164787249], [147.7114849579483, 69.230097714767]]}, "properties": {"source": "16061114", "target": "10874726"}}, {"type": "Feature", "geometry": {"type": "LineString", "coordinates": [[147.71192884791395, 69.2301643849514], [147.7107653362828, 69.22989272763368]]}, "properties": {"source": "13141853", "target": "6571496"}}, {"type": "Feature", "geometry": {"type": "LineString", "coordinates": [[147.71192884791395, 69.2301643849514], [147.711069511054, 69.22994176186683]]}, "properties": {"source": "13141853", "target": "4567115"}}, {"type": "Feature", "geometry": {"type": "LineString", "coordinates": [[147.71067408747768, 69.23021924344101], [147.71052011193615, 69.22983164787249]]}, "properties": {"source": "7959104", "target": "16061114"}}, {"type": "Feature", "geometry": {"type": "LineString", "coordinates": [[147.71067408747768, 69.23021924344101], [147.71192884791395, 69.2301643849514]]}, "properties": {"source": "7959104", "target": "13141853"}}, {"type": "Feature", "geometry": {"type": "LineString", "coordinates": [[147.71067408747768, 69.23021924344101], [147.7107653362828, 69.22989272763368]]}, "properties": {"source": "7959104", "target": "6571496"}}, {"type": "Feature", "geometry": {"type": "LineString", "coordinates": [[147.71067408747768, 69.23021924344101], [147.711069511054, 69.22994176186683]]}, "properties": {"source": "7959104", "target": "4567115"}}, {"type": "Feature", "geometry": {"type": "LineString", "coordinates": [[147.7106526306083, 69.22970064626728], [147.71052011193615, 69.22983164787249]]}, "properties": {"source": "22085868", "target": "16061114"}}, {"type": "Feature", "geometry": {"type": "LineString", "coordinates": [[147.7106526306083, 69.22970064626728], [147.71192884791395, 69.2301643849514]]}, "properties": {"source": "22085868", "target": "13141853"}}]}