{"type": "FeatureCollection", "features": [{"type": "Feature", "geometry": {"type": "LineString", "coordinates": [[-144.5880991333273, 69.03774448881248], [-144.59733231804202, 69.03968643107348]]}, "properties": {"source": "818228", "target": "32055615"}}, {"type": "Feature", "geometry": {"type": "LineString", "coordinates": [[-144.5880991333273, 69.03774448881248], [-144.5892174250959, 69.03902528256293]]}, "properties": {"source": "818228", "target": "35469675"}}, {"type": "Feature", "geometry": {"type": "LineString", "coordinates": [[-144.5880991333273, 69.03774448881248], [-144.59385283436248, 69.04206825074743]]}, "properties": {"source": "818228", "target": "25659394"}}, {"type": "Feature", "geometry": {"type": "LineString", "coordinates": [[-144.5880991333273, 69.03774448881248], [-144.59642293478447, 69.03819743253572]]}, "properties": {"source": "818228", "target": "32073470"}}, {"type": "Feature", "geometry": {"type": "LineString", "coordinates": [[-144.5880991333273, 69.03774448881248], [-144.59005583716734, 69.04229004384027]]}, "properties": {"source": "818228", "target": "6756286"}}, {"type": "Feature", "geometry": {"type": "LineString", "coordinates": [[-144.58222059602716, 69.0413388449546], [-144.58723022742413, 69.04234417562492]]}, "properties": {"source": "31539522", "target": "33616180"}}, {"type": "Feature", "geometry": {"type": "LineString", "coordinates": [[-144.58222059602716, 69.0413388449546], [-144.59902494182643, 69.03964022692685]]}, "properties": {"source": "31539522", "target": "26518271"}}, {"type": "Feature", "geometry": {"type": "LineString", "coordinates": [[-144.59902494182643, 69.03964022692685], [-144.58723022742413, 69.04234417562492]]}, "properties": {"source": "26518271", "target": "33616180"}}, {"type": "Feature", "geometry": {"type": "LineString", "coordinates": [[-144.59003091179414, 69.0405074134558], [-144.59625381317807, 69.03947044652236]]}, "properties": {"source": "889789", "target": "13260960"}}, {"type": "Feature", "geometry": {"type": "LineString", "coordinates": [[-144.59003091179414, 69.0405074134558], [-144.59077881753154, 69.03721942754134]]}, "properties": {"source": "889789", "target": "9950359"}}, {"type": "Feature", "geometry": {"type": "LineString", "coordinates": [[-144.5880991333273, 69.03774448881248], [-144.58738768079166, 69.04273359818254]]}, "properties": {"source": "818228", "target": "8075531"}}, {"type": "Feature", "geometry": {"type": "LineString", "coordinates": [[-144.5975342402505, 69.03761312824352], [-144.5892174250959, 69.03902528256293]]}, "properties": {"source": "25520083", "target": "35469675"}}, {"type": "Feature", "geometry": {"type": "LineString", "coordinates": [[-144.5975342402505, 69.03761312824352], [-144.59642293478447, 69.03819743253572]]}, "properties": {"source": "25520083", "target": "32073470"}}, {"type": "Feature", "geometry": {"type": "LineString", "coordinates": [[-144.5975342402505, 69.03761312824352], [-144.59005583716734, 69.04229004384027]]}, "properties": {"source": "25520083", "target": "6756286"}}, {"type": "Feature", "geometry": {"type": "LineString", "coordinates": [[-144.58723022742413, 69.04234417562492], [-144.59884897768038, 69.0390943395642]]}, "properties": {"source": "33616180", "target": "1562640"}}, {"type": "Feature", "geometry": {"type": "LineString", "coordinates": [[-144.59848713828163, 69.04272070708566], [-144.59733231804202, 69.03968643107348]]}, "properties": {"source": "24109328", "target": "32055615"}}, {"type": "Feature", "geometry": {"type": "LineString", "coordinates": [[-144.59848713828163, 69.04272070708566], [-144.5815878717606, 69.04033985197722]]}, "properties": {"source": "24109328", "target": "26009770"}}, {"type": "Feature", "geometry": {"type": "LineString", "coordinates": [[-144.59848713828163, 69.04272070708566], [-144.58482666503923, 69.04338601489866]]}, "properties": {"source": "24109328", "target": "25271567"}}, {"type": "Feature", "geometry": {"type": "LineString", "coordinates": [[-144.59848713828163, 69.04272070708566], [-144.59574180061162, 69.0433304968854]]}, "properties": {"source": "24109328", "target": "28182116"}}, {"type": "Feature", "geometry": {"type": "LineString", "coordinates": [[-144.59848713828163, 69.04272070708566], [-144.58491346191113, 69.03769732970167]]}, "properties": {"source": "24109328", "target": "23769357"}}, {"type": "Feature", "geometry": {"type": "LineString", "coordinates": [[-144.59848713828163, 69.04272070708566], [-144.58339642547844, 69.03793659257272]]}, "properties": {"source": "24109328", "target": "25997442"}}, {"type": "Feature", "geometry": {"type": "LineString", "coordinates": [[-144.59896421108496, 69.0408441811727], [-144.59902494182643, 69.03964022692685]]}, "properties": {"source": "16000974", "target": "26518271"}}, {"type": "Feature", "geometry": {"type": "LineString", "coordinates": [[-144.58566216623714, 69.04153185875734], [-144.59557521040472, 69.04054907220598]]}, "properties": {"source": "408914", "target": "25108545"}}, {"type": "Feature", "geometry": {"type": "LineString", "coordinates": [[-144.5922645304433, 69.03736907710035], [-144.5941869307115, 69.03738682870392]]}, "properties": {"source": "17084370", "target": "17298365"}}, {"type": "Feature", "geometry": {"type": "LineString", "coordinates": [[-144.5922645304433, 69.03736907710035], [-144.59003723256652, 69.04116778954491]]}, "properties": {"source": "17084370", "target": "17858875"}}, {"type": "Feature", "geometry": {"type": "LineString", "coordinates": [[-144.5922645304433, 69.03736907710035], [-144.58675078508497, 69.04337093391149]]}, "properties": {"source": "17084370", "target": "17259378"}}, {"type": "Feature", "geometry": {"type": "LineString", "coordinates": [[-144.58527956349667, 69.04084544643302], [-144.59593747707095, 69.041833869388]]}, "properties": {"source": "32080825", "target": "31018009"}}, {"type": "Feature", "geometry": {"type": "LineString", "coordinates": [[-144.58527956349667, 69.04084544643302], [-144.59733231804202, 69.03968643107348]]}, "properties": {"source": "32080825", "target": "32055615"}}, {"type": "Feature", "geometry": {"type": "LineString", "coordinates": [[-144.58527956349667, 69.04084544643302], [-144.5892174250959, 69.03902528256293]]}, "properties": {"source": "32080825", "target": "35469675"}}, {"type": "Feature", "geometry": {"type": "LineString", "coordinates": [[-144.58527956349667, 69.04084544643302], [-144.59385283436248, 69.04206825074743]]}, "properties": {"source": "32080825", "target": "25659394"}}, {"type": "Feature", "geometry": {"type": "LineString", "coordinates": [[-144.58527956349667, 69.04084544643302], [-144.59454024248308, 69.03989431594235]]}, "properties": {"source": "32080825", "target": "26450657"}}, {"type": "Feature", "geometry": {"type": "LineString", "coordinates": [[-144.58527956349667, 69.04084544643302], [-144.59937213786662, 69.04042148125143]]}, "properties": {"source": "32080825", "target": "23116515"}}, {"type": "Feature", "geometry": {"type": "LineString", "coordinates": [[-144.58527956349667, 69.04084544643302], [-144.59642293478447, 69.03819743253572]]}, "properties": {"source": "32080825", "target": "32073470"}}, {"type": "Feature", "geometry": {"type": "LineString", "coordinates": [[-144.58527956349667, 69.04084544643302], [-144.59005583716734, 69.04229004384027]]}, "properties": {"source": "32080825", "target": "6756286"}}, {"type": "Feature", "geometry": {"type": "LineString", "coordinates": [[-144.58527956349667, 69.04084544643302], [-144.5880991333273, 69.03774448881248]]}, "properties": {"source": "32080825", "target": "818228"}}, {"type": "Feature", "geometry": {"type": "LineString", "coordinates": [[-144.58527956349667, 69.04084544643302], [-144.5975342402505, 69.03761312824352]]}, "properties": {"source": "32080825", "target": "25520083"}}, {"type": "Feature", "geometry": {"type": "LineString", "coordinates": [[-144.58527956349667, 69.04084544643302], [-144.58738768079166, 69.04273359818254]]}, "properties": {"source": "32080825", "target": "8075531"}}, {"type": "Feature", "geometry": {"type": "LineString", "coordinates": [[-144.59937213786662, 69.04042148125143], [-144.58139984083402, 69.03878710514698]]}, "properties": {"source": "23116515", "target": "19484529"}}, {"type": "Feature", "geometry": {"type": "LineString", "coordinates": [[-144.59937213786662, 69.04042148125143], [-144.58280036651513, 69.04079333802588]]}, "properties": {"source": "23116515", "target": "14433748"}}, {"type": "Feature", "geometry": {"type": "LineString", "coordinates": [[-144.58722445938756, 69.04010193107365], [-144.58527956349667, 69.04084544643302]]}, "properties": {"source": "29641003", "target": "32080825"}}, {"type": "Feature", "geometry": {"type": "LineString", "coordinates": [[-144.58722445938756, 69.04010193107365], [-144.59593747707095, 69.041833869388]]}, "properties": {"source": "29641003", "target": "31018009"}}, {"type": "Feature", "geometry": {"type": "LineString", "coordinates": [[-144.58722445938756, 69.04010193107365], [-144.59262106674274, 69.03987283071268]]}, "properties": {"source": "29641003", "target": "4949080"}}, {"type": "Feature", "geometry": {"type": "LineString", "coordinates": [[-144.58527956349667, 69.04084544643302], [-144.6000070698078, 69.04266776953753]]}, "properties": {"source": "32080825", "target": "16235182"}}, {"type": "Feature", "geometry": {"type": "LineString", "coordinates": [[-144.58527956349667, 69.04084544643302], [-144.59506226518863, 69.03729508647703]]}, "properties": {"source": "32080825", "target": "30303786"}}, {"type": "Feature", "geometry": {"type": "LineString", "coordinates": [[-144.58527956349667, 69.04084544643302], [-144.59557521040472, 69.04054907220598]]}, "properties": {"source": "32080825", "target": "25108545"}}, {"type": "Feature", "geometry": {"type": "LineString", "coordinates": [[-144.58527956349667, 69.04084544643302], [-144.58139984083402, 69.03878710514698]]}, "properties": {"source": "32080825", "target": "19484529"}}, {"type": "Feature", "geometry": {"type": "LineString", "coordinates": [[-144.58527956349667, 69.04084544643302], [-144.59313178011467, 69.03751906376263]]}, "properties": {"source": "32080825", "target": "25810704"}}, {"type": "Feature", "geometry": {"type": "LineString", "coordinates": [[-144.58527956349667, 69.04084544643302], [-144.59203547015088, 69.03956176802109]]}, "properties": {"source": "32080825", "target": "28503961"}}, {"type": "Feature", "geometry": {"type": "LineString", "coordinates": [[-144.58527956349667, 69.04084544643302], [-144.5961489324362, 69.04088649167525]]}, "properties": {"source": "32080825", "target": "730421"}}, {"type": "Feature", "geometry": {"type": "LineString", "coordinates": [[-144.58527956349667, 69.04084544643302], [-144.58280036651513, 69.04079333802588]]}, "properties": {"source": "32080825", "target": "14433748"}}, {"type": "Feature", "geometry": {"type": "LineString", "coordinates": [[-144.59593747707095, 69.041833869388], [-144.59733231804202, 69.03968643107348]]}, "properties": {"source": "31018009", "target": "32055615"}}, {"type": "Feature", "geometry": {"type": "LineString", "coordinates": [[-144.59593747707095, 69.041833869388], [-144.5892174250959, 69.03902528256293]]}, "properties": {"source": "31018009", "target": "35469675"}}, {"type": "Feature", "geometry": {"type": "LineString", "coordinates": [[-144.59593747707095, 69.041833869388], [-144.59385283436248, 69.04206825074743]]}, "properties": {"source": "31018009", "target": "25659394"}}, {"type": "Feature", "geometry": {"type": "LineString", "coordinates": [[-144.5915541570215, 69.03945287874205], [-144.5824478651412, 69.04111906177346]]}, "properties": {"source": "29386262", "target": "6227146"}}, {"type": "Feature", "geometry": {"type": "LineString", "coordinates": [[-144.58738768079166, 69.04273359818254], [-144.59733231804202, 69.03968643107348]]}, "properties": {"source": "8075531", "target": "32055615"}}, {"type": "Feature", "geometry": {"type": "LineString", "coordinates": [[-144.58738768079166, 69.04273359818254], [-144.5892174250959, 69.03902528256293]]}, "properties": {"source": "8075531", "target": "35469675"}}, {"type": "Feature", "geometry": {"type": "LineString", "coordinates": [[-144.58738768079166, 69.04273359818254], [-144.59642293478447, 69.03819743253572]]}, "properties": {"source": "8075531", "target": "32073470"}}, {"type": "Feature", "geometry": {"type": "LineString", "coordinates": [[-144.58738768079166, 69.04273359818254], [-144.59005583716734, 69.04229004384027]]}, "properties": {"source": "8075531", "target": "6756286"}}, {"type": "Feature", "geometry": {"type": "LineString", "coordinates": [[-144.59580827026258, 69.04229492426714], [-144.59593747707095, 69.041833869388]]}, "properties": {"source": "17946671", "target": "31018009"}}, {"type": "Feature", "geometry": {"type": "LineString", "coordinates": [[-144.59580827026258, 69.04229492426714], [-144.59262106674274, 69.03987283071268]]}, "properties": {"source": "17946671", "target": "4949080"}}, {"type": "Feature", "geometry": {"type": "LineString", "coordinates": [[-144.59580827026258, 69.04229492426714], [-144.5892174250959, 69.03902528256293]]}, "properties": {"source": "17946671", "target": "35469675"}}, {"type": "Feature", "geometry": {"type": "LineString", "coordinates": [[-144.59580827026258, 69.04229492426714], [-144.59385283436248, 69.04206825074743]]}, "properties": {"source": "17946671", "target": "25659394"}}, {"type": "Feature", "geometry": {"type": "LineString", "coordinates": [[-144.59580827026258, 69.04229492426714], [-144.59937213786662, 69.04042148125143]]}, "properties": {"source": "17946671", "target": "23116515"}}, {"type": "Feature", "geometry": {"type": "LineString", "coordinates": [[-144.5824478651412, 69.04111906177346], [-144.58723022742413, 69.04234417562492]]}, "properties": {"source": "6227146", "target": "33616180"}}, {"type": "Feature", "geometry": {"type": "LineString", "coordinates": [[-144.5824478651412, 69.04111906177346], [-144.58617179163488, 69.04138279347788]]}, "properties": {"source": "6227146", "target": "29657507"}}, {"type": "Feature", "geometry": {"type": "LineString", "coordinates": [[-144.58969204282488, 69.03879861827477], [-144.59625381317807, 69.03947044652236]]}, "properties": {"source": "14999817", "target": "13260960"}}, {"type": "Feature", "geometry": {"type": "LineString", "coordinates": [[-144.58969204282488, 69.03879861827477], [-144.58484503621878, 69.03793168723388]]}, "properties": {"source": "14999817", "target": "17471116"}}, {"type": "Feature", "geometry": {"type": "LineString", "coordinates": [[-144.58969204282488, 69.03879861827477], [-144.59267454985172, 69.04083307275374]]}, "properties": {"source": "14999817", "target": "18051297"}}, {"type": "Feature", "geometry": {"type": "LineString", "coordinates": [[-144.59313178011467, 69.03751906376263], [-144.5892174250959, 69.03902528256293]]}, "properties": {"source": "25810704", "target": "35469675"}}, {"type": "Feature", "geometry": {"type": "LineString", "coordinates": [[-144.59406403442537, 69.04161347583036], [-144.59733231804202, 69.03968643107348]]}, "properties": {"source": "29662493", "target": "32055615"}}, {"type": "Feature", "geometry": {"type": "LineString", "coordinates": [[-144.59406403442537, 69.04161347583036], [-144.58723022742413, 69.04234417562492]]}, "properties": {"source": "29662493", "target": "33616180"}}, {"type": "Feature", "geometry": {"type": "LineString", "coordinates": [[-144.59406403442537, 69.04161347583036], [-144.5915541570215, 69.03945287874205]]}, "properties": {"source": "29662493", "target": "29386262"}}, {"type": "Feature", "geometry": {"type": "LineString", "coordinates": [[-144.59406403442537, 69.04161347583036], [-144.58617179163488, 69.04138279347788]]}, "properties": {"source": "29662493", "target": "29657507"}}, {"type": "Feature", "geometry": {"type": "LineString", "coordinates": [[-144.59406403442537, 69.04161347583036], [-144.5824478651412, 69.04111906177346]]}, "properties": {"source": "29662493", "target": "6227146"}}, {"type": "Feature", "geometry": {"type": "LineString", "coordinates": [[-144.59262106674274, 69.03987283071268], [-144.58139984083402, 69.03878710514698]]}, "properties": {"source": "4949080", "target": "19484529"}}, {"type": "Feature", "geometry": {"type": "LineString", "coordinates": [[-144.59262106674274, 69.03987283071268], [-144.59313178011467, 69.03751906376263]]}, "properties": {"source": "4949080", "target": "25810704"}}, {"type": "Feature", "geometry": {"type": "LineString", "coordinates": [[-144.59262106674274, 69.03987283071268], [-144.59203547015088, 69.03956176802109]]}, "properties": {"source": "4949080", "target": "28503961"}}, {"type": "Feature", "geometry": {"type": "LineString", "coordinates": [[-144.59262106674274, 69.03987283071268], [-144.5961489324362, 69.04088649167525]]}, "properties": {"source": "4949080", "target": "730421"}}, {"type": "Feature", "geometry": {"type": "LineString", "coordinates": [[-144.59262106674274, 69.03987283071268], [-144.58280036651513, 69.04079333802588]]}, "properties": {"source": "4949080", "target": "14433748"}}, {"type": "Feature", "geometry": {"type": "LineString", "coordinates": [[-144.59733231804202, 69.03968643107348], [-144.59005583716734, 69.04229004384027]]}, "properties": {"source": "32055615", "target": "6756286"}}, {"type": "Feature", "geometry": {"type": "LineString", "coordinates": [[-144.59733231804202, 69.03968643107348], [-144.58723022742413, 69.04234417562492]]}, "properties": {"source": "32055615", "target": "33616180"}}, {"type": "Feature", "geometry": {"type": "LineString", "coordinates": [[-144.59733231804202, 69.03968643107348], [-144.5847580991061, 69.03854222530526]]}, "properties": {"source": "32055615", "target": "23375579"}}, {"type": "Feature", "geometry": {"type": "LineString", "coordinates": [[-144.5892174250959, 69.03902528256293], [-144.59733231804202, 69.03968643107348]]}, "properties": {"source": "35469675", "target": "32055615"}}, {"type": "Feature", "geometry": {"type": "LineString", "coordinates": [[-144.5892174250959, 69.03902528256293], [-144.59005583716734, 69.04229004384027]]}, "properties": {"source": "35469675", "target": "6756286"}}, {"type": "Feature", "geometry": {"type": "LineString", "coordinates": [[-144.5892174250959, 69.03902528256293], [-144.5941869307115, 69.03738682870392]]}, "properties": {"source": "35469675", "target": "17298365"}}, {"type": "Feature", "geometry": {"type": "LineString", "coordinates": [[-144.5892174250959, 69.03902528256293], [-144.59557521040472, 69.04054907220598]]}, "properties": {"source": "35469675", "target": "25108545"}}, {"type": "Feature", "geometry": {"type": "LineString", "coordinates": [[-144.5892174250959, 69.03902528256293], [-144.58139984083402, 69.03878710514698]]}, "properties": {"source": "35469675", "target": "19484529"}}, {"type": "Feature", "geometry": {"type": "LineString", "coordinates": [[-144.5892174250959, 69.03902528256293], [-144.5961489324362, 69.04088649167525]]}, "properties": {"source": "35469675", "target": "730421"}}, {"type": "Feature", "geometry": {"type": "LineString", "coordinates": [[-144.59385283436248, 69.04206825074743], [-144.59733231804202, 69.03968643107348]]}, "properties": {"source": "25659394", "target": "32055615"}}, {"type": "Feature", "geometry": {"type": "LineString", "coordinates": [[-144.59385283436248, 69.04206825074743], [-144.5892174250959, 69.03902528256293]]}, "properties": {"source": "25659394", "target": "35469675"}}, {"type": "Feature", "geometry": {"type": "LineString", "coordinates": [[-144.59454024248308, 69.03989431594235], [-144.58738768079166, 69.04273359818254]]}, "properties": {"source": "26450657", "target": "8075531"}}, {"type": "Feature", "geometry": {"type": "LineString", "coordinates": [[-144.59454024248308, 69.03989431594235], [-144.59869928113184, 69.04308789348957]]}, "properties": {"source": "26450657", "target": "25319257"}}, {"type": "Feature", "geometry": {"type": "LineString", "coordinates": [[-144.59454024248308, 69.03989431594235], [-144.59729978636358, 69.03963957127038]]}, "properties": {"source": "26450657", "target": "18594402"}}, {"type": "Feature", "geometry": {"type": "LineString", "coordinates": [[-144.59454024248308, 69.03989431594235], [-144.58139984083402, 69.03878710514698]]}, "properties": {"source": "26450657", "target": "19484529"}}, {"type": "Feature", "geometry": {"type": "LineString", "coordinates": [[-144.59454024248308, 69.03989431594235], [-144.59313178011467, 69.03751906376263]]}, "properties": {"source": "26450657", "target": "25810704"}}, {"type": "Feature", "geometry": {"type": "LineString", "coordinates": [[-144.59937213786662, 69.04042148125143], [-144.5892174250959, 69.03902528256293]]}, "properties": {"source": "23116515", "target": "35469675"}}, {"type": "Feature", "geometry": {"type": "LineString", "coordinates": [[-144.59937213786662, 69.04042148125143], [-144.59385283436248, 69.04206825074743]]}, "properties": {"source": "23116515", "target": "25659394"}}, {"type": "Feature", "geometry": {"type": "LineString", "coordinates": [[-144.59937213786662, 69.04042148125143], [-144.59642293478447, 69.03819743253572]]}, "properties": {"source": "23116515", "target": "32073470"}}, {"type": "Feature", "geometry": {"type": "LineString", "coordinates": [[-144.59937213786662, 69.04042148125143], [-144.59005583716734, 69.04229004384027]]}, "properties": {"source": "23116515", "target": "6756286"}}, {"type": "Feature", "geometry": {"type": "LineString", "coordinates": [[-144.59937213786662, 69.04042148125143], [-144.5975342402505, 69.03761312824352]]}, "properties": {"source": "23116515", "target": "25520083"}}, {"type": "Feature", "geometry": {"type": "LineString", "coordinates": [[-144.59937213786662, 69.04042148125143], [-144.5941869307115, 69.03738682870392]]}, "properties": {"source": "23116515", "target": "17298365"}}, {"type": "Feature", "geometry": {"type": "LineString", "coordinates": [[-144.59722992909028, 69.04079946640258], [-144.59733231804202, 69.03968643107348]]}, "properties": {"source": "23595051", "target": "32055615"}}, {"type": "Feature", "geometry": {"type": "LineString", "coordinates": [[-144.59722992909028, 69.04079946640258], [-144.58491346191113, 69.03769732970167]]}, "properties": {"source": "23595051", "target": "23769357"}}, {"type": "Feature", "geometry": {"type": "LineString", "coordinates": [[-144.59722992909028, 69.04079946640258], [-144.59228660810072, 69.04253662677496]]}, "properties": {"source": "23595051", "target": "22730624"}}, {"type": "Feature", "geometry": {"type": "LineString", "coordinates": [[-144.59228660810072, 69.04253662677496], [-144.59733231804202, 69.03968643107348]]}, "properties": {"source": "22730624", "target": "32055615"}}, {"type": "Feature", "geometry": {"type": "LineString", "coordinates": [[-144.59580827026258, 69.04229492426714], [-144.58527956349667, 69.04084544643302]]}, "properties": {"source": "17946671", "target": "32080825"}}, {"type": "Feature", "geometry": {"type": "LineString", "coordinates": [[-144.59574180061162, 69.0433304968854], [-144.5918025966448, 69.04098662688807]]}, "properties": {"source": "28182116", "target": "26345758"}}, {"type": "Feature", "geometry": {"type": "LineString", "coordinates": [[-144.59574180061162, 69.0433304968854], [-144.5846117488664, 69.03990637746989]]}, "properties": {"source": "28182116", "target": "26345755"}}, {"type": "Feature", "geometry": {"type": "LineString", "coordinates": [[-144.59574180061162, 69.0433304968854], [-144.58339642547844, 69.03793659257272]]}, "properties": {"source": "28182116", "target": "25997442"}}, {"type": "Feature", "geometry": {"type": "LineString", "coordinates": [[-144.58491346191113, 69.03769732970167], [-144.59733231804202, 69.03968643107348]]}, "properties": {"source": "23769357", "target": "32055615"}}, {"type": "Feature", "geometry": {"type": "LineString", "coordinates": [[-144.58491346191113, 69.03769732970167], [-144.59228660810072, 69.04253662677496]]}, "properties": {"source": "23769357", "target": "22730624"}}, {"type": "Feature", "geometry": {"type": "LineString", "coordinates": [[-144.58491346191113, 69.03769732970167], [-144.58835007082905, 69.04065788371074]]}, "properties": {"source": "23769357", "target": "19111"}}, {"type": "Feature", "geometry": {"type": "LineString", "coordinates": [[-144.5918025966448, 69.04098662688807], [-144.5846117488664, 69.03990637746989]]}, "properties": {"source": "26345758", "target": "26345755"}}, {"type": "Feature", "geometry": {"type": "LineString", "coordinates": [[-144.5918025966448, 69.04098662688807], [-144.5822599791612, 69.03892616166283]]}, "properties": {"source": "26345758", "target": "25488352"}}, {"type": "Feature", "geometry": {"type": "LineString", "coordinates": [[-144.5915541570215, 69.03945287874205], [-144.59733231804202, 69.03968643107348]]}, "properties": {"source": "29386262", "target": "32055615"}}, {"type": "Feature", "geometry": {"type": "LineString", "coordinates": [[-144.5915541570215, 69.03945287874205], [-144.58723022742413, 69.04234417562492]]}, "properties": {"source": "29386262", "target": "33616180"}}, {"type": "Feature", "geometry": {"type": "LineString", "coordinates": [[-144.5915541570215, 69.03945287874205], [-144.58617179163488, 69.04138279347788]]}, "properties": {"source": "29386262", "target": "29657507"}}, {"type": "Feature", "geometry": {"type": "LineString", "coordinates": [[-144.58722445938756, 69.04010193107365], [-144.5912222769918, 69.03790943015494]]}, "properties": {"source": "29641003", "target": "2770067"}}, {"type": "Feature", "geometry": {"type": "LineString", "coordinates": [[-144.58722445938756, 69.04010193107365], [-144.59590122225012, 69.03905188368839]]}, "properties": {"source": "29641003", "target": "29337682"}}, {"type": "Feature", "geometry": {"type": "LineString", "coordinates": [[-144.58722445938756, 69.04010193107365], [-144.59203547015088, 69.03956176802109]]}, "properties": {"source": "29641003", "target": "28503961"}}, {"type": "Feature", "geometry": {"type": "LineString", "coordinates": [[-144.59642293478447, 69.03819743253572], [-144.59733231804202, 69.03968643107348]]}, "properties": {"source": "32073470", "target": "32055615"}}, {"type": "Feature", "geometry": {"type": "LineString", "coordinates": [[-144.59642293478447, 69.03819743253572], [-144.5892174250959, 69.03902528256293]]}, "properties": {"source": "32073470", "target": "35469675"}}, {"type": "Feature", "geometry": {"type": "LineString", "coordinates": [[-144.60013010788208, 69.03882354016204], [-144.58852815134924, 69.03873282223933]]}, "properties": {"source": "24299140", "target": "24293479"}}, {"type": "Feature", "geometry": {"type": "LineString", "coordinates": [[-144.59925594429865, 69.04218322785289], [-144.59095378890467, 69.03813131781422]]}, "properties": {"source": "22352864", "target": "1629727"}}, {"type": "Feature", "geometry": {"type": "LineString", "coordinates": [[-144.59925594429865, 69.04218322785289], [-144.59884897768038, 69.0390943395642]]}, "properties": {"source": "22352864", "target": "1562640"}}, {"type": "Feature", "geometry": {"type": "LineString", "coordinates": [[-144.59925594429865, 69.04218322785289], [-144.58717050428675, 69.04123600398853]]}, "properties": {"source": "22352864", "target": "30212040"}}, {"type": "Feature", "geometry": {"type": "LineString", "coordinates": [[-144.59095378890467, 69.03813131781422], [-144.58723022742413, 69.04234417562492]]}, "properties": {"source": "1629727", "target": "33616180"}}, {"type": "Feature", "geometry": {"type": "LineString", "coordinates": [[-144.59095378890467, 69.03813131781422], [-144.59884897768038, 69.0390943395642]]}, "properties": {"source": "1629727", "target": "1562640"}}, {"type": "Feature", "geometry": {"type": "LineString", "coordinates": [[-144.58510677045837, 69.03723526481676], [-144.58446883241018, 69.03992000572345]]}, "properties": {"source": "8016836", "target": "18272544"}}, {"type": "Feature", "geometry": {"type": "LineString", "coordinates": [[-144.58510677045837, 69.03723526481676], [-144.60013010788208, 69.03882354016204]]}, "properties": {"source": "8016836", "target": "24299140"}}, {"type": "Feature", "geometry": {"type": "LineString", "coordinates": [[-144.58510677045837, 69.03723526481676], [-144.58852815134924, 69.03873282223933]]}, "properties": {"source": "8016836", "target": "24293479"}}, {"type": "Feature", "geometry": {"type": "LineString", "coordinates": [[-144.5833308506957, 69.03744078457319], [-144.59625381317807, 69.03947044652236]]}, "properties": {"source": "4368260", "target": "13260960"}}, {"type": "Feature", "geometry": {"type": "LineString", "coordinates": [[-144.5833308506957, 69.03744078457319], [-144.58384509829415, 69.0408191279343]]}, "properties": {"source": "4368260", "target": "674530"}}, {"type": "Feature", "geometry": {"type": "LineString", "coordinates": [[-144.59848713828163, 69.04272070708566], [-144.5886424672595, 69.03946683274063]]}, "properties": {"source": "24109328", "target": "17993529"}}, {"type": "Feature", "geometry": {"type": "LineString", "coordinates": [[-144.59848713828163, 69.04272070708566], [-144.59722992909028, 69.04079946640258]]}, "properties": {"source": "24109328", "target": "23595051"}}, {"type": "Feature", "geometry": {"type": "LineString", "coordinates": [[-144.59848713828163, 69.04272070708566], [-144.59228660810072, 69.04253662677496]]}, "properties": {"source": "24109328", "target": "22730624"}}, {"type": "Feature", "geometry": {"type": "LineString", "coordinates": [[-144.59848713828163, 69.04272070708566], [-144.58835007082905, 69.04065788371074]]}, "properties": {"source": "24109328", "target": "19111"}}, {"type": "Feature", "geometry": {"type": "LineString", "coordinates": [[-144.5928496040708, 69.04215060320104], [-144.58527956349667, 69.04084544643302]]}, "properties": {"source": "14475637", "target": "32080825"}}, {"type": "Feature", "geometry": {"type": "LineString", "coordinates": [[-144.59729978636358, 69.03963957127038], [-144.5892174250959, 69.03902528256293]]}, "properties": {"source": "18594402", "target": "35469675"}}, {"type": "Feature", "geometry": {"type": "LineString", "coordinates": [[-144.59729978636358, 69.03963957127038], [-144.59385283436248, 69.04206825074743]]}, "properties": {"source": "18594402", "target": "25659394"}}, {"type": "Feature", "geometry": {"type": "LineString", "coordinates": [[-144.59729978636358, 69.03963957127038], [-144.59937213786662, 69.04042148125143]]}, "properties": {"source": "18594402", "target": "23116515"}}, {"type": "Feature", "geometry": {"type": "LineString", "coordinates": [[-144.6000070698078, 69.04266776953753], [-144.59937213786662, 69.04042148125143]]}, "properties": {"source": "16235182", "target": "23116515"}}, {"type": "Feature", "geometry": {"type": "LineString", "coordinates": [[-144.6000070698078, 69.04266776953753], [-144.59625381317807, 69.03947044652236]]}, "properties": {"source": "16235182", "target": "13260960"}}, {"type": "Feature", "geometry": {"type": "LineString", "coordinates": [[-144.6000070698078, 69.04266776953753], [-144.58969204282488, 69.03879861827477]]}, "properties": {"source": "16235182", "target": "14999817"}}, {"type": "Feature", "geometry": {"type": "LineString", "coordinates": [[-144.59506226518863, 69.03729508647703], [-144.59733231804202, 69.03968643107348]]}, "properties": {"source": "30303786", "target": "32055615"}}, {"type": "Feature", "geometry": {"type": "LineString", "coordinates": [[-144.59506226518863, 69.03729508647703], [-144.5892174250959, 69.03902528256293]]}, "properties": {"source": "30303786", "target": "35469675"}}, {"type": "Feature", "geometry": {"type": "LineString", "coordinates": [[-144.59506226518863, 69.03729508647703], [-144.59642293478447, 69.03819743253572]]}, "properties": {"source": "30303786", "target": "32073470"}}, {"type": "Feature", "geometry": {"type": "LineString", "coordinates": [[-144.59506226518863, 69.03729508647703], [-144.59563913282258, 69.03825951283517]]}, "properties": {"source": "30303786", "target": "30231761"}}, {"type": "Feature", "geometry": {"type": "LineString", "coordinates": [[-144.59506226518863, 69.03729508647703], [-144.59961925213878, 69.03902245224637]]}, "properties": {"source": "30303786", "target": "24388397"}}, {"type": "Feature", "geometry": {"type": "LineString", "coordinates": [[-144.58527956349667, 69.04084544643302], [-144.59869928113184, 69.04308789348957]]}, "properties": {"source": "32080825", "target": "25319257"}}, {"type": "Feature", "geometry": {"type": "LineString", "coordinates": [[-144.58527956349667, 69.04084544643302], [-144.5941869307115, 69.03738682870392]]}, "properties": {"source": "32080825", "target": "17298365"}}, {"type": "Feature", "geometry": {"type": "LineString", "coordinates": [[-144.58527956349667, 69.04084544643302], [-144.5912222769918, 69.03790943015494]]}, "properties": {"source": "32080825", "target": "2770067"}}, {"type": "Feature", "geometry": {"type": "LineString", "coordinates": [[-144.58527956349667, 69.04084544643302], [-144.59590122225012, 69.03905188368839]]}, "properties": {"source": "32080825", "target": "29337682"}}, {"type": "Feature", "geometry": {"type": "LineString", "coordinates": [[-144.58527956349667, 69.04084544643302], [-144.59729978636358, 69.03963957127038]]}, "properties": {"source": "32080825", "target": "18594402"}}, {"type": "Feature", "geometry": {"type": "LineString", "coordinates": [[-144.59642293478447, 69.03819743253572], [-144.59005583716734, 69.04229004384027]]}, "properties": {"source": "32073470", "target": "6756286"}}, {"type": "Feature", "geometry": {"type": "LineString", "coordinates": [[-144.59642293478447, 69.03819743253572], [-144.59590122225012, 69.03905188368839]]}, "properties": {"source": "32073470", "target": "29337682"}}, {"type": "Feature", "geometry": {"type": "LineString", "coordinates": [[-144.594885876431, 69.0376298674311], [-144.59733231804202, 69.03968643107348]]}, "properties": {"source": "28964258", "target": "32055615"}}, {"type": "Feature", "geometry": {"type": "LineString", "coordinates": [[-144.594885876431, 69.0376298674311], [-144.58723022742413, 69.04234417562492]]}, "properties": {"source": "28964258", "target": "33616180"}}, {"type": "Feature", "geometry": {"type": "LineString", "coordinates": [[-144.594885876431, 69.0376298674311], [-144.58650329268406, 69.04069424964442]]}, "properties": {"source": "28964258", "target": "27180086"}}, {"type": "Feature", "geometry": {"type": "LineString", "coordinates": [[-144.594885876431, 69.0376298674311], [-144.5918025966448, 69.04098662688807]]}, "properties": {"source": "28964258", "target": "26345758"}}, {"type": "Feature", "geometry": {"type": "LineString", "coordinates": [[-144.594885876431, 69.0376298674311], [-144.5915541570215, 69.03945287874205]]}, "properties": {"source": "28964258", "target": "29386262"}}, {"type": "Feature", "geometry": {"type": "LineString", "coordinates": [[-144.594885876431, 69.0376298674311], [-144.58617179163488, 69.04138279347788]]}, "properties": {"source": "28964258", "target": "29657507"}}, {"type": "Feature", "geometry": {"type": "LineString", "coordinates": [[-144.594885876431, 69.0376298674311], [-144.5846117488664, 69.03990637746989]]}, "properties": {"source": "28964258", "target": "26345755"}}, {"type": "Feature", "geometry": {"type": "LineString", "coordinates": [[-144.594885876431, 69.0376298674311], [-144.59406403442537, 69.04161347583036]]}, "properties": {"source": "28964258", "target": "29662493"}}, {"type": "Feature", "geometry": {"type": "LineString", "coordinates": [[-144.594885876431, 69.0376298674311], [-144.5824478651412, 69.04111906177346]]}, "properties": {"source": "28964258", "target": "6227146"}}, {"type": "Feature", "geometry": {"type": "LineString", "coordinates": [[-144.59203547015088, 69.03956176802109], [-144.5892174250959, 69.03902528256293]]}, "properties": {"source": "28503961", "target": "35469675"}}, {"type": "Feature", "geometry": {"type": "LineString", "coordinates": [[-144.58261616913154, 69.03970974675417], [-144.58527956349667, 69.04084544643302]]}, "properties": {"source": "175166", "target": "32080825"}}, {"type": "Feature", "geometry": {"type": "LineString", "coordinates": [[-144.58261616913154, 69.03970974675417], [-144.59593747707095, 69.041833869388]]}, "properties": {"source": "175166", "target": "31018009"}}, {"type": "Feature", "geometry": {"type": "LineString", "coordinates": [[-144.58261616913154, 69.03970974675417], [-144.59262106674274, 69.03987283071268]]}, "properties": {"source": "175166", "target": "4949080"}}, {"type": "Feature", "geometry": {"type": "LineString", "coordinates": [[-144.58261616913154, 69.03970974675417], [-144.59937213786662, 69.04042148125143]]}, "properties": {"source": "175166", "target": "23116515"}}, {"type": "Feature", "geometry": {"type": "LineString", "coordinates": [[-144.58339642547844, 69.03793659257272], [-144.59733231804202, 69.03968643107348]]}, "properties": {"source": "25997442", "target": "32055615"}}, {"type": "Feature", "geometry": {"type": "LineString", "coordinates": [[-144.58339642547844, 69.03793659257272], [-144.60013010788208, 69.03882354016204]]}, "properties": {"source": "25997442", "target": "24299140"}}, {"type": "Feature", "geometry": {"type": "LineString", "coordinates": [[-144.58339642547844, 69.03793659257272], [-144.58852815134924, 69.03873282223933]]}, "properties": {"source": "25997442", "target": "24293479"}}, {"type": "Feature", "geometry": {"type": "LineString", "coordinates": [[-144.5912222769918, 69.03790943015494], [-144.59733231804202, 69.03968643107348]]}, "properties": {"source": "2770067", "target": "32055615"}}, {"type": "Feature", "geometry": {"type": "LineString", "coordinates": [[-144.5912222769918, 69.03790943015494], [-144.5892174250959, 69.03902528256293]]}, "properties": {"source": "2770067", "target": "35469675"}}, {"type": "Feature", "geometry": {"type": "LineString", "coordinates": [[-144.5912222769918, 69.03790943015494], [-144.59642293478447, 69.03819743253572]]}, "properties": {"source": "2770067", "target": "32073470"}}, {"type": "Feature", "geometry": {"type": "LineString", "coordinates": [[-144.5912222769918, 69.03790943015494], [-144.59005583716734, 69.04229004384027]]}, "properties": {"source": "2770067", "target": "6756286"}}, {"type": "Feature", "geometry": {"type": "LineString", "coordinates": [[-144.59590122225012, 69.03905188368839], [-144.59733231804202, 69.03968643107348]]}, "properties": {"source": "29337682", "target": "32055615"}}, {"type": "Feature", "geometry": {"type": "LineString", "coordinates": [[-144.59590122225012, 69.03905188368839], [-144.5892174250959, 69.03902528256293]]}, "properties": {"source": "29337682", "target": "35469675"}}, {"type": "Feature", "geometry": {"type": "LineString", "coordinates": [[-144.59590122225012, 69.03905188368839], [-144.59005583716734, 69.04229004384027]]}, "properties": {"source": "29337682", "target": "6756286"}}, {"type": "Feature", "geometry": {"type": "LineString", "coordinates": [[-144.5886424672595, 69.03946683274063], [-144.58482666503923, 69.04338601489866]]}, "properties": {"source": "17993529", "target": "25271567"}}, {"type": "Feature", "geometry": {"type": "LineString", "coordinates": [[-144.59593747707095, 69.041833869388], [-144.59937213786662, 69.04042148125143]]}, "properties": {"source": "31018009", "target": "23116515"}}, {"type": "Feature", "geometry": {"type": "LineString", "coordinates": [[-144.59593747707095, 69.041833869388], [-144.59642293478447, 69.03819743253572]]}, "properties": {"source": "31018009", "target": "32073470"}}, {"type": "Feature", "geometry": {"type": "LineString", "coordinates": [[-144.59593747707095, 69.041833869388], [-144.59005583716734, 69.04229004384027]]}, "properties": {"source": "31018009", "target": "6756286"}}, {"type": "Feature", "geometry": {"type": "LineString", "coordinates": [[-144.59593747707095, 69.041833869388], [-144.5880991333273, 69.03774448881248]]}, "properties": {"source": "31018009", "target": "818228"}}, {"type": "Feature", "geometry": {"type": "LineString", "coordinates": [[-144.59593747707095, 69.041833869388], [-144.5975342402505, 69.03761312824352]]}, "properties": {"source": "31018009", "target": "25520083"}}, {"type": "Feature", "geometry": {"type": "LineString", "coordinates": [[-144.59077881753154, 69.03721942754134], [-144.59625381317807, 69.03947044652236]]}, "properties": {"source": "9950359", "target": "13260960"}}, {"type": "Feature", "geometry": {"type": "LineString", "coordinates": [[-144.59003723256652, 69.04116778954491], [-144.5941869307115, 69.03738682870392]]}, "properties": {"source": "17858875", "target": "17298365"}}, {"type": "Feature", "geometry": {"type": "LineString", "coordinates": [[-144.59003723256652, 69.04116778954491], [-144.58675078508497, 69.04337093391149]]}, "properties": {"source": "17858875", "target": "17259378"}}, {"type": "Feature", "geometry": {"type": "LineString", "coordinates": [[-144.58675078508497, 69.04337093391149], [-144.5941869307115, 69.03738682870392]]}, "properties": {"source": "17259378", "target": "17298365"}}, {"type": "Feature", "geometry": {"type": "LineString", "coordinates": [[-144.59325994420144, 69.03942144385215], [-144.59625381317807, 69.03947044652236]]}, "properties": {"source": "3010497", "target": "13260960"}}, {"type": "Feature", "geometry": {"type": "LineString", "coordinates": [[-144.59325994420144, 69.03942144385215], [-144.5833308506957, 69.03744078457319]]}, "properties": {"source": "3010497", "target": "4368260"}}, {"type": "Feature", "geometry": {"type": "LineString", "coordinates": [[-144.58822532876175, 69.04154633634198], [-144.59733231804202, 69.03968643107348]]}, "properties": {"source": "23238050", "target": "32055615"}}, {"type": "Feature", "geometry": {"type": "LineString", "coordinates": [[-144.58822532876175, 69.04154633634198], [-144.5847580991061, 69.03854222530526]]}, "properties": {"source": "23238050", "target": "23375579"}}, {"type": "Feature", "geometry": {"type": "LineString", "coordinates": [[-144.59692768645232, 69.03868284589899], [-144.59869928113184, 69.04308789348957]]}, "properties": {"source": "15739250", "target": "25319257"}}, {"type": "Feature", "geometry": {"type": "LineString", "coordinates": [[-144.59692768645232, 69.03868284589899], [-144.5901131151998, 69.04100112513416]]}, "properties": {"source": "15739250", "target": "26027463"}}, {"type": "Feature", "geometry": {"type": "LineString", "coordinates": [[-144.59896421108496, 69.0408441811727], [-144.58222059602716, 69.0413388449546]]}, "properties": {"source": "16000974", "target": "31539522"}}, {"type": "Feature", "geometry": {"type": "LineString", "coordinates": [[-144.5886424672595, 69.03946683274063], [-144.58491346191113, 69.03769732970167]]}, "properties": {"source": "17993529", "target": "23769357"}}, {"type": "Feature", "geometry": {"type": "LineString", "coordinates": [[-144.5886424672595, 69.03946683274063], [-144.59722992909028, 69.04079946640258]]}, "properties": {"source": "17993529", "target": "23595051"}}, {"type": "Feature", "geometry": {"type": "LineString", "coordinates": [[-144.5886424672595, 69.03946683274063], [-144.59228660810072, 69.04253662677496]]}, "properties": {"source": "17993529", "target": "22730624"}}, {"type": "Feature", "geometry": {"type": "LineString", "coordinates": [[-144.5886424672595, 69.03946683274063], [-144.58835007082905, 69.04065788371074]]}, "properties": {"source": "17993529", "target": "19111"}}, {"type": "Feature", "geometry": {"type": "LineString", "coordinates": [[-144.59729978636358, 69.03963957127038], [-144.59593747707095, 69.041833869388]]}, "properties": {"source": "18594402", "target": "31018009"}}, {"type": "Feature", "geometry": {"type": "LineString", "coordinates": [[-144.58617179163488, 69.04138279347788], [-144.59733231804202, 69.03968643107348]]}, "properties": {"source": "29657507", "target": "32055615"}}, {"type": "Feature", "geometry": {"type": "LineString", "coordinates": [[-144.58617179163488, 69.04138279347788], [-144.58723022742413, 69.04234417562492]]}, "properties": {"source": "29657507", "target": "33616180"}}, {"type": "Feature", "geometry": {"type": "LineString", "coordinates": [[-144.59625381317807, 69.03947044652236], [-144.59267454985172, 69.04083307275374]]}, "properties": {"source": "13260960", "target": "18051297"}}, {"type": "Feature", "geometry": {"type": "LineString", "coordinates": [[-144.59869928113184, 69.04308789348957], [-144.5892174250959, 69.03902528256293]]}, "properties": {"source": "25319257", "target": "35469675"}}, {"type": "Feature", "geometry": {"type": "LineString", "coordinates": [[-144.59869928113184, 69.04308789348957], [-144.5901131151998, 69.04100112513416]]}, "properties": {"source": "25319257", "target": "26027463"}}, {"type": "Feature", "geometry": {"type": "LineString", "coordinates": [[-144.5846117488664, 69.03990637746989], [-144.5822599791612, 69.03892616166283]]}, "properties": {"source": "26345755", "target": "25488352"}}, {"type": "Feature", "geometry": {"type": "LineString", "coordinates": [[-144.59736039629152, 69.04116727718232], [-144.58650329268406, 69.04069424964442]]}, "properties": {"source": "26109110", "target": "27180086"}}, {"type": "Feature", "geometry": {"type": "LineString", "coordinates": [[-144.59736039629152, 69.04116727718232], [-144.59574180061162, 69.0433304968854]]}, "properties": {"source": "26109110", "target": "28182116"}}, {"type": "Feature", "geometry": {"type": "LineString", "coordinates": [[-144.59736039629152, 69.04116727718232], [-144.5918025966448, 69.04098662688807]]}, "properties": {"source": "26109110", "target": "26345758"}}, {"type": "Feature", "geometry": {"type": "LineString", "coordinates": [[-144.59736039629152, 69.04116727718232], [-144.5846117488664, 69.03990637746989]]}, "properties": {"source": "26109110", "target": "26345755"}}, {"type": "Feature", "geometry": {"type": "LineString", "coordinates": [[-144.59736039629152, 69.04116727718232], [-144.5822599791612, 69.03892616166283]]}, "properties": {"source": "26109110", "target": "25488352"}}, {"type": "Feature", "geometry": {"type": "LineString", "coordinates": [[-144.5928496040708, 69.04215060320104], [-144.59593747707095, 69.041833869388]]}, "properties": {"source": "14475637", "target": "31018009"}}, {"type": "Feature", "geometry": {"type": "LineString", "coordinates": [[-144.5928496040708, 69.04215060320104], [-144.59262106674274, 69.03987283071268]]}, "properties": {"source": "14475637", "target": "4949080"}}, {"type": "Feature", "geometry": {"type": "LineString", "coordinates": [[-144.5928496040708, 69.04215060320104], [-144.5892174250959, 69.03902528256293]]}, "properties": {"source": "14475637", "target": "35469675"}}, {"type": "Feature", "geometry": {"type": "LineString", "coordinates": [[-144.5928496040708, 69.04215060320104], [-144.59385283436248, 69.04206825074743]]}, "properties": {"source": "14475637", "target": "25659394"}}, {"type": "Feature", "geometry": {"type": "LineString", "coordinates": [[-144.5928496040708, 69.04215060320104], [-144.59454024248308, 69.03989431594235]]}, "properties": {"source": "14475637", "target": "26450657"}}, {"type": "Feature", "geometry": {"type": "LineString", "coordinates": [[-144.5928496040708, 69.04215060320104], [-144.59937213786662, 69.04042148125143]]}, "properties": {"source": "14475637", "target": "23116515"}}, {"type": "Feature", "geometry": {"type": "LineString", "coordinates": [[-144.5928496040708, 69.04215060320104], [-144.59642293478447, 69.03819743253572]]}, "properties": {"source": "14475637", "target": "32073470"}}, {"type": "Feature", "geometry": {"type": "LineString", "coordinates": [[-144.5928496040708, 69.04215060320104], [-144.5975342402505, 69.03761312824352]]}, "properties": {"source": "14475637", "target": "25520083"}}, {"type": "Feature", "geometry": {"type": "LineString", "coordinates": [[-144.5815878717606, 69.04033985197722], [-144.59733231804202, 69.03968643107348]]}, "properties": {"source": "26009770", "target": "32055615"}}, {"type": "Feature", "geometry": {"type": "LineString", "coordinates": [[-144.5815878717606, 69.04033985197722], [-144.58482666503923, 69.04338601489866]]}, "properties": {"source": "26009770", "target": "25271567"}}, {"type": "Feature", "geometry": {"type": "LineString", "coordinates": [[-144.5815878717606, 69.04033985197722], [-144.59574180061162, 69.0433304968854]]}, "properties": {"source": "26009770", "target": "28182116"}}, {"type": "Feature", "geometry": {"type": "LineString", "coordinates": [[-144.5815878717606, 69.04033985197722], [-144.58491346191113, 69.03769732970167]]}, "properties": {"source": "26009770", "target": "23769357"}}, {"type": "Feature", "geometry": {"type": "LineString", "coordinates": [[-144.5815878717606, 69.04033985197722], [-144.58339642547844, 69.03793659257272]]}, "properties": {"source": "26009770", "target": "25997442"}}, {"type": "Feature", "geometry": {"type": "LineString", "coordinates": [[-144.5815878717606, 69.04033985197722], [-144.5886424672595, 69.03946683274063]]}, "properties": {"source": "26009770", "target": "17993529"}}, {"type": "Feature", "geometry": {"type": "LineString", "coordinates": [[-144.5815878717606, 69.04033985197722], [-144.59722992909028, 69.04079946640258]]}, "properties": {"source": "26009770", "target": "23595051"}}, {"type": "Feature", "geometry": {"type": "LineString", "coordinates": [[-144.5815878717606, 69.04033985197722], [-144.59228660810072, 69.04253662677496]]}, "properties": {"source": "26009770", "target": "22730624"}}, {"type": "Feature", "geometry": {"type": "LineString", "coordinates": [[-144.59699755700177, 69.03790407039725], [-144.5918025966448, 69.04098662688807]]}, "properties": {"source": "25332003", "target": "26345758"}}, {"type": "Feature", "geometry": {"type": "LineString", "coordinates": [[-144.59699755700177, 69.03790407039725], [-144.5846117488664, 69.03990637746989]]}, "properties": {"source": "25332003", "target": "26345755"}}, {"type": "Feature", "geometry": {"type": "LineString", "coordinates": [[-144.59699755700177, 69.03790407039725], [-144.59736039629152, 69.04116727718232]]}, "properties": {"source": "25332003", "target": "26109110"}}, {"type": "Feature", "geometry": {"type": "LineString", "coordinates": [[-144.59699755700177, 69.03790407039725], [-144.5822599791612, 69.03892616166283]]}, "properties": {"source": "25332003", "target": "25488352"}}, {"type": "Feature", "geometry": {"type": "LineString", "coordinates": [[-144.58384509829415, 69.0408191279343], [-144.59625381317807, 69.03947044652236]]}, "properties": {"source": "674530", "target": "13260960"}}, {"type": "Feature", "geometry": {"type": "LineString", "coordinates": [[-144.58384509829415, 69.0408191279343], [-144.59003091179414, 69.0405074134558]]}, "properties": {"source": "674530", "target": "889789"}}, {"type": "Feature", "geometry": {"type": "LineString", "coordinates": [[-144.58384509829415, 69.0408191279343], [-144.59077881753154, 69.03721942754134]]}, "properties": {"source": "674530", "target": "9950359"}}, {"type": "Feature", "geometry": {"type": "LineString", "coordinates": [[-144.591410574308, 69.03913682756829], [-144.6000070698078, 69.04266776953753]]}, "properties": {"source": "13546416", "target": "16235182"}}, {"type": "Feature", "geometry": {"type": "LineString", "coordinates": [[-144.591410574308, 69.03913682756829], [-144.58969204282488, 69.03879861827477]]}, "properties": {"source": "13546416", "target": "14999817"}}, {"type": "Feature", "geometry": {"type": "LineString", "coordinates": [[-144.591410574308, 69.03913682756829], [-144.58484503621878, 69.03793168723388]]}, "properties": {"source": "13546416", "target": "17471116"}}, {"type": "Feature", "geometry": {"type": "LineString", "coordinates": [[-144.591410574308, 69.03913682756829], [-144.59267454985172, 69.04083307275374]]}, "properties": {"source": "13546416", "target": "18051297"}}, {"type": "Feature", "geometry": {"type": "LineString", "coordinates": [[-144.58484503621878, 69.03793168723388], [-144.59625381317807, 69.03947044652236]]}, "properties": {"source": "17471116", "target": "13260960"}}, {"type": "Feature", "geometry": {"type": "LineString", "coordinates": [[-144.58484503621878, 69.03793168723388], [-144.59267454985172, 69.04083307275374]]}, "properties": {"source": "17471116", "target": "18051297"}}, {"type": "Feature", "geometry": {"type": "LineString", "coordinates": [[-144.58446883241018, 69.03992000572345], [-144.58339642547844, 69.03793659257272]]}, "properties": {"source": "18272544", "target": "25997442"}}, {"type": "Feature", "geometry": {"type": "LineString", "coordinates": [[-144.58446883241018, 69.03992000572345], [-144.60013010788208, 69.03882354016204]]}, "properties": {"source": "18272544", "target": "24299140"}}, {"type": "Feature", "geometry": {"type": "LineString", "coordinates": [[-144.58446883241018, 69.03992000572345], [-144.58852815134924, 69.03873282223933]]}, "properties": {"source": "18272544", "target": "24293479"}}, {"type": "Feature", "geometry": {"type": "LineString", "coordinates": [[-144.59262106674274, 69.03987283071268], [-144.5912222769918, 69.03790943015494]]}, "properties": {"source": "4949080", "target": "2770067"}}, {"type": "Feature", "geometry": {"type": "LineString", "coordinates": [[-144.59262106674274, 69.03987283071268], [-144.59590122225012, 69.03905188368839]]}, "properties": {"source": "4949080", "target": "29337682"}}, {"type": "Feature", "geometry": {"type": "LineString", "coordinates": [[-144.59262106674274, 69.03987283071268], [-144.59729978636358, 69.03963957127038]]}, "properties": {"source": "4949080", "target": "18594402"}}, {"type": "Feature", "geometry": {"type": "LineString", "coordinates": [[-144.59262106674274, 69.03987283071268], [-144.6000070698078, 69.04266776953753]]}, "properties": {"source": "4949080", "target": "16235182"}}, {"type": "Feature", "geometry": {"type": "LineString", "coordinates": [[-144.59262106674274, 69.03987283071268], [-144.59557521040472, 69.04054907220598]]}, "properties": {"source": "4949080", "target": "25108545"}}, {"type": "Feature", "geometry": {"type": "LineString", "coordinates": [[-144.59593747707095, 69.041833869388], [-144.58738768079166, 69.04273359818254]]}, "properties": {"source": "31018009", "target": "8075531"}}, {"type": "Feature", "geometry": {"type": "LineString", "coordinates": [[-144.59593747707095, 69.041833869388], [-144.59869928113184, 69.04308789348957]]}, "properties": {"source": "31018009", "target": "25319257"}}, {"type": "Feature", "geometry": {"type": "LineString", "coordinates": [[-144.59593747707095, 69.041833869388], [-144.5941869307115, 69.03738682870392]]}, "properties": {"source": "31018009", "target": "17298365"}}, {"type": "Feature", "geometry": {"type": "LineString", "coordinates": [[-144.59593747707095, 69.041833869388], [-144.5912222769918, 69.03790943015494]]}, "properties": {"source": "31018009", "target": "2770067"}}, {"type": "Feature", "geometry": {"type": "LineString", "coordinates": [[-144.59593747707095, 69.041833869388], [-144.59590122225012, 69.03905188368839]]}, "properties": {"source": "31018009", "target": "29337682"}}, {"type": "Feature", "geometry": {"type": "LineString", "coordinates": [[-144.59593747707095, 69.041833869388], [-144.6000070698078, 69.04266776953753]]}, "properties": {"source": "31018009", "target": "16235182"}}, {"type": "Feature", "geometry": {"type": "LineString", "coordinates": [[-144.59593747707095, 69.041833869388], [-144.59506226518863, 69.03729508647703]]}, "properties": {"source": "31018009", "target": "30303786"}}, {"type": "Feature", "geometry": {"type": "LineString", "coordinates": [[-144.59593747707095, 69.041833869388], [-144.59557521040472, 69.04054907220598]]}, "properties": {"source": "31018009", "target": "25108545"}}, {"type": "Feature", "geometry": {"type": "LineString", "coordinates": [[-144.59593747707095, 69.041833869388], [-144.58139984083402, 69.03878710514698]]}, "properties": {"source": "31018009", "target": "19484529"}}, {"type": "Feature", "geometry": {"type": "LineString", "coordinates": [[-144.59593747707095, 69.041833869388], [-144.59313178011467, 69.03751906376263]]}, "properties": {"source": "31018009", "target": "25810704"}}, {"type": "Feature", "geometry": {"type": "LineString", "coordinates": [[-144.59593747707095, 69.041833869388], [-144.59203547015088, 69.03956176802109]]}, "properties": {"source": "31018009", "target": "28503961"}}, {"type": "Feature", "geometry": {"type": "LineString", "coordinates": [[-144.58566216623714, 69.04153185875734], [-144.59599758139035, 69.04343404774608]]}, "properties": {"source": "408914", "target": "15704409"}}, {"type": "Feature", "geometry": {"type": "LineString", "coordinates": [[-144.59563913282258, 69.03825951283517], [-144.59961925213878, 69.03902245224637]]}, "properties": {"source": "30231761", "target": "24388397"}}, {"type": "Feature", "geometry": {"type": "LineString", "coordinates": [[-144.59599758139035, 69.04343404774608], [-144.59557521040472, 69.04054907220598]]}, "properties": {"source": "15704409", "target": "25108545"}}, {"type": "Feature", "geometry": {"type": "LineString", "coordinates": [[-144.58656266403676, 69.03783633135001], [-144.5824478651412, 69.04111906177346]]}, "properties": {"source": "1245993", "target": "6227146"}}, {"type": "Feature", "geometry": {"type": "LineString", "coordinates": [[-144.5918149640245, 69.03894520694618], [-144.58491346191113, 69.03769732970167]]}, "properties": {"source": "20872216", "target": "23769357"}}, {"type": "Feature", "geometry": {"type": "LineString", "coordinates": [[-144.59262106674274, 69.03987283071268], [-144.5892174250959, 69.03902528256293]]}, "properties": {"source": "4949080", "target": "35469675"}}, {"type": "Feature", "geometry": {"type": "LineString", "coordinates": [[-144.59262106674274, 69.03987283071268], [-144.59385283436248, 69.04206825074743]]}, "properties": {"source": "4949080", "target": "25659394"}}, {"type": "Feature", "geometry": {"type": "LineString", "coordinates": [[-144.59262106674274, 69.03987283071268], [-144.59454024248308, 69.03989431594235]]}, "properties": {"source": "4949080", "target": "26450657"}}, {"type": "Feature", "geometry": {"type": "LineString", "coordinates": [[-144.59262106674274, 69.03987283071268], [-144.59937213786662, 69.04042148125143]]}, "properties": {"source": "4949080", "target": "23116515"}}, {"type": "Feature", "geometry": {"type": "LineString", "coordinates": [[-144.59262106674274, 69.03987283071268], [-144.59642293478447, 69.03819743253572]]}, "properties": {"source": "4949080", "target": "32073470"}}, {"type": "Feature", "geometry": {"type": "LineString", "coordinates": [[-144.59262106674274, 69.03987283071268], [-144.59005583716734, 69.04229004384027]]}, "properties": {"source": "4949080", "target": "6756286"}}, {"type": "Feature", "geometry": {"type": "LineString", "coordinates": [[-144.59262106674274, 69.03987283071268], [-144.5880991333273, 69.03774448881248]]}, "properties": {"source": "4949080", "target": "818228"}}, {"type": "Feature", "geometry": {"type": "LineString", "coordinates": [[-144.59262106674274, 69.03987283071268], [-144.5975342402505, 69.03761312824352]]}, "properties": {"source": "4949080", "target": "25520083"}}, {"type": "Feature", "geometry": {"type": "LineString", "coordinates": [[-144.59262106674274, 69.03987283071268], [-144.58738768079166, 69.04273359818254]]}, "properties": {"source": "4949080", "target": "8075531"}}, {"type": "Feature", "geometry": {"type": "LineString", "coordinates": [[-144.59262106674274, 69.03987283071268], [-144.59869928113184, 69.04308789348957]]}, "properties": {"source": "4949080", "target": "25319257"}}, {"type": "Feature", "geometry": {"type": "LineString", "coordinates": [[-144.59262106674274, 69.03987283071268], [-144.5941869307115, 69.03738682870392]]}, "properties": {"source": "4949080", "target": "17298365"}}, {"type": "Feature", "geometry": {"type": "LineString", "coordinates": [[-144.59593747707095, 69.041833869388], [-144.5961489324362, 69.04088649167525]]}, "properties": {"source": "31018009", "target": "730421"}}, {"type": "Feature", "geometry": {"type": "LineString", "coordinates": [[-144.59593747707095, 69.041833869388], [-144.58280036651513, 69.04079333802588]]}, "properties": {"source": "31018009", "target": "14433748"}}, {"type": "Feature", "geometry": {"type": "LineString", "coordinates": [[-144.59262106674274, 69.03987283071268], [-144.58527956349667, 69.04084544643302]]}, "properties": {"source": "4949080", "target": "32080825"}}, {"type": "Feature", "geometry": {"type": "LineString", "coordinates": [[-144.59262106674274, 69.03987283071268], [-144.59593747707095, 69.041833869388]]}, "properties": {"source": "4949080", "target": "31018009"}}, {"type": "Feature", "geometry": {"type": "LineString", "coordinates": [[-144.59262106674274, 69.03987283071268], [-144.59733231804202, 69.03968643107348]]}, "properties": {"source": "4949080", "target": "32055615"}}, {"type": "Feature", "geometry": {"type": "LineString", "coordinates": [[-144.59385283436248, 69.04206825074743], [-144.59642293478447, 69.03819743253572]]}, "properties": {"source": "25659394", "target": "32073470"}}, {"type": "Feature", "geometry": {"type": "LineString", "coordinates": [[-144.59385283436248, 69.04206825074743], [-144.59005583716734, 69.04229004384027]]}, "properties": {"source": "25659394", "target": "6756286"}}, {"type": "Feature", "geometry": {"type": "LineString", "coordinates": [[-144.59385283436248, 69.04206825074743], [-144.5975342402505, 69.03761312824352]]}, "properties": {"source": "25659394", "target": "25520083"}}, {"type": "Feature", "geometry": {"type": "LineString", "coordinates": [[-144.59385283436248, 69.04206825074743], [-144.59869928113184, 69.04308789348957]]}, "properties": {"source": "25659394", "target": "25319257"}}, {"type": "Feature", "geometry": {"type": "LineString", "coordinates": [[-144.59385283436248, 69.04206825074743], [-144.5941869307115, 69.03738682870392]]}, "properties": {"source": "25659394", "target": "17298365"}}, {"type": "Feature", "geometry": {"type": "LineString", "coordinates": [[-144.59385283436248, 69.04206825074743], [-144.59557521040472, 69.04054907220598]]}, "properties": {"source": "25659394", "target": "25108545"}}, {"type": "Feature", "geometry": {"type": "LineString", "coordinates": [[-144.59385283436248, 69.04206825074743], [-144.58139984083402, 69.03878710514698]]}, "properties": {"source": "25659394", "target": "19484529"}}, {"type": "Feature", "geometry": {"type": "LineString", "coordinates": [[-144.59454024248308, 69.03989431594235], [-144.59593747707095, 69.041833869388]]}, "properties": {"source": "26450657", "target": "31018009"}}, {"type": "Feature", "geometry": {"type": "LineString", "coordinates": [[-144.59454024248308, 69.03989431594235], [-144.59733231804202, 69.03968643107348]]}, "properties": {"source": "26450657", "target": "32055615"}}, {"type": "Feature", "geometry": {"type": "LineString", "coordinates": [[-144.59454024248308, 69.03989431594235], [-144.5892174250959, 69.03902528256293]]}, "properties": {"source": "26450657", "target": "35469675"}}, {"type": "Feature", "geometry": {"type": "LineString", "coordinates": [[-144.59454024248308, 69.03989431594235], [-144.59385283436248, 69.04206825074743]]}, "properties": {"source": "26450657", "target": "25659394"}}, {"type": "Feature", "geometry": {"type": "LineString", "coordinates": [[-144.59454024248308, 69.03989431594235], [-144.59937213786662, 69.04042148125143]]}, "properties": {"source": "26450657", "target": "23116515"}}, {"type": "Feature", "geometry": {"type": "LineString", "coordinates": [[-144.59454024248308, 69.03989431594235], [-144.59642293478447, 69.03819743253572]]}, "properties": {"source": "26450657", "target": "32073470"}}, {"type": "Feature", "geometry": {"type": "LineString", "coordinates": [[-144.59454024248308, 69.03989431594235], [-144.59005583716734, 69.04229004384027]]}, "properties": {"source": "26450657", "target": "6756286"}}, {"type": "Feature", "geometry": {"type": "LineString", "coordinates": [[-144.59454024248308, 69.03989431594235], [-144.5880991333273, 69.03774448881248]]}, "properties": {"source": "26450657", "target": "818228"}}, {"type": "Feature", "geometry": {"type": "LineString", "coordinates": [[-144.59454024248308, 69.03989431594235], [-144.5975342402505, 69.03761312824352]]}, "properties": {"source": "26450657", "target": "25520083"}}, {"type": "Feature", "geometry": {"type": "LineString", "coordinates": [[-144.58722445938756, 69.04010193107365], [-144.59733231804202, 69.03968643107348]]}, "properties": {"source": "29641003", "target": "32055615"}}, {"type": "Feature", "geometry": {"type": "LineString", "coordinates": [[-144.58722445938756, 69.04010193107365], [-144.5892174250959, 69.03902528256293]]}, "properties": {"source": "29641003", "target": "35469675"}}, {"type": "Feature", "geometry": {"type": "LineString", "coordinates": [[-144.58722445938756, 69.04010193107365], [-144.59385283436248, 69.04206825074743]]}, "properties": {"source": "29641003", "target": "25659394"}}, {"type": "Feature", "geometry": {"type": "LineString", "coordinates": [[-144.58722445938756, 69.04010193107365], [-144.59454024248308, 69.03989431594235]]}, "properties": {"source": "29641003", "target": "26450657"}}, {"type": "Feature", "geometry": {"type": "LineString", "coordinates": [[-144.58722445938756, 69.04010193107365], [-144.59937213786662, 69.04042148125143]]}, "properties": {"source": "29641003", "target": "23116515"}}, {"type": "Feature", "geometry": {"type": "LineString", "coordinates": [[-144.58722445938756, 69.04010193107365], [-144.59642293478447, 69.03819743253572]]}, "properties": {"source": "29641003", "target": "32073470"}}, {"type": "Feature", "geometry": {"type": "LineString", "coordinates": [[-144.58722445938756, 69.04010193107365], [-144.59005583716734, 69.04229004384027]]}, "properties": {"source": "29641003", "target": "6756286"}}, {"type": "Feature", "geometry": {"type": "LineString", "coordinates": [[-144.58722445938756, 69.04010193107365], [-144.5880991333273, 69.03774448881248]]}, "properties": {"source": "29641003", "target": "818228"}}, {"type": "Feature", "geometry": {"type": "LineString", "coordinates": [[-144.58722445938756, 69.04010193107365], [-144.5975342402505, 69.03761312824352]]}, "properties": {"source": "29641003", "target": "25520083"}}, {"type": "Feature", "geometry": {"type": "LineString", "coordinates": [[-144.58722445938756, 69.04010193107365], [-144.5928496040708, 69.04215060320104]]}, "properties": {"source": "29641003", "target": "14475637"}}, {"type": "Feature", "geometry": {"type": "LineString", "coordinates": [[-144.58722445938756, 69.04010193107365], [-144.59869928113184, 69.04308789348957]]}, "properties": {"source": "29641003", "target": "25319257"}}, {"type": "Feature", "geometry": {"type": "LineString", "coordinates": [[-144.59728744813964, 69.04238200462578], [-144.594885876431, 69.0376298674311]]}, "properties": {"source": "26543120", "target": "28964258"}}, {"type": "Feature", "geometry": {"type": "LineString", "coordinates": [[-144.59728744813964, 69.04238200462578], [-144.58650329268406, 69.04069424964442]]}, "properties": {"source": "26543120", "target": "27180086"}}, {"type": "Feature", "geometry": {"type": "LineString", "coordinates": [[-144.59728744813964, 69.04238200462578], [-144.59574180061162, 69.0433304968854]]}, "properties": {"source": "26543120", "target": "28182116"}}, {"type": "Feature", "geometry": {"type": "LineString", "coordinates": [[-144.59728744813964, 69.04238200462578], [-144.5918025966448, 69.04098662688807]]}, "properties": {"source": "26543120", "target": "26345758"}}, {"type": "Feature", "geometry": {"type": "LineString", "coordinates": [[-144.59728744813964, 69.04238200462578], [-144.5915541570215, 69.03945287874205]]}, "properties": {"source": "26543120", "target": "29386262"}}, {"type": "Feature", "geometry": {"type": "LineString", "coordinates": [[-144.59728744813964, 69.04238200462578], [-144.58617179163488, 69.04138279347788]]}, "properties": {"source": "26543120", "target": "29657507"}}, {"type": "Feature", "geometry": {"type": "LineString", "coordinates": [[-144.59728744813964, 69.04238200462578], [-144.5846117488664, 69.03990637746989]]}, "properties": {"source": "26543120", "target": "26345755"}}, {"type": "Feature", "geometry": {"type": "LineString", "coordinates": [[-144.59728744813964, 69.04238200462578], [-144.59736039629152, 69.04116727718232]]}, "properties": {"source": "26543120", "target": "26109110"}}, {"type": "Feature", "geometry": {"type": "LineString", "coordinates": [[-144.59728744813964, 69.04238200462578], [-144.5822599791612, 69.03892616166283]]}, "properties": {"source": "26543120", "target": "25488352"}}, {"type": "Feature", "geometry": {"type": "LineString", "coordinates": [[-144.58482666503923, 69.04338601489866], [-144.59574180061162, 69.0433304968854]]}, "properties": {"source": "25271567", "target": "28182116"}}, {"type": "Feature", "geometry": {"type": "LineString", "coordinates": [[-144.58482666503923, 69.04338601489866], [-144.58491346191113, 69.03769732970167]]}, "properties": {"source": "25271567", "target": "23769357"}}, {"type": "Feature", "geometry": {"type": "LineString", "coordinates": [[-144.58482666503923, 69.04338601489866], [-144.58339642547844, 69.03793659257272]]}, "properties": {"source": "25271567", "target": "25997442"}}, {"type": "Feature", "geometry": {"type": "LineString", "coordinates": [[-144.58482666503923, 69.04338601489866], [-144.59722992909028, 69.04079946640258]]}, "properties": {"source": "25271567", "target": "23595051"}}, {"type": "Feature", "geometry": {"type": "LineString", "coordinates": [[-144.58482666503923, 69.04338601489866], [-144.59228660810072, 69.04253662677496]]}, "properties": {"source": "25271567", "target": "22730624"}}, {"type": "Feature", "geometry": {"type": "LineString", "coordinates": [[-144.58482666503923, 69.04338601489866], [-144.58835007082905, 69.04065788371074]]}, "properties": {"source": "25271567", "target": "19111"}}, {"type": "Feature", "geometry": {"type": "LineString", "coordinates": [[-144.59574180061162, 69.0433304968854], [-144.58650329268406, 69.04069424964442]]}, "properties": {"source": "28182116", "target": "27180086"}}, {"type": "Feature", "geometry": {"type": "LineString", "coordinates": [[-144.5815878717606, 69.04033985197722], [-144.58835007082905, 69.04065788371074]]}, "properties": {"source": "26009770", "target": "19111"}}, {"type": "Feature", "geometry": {"type": "LineString", "coordinates": [[-144.58699228263742, 69.04135294195726], [-144.59733231804202, 69.03968643107348]]}, "properties": {"source": "28588028", "target": "32055615"}}, {"type": "Feature", "geometry": {"type": "LineString", "coordinates": [[-144.58699228263742, 69.04135294195726], [-144.594885876431, 69.0376298674311]]}, "properties": {"source": "28588028", "target": "28964258"}}, {"type": "Feature", "geometry": {"type": "LineString", "coordinates": [[-144.58699228263742, 69.04135294195726], [-144.58723022742413, 69.04234417562492]]}, "properties": {"source": "28588028", "target": "33616180"}}, {"type": "Feature", "geometry": {"type": "LineString", "coordinates": [[-144.58699228263742, 69.04135294195726], [-144.58650329268406, 69.04069424964442]]}, "properties": {"source": "28588028", "target": "27180086"}}, {"type": "Feature", "geometry": {"type": "LineString", "coordinates": [[-144.58699228263742, 69.04135294195726], [-144.5918025966448, 69.04098662688807]]}, "properties": {"source": "28588028", "target": "26345758"}}, {"type": "Feature", "geometry": {"type": "LineString", "coordinates": [[-144.58699228263742, 69.04135294195726], [-144.5915541570215, 69.03945287874205]]}, "properties": {"source": "28588028", "target": "29386262"}}, {"type": "Feature", "geometry": {"type": "LineString", "coordinates": [[-144.58699228263742, 69.04135294195726], [-144.58617179163488, 69.04138279347788]]}, "properties": {"source": "28588028", "target": "29657507"}}, {"type": "Feature", "geometry": {"type": "LineString", "coordinates": [[-144.58699228263742, 69.04135294195726], [-144.5846117488664, 69.03990637746989]]}, "properties": {"source": "28588028", "target": "26345755"}}, {"type": "Feature", "geometry": {"type": "LineString", "coordinates": [[-144.58699228263742, 69.04135294195726], [-144.59736039629152, 69.04116727718232]]}, "properties": {"source": "28588028", "target": "26109110"}}, {"type": "Feature", "geometry": {"type": "LineString", "coordinates": [[-144.58699228263742, 69.04135294195726], [-144.59406403442537, 69.04161347583036]]}, "properties": {"source": "28588028", "target": "29662493"}}, {"type": "Feature", "geometry": {"type": "LineString", "coordinates": [[-144.58650329268406, 69.04069424964442], [-144.5918025966448, 69.04098662688807]]}, "properties": {"source": "27180086", "target": "26345758"}}, {"type": "Feature", "geometry": {"type": "LineString", "coordinates": [[-144.58650329268406, 69.04069424964442], [-144.5915541570215, 69.03945287874205]]}, "properties": {"source": "27180086", "target": "29386262"}}, {"type": "Feature", "geometry": {"type": "LineString", "coordinates": [[-144.58650329268406, 69.04069424964442], [-144.58617179163488, 69.04138279347788]]}, "properties": {"source": "27180086", "target": "29657507"}}, {"type": "Feature", "geometry": {"type": "LineString", "coordinates": [[-144.58650329268406, 69.04069424964442], [-144.5846117488664, 69.03990637746989]]}, "properties": {"source": "27180086", "target": "26345755"}}, {"type": "Feature", "geometry": {"type": "LineString", "coordinates": [[-144.58650329268406, 69.04069424964442], [-144.59406403442537, 69.04161347583036]]}, "properties": {"source": "27180086", "target": "29662493"}}]}