{"type": "FeatureCollection", "features": [{"type": "Feature", "geometry": {"type": "LineString", "coordinates": [[-48.66619134766705, 69.0389093692304], [-48.66613970593076, 69.04111211807233]]}, "properties": {"source": "6791387", "target": "4054475"}}, {"type": "Feature", "geometry": {"type": "LineString", "coordinates": [[-48.65681395216893, 69.0379397116547], [-48.66385184973865, 69.0422821584072]]}, "properties": {"source": "6758490", "target": "7503525"}}, {"type": "Feature", "geometry": {"type": "LineString", "coordinates": [[-48.65681395216893, 69.0379397116547], [-48.659516896363584, 69.04164954978913]]}, "properties": {"source": "6758490", "target": "735551"}}, {"type": "Feature", "geometry": {"type": "LineString", "coordinates": [[-48.65681395216893, 69.0379397116547], [-48.65889254639566, 69.03860443908462]]}, "properties": {"source": "6758490", "target": "7961512"}}, {"type": "Feature", "geometry": {"type": "LineString", "coordinates": [[-48.65737966428895, 69.0414487232234], [-48.66385184973865, 69.0422821584072]]}, "properties": {"source": "951842", "target": "7503525"}}, {"type": "Feature", "geometry": {"type": "LineString", "coordinates": [[-48.65404638916118, 69.04259305731878], [-48.658974382880274, 69.04044133373199]]}, "properties": {"source": "685664", "target": "6385960"}}, {"type": "Feature", "geometry": {"type": "LineString", "coordinates": [[-48.664615594932116, 69.04187568599582], [-48.66385184973865, 69.0422821584072]]}, "properties": {"source": "7260408", "target": "7503525"}}, {"type": "Feature", "geometry": {"type": "LineString", "coordinates": [[-48.664615594932116, 69.04187568599582], [-48.65889254639566, 69.03860443908462]]}, "properties": {"source": "7260408", "target": "7961512"}}, {"type": "Feature", "geometry": {"type": "LineString", "coordinates": [[-48.65580409538097, 69.0402041561542], [-48.65346525668491, 69.03858328539175]]}, "properties": {"source": "44443", "target": "6318741"}}, {"type": "Feature", "geometry": {"type": "LineString", "coordinates": [[-48.65580409538097, 69.0402041561542], [-48.667368454838964, 69.04231140790432]]}, "properties": {"source": "44443", "target": "4694753"}}, {"type": "Feature", "geometry": {"type": "LineString", "coordinates": [[-48.66435204779489, 69.0405859514438], [-48.6504421329079, 69.04236827346384]]}, "properties": {"source": "28187212", "target": "30227941"}}, {"type": "Feature", "geometry": {"type": "LineString", "coordinates": [[-48.667368454838964, 69.04231140790432], [-48.65346525668491, 69.03858328539175]]}, "properties": {"source": "4694753", "target": "6318741"}}, {"type": "Feature", "geometry": {"type": "LineString", "coordinates": [[-48.65845318477483, 69.04235850850696], [-48.6672339038567, 69.03853347146784]]}, "properties": {"source": "18367405", "target": "235378"}}, {"type": "Feature", "geometry": {"type": "LineString", "coordinates": [[-48.66296046780187, 69.03728687760525], [-48.65706814221639, 69.040713269133]]}, "properties": {"source": "8985054", "target": "7168532"}}, {"type": "Feature", "geometry": {"type": "LineString", "coordinates": [[-48.666958651981474, 69.04153697938855], [-48.66567216927493, 69.04265462619381]]}, "properties": {"source": "15925683", "target": "852323"}}, {"type": "Feature", "geometry": {"type": "LineString", "coordinates": [[-48.650447798092415, 69.0395909644653], [-48.65889254639566, 69.03860443908462]]}, "properties": {"source": "1149409", "target": "7961512"}}, {"type": "Feature", "geometry": {"type": "LineString", "coordinates": [[-48.65620560941386, 69.03998176347864], [-48.65850046455793, 69.04048660600816]]}, "properties": {"source": "718646", "target": "889859"}}, {"type": "Feature", "geometry": {"type": "LineString", "coordinates": [[-48.65620560941386, 69.03998176347864], [-48.66733072742505, 69.04060870516815]]}, "properties": {"source": "718646", "target": "446848"}}, {"type": "Feature", "geometry": {"type": "LineString", "coordinates": [[-48.65620560941386, 69.03998176347864], [-48.66385184973865, 69.0422821584072]]}, "properties": {"source": "718646", "target": "7503525"}}, {"type": "Feature", "geometry": {"type": "LineString", "coordinates": [[-48.65620560941386, 69.03998176347864], [-48.659516896363584, 69.04164954978913]]}, "properties": {"source": "718646", "target": "735551"}}, {"type": "Feature", "geometry": {"type": "LineString", "coordinates": [[-48.65620560941386, 69.03998176347864], [-48.6593515069452, 69.03815833599643]]}, "properties": {"source": "718646", "target": "1252481"}}, {"type": "Feature", "geometry": {"type": "LineString", "coordinates": [[-48.65620560941386, 69.03998176347864], [-48.66741062827458, 69.0376841118341]]}, "properties": {"source": "718646", "target": "1252480"}}, {"type": "Feature", "geometry": {"type": "LineString", "coordinates": [[-48.65620560941386, 69.03998176347864], [-48.666074944669504, 69.03965952511115]]}, "properties": {"source": "718646", "target": "675539"}}, {"type": "Feature", "geometry": {"type": "LineString", "coordinates": [[-48.65620560941386, 69.03998176347864], [-48.662474970888695, 69.0419712783613]]}, "properties": {"source": "718646", "target": "764866"}}, {"type": "Feature", "geometry": {"type": "LineString", "coordinates": [[-48.65620560941386, 69.03998176347864], [-48.66289702242153, 69.03972225638765]]}, "properties": {"source": "718646", "target": "718454"}}, {"type": "Feature", "geometry": {"type": "LineString", "coordinates": [[-48.65620560941386, 69.03998176347864], [-48.65448955228152, 69.0386904934143]]}, "properties": {"source": "718646", "target": "207576"}}, {"type": "Feature", "geometry": {"type": "LineString", "coordinates": [[-48.65386473598508, 69.03941389980002], [-48.65254594183176, 69.03832550222347]]}, "properties": {"source": "547433", "target": "791928"}}, {"type": "Feature", "geometry": {"type": "LineString", "coordinates": [[-48.65386473598508, 69.03941389980002], [-48.666029934761724, 69.03792903041926]]}, "properties": {"source": "547433", "target": "791929"}}, {"type": "Feature", "geometry": {"type": "LineString", "coordinates": [[-48.65386473598508, 69.03941389980002], [-48.659691076646965, 69.04036086072179]]}, "properties": {"source": "547433", "target": "735550"}}, {"type": "Feature", "geometry": {"type": "LineString", "coordinates": [[-48.65386473598508, 69.03941389980002], [-48.656404257200535, 69.04136229024556]]}, "properties": {"source": "547433", "target": "847692"}}, {"type": "Feature", "geometry": {"type": "LineString", "coordinates": [[-48.65386473598508, 69.03941389980002], [-48.6654081173522, 69.0385737861287]]}, "properties": {"source": "547433", "target": "493082"}}, {"type": "Feature", "geometry": {"type": "LineString", "coordinates": [[-48.65386473598508, 69.03941389980002], [-48.66189079776271, 69.03960439756182]]}, "properties": {"source": "547433", "target": "1252496"}}, {"type": "Feature", "geometry": {"type": "LineString", "coordinates": [[-48.65254594183176, 69.03832550222347], [-48.65850046455793, 69.04048660600816]]}, "properties": {"source": "791928", "target": "889859"}}, {"type": "Feature", "geometry": {"type": "LineString", "coordinates": [[-48.65254594183176, 69.03832550222347], [-48.65569881756349, 69.03938688538378]]}, "properties": {"source": "791928", "target": "1252494"}}, {"type": "Feature", "geometry": {"type": "LineString", "coordinates": [[-48.65254594183176, 69.03832550222347], [-48.65889254639566, 69.03860443908462]]}, "properties": {"source": "791928", "target": "7961512"}}, {"type": "Feature", "geometry": {"type": "LineString", "coordinates": [[-48.666029934761724, 69.03792903041926], [-48.65254594183176, 69.03832550222347]]}, "properties": {"source": "791929", "target": "791928"}}, {"type": "Feature", "geometry": {"type": "LineString", "coordinates": [[-48.666029934761724, 69.03792903041926], [-48.659691076646965, 69.04036086072179]]}, "properties": {"source": "791929", "target": "735550"}}, {"type": "Feature", "geometry": {"type": "LineString", "coordinates": [[-48.666029934761724, 69.03792903041926], [-48.656404257200535, 69.04136229024556]]}, "properties": {"source": "791929", "target": "847692"}}, {"type": "Feature", "geometry": {"type": "LineString", "coordinates": [[-48.666029934761724, 69.03792903041926], [-48.6654081173522, 69.0385737861287]]}, "properties": {"source": "791929", "target": "493082"}}, {"type": "Feature", "geometry": {"type": "LineString", "coordinates": [[-48.666029934761724, 69.03792903041926], [-48.66189079776271, 69.03960439756182]]}, "properties": {"source": "791929", "target": "1252496"}}, {"type": "Feature", "geometry": {"type": "LineString", "coordinates": [[-48.666029934761724, 69.03792903041926], [-48.65620560941386, 69.03998176347864]]}, "properties": {"source": "791929", "target": "718646"}}, {"type": "Feature", "geometry": {"type": "LineString", "coordinates": [[-48.666029934761724, 69.03792903041926], [-48.65850046455793, 69.04048660600816]]}, "properties": {"source": "791929", "target": "889859"}}, {"type": "Feature", "geometry": {"type": "LineString", "coordinates": [[-48.666029934761724, 69.03792903041926], [-48.66733072742505, 69.04060870516815]]}, "properties": {"source": "791929", "target": "446848"}}, {"type": "Feature", "geometry": {"type": "LineString", "coordinates": [[-48.666029934761724, 69.03792903041926], [-48.65784584712384, 69.03862439395863]]}, "properties": {"source": "791929", "target": "1252495"}}, {"type": "Feature", "geometry": {"type": "LineString", "coordinates": [[-48.666029934761724, 69.03792903041926], [-48.65299920878667, 69.04083570238504]]}, "properties": {"source": "791929", "target": "1252475"}}, {"type": "Feature", "geometry": {"type": "LineString", "coordinates": [[-48.666029934761724, 69.03792903041926], [-48.659516896363584, 69.04164954978913]]}, "properties": {"source": "791929", "target": "735551"}}, {"type": "Feature", "geometry": {"type": "LineString", "coordinates": [[-48.666029934761724, 69.03792903041926], [-48.6593515069452, 69.03815833599643]]}, "properties": {"source": "791929", "target": "1252481"}}, {"type": "Feature", "geometry": {"type": "LineString", "coordinates": [[-48.666029934761724, 69.03792903041926], [-48.66758475394235, 69.0410747968221]]}, "properties": {"source": "791929", "target": "1252452"}}, {"type": "Feature", "geometry": {"type": "LineString", "coordinates": [[-48.65143504731793, 69.03976372435548], [-48.65346525668491, 69.03858328539175]]}, "properties": {"source": "6707941", "target": "6318741"}}, {"type": "Feature", "geometry": {"type": "LineString", "coordinates": [[-48.65143504731793, 69.03976372435548], [-48.66619134766705, 69.0389093692304]]}, "properties": {"source": "6707941", "target": "6791387"}}, {"type": "Feature", "geometry": {"type": "LineString", "coordinates": [[-48.65143504731793, 69.03976372435548], [-48.66613970593076, 69.04111211807233]]}, "properties": {"source": "6707941", "target": "4054475"}}, {"type": "Feature", "geometry": {"type": "LineString", "coordinates": [[-48.662474970888695, 69.0419712783613], [-48.65254594183176, 69.03832550222347]]}, "properties": {"source": "764866", "target": "791928"}}, {"type": "Feature", "geometry": {"type": "LineString", "coordinates": [[-48.662474970888695, 69.0419712783613], [-48.65850046455793, 69.04048660600816]]}, "properties": {"source": "764866", "target": "889859"}}, {"type": "Feature", "geometry": {"type": "LineString", "coordinates": [[-48.662474970888695, 69.0419712783613], [-48.659516896363584, 69.04164954978913]]}, "properties": {"source": "764866", "target": "735551"}}, {"type": "Feature", "geometry": {"type": "LineString", "coordinates": [[-48.662474970888695, 69.0419712783613], [-48.66289702242153, 69.03972225638765]]}, "properties": {"source": "764866", "target": "718454"}}, {"type": "Feature", "geometry": {"type": "LineString", "coordinates": [[-48.66289702242153, 69.03972225638765], [-48.65254594183176, 69.03832550222347]]}, "properties": {"source": "718454", "target": "791928"}}, {"type": "Feature", "geometry": {"type": "LineString", "coordinates": [[-48.66289702242153, 69.03972225638765], [-48.65850046455793, 69.04048660600816]]}, "properties": {"source": "718454", "target": "889859"}}, {"type": "Feature", "geometry": {"type": "LineString", "coordinates": [[-48.66289702242153, 69.03972225638765], [-48.659516896363584, 69.04164954978913]]}, "properties": {"source": "718454", "target": "735551"}}, {"type": "Feature", "geometry": {"type": "LineString", "coordinates": [[-48.658536575940246, 69.04183387171108], [-48.65669346765114, 69.03888342286382]]}, "properties": {"source": "9027911", "target": "7537975"}}, {"type": "Feature", "geometry": {"type": "LineString", "coordinates": [[-48.658536575940246, 69.04183387171108], [-48.6541077305761, 69.04158763747719]]}, "properties": {"source": "9027911", "target": "7980563"}}, {"type": "Feature", "geometry": {"type": "LineString", "coordinates": [[-48.65448955228152, 69.0386904934143], [-48.65254594183176, 69.03832550222347]]}, "properties": {"source": "207576", "target": "791928"}}, {"type": "Feature", "geometry": {"type": "LineString", "coordinates": [[-48.65448955228152, 69.0386904934143], [-48.66741062827458, 69.0376841118341]]}, "properties": {"source": "207576", "target": "1252480"}}, {"type": "Feature", "geometry": {"type": "LineString", "coordinates": [[-48.65706814221639, 69.040713269133], [-48.66385184973865, 69.0422821584072]]}, "properties": {"source": "7168532", "target": "7503525"}}, {"type": "Feature", "geometry": {"type": "LineString", "coordinates": [[-48.65706814221639, 69.040713269133], [-48.65143504731793, 69.03976372435548]]}, "properties": {"source": "7168532", "target": "6707941"}}, {"type": "Feature", "geometry": {"type": "LineString", "coordinates": [[-48.65019898167523, 69.03869314935218], [-48.66189079776271, 69.03960439756182]]}, "properties": {"source": "1091592", "target": "1252496"}}, {"type": "Feature", "geometry": {"type": "LineString", "coordinates": [[-48.65019898167523, 69.03869314935218], [-48.65850046455793, 69.04048660600816]]}, "properties": {"source": "1091592", "target": "889859"}}, {"type": "Feature", "geometry": {"type": "LineString", "coordinates": [[-48.65019898167523, 69.03869314935218], [-48.65111474150851, 69.04020203216544]]}, "properties": {"source": "1091592", "target": "1252448"}}, {"type": "Feature", "geometry": {"type": "LineString", "coordinates": [[-48.65019898167523, 69.03869314935218], [-48.65132091833499, 69.0390054165976]]}, "properties": {"source": "1091592", "target": "1091586"}}, {"type": "Feature", "geometry": {"type": "LineString", "coordinates": [[-48.66741062827458, 69.0376841118341], [-48.65254594183176, 69.03832550222347]]}, "properties": {"source": "1252480", "target": "791928"}}, {"type": "Feature", "geometry": {"type": "LineString", "coordinates": [[-48.66741062827458, 69.0376841118341], [-48.66189079776271, 69.03960439756182]]}, "properties": {"source": "1252480", "target": "1252496"}}, {"type": "Feature", "geometry": {"type": "LineString", "coordinates": [[-48.66666684149723, 69.03943468865657], [-48.65254594183176, 69.03832550222347]]}, "properties": {"source": "1252440", "target": "791928"}}, {"type": "Feature", "geometry": {"type": "LineString", "coordinates": [[-48.66666684149723, 69.03943468865657], [-48.666029934761724, 69.03792903041926]]}, "properties": {"source": "1252440", "target": "791929"}}, {"type": "Feature", "geometry": {"type": "LineString", "coordinates": [[-48.66666684149723, 69.03943468865657], [-48.6654081173522, 69.0385737861287]]}, "properties": {"source": "1252440", "target": "493082"}}, {"type": "Feature", "geometry": {"type": "LineString", "coordinates": [[-48.66666684149723, 69.03943468865657], [-48.66189079776271, 69.03960439756182]]}, "properties": {"source": "1252440", "target": "1252496"}}, {"type": "Feature", "geometry": {"type": "LineString", "coordinates": [[-48.66666684149723, 69.03943468865657], [-48.65784584712384, 69.03862439395863]]}, "properties": {"source": "1252440", "target": "1252495"}}, {"type": "Feature", "geometry": {"type": "LineString", "coordinates": [[-48.66666684149723, 69.03943468865657], [-48.65299920878667, 69.04083570238504]]}, "properties": {"source": "1252440", "target": "1252475"}}, {"type": "Feature", "geometry": {"type": "LineString", "coordinates": [[-48.66666684149723, 69.03943468865657], [-48.6593515069452, 69.03815833599643]]}, "properties": {"source": "1252440", "target": "1252481"}}, {"type": "Feature", "geometry": {"type": "LineString", "coordinates": [[-48.66666684149723, 69.03943468865657], [-48.66758475394235, 69.0410747968221]]}, "properties": {"source": "1252440", "target": "1252452"}}, {"type": "Feature", "geometry": {"type": "LineString", "coordinates": [[-48.66666684149723, 69.03943468865657], [-48.65469015823834, 69.04072943431188]]}, "properties": {"source": "1252440", "target": "1252450"}}, {"type": "Feature", "geometry": {"type": "LineString", "coordinates": [[-48.66666684149723, 69.03943468865657], [-48.66741062827458, 69.0376841118341]]}, "properties": {"source": "1252440", "target": "1252480"}}, {"type": "Feature", "geometry": {"type": "LineString", "coordinates": [[-48.6654081173522, 69.0385737861287], [-48.65850046455793, 69.04048660600816]]}, "properties": {"source": "493082", "target": "889859"}}, {"type": "Feature", "geometry": {"type": "LineString", "coordinates": [[-48.6654081173522, 69.0385737861287], [-48.65111474150851, 69.04020203216544]]}, "properties": {"source": "493082", "target": "1252448"}}, {"type": "Feature", "geometry": {"type": "LineString", "coordinates": [[-48.6654081173522, 69.0385737861287], [-48.65569881756349, 69.03938688538378]]}, "properties": {"source": "493082", "target": "1252494"}}, {"type": "Feature", "geometry": {"type": "LineString", "coordinates": [[-48.6654081173522, 69.0385737861287], [-48.6504421329079, 69.04236827346384]]}, "properties": {"source": "493082", "target": "30227941"}}, {"type": "Feature", "geometry": {"type": "LineString", "coordinates": [[-48.66189079776271, 69.03960439756182], [-48.65254594183176, 69.03832550222347]]}, "properties": {"source": "1252496", "target": "791928"}}, {"type": "Feature", "geometry": {"type": "LineString", "coordinates": [[-48.66189079776271, 69.03960439756182], [-48.65569881756349, 69.03938688538378]]}, "properties": {"source": "1252496", "target": "1252494"}}, {"type": "Feature", "geometry": {"type": "LineString", "coordinates": [[-48.664897933263916, 69.04219354051924], [-48.65254594183176, 69.03832550222347]]}, "properties": {"source": "489478", "target": "791928"}}, {"type": "Feature", "geometry": {"type": "LineString", "coordinates": [[-48.664897933263916, 69.04219354051924], [-48.666029934761724, 69.03792903041926]]}, "properties": {"source": "489478", "target": "791929"}}, {"type": "Feature", "geometry": {"type": "LineString", "coordinates": [[-48.664897933263916, 69.04219354051924], [-48.659691076646965, 69.04036086072179]]}, "properties": {"source": "489478", "target": "735550"}}, {"type": "Feature", "geometry": {"type": "LineString", "coordinates": [[-48.664897933263916, 69.04219354051924], [-48.656404257200535, 69.04136229024556]]}, "properties": {"source": "489478", "target": "847692"}}, {"type": "Feature", "geometry": {"type": "LineString", "coordinates": [[-48.664897933263916, 69.04219354051924], [-48.6654081173522, 69.0385737861287]]}, "properties": {"source": "489478", "target": "493082"}}, {"type": "Feature", "geometry": {"type": "LineString", "coordinates": [[-48.664897933263916, 69.04219354051924], [-48.66189079776271, 69.03960439756182]]}, "properties": {"source": "489478", "target": "1252496"}}, {"type": "Feature", "geometry": {"type": "LineString", "coordinates": [[-48.664897933263916, 69.04219354051924], [-48.6672339038567, 69.03853347146784]]}, "properties": {"source": "489478", "target": "235378"}}, {"type": "Feature", "geometry": {"type": "LineString", "coordinates": [[-48.664897933263916, 69.04219354051924], [-48.65620560941386, 69.03998176347864]]}, "properties": {"source": "489478", "target": "718646"}}, {"type": "Feature", "geometry": {"type": "LineString", "coordinates": [[-48.664897933263916, 69.04219354051924], [-48.65386473598508, 69.03941389980002]]}, "properties": {"source": "489478", "target": "547433"}}, {"type": "Feature", "geometry": {"type": "LineString", "coordinates": [[-48.664897933263916, 69.04219354051924], [-48.65850046455793, 69.04048660600816]]}, "properties": {"source": "489478", "target": "889859"}}, {"type": "Feature", "geometry": {"type": "LineString", "coordinates": [[-48.654534177377485, 69.04179744960771], [-48.65374917270822, 69.04073778100496]]}, "properties": {"source": "8685684", "target": "7843715"}}, {"type": "Feature", "geometry": {"type": "LineString", "coordinates": [[-48.65784584712384, 69.03862439395863], [-48.65254594183176, 69.03832550222347]]}, "properties": {"source": "1252495", "target": "791928"}}, {"type": "Feature", "geometry": {"type": "LineString", "coordinates": [[-48.65784584712384, 69.03862439395863], [-48.6654081173522, 69.0385737861287]]}, "properties": {"source": "1252495", "target": "493082"}}, {"type": "Feature", "geometry": {"type": "LineString", "coordinates": [[-48.65784584712384, 69.03862439395863], [-48.66189079776271, 69.03960439756182]]}, "properties": {"source": "1252495", "target": "1252496"}}, {"type": "Feature", "geometry": {"type": "LineString", "coordinates": [[-48.65784584712384, 69.03862439395863], [-48.66758475394235, 69.0410747968221]]}, "properties": {"source": "1252495", "target": "1252452"}}, {"type": "Feature", "geometry": {"type": "LineString", "coordinates": [[-48.65784584712384, 69.03862439395863], [-48.65569881756349, 69.03938688538378]]}, "properties": {"source": "1252495", "target": "1252494"}}, {"type": "Feature", "geometry": {"type": "LineString", "coordinates": [[-48.65822697714506, 69.04038624492983], [-48.65254594183176, 69.03832550222347]]}, "properties": {"source": "1252491", "target": "791928"}}, {"type": "Feature", "geometry": {"type": "LineString", "coordinates": [[-48.65822697714506, 69.04038624492983], [-48.66189079776271, 69.03960439756182]]}, "properties": {"source": "1252491", "target": "1252496"}}, {"type": "Feature", "geometry": {"type": "LineString", "coordinates": [[-48.65822697714506, 69.04038624492983], [-48.65850046455793, 69.04048660600816]]}, "properties": {"source": "1252491", "target": "889859"}}, {"type": "Feature", "geometry": {"type": "LineString", "coordinates": [[-48.65822697714506, 69.04038624492983], [-48.65784584712384, 69.03862439395863]]}, "properties": {"source": "1252491", "target": "1252495"}}, {"type": "Feature", "geometry": {"type": "LineString", "coordinates": [[-48.65822697714506, 69.04038624492983], [-48.65111474150851, 69.04020203216544]]}, "properties": {"source": "1252491", "target": "1252448"}}, {"type": "Feature", "geometry": {"type": "LineString", "coordinates": [[-48.65822697714506, 69.04038624492983], [-48.66692912451805, 69.03917084981089]]}, "properties": {"source": "1252491", "target": "1252447"}}, {"type": "Feature", "geometry": {"type": "LineString", "coordinates": [[-48.65822697714506, 69.04038624492983], [-48.66758475394235, 69.0410747968221]]}, "properties": {"source": "1252491", "target": "1252452"}}, {"type": "Feature", "geometry": {"type": "LineString", "coordinates": [[-48.65822697714506, 69.04038624492983], [-48.65019898167523, 69.03869314935218]]}, "properties": {"source": "1252491", "target": "1091592"}}, {"type": "Feature", "geometry": {"type": "LineString", "coordinates": [[-48.65822697714506, 69.04038624492983], [-48.65132091833499, 69.0390054165976]]}, "properties": {"source": "1252491", "target": "1091586"}}, {"type": "Feature", "geometry": {"type": "LineString", "coordinates": [[-48.65822697714506, 69.04038624492983], [-48.65569881756349, 69.03938688538378]]}, "properties": {"source": "1252491", "target": "1252494"}}, {"type": "Feature", "geometry": {"type": "LineString", "coordinates": [[-48.66319649672161, 69.04099904569807], [-48.65469015823834, 69.04072943431188]]}, "properties": {"source": "1252482", "target": "1252450"}}, {"type": "Feature", "geometry": {"type": "LineString", "coordinates": [[-48.66319649672161, 69.04099904569807], [-48.66741062827458, 69.0376841118341]]}, "properties": {"source": "1252482", "target": "1252480"}}, {"type": "Feature", "geometry": {"type": "LineString", "coordinates": [[-48.65167658258389, 69.04269181893841], [-48.66385184973865, 69.0422821584072]]}, "properties": {"source": "8516746", "target": "7503525"}}, {"type": "Feature", "geometry": {"type": "LineString", "coordinates": [[-48.65167658258389, 69.04269181893841], [-48.65143504731793, 69.03976372435548]]}, "properties": {"source": "8516746", "target": "6707941"}}, {"type": "Feature", "geometry": {"type": "LineString", "coordinates": [[-48.65167658258389, 69.04269181893841], [-48.65737966428895, 69.0414487232234]]}, "properties": {"source": "8516746", "target": "951842"}}, {"type": "Feature", "geometry": {"type": "LineString", "coordinates": [[-48.66661316231597, 69.03914241013928], [-48.65143504731793, 69.03976372435548]]}, "properties": {"source": "299009", "target": "6707941"}}, {"type": "Feature", "geometry": {"type": "LineString", "coordinates": [[-48.66661316231597, 69.03914241013928], [-48.66364005460906, 69.04157284794002]]}, "properties": {"source": "299009", "target": "6318115"}}, {"type": "Feature", "geometry": {"type": "LineString", "coordinates": [[-48.66661316231597, 69.03914241013928], [-48.66619134766705, 69.0389093692304]]}, "properties": {"source": "299009", "target": "6791387"}}, {"type": "Feature", "geometry": {"type": "LineString", "coordinates": [[-48.66661316231597, 69.03914241013928], [-48.66613970593076, 69.04111211807233]]}, "properties": {"source": "299009", "target": "4054475"}}, {"type": "Feature", "geometry": {"type": "LineString", "coordinates": [[-48.66364005460906, 69.04157284794002], [-48.65143504731793, 69.03976372435548]]}, "properties": {"source": "6318115", "target": "6707941"}}, {"type": "Feature", "geometry": {"type": "LineString", "coordinates": [[-48.66364005460906, 69.04157284794002], [-48.66619134766705, 69.0389093692304]]}, "properties": {"source": "6318115", "target": "6791387"}}, {"type": "Feature", "geometry": {"type": "LineString", "coordinates": [[-48.66364005460906, 69.04157284794002], [-48.66613970593076, 69.04111211807233]]}, "properties": {"source": "6318115", "target": "4054475"}}, {"type": "Feature", "geometry": {"type": "LineString", "coordinates": [[-48.66512916843064, 69.03774542461068], [-48.66385184973865, 69.0422821584072]]}, "properties": {"source": "6587769", "target": "7503525"}}, {"type": "Feature", "geometry": {"type": "LineString", "coordinates": [[-48.66512916843064, 69.03774542461068], [-48.65143504731793, 69.03976372435548]]}, "properties": {"source": "6587769", "target": "6707941"}}, {"type": "Feature", "geometry": {"type": "LineString", "coordinates": [[-48.66512916843064, 69.03774542461068], [-48.65706814221639, 69.040713269133]]}, "properties": {"source": "6587769", "target": "7168532"}}, {"type": "Feature", "geometry": {"type": "LineString", "coordinates": [[-48.66512916843064, 69.03774542461068], [-48.65346525668491, 69.03858328539175]]}, "properties": {"source": "6587769", "target": "6318741"}}, {"type": "Feature", "geometry": {"type": "LineString", "coordinates": [[-48.66480841605454, 69.03742668148845], [-48.65706814221639, 69.040713269133]]}, "properties": {"source": "8855234", "target": "7168532"}}, {"type": "Feature", "geometry": {"type": "LineString", "coordinates": [[-48.66480841605454, 69.03742668148845], [-48.657065091932225, 69.04172142518601]]}, "properties": {"source": "8855234", "target": "9817839"}}, {"type": "Feature", "geometry": {"type": "LineString", "coordinates": [[-48.66480841605454, 69.03742668148845], [-48.65299665519643, 69.03850603768745]]}, "properties": {"source": "8855234", "target": "8135543"}}, {"type": "Feature", "geometry": {"type": "LineString", "coordinates": [[-48.66480841605454, 69.03742668148845], [-48.66552225694235, 69.03894532841895]]}, "properties": {"source": "8855234", "target": "7883047"}}, {"type": "Feature", "geometry": {"type": "LineString", "coordinates": [[-48.66480841605454, 69.03742668148845], [-48.66567216927493, 69.04265462619381]]}, "properties": {"source": "8855234", "target": "852323"}}, {"type": "Feature", "geometry": {"type": "LineString", "coordinates": [[-48.66480841605454, 69.03742668148845], [-48.6541077305761, 69.04158763747719]]}, "properties": {"source": "8855234", "target": "7980563"}}, {"type": "Feature", "geometry": {"type": "LineString", "coordinates": [[-48.66480841605454, 69.03742668148845], [-48.65167658258389, 69.04269181893841]]}, "properties": {"source": "8855234", "target": "8516746"}}, {"type": "Feature", "geometry": {"type": "LineString", "coordinates": [[-48.66480841605454, 69.03742668148845], [-48.66628466289961, 69.04172596798392]]}, "properties": {"source": "8855234", "target": "8346903"}}, {"type": "Feature", "geometry": {"type": "LineString", "coordinates": [[-48.66480841605454, 69.03742668148845], [-48.65374917270822, 69.04073778100496]]}, "properties": {"source": "8855234", "target": "7843715"}}, {"type": "Feature", "geometry": {"type": "LineString", "coordinates": [[-48.66480841605454, 69.03742668148845], [-48.65737966428895, 69.0414487232234]]}, "properties": {"source": "8855234", "target": "951842"}}, {"type": "Feature", "geometry": {"type": "LineString", "coordinates": [[-48.66733072742505, 69.04060870516815], [-48.65254594183176, 69.03832550222347]]}, "properties": {"source": "446848", "target": "791928"}}, {"type": "Feature", "geometry": {"type": "LineString", "coordinates": [[-48.66733072742505, 69.04060870516815], [-48.6654081173522, 69.0385737861287]]}, "properties": {"source": "446848", "target": "493082"}}, {"type": "Feature", "geometry": {"type": "LineString", "coordinates": [[-48.66733072742505, 69.04060870516815], [-48.66189079776271, 69.03960439756182]]}, "properties": {"source": "446848", "target": "1252496"}}, {"type": "Feature", "geometry": {"type": "LineString", "coordinates": [[-48.66733072742505, 69.04060870516815], [-48.65850046455793, 69.04048660600816]]}, "properties": {"source": "446848", "target": "889859"}}, {"type": "Feature", "geometry": {"type": "LineString", "coordinates": [[-48.66733072742505, 69.04060870516815], [-48.65784584712384, 69.03862439395863]]}, "properties": {"source": "446848", "target": "1252495"}}, {"type": "Feature", "geometry": {"type": "LineString", "coordinates": [[-48.66733072742505, 69.04060870516815], [-48.65111474150851, 69.04020203216544]]}, "properties": {"source": "446848", "target": "1252448"}}, {"type": "Feature", "geometry": {"type": "LineString", "coordinates": [[-48.66666684149723, 69.03943468865657], [-48.65271587238695, 69.03745635693602]]}, "properties": {"source": "1252440", "target": "1252437"}}, {"type": "Feature", "geometry": {"type": "LineString", "coordinates": [[-48.65132091833499, 69.0390054165976], [-48.65850046455793, 69.04048660600816]]}, "properties": {"source": "1091586", "target": "889859"}}, {"type": "Feature", "geometry": {"type": "LineString", "coordinates": [[-48.65132091833499, 69.0390054165976], [-48.65111474150851, 69.04020203216544]]}, "properties": {"source": "1091586", "target": "1252448"}}, {"type": "Feature", "geometry": {"type": "LineString", "coordinates": [[-48.65271587238695, 69.03745635693602], [-48.65254594183176, 69.03832550222347]]}, "properties": {"source": "1252437", "target": "791928"}}, {"type": "Feature", "geometry": {"type": "LineString", "coordinates": [[-48.65271587238695, 69.03745635693602], [-48.6654081173522, 69.0385737861287]]}, "properties": {"source": "1252437", "target": "493082"}}, {"type": "Feature", "geometry": {"type": "LineString", "coordinates": [[-48.65271587238695, 69.03745635693602], [-48.66189079776271, 69.03960439756182]]}, "properties": {"source": "1252437", "target": "1252496"}}, {"type": "Feature", "geometry": {"type": "LineString", "coordinates": [[-48.65271587238695, 69.03745635693602], [-48.6593515069452, 69.03815833599643]]}, "properties": {"source": "1252437", "target": "1252481"}}, {"type": "Feature", "geometry": {"type": "LineString", "coordinates": [[-48.65271587238695, 69.03745635693602], [-48.66758475394235, 69.0410747968221]]}, "properties": {"source": "1252437", "target": "1252452"}}, {"type": "Feature", "geometry": {"type": "LineString", "coordinates": [[-48.65271587238695, 69.03745635693602], [-48.66741062827458, 69.0376841118341]]}, "properties": {"source": "1252437", "target": "1252480"}}, {"type": "Feature", "geometry": {"type": "LineString", "coordinates": [[-48.666074944669504, 69.03965952511115], [-48.65254594183176, 69.03832550222347]]}, "properties": {"source": "675539", "target": "791928"}}, {"type": "Feature", "geometry": {"type": "LineString", "coordinates": [[-48.666074944669504, 69.03965952511115], [-48.656404257200535, 69.04136229024556]]}, "properties": {"source": "675539", "target": "847692"}}, {"type": "Feature", "geometry": {"type": "LineString", "coordinates": [[-48.666074944669504, 69.03965952511115], [-48.66385184973865, 69.0422821584072]]}, "properties": {"source": "675539", "target": "7503525"}}, {"type": "Feature", "geometry": {"type": "LineString", "coordinates": [[-48.666074944669504, 69.03965952511115], [-48.659516896363584, 69.04164954978913]]}, "properties": {"source": "675539", "target": "735551"}}, {"type": "Feature", "geometry": {"type": "LineString", "coordinates": [[-48.666074944669504, 69.03965952511115], [-48.662474970888695, 69.0419712783613]]}, "properties": {"source": "675539", "target": "764866"}}, {"type": "Feature", "geometry": {"type": "LineString", "coordinates": [[-48.666074944669504, 69.03965952511115], [-48.66289702242153, 69.03972225638765]]}, "properties": {"source": "675539", "target": "718454"}}, {"type": "Feature", "geometry": {"type": "LineString", "coordinates": [[-48.666074944669504, 69.03965952511115], [-48.65701283025811, 69.03776715507749]]}, "properties": {"source": "675539", "target": "675540"}}, {"type": "Feature", "geometry": {"type": "LineString", "coordinates": [[-48.65706814221639, 69.040713269133], [-48.65346525668491, 69.03858328539175]]}, "properties": {"source": "7168532", "target": "6318741"}}, {"type": "Feature", "geometry": {"type": "LineString", "coordinates": [[-48.665135494206794, 69.03789640737799], [-48.65850046455793, 69.04048660600816]]}, "properties": {"source": "1035285", "target": "889859"}}, {"type": "Feature", "geometry": {"type": "LineString", "coordinates": [[-48.665135494206794, 69.03789640737799], [-48.65111474150851, 69.04020203216544]]}, "properties": {"source": "1035285", "target": "1252448"}}, {"type": "Feature", "geometry": {"type": "LineString", "coordinates": [[-48.665135494206794, 69.03789640737799], [-48.66692912451805, 69.03917084981089]]}, "properties": {"source": "1035285", "target": "1252447"}}, {"type": "Feature", "geometry": {"type": "LineString", "coordinates": [[-48.665135494206794, 69.03789640737799], [-48.65019898167523, 69.03869314935218]]}, "properties": {"source": "1035285", "target": "1091592"}}, {"type": "Feature", "geometry": {"type": "LineString", "coordinates": [[-48.665135494206794, 69.03789640737799], [-48.65132091833499, 69.0390054165976]]}, "properties": {"source": "1035285", "target": "1091586"}}, {"type": "Feature", "geometry": {"type": "LineString", "coordinates": [[-48.657065091932225, 69.04172142518601], [-48.653547508179344, 69.0410798982557]]}, "properties": {"source": "9817839", "target": "7806809"}}, {"type": "Feature", "geometry": {"type": "LineString", "coordinates": [[-48.657065091932225, 69.04172142518601], [-48.658536575940246, 69.04183387171108]]}, "properties": {"source": "9817839", "target": "9027911"}}, {"type": "Feature", "geometry": {"type": "LineString", "coordinates": [[-48.657065091932225, 69.04172142518601], [-48.65299665519643, 69.03850603768745]]}, "properties": {"source": "9817839", "target": "8135543"}}, {"type": "Feature", "geometry": {"type": "LineString", "coordinates": [[-48.65224909169214, 69.04075443952303], [-48.65254594183176, 69.03832550222347]]}, "properties": {"source": "842142", "target": "791928"}}, {"type": "Feature", "geometry": {"type": "LineString", "coordinates": [[-48.65224909169214, 69.04075443952303], [-48.66385184973865, 69.0422821584072]]}, "properties": {"source": "842142", "target": "7503525"}}, {"type": "Feature", "geometry": {"type": "LineString", "coordinates": [[-48.65224909169214, 69.04075443952303], [-48.659516896363584, 69.04164954978913]]}, "properties": {"source": "842142", "target": "735551"}}, {"type": "Feature", "geometry": {"type": "LineString", "coordinates": [[-48.65224909169214, 69.04075443952303], [-48.65889254639566, 69.03860443908462]]}, "properties": {"source": "842142", "target": "7961512"}}, {"type": "Feature", "geometry": {"type": "LineString", "coordinates": [[-48.65224909169214, 69.04075443952303], [-48.664615594932116, 69.04187568599582]]}, "properties": {"source": "842142", "target": "7260408"}}, {"type": "Feature", "geometry": {"type": "LineString", "coordinates": [[-48.664919775774536, 69.03936939535086], [-48.65254594183176, 69.03832550222347]]}, "properties": {"source": "2237112", "target": "791928"}}, {"type": "Feature", "geometry": {"type": "LineString", "coordinates": [[-48.664919775774536, 69.03936939535086], [-48.6654081173522, 69.0385737861287]]}, "properties": {"source": "2237112", "target": "493082"}}, {"type": "Feature", "geometry": {"type": "LineString", "coordinates": [[-48.662198544138164, 69.04000537320354], [-48.65404638916118, 69.04259305731878]]}, "properties": {"source": "8832154", "target": "685664"}}, {"type": "Feature", "geometry": {"type": "LineString", "coordinates": [[-48.666683949034706, 69.03922386910779], [-48.65458942643605, 69.03757868379768]]}, "properties": {"source": "7877935", "target": "9040648"}}, {"type": "Feature", "geometry": {"type": "LineString", "coordinates": [[-48.666683949034706, 69.03922386910779], [-48.653547508179344, 69.0410798982557]]}, "properties": {"source": "7877935", "target": "7806809"}}, {"type": "Feature", "geometry": {"type": "LineString", "coordinates": [[-48.666683949034706, 69.03922386910779], [-48.65669346765114, 69.03888342286382]]}, "properties": {"source": "7877935", "target": "7537975"}}, {"type": "Feature", "geometry": {"type": "LineString", "coordinates": [[-48.66552225694235, 69.03894532841895], [-48.66547098630224, 69.0390870900087]]}, "properties": {"source": "7883047", "target": "8732601"}}, {"type": "Feature", "geometry": {"type": "LineString", "coordinates": [[-48.66552225694235, 69.03894532841895], [-48.65404638916118, 69.04259305731878]]}, "properties": {"source": "7883047", "target": "685664"}}, {"type": "Feature", "geometry": {"type": "LineString", "coordinates": [[-48.66567216927493, 69.04265462619381], [-48.65669346765114, 69.03888342286382]]}, "properties": {"source": "852323", "target": "7537975"}}, {"type": "Feature", "geometry": {"type": "LineString", "coordinates": [[-48.652551213002056, 69.03839578007612], [-48.66385184973865, 69.0422821584072]]}, "properties": {"source": "746696", "target": "7503525"}}, {"type": "Feature", "geometry": {"type": "LineString", "coordinates": [[-48.652551213002056, 69.03839578007612], [-48.659516896363584, 69.04164954978913]]}, "properties": {"source": "746696", "target": "735551"}}, {"type": "Feature", "geometry": {"type": "LineString", "coordinates": [[-48.652551213002056, 69.03839578007612], [-48.65889254639566, 69.03860443908462]]}, "properties": {"source": "746696", "target": "7961512"}}, {"type": "Feature", "geometry": {"type": "LineString", "coordinates": [[-48.652551213002056, 69.03839578007612], [-48.65224909169214, 69.04075443952303]]}, "properties": {"source": "746696", "target": "842142"}}, {"type": "Feature", "geometry": {"type": "LineString", "coordinates": [[-48.652551213002056, 69.03839578007612], [-48.65681395216893, 69.0379397116547]]}, "properties": {"source": "746696", "target": "6758490"}}, {"type": "Feature", "geometry": {"type": "LineString", "coordinates": [[-48.65346525668491, 69.03858328539175], [-48.66385184973865, 69.0422821584072]]}, "properties": {"source": "6318741", "target": "7503525"}}, {"type": "Feature", "geometry": {"type": "LineString", "coordinates": [[-48.66319649672161, 69.04099904569807], [-48.66189079776271, 69.03960439756182]]}, "properties": {"source": "1252482", "target": "1252496"}}, {"type": "Feature", "geometry": {"type": "LineString", "coordinates": [[-48.66319649672161, 69.04099904569807], [-48.6593515069452, 69.03815833599643]]}, "properties": {"source": "1252482", "target": "1252481"}}, {"type": "Feature", "geometry": {"type": "LineString", "coordinates": [[-48.666683949034706, 69.03922386910779], [-48.66480841605454, 69.03742668148845]]}, "properties": {"source": "7877935", "target": "8855234"}}, {"type": "Feature", "geometry": {"type": "LineString", "coordinates": [[-48.65889254639566, 69.03860443908462], [-48.66385184973865, 69.0422821584072]]}, "properties": {"source": "7961512", "target": "7503525"}}, {"type": "Feature", "geometry": {"type": "LineString", "coordinates": [[-48.66679871319084, 69.03964660485872], [-48.6654081173522, 69.0385737861287]]}, "properties": {"source": "519765", "target": "493082"}}, {"type": "Feature", "geometry": {"type": "LineString", "coordinates": [[-48.66679871319084, 69.03964660485872], [-48.664897933263916, 69.04219354051924]]}, "properties": {"source": "519765", "target": "489478"}}, {"type": "Feature", "geometry": {"type": "LineString", "coordinates": [[-48.66679871319084, 69.03964660485872], [-48.6672339038567, 69.03853347146784]]}, "properties": {"source": "519765", "target": "235378"}}, {"type": "Feature", "geometry": {"type": "LineString", "coordinates": [[-48.66679871319084, 69.03964660485872], [-48.65386473598508, 69.03941389980002]]}, "properties": {"source": "519765", "target": "547433"}}, {"type": "Feature", "geometry": {"type": "LineString", "coordinates": [[-48.66679871319084, 69.03964660485872], [-48.65850046455793, 69.04048660600816]]}, "properties": {"source": "519765", "target": "889859"}}, {"type": "Feature", "geometry": {"type": "LineString", "coordinates": [[-48.66679871319084, 69.03964660485872], [-48.65701283025811, 69.03776715507749]]}, "properties": {"source": "519765", "target": "675540"}}, {"type": "Feature", "geometry": {"type": "LineString", "coordinates": [[-48.66679871319084, 69.03964660485872], [-48.6504421329079, 69.04236827346384]]}, "properties": {"source": "519765", "target": "30227941"}}, {"type": "Feature", "geometry": {"type": "LineString", "coordinates": [[-48.66679871319084, 69.03964660485872], [-48.651700321230464, 69.04239164987351]]}, "properties": {"source": "519765", "target": "6374428"}}, {"type": "Feature", "geometry": {"type": "LineString", "coordinates": [[-48.653547508179344, 69.0410798982557], [-48.66547098630224, 69.0390870900087]]}, "properties": {"source": "7806809", "target": "8732601"}}, {"type": "Feature", "geometry": {"type": "LineString", "coordinates": [[-48.653547508179344, 69.0410798982557], [-48.65669346765114, 69.03888342286382]]}, "properties": {"source": "7806809", "target": "7537975"}}, {"type": "Feature", "geometry": {"type": "LineString", "coordinates": [[-48.653547508179344, 69.0410798982557], [-48.658536575940246, 69.04183387171108]]}, "properties": {"source": "7806809", "target": "9027911"}}, {"type": "Feature", "geometry": {"type": "LineString", "coordinates": [[-48.66547098630224, 69.0390870900087], [-48.65669346765114, 69.03888342286382]]}, "properties": {"source": "8732601", "target": "7537975"}}, {"type": "Feature", "geometry": {"type": "LineString", "coordinates": [[-48.66547098630224, 69.0390870900087], [-48.65299665519643, 69.03850603768745]]}, "properties": {"source": "8732601", "target": "8135543"}}, {"type": "Feature", "geometry": {"type": "LineString", "coordinates": [[-48.66547098630224, 69.0390870900087], [-48.6541077305761, 69.04158763747719]]}, "properties": {"source": "8732601", "target": "7980563"}}, {"type": "Feature", "geometry": {"type": "LineString", "coordinates": [[-48.65143504731793, 69.03976372435548], [-48.66385184973865, 69.0422821584072]]}, "properties": {"source": "6707941", "target": "7503525"}}, {"type": "Feature", "geometry": {"type": "LineString", "coordinates": [[-48.656404257200535, 69.04136229024556], [-48.6654081173522, 69.0385737861287]]}, "properties": {"source": "847692", "target": "493082"}}, {"type": "Feature", "geometry": {"type": "LineString", "coordinates": [[-48.656404257200535, 69.04136229024556], [-48.66189079776271, 69.03960439756182]]}, "properties": {"source": "847692", "target": "1252496"}}, {"type": "Feature", "geometry": {"type": "LineString", "coordinates": [[-48.656404257200535, 69.04136229024556], [-48.65850046455793, 69.04048660600816]]}, "properties": {"source": "847692", "target": "889859"}}, {"type": "Feature", "geometry": {"type": "LineString", "coordinates": [[-48.656404257200535, 69.04136229024556], [-48.66733072742505, 69.04060870516815]]}, "properties": {"source": "847692", "target": "446848"}}, {"type": "Feature", "geometry": {"type": "LineString", "coordinates": [[-48.656404257200535, 69.04136229024556], [-48.66385184973865, 69.0422821584072]]}, "properties": {"source": "847692", "target": "7503525"}}, {"type": "Feature", "geometry": {"type": "LineString", "coordinates": [[-48.656404257200535, 69.04136229024556], [-48.659516896363584, 69.04164954978913]]}, "properties": {"source": "847692", "target": "735551"}}, {"type": "Feature", "geometry": {"type": "LineString", "coordinates": [[-48.656404257200535, 69.04136229024556], [-48.66758475394235, 69.0410747968221]]}, "properties": {"source": "847692", "target": "1252452"}}, {"type": "Feature", "geometry": {"type": "LineString", "coordinates": [[-48.656404257200535, 69.04136229024556], [-48.66741062827458, 69.0376841118341]]}, "properties": {"source": "847692", "target": "1252480"}}, {"type": "Feature", "geometry": {"type": "LineString", "coordinates": [[-48.656404257200535, 69.04136229024556], [-48.65889254639566, 69.03860443908462]]}, "properties": {"source": "847692", "target": "7961512"}}, {"type": "Feature", "geometry": {"type": "LineString", "coordinates": [[-48.656404257200535, 69.04136229024556], [-48.662474970888695, 69.0419712783613]]}, "properties": {"source": "847692", "target": "764866"}}, {"type": "Feature", "geometry": {"type": "LineString", "coordinates": [[-48.656404257200535, 69.04136229024556], [-48.66289702242153, 69.03972225638765]]}, "properties": {"source": "847692", "target": "718454"}}, {"type": "Feature", "geometry": {"type": "LineString", "coordinates": [[-48.656404257200535, 69.04136229024556], [-48.65448955228152, 69.0386904934143]]}, "properties": {"source": "847692", "target": "207576"}}, {"type": "Feature", "geometry": {"type": "LineString", "coordinates": [[-48.656404257200535, 69.04136229024556], [-48.664919775774536, 69.03936939535086]]}, "properties": {"source": "847692", "target": "2237112"}}, {"type": "Feature", "geometry": {"type": "LineString", "coordinates": [[-48.656404257200535, 69.04136229024556], [-48.652551213002056, 69.03839578007612]]}, "properties": {"source": "847692", "target": "746696"}}, {"type": "Feature", "geometry": {"type": "LineString", "coordinates": [[-48.6654081173522, 69.0385737861287], [-48.65254594183176, 69.03832550222347]]}, "properties": {"source": "493082", "target": "791928"}}, {"type": "Feature", "geometry": {"type": "LineString", "coordinates": [[-48.6654081173522, 69.0385737861287], [-48.66189079776271, 69.03960439756182]]}, "properties": {"source": "493082", "target": "1252496"}}, {"type": "Feature", "geometry": {"type": "LineString", "coordinates": [[-48.65299920878667, 69.04083570238504], [-48.656404257200535, 69.04136229024556]]}, "properties": {"source": "1252475", "target": "847692"}}, {"type": "Feature", "geometry": {"type": "LineString", "coordinates": [[-48.65299920878667, 69.04083570238504], [-48.6654081173522, 69.0385737861287]]}, "properties": {"source": "1252475", "target": "493082"}}, {"type": "Feature", "geometry": {"type": "LineString", "coordinates": [[-48.65299920878667, 69.04083570238504], [-48.66189079776271, 69.03960439756182]]}, "properties": {"source": "1252475", "target": "1252496"}}, {"type": "Feature", "geometry": {"type": "LineString", "coordinates": [[-48.65299920878667, 69.04083570238504], [-48.65620560941386, 69.03998176347864]]}, "properties": {"source": "1252475", "target": "718646"}}, {"type": "Feature", "geometry": {"type": "LineString", "coordinates": [[-48.65299920878667, 69.04083570238504], [-48.66733072742505, 69.04060870516815]]}, "properties": {"source": "1252475", "target": "446848"}}, {"type": "Feature", "geometry": {"type": "LineString", "coordinates": [[-48.65299920878667, 69.04083570238504], [-48.6593515069452, 69.03815833599643]]}, "properties": {"source": "1252475", "target": "1252481"}}, {"type": "Feature", "geometry": {"type": "LineString", "coordinates": [[-48.65299920878667, 69.04083570238504], [-48.66758475394235, 69.0410747968221]]}, "properties": {"source": "1252475", "target": "1252452"}}, {"type": "Feature", "geometry": {"type": "LineString", "coordinates": [[-48.65299920878667, 69.04083570238504], [-48.65469015823834, 69.04072943431188]]}, "properties": {"source": "1252475", "target": "1252450"}}, {"type": "Feature", "geometry": {"type": "LineString", "coordinates": [[-48.65299920878667, 69.04083570238504], [-48.66741062827458, 69.0376841118341]]}, "properties": {"source": "1252475", "target": "1252480"}}, {"type": "Feature", "geometry": {"type": "LineString", "coordinates": [[-48.65299920878667, 69.04083570238504], [-48.65271587238695, 69.03745635693602]]}, "properties": {"source": "1252475", "target": "1252437"}}, {"type": "Feature", "geometry": {"type": "LineString", "coordinates": [[-48.65299920878667, 69.04083570238504], [-48.66319649672161, 69.04099904569807]]}, "properties": {"source": "1252475", "target": "1252482"}}, {"type": "Feature", "geometry": {"type": "LineString", "coordinates": [[-48.66692912451805, 69.03917084981089], [-48.6654081173522, 69.0385737861287]]}, "properties": {"source": "1252447", "target": "493082"}}, {"type": "Feature", "geometry": {"type": "LineString", "coordinates": [[-48.66692912451805, 69.03917084981089], [-48.66189079776271, 69.03960439756182]]}, "properties": {"source": "1252447", "target": "1252496"}}, {"type": "Feature", "geometry": {"type": "LineString", "coordinates": [[-48.66692912451805, 69.03917084981089], [-48.65850046455793, 69.04048660600816]]}, "properties": {"source": "1252447", "target": "889859"}}, {"type": "Feature", "geometry": {"type": "LineString", "coordinates": [[-48.66692912451805, 69.03917084981089], [-48.65784584712384, 69.03862439395863]]}, "properties": {"source": "1252447", "target": "1252495"}}, {"type": "Feature", "geometry": {"type": "LineString", "coordinates": [[-48.66692912451805, 69.03917084981089], [-48.65111474150851, 69.04020203216544]]}, "properties": {"source": "1252447", "target": "1252448"}}, {"type": "Feature", "geometry": {"type": "LineString", "coordinates": [[-48.664919775774536, 69.03936939535086], [-48.65448955228152, 69.0386904934143]]}, "properties": {"source": "2237112", "target": "207576"}}, {"type": "Feature", "geometry": {"type": "LineString", "coordinates": [[-48.65701283025811, 69.03776715507749], [-48.65254594183176, 69.03832550222347]]}, "properties": {"source": "675540", "target": "791928"}}, {"type": "Feature", "geometry": {"type": "LineString", "coordinates": [[-48.65701283025811, 69.03776715507749], [-48.659516896363584, 69.04164954978913]]}, "properties": {"source": "675540", "target": "735551"}}, {"type": "Feature", "geometry": {"type": "LineString", "coordinates": [[-48.65701283025811, 69.03776715507749], [-48.651700321230464, 69.04239164987351]]}, "properties": {"source": "675540", "target": "6374428"}}, {"type": "Feature", "geometry": {"type": "LineString", "coordinates": [[-48.65299665519643, 69.03850603768745], [-48.65669346765114, 69.03888342286382]]}, "properties": {"source": "8135543", "target": "7537975"}}, {"type": "Feature", "geometry": {"type": "LineString", "coordinates": [[-48.65781683527965, 69.04209686220938], [-48.6654081173522, 69.0385737861287]]}, "properties": {"source": "33152023", "target": "493082"}}, {"type": "Feature", "geometry": {"type": "LineString", "coordinates": [[-48.65781683527965, 69.04209686220938], [-48.664897933263916, 69.04219354051924]]}, "properties": {"source": "33152023", "target": "489478"}}, {"type": "Feature", "geometry": {"type": "LineString", "coordinates": [[-48.65781683527965, 69.04209686220938], [-48.66733072742505, 69.04060870516815]]}, "properties": {"source": "33152023", "target": "446848"}}, {"type": "Feature", "geometry": {"type": "LineString", "coordinates": [[-48.65781683527965, 69.04209686220938], [-48.66679871319084, 69.03964660485872]]}, "properties": {"source": "33152023", "target": "519765"}}, {"type": "Feature", "geometry": {"type": "LineString", "coordinates": [[-48.65781683527965, 69.04209686220938], [-48.6504421329079, 69.04236827346384]]}, "properties": {"source": "33152023", "target": "30227941"}}, {"type": "Feature", "geometry": {"type": "LineString", "coordinates": [[-48.65781683527965, 69.04209686220938], [-48.66435204779489, 69.0405859514438]]}, "properties": {"source": "33152023", "target": "28187212"}}, {"type": "Feature", "geometry": {"type": "LineString", "coordinates": [[-48.662198544138164, 69.04000537320354], [-48.66385184973865, 69.0422821584072]]}, "properties": {"source": "8832154", "target": "7503525"}}, {"type": "Feature", "geometry": {"type": "LineString", "coordinates": [[-48.662198544138164, 69.04000537320354], [-48.65706814221639, 69.040713269133]]}, "properties": {"source": "8832154", "target": "7168532"}}, {"type": "Feature", "geometry": {"type": "LineString", "coordinates": [[-48.662198544138164, 69.04000537320354], [-48.65167658258389, 69.04269181893841]]}, "properties": {"source": "8832154", "target": "8516746"}}, {"type": "Feature", "geometry": {"type": "LineString", "coordinates": [[-48.662198544138164, 69.04000537320354], [-48.65737966428895, 69.0414487232234]]}, "properties": {"source": "8832154", "target": "951842"}}, {"type": "Feature", "geometry": {"type": "LineString", "coordinates": [[-48.662198544138164, 69.04000537320354], [-48.66480841605454, 69.03742668148845]]}, "properties": {"source": "8832154", "target": "8855234"}}, {"type": "Feature", "geometry": {"type": "LineString", "coordinates": [[-48.6593515069452, 69.03815833599643], [-48.656404257200535, 69.04136229024556]]}, "properties": {"source": "1252481", "target": "847692"}}, {"type": "Feature", "geometry": {"type": "LineString", "coordinates": [[-48.6593515069452, 69.03815833599643], [-48.66189079776271, 69.03960439756182]]}, "properties": {"source": "1252481", "target": "1252496"}}, {"type": "Feature", "geometry": {"type": "LineString", "coordinates": [[-48.6593515069452, 69.03815833599643], [-48.65784584712384, 69.03862439395863]]}, "properties": {"source": "1252481", "target": "1252495"}}, {"type": "Feature", "geometry": {"type": "LineString", "coordinates": [[-48.6593515069452, 69.03815833599643], [-48.66758475394235, 69.0410747968221]]}, "properties": {"source": "1252481", "target": "1252452"}}, {"type": "Feature", "geometry": {"type": "LineString", "coordinates": [[-48.6593515069452, 69.03815833599643], [-48.66741062827458, 69.0376841118341]]}, "properties": {"source": "1252481", "target": "1252480"}}, {"type": "Feature", "geometry": {"type": "LineString", "coordinates": [[-48.66758475394235, 69.0410747968221], [-48.65254594183176, 69.03832550222347]]}, "properties": {"source": "1252452", "target": "791928"}}, {"type": "Feature", "geometry": {"type": "LineString", "coordinates": [[-48.66758475394235, 69.0410747968221], [-48.6654081173522, 69.0385737861287]]}, "properties": {"source": "1252452", "target": "493082"}}, {"type": "Feature", "geometry": {"type": "LineString", "coordinates": [[-48.66758475394235, 69.0410747968221], [-48.66189079776271, 69.03960439756182]]}, "properties": {"source": "1252452", "target": "1252496"}}, {"type": "Feature", "geometry": {"type": "LineString", "coordinates": [[-48.65469015823834, 69.04072943431188], [-48.656404257200535, 69.04136229024556]]}, "properties": {"source": "1252450", "target": "847692"}}, {"type": "Feature", "geometry": {"type": "LineString", "coordinates": [[-48.65469015823834, 69.04072943431188], [-48.66189079776271, 69.03960439756182]]}, "properties": {"source": "1252450", "target": "1252496"}}, {"type": "Feature", "geometry": {"type": "LineString", "coordinates": [[-48.65469015823834, 69.04072943431188], [-48.65620560941386, 69.03998176347864]]}, "properties": {"source": "1252450", "target": "718646"}}, {"type": "Feature", "geometry": {"type": "LineString", "coordinates": [[-48.65469015823834, 69.04072943431188], [-48.6593515069452, 69.03815833599643]]}, "properties": {"source": "1252450", "target": "1252481"}}, {"type": "Feature", "geometry": {"type": "LineString", "coordinates": [[-48.65469015823834, 69.04072943431188], [-48.66758475394235, 69.0410747968221]]}, "properties": {"source": "1252450", "target": "1252452"}}, {"type": "Feature", "geometry": {"type": "LineString", "coordinates": [[-48.65469015823834, 69.04072943431188], [-48.66741062827458, 69.0376841118341]]}, "properties": {"source": "1252450", "target": "1252480"}}, {"type": "Feature", "geometry": {"type": "LineString", "coordinates": [[-48.65469015823834, 69.04072943431188], [-48.65271587238695, 69.03745635693602]]}, "properties": {"source": "1252450", "target": "1252437"}}, {"type": "Feature", "geometry": {"type": "LineString", "coordinates": [[-48.65469015823834, 69.04072943431188], [-48.65448955228152, 69.0386904934143]]}, "properties": {"source": "1252450", "target": "207576"}}, {"type": "Feature", "geometry": {"type": "LineString", "coordinates": [[-48.6672339038567, 69.03853347146784], [-48.65386473598508, 69.03941389980002]]}, "properties": {"source": "235378", "target": "547433"}}, {"type": "Feature", "geometry": {"type": "LineString", "coordinates": [[-48.6672339038567, 69.03853347146784], [-48.65850046455793, 69.04048660600816]]}, "properties": {"source": "235378", "target": "889859"}}, {"type": "Feature", "geometry": {"type": "LineString", "coordinates": [[-48.6672339038567, 69.03853347146784], [-48.66733072742505, 69.04060870516815]]}, "properties": {"source": "235378", "target": "446848"}}, {"type": "Feature", "geometry": {"type": "LineString", "coordinates": [[-48.6672339038567, 69.03853347146784], [-48.65784584712384, 69.03862439395863]]}, "properties": {"source": "235378", "target": "1252495"}}, {"type": "Feature", "geometry": {"type": "LineString", "coordinates": [[-48.6672339038567, 69.03853347146784], [-48.65111474150851, 69.04020203216544]]}, "properties": {"source": "235378", "target": "1252448"}}, {"type": "Feature", "geometry": {"type": "LineString", "coordinates": [[-48.6672339038567, 69.03853347146784], [-48.66692912451805, 69.03917084981089]]}, "properties": {"source": "235378", "target": "1252447"}}, {"type": "Feature", "geometry": {"type": "LineString", "coordinates": [[-48.6672339038567, 69.03853347146784], [-48.66462146271735, 69.03841743449422]]}, "properties": {"source": "235378", "target": "1252446"}}, {"type": "Feature", "geometry": {"type": "LineString", "coordinates": [[-48.6672339038567, 69.03853347146784], [-48.65019898167523, 69.03869314935218]]}, "properties": {"source": "235378", "target": "1091592"}}, {"type": "Feature", "geometry": {"type": "LineString", "coordinates": [[-48.6672339038567, 69.03853347146784], [-48.65132091833499, 69.0390054165976]]}, "properties": {"source": "235378", "target": "1091586"}}, {"type": "Feature", "geometry": {"type": "LineString", "coordinates": [[-48.6672339038567, 69.03853347146784], [-48.65569881756349, 69.03938688538378]]}, "properties": {"source": "235378", "target": "1252494"}}, {"type": "Feature", "geometry": {"type": "LineString", "coordinates": [[-48.6672339038567, 69.03853347146784], [-48.65448955228152, 69.0386904934143]]}, "properties": {"source": "235378", "target": "207576"}}, {"type": "Feature", "geometry": {"type": "LineString", "coordinates": [[-48.65620560941386, 69.03998176347864], [-48.65254594183176, 69.03832550222347]]}, "properties": {"source": "718646", "target": "791928"}}, {"type": "Feature", "geometry": {"type": "LineString", "coordinates": [[-48.65620560941386, 69.03998176347864], [-48.656404257200535, 69.04136229024556]]}, "properties": {"source": "718646", "target": "847692"}}, {"type": "Feature", "geometry": {"type": "LineString", "coordinates": [[-48.65620560941386, 69.03998176347864], [-48.6654081173522, 69.0385737861287]]}, "properties": {"source": "718646", "target": "493082"}}, {"type": "Feature", "geometry": {"type": "LineString", "coordinates": [[-48.65620560941386, 69.03998176347864], [-48.66189079776271, 69.03960439756182]]}, "properties": {"source": "718646", "target": "1252496"}}, {"type": "Feature", "geometry": {"type": "LineString", "coordinates": [[-48.6672339038567, 69.03853347146784], [-48.65822697714506, 69.04038624492983]]}, "properties": {"source": "235378", "target": "1252491"}}, {"type": "Feature", "geometry": {"type": "LineString", "coordinates": [[-48.65784584712384, 69.03862439395863], [-48.664919775774536, 69.03936939535086]]}, "properties": {"source": "1252495", "target": "2237112"}}, {"type": "Feature", "geometry": {"type": "LineString", "coordinates": [[-48.65458942643605, 69.03757868379768], [-48.653547508179344, 69.0410798982557]]}, "properties": {"source": "9040648", "target": "7806809"}}, {"type": "Feature", "geometry": {"type": "LineString", "coordinates": [[-48.65458942643605, 69.03757868379768], [-48.66547098630224, 69.0390870900087]]}, "properties": {"source": "9040648", "target": "8732601"}}, {"type": "Feature", "geometry": {"type": "LineString", "coordinates": [[-48.65458942643605, 69.03757868379768], [-48.658536575940246, 69.04183387171108]]}, "properties": {"source": "9040648", "target": "9027911"}}, {"type": "Feature", "geometry": {"type": "LineString", "coordinates": [[-48.65458942643605, 69.03757868379768], [-48.657065091932225, 69.04172142518601]]}, "properties": {"source": "9040648", "target": "9817839"}}, {"type": "Feature", "geometry": {"type": "LineString", "coordinates": [[-48.65458942643605, 69.03757868379768], [-48.65299665519643, 69.03850603768745]]}, "properties": {"source": "9040648", "target": "8135543"}}, {"type": "Feature", "geometry": {"type": "LineString", "coordinates": [[-48.65458942643605, 69.03757868379768], [-48.66552225694235, 69.03894532841895]]}, "properties": {"source": "9040648", "target": "7883047"}}, {"type": "Feature", "geometry": {"type": "LineString", "coordinates": [[-48.65458942643605, 69.03757868379768], [-48.66567216927493, 69.04265462619381]]}, "properties": {"source": "9040648", "target": "852323"}}, {"type": "Feature", "geometry": {"type": "LineString", "coordinates": [[-48.65458942643605, 69.03757868379768], [-48.6541077305761, 69.04158763747719]]}, "properties": {"source": "9040648", "target": "7980563"}}, {"type": "Feature", "geometry": {"type": "LineString", "coordinates": [[-48.65458942643605, 69.03757868379768], [-48.66628466289961, 69.04172596798392]]}, "properties": {"source": "9040648", "target": "8346903"}}, {"type": "Feature", "geometry": {"type": "LineString", "coordinates": [[-48.65458942643605, 69.03757868379768], [-48.65374917270822, 69.04073778100496]]}, "properties": {"source": "9040648", "target": "7843715"}}, {"type": "Feature", "geometry": {"type": "LineString", "coordinates": [[-48.65299920878667, 69.04083570238504], [-48.65254594183176, 69.03832550222347]]}, "properties": {"source": "1252475", "target": "791928"}}, {"type": "Feature", "geometry": {"type": "LineString", "coordinates": [[-48.65111474150851, 69.04020203216544], [-48.65254594183176, 69.03832550222347]]}, "properties": {"source": "1252448", "target": "791928"}}, {"type": "Feature", "geometry": {"type": "LineString", "coordinates": [[-48.65111474150851, 69.04020203216544], [-48.66189079776271, 69.03960439756182]]}, "properties": {"source": "1252448", "target": "1252496"}}, {"type": "Feature", "geometry": {"type": "LineString", "coordinates": [[-48.65111474150851, 69.04020203216544], [-48.65850046455793, 69.04048660600816]]}, "properties": {"source": "1252448", "target": "889859"}}, {"type": "Feature", "geometry": {"type": "LineString", "coordinates": [[-48.65458942643605, 69.03757868379768], [-48.66480841605454, 69.03742668148845]]}, "properties": {"source": "9040648", "target": "8855234"}}, {"type": "Feature", "geometry": {"type": "LineString", "coordinates": [[-48.664897933263916, 69.04219354051924], [-48.66733072742505, 69.04060870516815]]}, "properties": {"source": "489478", "target": "446848"}}, {"type": "Feature", "geometry": {"type": "LineString", "coordinates": [[-48.664897933263916, 69.04219354051924], [-48.65784584712384, 69.03862439395863]]}, "properties": {"source": "489478", "target": "1252495"}}, {"type": "Feature", "geometry": {"type": "LineString", "coordinates": [[-48.664897933263916, 69.04219354051924], [-48.65111474150851, 69.04020203216544]]}, "properties": {"source": "489478", "target": "1252448"}}, {"type": "Feature", "geometry": {"type": "LineString", "coordinates": [[-48.664897933263916, 69.04219354051924], [-48.66692912451805, 69.03917084981089]]}, "properties": {"source": "489478", "target": "1252447"}}, {"type": "Feature", "geometry": {"type": "LineString", "coordinates": [[-48.664897933263916, 69.04219354051924], [-48.66462146271735, 69.03841743449422]]}, "properties": {"source": "489478", "target": "1252446"}}, {"type": "Feature", "geometry": {"type": "LineString", "coordinates": [[-48.664897933263916, 69.04219354051924], [-48.65019898167523, 69.03869314935218]]}, "properties": {"source": "489478", "target": "1091592"}}, {"type": "Feature", "geometry": {"type": "LineString", "coordinates": [[-48.664897933263916, 69.04219354051924], [-48.65132091833499, 69.0390054165976]]}, "properties": {"source": "489478", "target": "1091586"}}, {"type": "Feature", "geometry": {"type": "LineString", "coordinates": [[-48.664897933263916, 69.04219354051924], [-48.65569881756349, 69.03938688538378]]}, "properties": {"source": "489478", "target": "1252494"}}, {"type": "Feature", "geometry": {"type": "LineString", "coordinates": [[-48.664897933263916, 69.04219354051924], [-48.6504421329079, 69.04236827346384]]}, "properties": {"source": "489478", "target": "30227941"}}, {"type": "Feature", "geometry": {"type": "LineString", "coordinates": [[-48.6672339038567, 69.03853347146784], [-48.65254594183176, 69.03832550222347]]}, "properties": {"source": "235378", "target": "791928"}}, {"type": "Feature", "geometry": {"type": "LineString", "coordinates": [[-48.6672339038567, 69.03853347146784], [-48.666029934761724, 69.03792903041926]]}, "properties": {"source": "235378", "target": "791929"}}, {"type": "Feature", "geometry": {"type": "LineString", "coordinates": [[-48.6672339038567, 69.03853347146784], [-48.659691076646965, 69.04036086072179]]}, "properties": {"source": "235378", "target": "735550"}}, {"type": "Feature", "geometry": {"type": "LineString", "coordinates": [[-48.6672339038567, 69.03853347146784], [-48.6654081173522, 69.0385737861287]]}, "properties": {"source": "235378", "target": "493082"}}, {"type": "Feature", "geometry": {"type": "LineString", "coordinates": [[-48.6672339038567, 69.03853347146784], [-48.66189079776271, 69.03960439756182]]}, "properties": {"source": "235378", "target": "1252496"}}, {"type": "Feature", "geometry": {"type": "LineString", "coordinates": [[-48.6672339038567, 69.03853347146784], [-48.65620560941386, 69.03998176347864]]}, "properties": {"source": "235378", "target": "718646"}}, {"type": "Feature", "geometry": {"type": "LineString", "coordinates": [[-48.664897933263916, 69.04219354051924], [-48.65822697714506, 69.04038624492983]]}, "properties": {"source": "489478", "target": "1252491"}}, {"type": "Feature", "geometry": {"type": "LineString", "coordinates": [[-48.65386473598508, 69.03941389980002], [-48.65620560941386, 69.03998176347864]]}, "properties": {"source": "547433", "target": "718646"}}, {"type": "Feature", "geometry": {"type": "LineString", "coordinates": [[-48.65386473598508, 69.03941389980002], [-48.65850046455793, 69.04048660600816]]}, "properties": {"source": "547433", "target": "889859"}}, {"type": "Feature", "geometry": {"type": "LineString", "coordinates": [[-48.65386473598508, 69.03941389980002], [-48.66733072742505, 69.04060870516815]]}, "properties": {"source": "547433", "target": "446848"}}, {"type": "Feature", "geometry": {"type": "LineString", "coordinates": [[-48.65386473598508, 69.03941389980002], [-48.65784584712384, 69.03862439395863]]}, "properties": {"source": "547433", "target": "1252495"}}, {"type": "Feature", "geometry": {"type": "LineString", "coordinates": [[-48.65386473598508, 69.03941389980002], [-48.65111474150851, 69.04020203216544]]}, "properties": {"source": "547433", "target": "1252448"}}, {"type": "Feature", "geometry": {"type": "LineString", "coordinates": [[-48.65386473598508, 69.03941389980002], [-48.66692912451805, 69.03917084981089]]}, "properties": {"source": "547433", "target": "1252447"}}, {"type": "Feature", "geometry": {"type": "LineString", "coordinates": [[-48.65386473598508, 69.03941389980002], [-48.66462146271735, 69.03841743449422]]}, "properties": {"source": "547433", "target": "1252446"}}, {"type": "Feature", "geometry": {"type": "LineString", "coordinates": [[-48.65386473598508, 69.03941389980002], [-48.65019898167523, 69.03869314935218]]}, "properties": {"source": "547433", "target": "1091592"}}, {"type": "Feature", "geometry": {"type": "LineString", "coordinates": [[-48.65386473598508, 69.03941389980002], [-48.65132091833499, 69.0390054165976]]}, "properties": {"source": "547433", "target": "1091586"}}, {"type": "Feature", "geometry": {"type": "LineString", "coordinates": [[-48.65386473598508, 69.03941389980002], [-48.65569881756349, 69.03938688538378]]}, "properties": {"source": "547433", "target": "1252494"}}, {"type": "Feature", "geometry": {"type": "LineString", "coordinates": [[-48.66480841605454, 69.03742668148845], [-48.66385184973865, 69.0422821584072]]}, "properties": {"source": "8855234", "target": "7503525"}}, {"type": "Feature", "geometry": {"type": "LineString", "coordinates": [[-48.66480841605454, 69.03742668148845], [-48.653547508179344, 69.0410798982557]]}, "properties": {"source": "8855234", "target": "7806809"}}, {"type": "Feature", "geometry": {"type": "LineString", "coordinates": [[-48.66480841605454, 69.03742668148845], [-48.66547098630224, 69.0390870900087]]}, "properties": {"source": "8855234", "target": "8732601"}}, {"type": "Feature", "geometry": {"type": "LineString", "coordinates": [[-48.66480841605454, 69.03742668148845], [-48.65669346765114, 69.03888342286382]]}, "properties": {"source": "8855234", "target": "7537975"}}, {"type": "Feature", "geometry": {"type": "LineString", "coordinates": [[-48.66480841605454, 69.03742668148845], [-48.658536575940246, 69.04183387171108]]}, "properties": {"source": "8855234", "target": "9027911"}}, {"type": "Feature", "geometry": {"type": "LineString", "coordinates": [[-48.65386473598508, 69.03941389980002], [-48.65822697714506, 69.04038624492983]]}, "properties": {"source": "547433", "target": "1252491"}}, {"type": "Feature", "geometry": {"type": "LineString", "coordinates": [[-48.666029934761724, 69.03792903041926], [-48.65469015823834, 69.04072943431188]]}, "properties": {"source": "791929", "target": "1252450"}}, {"type": "Feature", "geometry": {"type": "LineString", "coordinates": [[-48.666029934761724, 69.03792903041926], [-48.66741062827458, 69.0376841118341]]}, "properties": {"source": "791929", "target": "1252480"}}, {"type": "Feature", "geometry": {"type": "LineString", "coordinates": [[-48.666029934761724, 69.03792903041926], [-48.65271587238695, 69.03745635693602]]}, "properties": {"source": "791929", "target": "1252437"}}, {"type": "Feature", "geometry": {"type": "LineString", "coordinates": [[-48.666029934761724, 69.03792903041926], [-48.666074944669504, 69.03965952511115]]}, "properties": {"source": "791929", "target": "675539"}}, {"type": "Feature", "geometry": {"type": "LineString", "coordinates": [[-48.666029934761724, 69.03792903041926], [-48.65889254639566, 69.03860443908462]]}, "properties": {"source": "791929", "target": "7961512"}}, {"type": "Feature", "geometry": {"type": "LineString", "coordinates": [[-48.666029934761724, 69.03792903041926], [-48.662474970888695, 69.0419712783613]]}, "properties": {"source": "791929", "target": "764866"}}, {"type": "Feature", "geometry": {"type": "LineString", "coordinates": [[-48.666029934761724, 69.03792903041926], [-48.66289702242153, 69.03972225638765]]}, "properties": {"source": "791929", "target": "718454"}}, {"type": "Feature", "geometry": {"type": "LineString", "coordinates": [[-48.666029934761724, 69.03792903041926], [-48.65448955228152, 69.0386904934143]]}, "properties": {"source": "791929", "target": "207576"}}, {"type": "Feature", "geometry": {"type": "LineString", "coordinates": [[-48.666029934761724, 69.03792903041926], [-48.65224909169214, 69.04075443952303]]}, "properties": {"source": "791929", "target": "842142"}}, {"type": "Feature", "geometry": {"type": "LineString", "coordinates": [[-48.666029934761724, 69.03792903041926], [-48.664919775774536, 69.03936939535086]]}, "properties": {"source": "791929", "target": "2237112"}}, {"type": "Feature", "geometry": {"type": "LineString", "coordinates": [[-48.666029934761724, 69.03792903041926], [-48.65701283025811, 69.03776715507749]]}, "properties": {"source": "791929", "target": "675540"}}, {"type": "Feature", "geometry": {"type": "LineString", "coordinates": [[-48.659691076646965, 69.04036086072179], [-48.65254594183176, 69.03832550222347]]}, "properties": {"source": "735550", "target": "791928"}}, {"type": "Feature", "geometry": {"type": "LineString", "coordinates": [[-48.659691076646965, 69.04036086072179], [-48.656404257200535, 69.04136229024556]]}, "properties": {"source": "735550", "target": "847692"}}, {"type": "Feature", "geometry": {"type": "LineString", "coordinates": [[-48.659691076646965, 69.04036086072179], [-48.6654081173522, 69.0385737861287]]}, "properties": {"source": "735550", "target": "493082"}}, {"type": "Feature", "geometry": {"type": "LineString", "coordinates": [[-48.659691076646965, 69.04036086072179], [-48.66189079776271, 69.03960439756182]]}, "properties": {"source": "735550", "target": "1252496"}}, {"type": "Feature", "geometry": {"type": "LineString", "coordinates": [[-48.659691076646965, 69.04036086072179], [-48.65620560941386, 69.03998176347864]]}, "properties": {"source": "735550", "target": "718646"}}, {"type": "Feature", "geometry": {"type": "LineString", "coordinates": [[-48.66692912451805, 69.03917084981089], [-48.65019898167523, 69.03869314935218]]}, "properties": {"source": "1252447", "target": "1091592"}}, {"type": "Feature", "geometry": {"type": "LineString", "coordinates": [[-48.66692912451805, 69.03917084981089], [-48.65132091833499, 69.0390054165976]]}, "properties": {"source": "1252447", "target": "1091586"}}, {"type": "Feature", "geometry": {"type": "LineString", "coordinates": [[-48.659516896363584, 69.04164954978913], [-48.65254594183176, 69.03832550222347]]}, "properties": {"source": "735551", "target": "791928"}}, {"type": "Feature", "geometry": {"type": "LineString", "coordinates": [[-48.659516896363584, 69.04164954978913], [-48.66385184973865, 69.0422821584072]]}, "properties": {"source": "735551", "target": "7503525"}}, {"type": "Feature", "geometry": {"type": "LineString", "coordinates": [[-48.659516896363584, 69.04164954978913], [-48.65889254639566, 69.03860443908462]]}, "properties": {"source": "735551", "target": "7961512"}}, {"type": "Feature", "geometry": {"type": "LineString", "coordinates": [[-48.66462146271735, 69.03841743449422], [-48.659691076646965, 69.04036086072179]]}, "properties": {"source": "1252446", "target": "735550"}}, {"type": "Feature", "geometry": {"type": "LineString", "coordinates": [[-48.66462146271735, 69.03841743449422], [-48.6654081173522, 69.0385737861287]]}, "properties": {"source": "1252446", "target": "493082"}}, {"type": "Feature", "geometry": {"type": "LineString", "coordinates": [[-48.66462146271735, 69.03841743449422], [-48.65850046455793, 69.04048660600816]]}, "properties": {"source": "1252446", "target": "889859"}}, {"type": "Feature", "geometry": {"type": "LineString", "coordinates": [[-48.66462146271735, 69.03841743449422], [-48.65111474150851, 69.04020203216544]]}, "properties": {"source": "1252446", "target": "1252448"}}, {"type": "Feature", "geometry": {"type": "LineString", "coordinates": [[-48.66462146271735, 69.03841743449422], [-48.66692912451805, 69.03917084981089]]}, "properties": {"source": "1252446", "target": "1252447"}}, {"type": "Feature", "geometry": {"type": "LineString", "coordinates": [[-48.66462146271735, 69.03841743449422], [-48.65019898167523, 69.03869314935218]]}, "properties": {"source": "1252446", "target": "1091592"}}, {"type": "Feature", "geometry": {"type": "LineString", "coordinates": [[-48.66462146271735, 69.03841743449422], [-48.65132091833499, 69.0390054165976]]}, "properties": {"source": "1252446", "target": "1091586"}}, {"type": "Feature", "geometry": {"type": "LineString", "coordinates": [[-48.66462146271735, 69.03841743449422], [-48.65569881756349, 69.03938688538378]]}, "properties": {"source": "1252446", "target": "1252494"}}, {"type": "Feature", "geometry": {"type": "LineString", "coordinates": [[-48.66462146271735, 69.03841743449422], [-48.665135494206794, 69.03789640737799]]}, "properties": {"source": "1252446", "target": "1035285"}}, {"type": "Feature", "geometry": {"type": "LineString", "coordinates": [[-48.6593515069452, 69.03815833599643], [-48.65254594183176, 69.03832550222347]]}, "properties": {"source": "1252481", "target": "791928"}}, {"type": "Feature", "geometry": {"type": "LineString", "coordinates": [[-48.66462146271735, 69.03841743449422], [-48.65822697714506, 69.04038624492983]]}, "properties": {"source": "1252446", "target": "1252491"}}, {"type": "Feature", "geometry": {"type": "LineString", "coordinates": [[-48.653169484905675, 69.0394273371576], [-48.6541077305761, 69.04158763747719]]}, "properties": {"source": "8868370", "target": "7980563"}}, {"type": "Feature", "geometry": {"type": "LineString", "coordinates": [[-48.653169484905675, 69.0394273371576], [-48.66628466289961, 69.04172596798392]]}, "properties": {"source": "8868370", "target": "8346903"}}, {"type": "Feature", "geometry": {"type": "LineString", "coordinates": [[-48.653169484905675, 69.0394273371576], [-48.65374917270822, 69.04073778100496]]}, "properties": {"source": "8868370", "target": "7843715"}}, {"type": "Feature", "geometry": {"type": "LineString", "coordinates": [[-48.654534177377485, 69.04179744960771], [-48.65458942643605, 69.03757868379768]]}, "properties": {"source": "8685684", "target": "9040648"}}, {"type": "Feature", "geometry": {"type": "LineString", "coordinates": [[-48.654534177377485, 69.04179744960771], [-48.653547508179344, 69.0410798982557]]}, "properties": {"source": "8685684", "target": "7806809"}}, {"type": "Feature", "geometry": {"type": "LineString", "coordinates": [[-48.654534177377485, 69.04179744960771], [-48.66547098630224, 69.0390870900087]]}, "properties": {"source": "8685684", "target": "8732601"}}, {"type": "Feature", "geometry": {"type": "LineString", "coordinates": [[-48.654534177377485, 69.04179744960771], [-48.65669346765114, 69.03888342286382]]}, "properties": {"source": "8685684", "target": "7537975"}}, {"type": "Feature", "geometry": {"type": "LineString", "coordinates": [[-48.654534177377485, 69.04179744960771], [-48.658536575940246, 69.04183387171108]]}, "properties": {"source": "8685684", "target": "9027911"}}, {"type": "Feature", "geometry": {"type": "LineString", "coordinates": [[-48.654534177377485, 69.04179744960771], [-48.657065091932225, 69.04172142518601]]}, "properties": {"source": "8685684", "target": "9817839"}}, {"type": "Feature", "geometry": {"type": "LineString", "coordinates": [[-48.654534177377485, 69.04179744960771], [-48.65299665519643, 69.03850603768745]]}, "properties": {"source": "8685684", "target": "8135543"}}, {"type": "Feature", "geometry": {"type": "LineString", "coordinates": [[-48.654534177377485, 69.04179744960771], [-48.666683949034706, 69.03922386910779]]}, "properties": {"source": "8685684", "target": "7877935"}}, {"type": "Feature", "geometry": {"type": "LineString", "coordinates": [[-48.654534177377485, 69.04179744960771], [-48.66552225694235, 69.03894532841895]]}, "properties": {"source": "8685684", "target": "7883047"}}, {"type": "Feature", "geometry": {"type": "LineString", "coordinates": [[-48.654534177377485, 69.04179744960771], [-48.66567216927493, 69.04265462619381]]}, "properties": {"source": "8685684", "target": "852323"}}, {"type": "Feature", "geometry": {"type": "LineString", "coordinates": [[-48.654534177377485, 69.04179744960771], [-48.6541077305761, 69.04158763747719]]}, "properties": {"source": "8685684", "target": "7980563"}}, {"type": "Feature", "geometry": {"type": "LineString", "coordinates": [[-48.654534177377485, 69.04179744960771], [-48.66628466289961, 69.04172596798392]]}, "properties": {"source": "8685684", "target": "8346903"}}, {"type": "Feature", "geometry": {"type": "LineString", "coordinates": [[-48.654534177377485, 69.04179744960771], [-48.66480841605454, 69.03742668148845]]}, "properties": {"source": "8685684", "target": "8855234"}}, {"type": "Feature", "geometry": {"type": "LineString", "coordinates": [[-48.66733072742505, 69.04060870516815], [-48.66758475394235, 69.0410747968221]]}, "properties": {"source": "446848", "target": "1252452"}}, {"type": "Feature", "geometry": {"type": "LineString", "coordinates": [[-48.66733072742505, 69.04060870516815], [-48.65569881756349, 69.03938688538378]]}, "properties": {"source": "446848", "target": "1252494"}}, {"type": "Feature", "geometry": {"type": "LineString", "coordinates": [[-48.66733072742505, 69.04060870516815], [-48.664919775774536, 69.03936939535086]]}, "properties": {"source": "446848", "target": "2237112"}}, {"type": "Feature", "geometry": {"type": "LineString", "coordinates": [[-48.66733072742505, 69.04060870516815], [-48.6504421329079, 69.04236827346384]]}, "properties": {"source": "446848", "target": "30227941"}}, {"type": "Feature", "geometry": {"type": "LineString", "coordinates": [[-48.653169484905675, 69.0394273371576], [-48.654534177377485, 69.04179744960771]]}, "properties": {"source": "8868370", "target": "8685684"}}, {"type": "Feature", "geometry": {"type": "LineString", "coordinates": [[-48.653169484905675, 69.0394273371576], [-48.65458942643605, 69.03757868379768]]}, "properties": {"source": "8868370", "target": "9040648"}}, {"type": "Feature", "geometry": {"type": "LineString", "coordinates": [[-48.653169484905675, 69.0394273371576], [-48.653547508179344, 69.0410798982557]]}, "properties": {"source": "8868370", "target": "7806809"}}, {"type": "Feature", "geometry": {"type": "LineString", "coordinates": [[-48.653169484905675, 69.0394273371576], [-48.66547098630224, 69.0390870900087]]}, "properties": {"source": "8868370", "target": "8732601"}}, {"type": "Feature", "geometry": {"type": "LineString", "coordinates": [[-48.653169484905675, 69.0394273371576], [-48.65669346765114, 69.03888342286382]]}, "properties": {"source": "8868370", "target": "7537975"}}, {"type": "Feature", "geometry": {"type": "LineString", "coordinates": [[-48.653169484905675, 69.0394273371576], [-48.658536575940246, 69.04183387171108]]}, "properties": {"source": "8868370", "target": "9027911"}}, {"type": "Feature", "geometry": {"type": "LineString", "coordinates": [[-48.653169484905675, 69.0394273371576], [-48.657065091932225, 69.04172142518601]]}, "properties": {"source": "8868370", "target": "9817839"}}, {"type": "Feature", "geometry": {"type": "LineString", "coordinates": [[-48.653169484905675, 69.0394273371576], [-48.65299665519643, 69.03850603768745]]}, "properties": {"source": "8868370", "target": "8135543"}}, {"type": "Feature", "geometry": {"type": "LineString", "coordinates": [[-48.653169484905675, 69.0394273371576], [-48.666683949034706, 69.03922386910779]]}, "properties": {"source": "8868370", "target": "7877935"}}, {"type": "Feature", "geometry": {"type": "LineString", "coordinates": [[-48.653169484905675, 69.0394273371576], [-48.66552225694235, 69.03894532841895]]}, "properties": {"source": "8868370", "target": "7883047"}}, {"type": "Feature", "geometry": {"type": "LineString", "coordinates": [[-48.653169484905675, 69.0394273371576], [-48.66567216927493, 69.04265462619381]]}, "properties": {"source": "8868370", "target": "852323"}}, {"type": "Feature", "geometry": {"type": "LineString", "coordinates": [[-48.653169484905675, 69.0394273371576], [-48.66480841605454, 69.03742668148845]]}, "properties": {"source": "8868370", "target": "8855234"}}, {"type": "Feature", "geometry": {"type": "LineString", "coordinates": [[-48.659691076646965, 69.04036086072179], [-48.65850046455793, 69.04048660600816]]}, "properties": {"source": "735550", "target": "889859"}}, {"type": "Feature", "geometry": {"type": "LineString", "coordinates": [[-48.659691076646965, 69.04036086072179], [-48.66733072742505, 69.04060870516815]]}, "properties": {"source": "735550", "target": "446848"}}, {"type": "Feature", "geometry": {"type": "LineString", "coordinates": [[-48.659691076646965, 69.04036086072179], [-48.65111474150851, 69.04020203216544]]}, "properties": {"source": "735550", "target": "1252448"}}, {"type": "Feature", "geometry": {"type": "LineString", "coordinates": [[-48.659691076646965, 69.04036086072179], [-48.66692912451805, 69.03917084981089]]}, "properties": {"source": "735550", "target": "1252447"}}, {"type": "Feature", "geometry": {"type": "LineString", "coordinates": [[-48.659691076646965, 69.04036086072179], [-48.659516896363584, 69.04164954978913]]}, "properties": {"source": "735550", "target": "735551"}}, {"type": "Feature", "geometry": {"type": "LineString", "coordinates": [[-48.659691076646965, 69.04036086072179], [-48.65019898167523, 69.03869314935218]]}, "properties": {"source": "735550", "target": "1091592"}}, {"type": "Feature", "geometry": {"type": "LineString", "coordinates": [[-48.659691076646965, 69.04036086072179], [-48.65132091833499, 69.0390054165976]]}, "properties": {"source": "735550", "target": "1091586"}}, {"type": "Feature", "geometry": {"type": "LineString", "coordinates": [[-48.659691076646965, 69.04036086072179], [-48.65569881756349, 69.03938688538378]]}, "properties": {"source": "735550", "target": "1252494"}}, {"type": "Feature", "geometry": {"type": "LineString", "coordinates": [[-48.659691076646965, 69.04036086072179], [-48.666074944669504, 69.03965952511115]]}, "properties": {"source": "735550", "target": "675539"}}, {"type": "Feature", "geometry": {"type": "LineString", "coordinates": [[-48.659691076646965, 69.04036086072179], [-48.662474970888695, 69.0419712783613]]}, "properties": {"source": "735550", "target": "764866"}}, {"type": "Feature", "geometry": {"type": "LineString", "coordinates": [[-48.659691076646965, 69.04036086072179], [-48.66289702242153, 69.03972225638765]]}, "properties": {"source": "735550", "target": "718454"}}, {"type": "Feature", "geometry": {"type": "LineString", "coordinates": [[-48.659691076646965, 69.04036086072179], [-48.665135494206794, 69.03789640737799]]}, "properties": {"source": "735550", "target": "1035285"}}, {"type": "Feature", "geometry": {"type": "LineString", "coordinates": [[-48.659691076646965, 69.04036086072179], [-48.65701283025811, 69.03776715507749]]}, "properties": {"source": "735550", "target": "675540"}}, {"type": "Feature", "geometry": {"type": "LineString", "coordinates": [[-48.659691076646965, 69.04036086072179], [-48.651700321230464, 69.04239164987351]]}, "properties": {"source": "735550", "target": "6374428"}}, {"type": "Feature", "geometry": {"type": "LineString", "coordinates": [[-48.656404257200535, 69.04136229024556], [-48.65254594183176, 69.03832550222347]]}, "properties": {"source": "847692", "target": "791928"}}, {"type": "Feature", "geometry": {"type": "LineString", "coordinates": [[-48.659691076646965, 69.04036086072179], [-48.65822697714506, 69.04038624492983]]}, "properties": {"source": "735550", "target": "1252491"}}]}