{"type": "FeatureCollection", "features": [{"type": "Feature", "geometry": {"type": "LineString", "coordinates": [[177.0034947353505, 68.80243934857987], [177.0119313685687, 68.80589414321116]]}, "properties": {"source": "3999281", "target": "16245508"}}, {"type": "Feature", "geometry": {"type": "LineString", "coordinates": [[177.0034947353505, 68.80243934857987], [177.00124836475106, 68.80460239309556]]}, "properties": {"source": "3999281", "target": "25665367"}}, {"type": "Feature", "geometry": {"type": "LineString", "coordinates": [[177.0034947353505, 68.80243934857987], [177.00049741448362, 68.80182689784064]]}, "properties": {"source": "3999281", "target": "1217898"}}, {"type": "Feature", "geometry": {"type": "LineString", "coordinates": [[177.0034947353505, 68.80243934857987], [176.99798866347726, 68.80245859188344]]}, "properties": {"source": "3999281", "target": "29489192"}}, {"type": "Feature", "geometry": {"type": "LineString", "coordinates": [[177.0061955322189, 68.80333154166249], [177.00853886355367, 68.80319352166691]]}, "properties": {"source": "2624860", "target": "24208502"}}, {"type": "Feature", "geometry": {"type": "LineString", "coordinates": [[177.0061955322189, 68.80333154166249], [177.00850069900076, 68.80550285136047]]}, "properties": {"source": "2624860", "target": "17134426"}}, {"type": "Feature", "geometry": {"type": "LineString", "coordinates": [[177.0061955322189, 68.80333154166249], [177.00406752534963, 68.79989420042907]]}, "properties": {"source": "2624860", "target": "26783744"}}, {"type": "Feature", "geometry": {"type": "LineString", "coordinates": [[177.0061955322189, 68.80333154166249], [177.00484611904983, 68.8026934974169]]}, "properties": {"source": "2624860", "target": "3484257"}}, {"type": "Feature", "geometry": {"type": "LineString", "coordinates": [[177.0061955322189, 68.80333154166249], [177.0119313685687, 68.80589414321116]]}, "properties": {"source": "2624860", "target": "16245508"}}, {"type": "Feature", "geometry": {"type": "LineString", "coordinates": [[177.0061955322189, 68.80333154166249], [176.99845817775196, 68.80490764661374]]}, "properties": {"source": "2624860", "target": "22879818"}}, {"type": "Feature", "geometry": {"type": "LineString", "coordinates": [[177.0061955322189, 68.80333154166249], [177.00124836475106, 68.80460239309556]]}, "properties": {"source": "2624860", "target": "25665367"}}, {"type": "Feature", "geometry": {"type": "LineString", "coordinates": [[177.0061955322189, 68.80333154166249], [176.99798866347726, 68.80245859188344]]}, "properties": {"source": "2624860", "target": "29489192"}}, {"type": "Feature", "geometry": {"type": "LineString", "coordinates": [[177.00489516338985, 68.8020225553498], [176.99467306267843, 68.80597427915305]]}, "properties": {"source": "13574308", "target": "20673043"}}, {"type": "Feature", "geometry": {"type": "LineString", "coordinates": [[177.00489516338985, 68.8020225553498], [177.00771753049742, 68.80317635106488]]}, "properties": {"source": "13574308", "target": "247034"}}, {"type": "Feature", "geometry": {"type": "LineString", "coordinates": [[177.00489516338985, 68.8020225553498], [176.9949991285455, 68.8036840038894]]}, "properties": {"source": "13574308", "target": "1926787"}}, {"type": "Feature", "geometry": {"type": "LineString", "coordinates": [[177.00489516338985, 68.8020225553498], [177.0080146265925, 68.80029427988433]]}, "properties": {"source": "13574308", "target": "20688965"}}, {"type": "Feature", "geometry": {"type": "LineString", "coordinates": [[176.9968230665511, 68.80615892768628], [177.00340875629098, 68.80617684493069]]}, "properties": {"source": "19030698", "target": "18987202"}}, {"type": "Feature", "geometry": {"type": "LineString", "coordinates": [[176.9968230665511, 68.80615892768628], [177.011656179925, 68.80298292898999]]}, "properties": {"source": "19030698", "target": "1343403"}}, {"type": "Feature", "geometry": {"type": "LineString", "coordinates": [[176.9968230665511, 68.80615892768628], [177.00607057352687, 68.80585548809898]]}, "properties": {"source": "19030698", "target": "18905676"}}, {"type": "Feature", "geometry": {"type": "LineString", "coordinates": [[176.99467306267843, 68.80597427915305], [176.9958603361161, 68.80574927470877]]}, "properties": {"source": "20673043", "target": "210936"}}, {"type": "Feature", "geometry": {"type": "LineString", "coordinates": [[176.99467306267843, 68.80597427915305], [176.99567506343806, 68.80215579276853]]}, "properties": {"source": "20673043", "target": "18007626"}}, {"type": "Feature", "geometry": {"type": "LineString", "coordinates": [[176.99467306267843, 68.80597427915305], [177.00820375736612, 68.80021669852158]]}, "properties": {"source": "20673043", "target": "20504942"}}, {"type": "Feature", "geometry": {"type": "LineString", "coordinates": [[176.99467306267843, 68.80597427915305], [177.00542046472947, 68.80023799651661]]}, "properties": {"source": "20673043", "target": "18077742"}}, {"type": "Feature", "geometry": {"type": "LineString", "coordinates": [[176.99467306267843, 68.80597427915305], [177.00900575965835, 68.80403033581948]]}, "properties": {"source": "20673043", "target": "1518929"}}, {"type": "Feature", "geometry": {"type": "LineString", "coordinates": [[176.99467306267843, 68.80597427915305], [176.99320189646346, 68.80359903115414]]}, "properties": {"source": "20673043", "target": "1098223"}}, {"type": "Feature", "geometry": {"type": "LineString", "coordinates": [[176.99467306267843, 68.80597427915305], [177.00775270020785, 68.80377356960079]]}, "properties": {"source": "20673043", "target": "18922376"}}, {"type": "Feature", "geometry": {"type": "LineString", "coordinates": [[176.99467306267843, 68.80597427915305], [177.01080020421068, 68.80576177186975]]}, "properties": {"source": "20673043", "target": "1175573"}}, {"type": "Feature", "geometry": {"type": "LineString", "coordinates": [[177.00771753049742, 68.80317635106488], [176.99467306267843, 68.80597427915305]]}, "properties": {"source": "247034", "target": "20673043"}}, {"type": "Feature", "geometry": {"type": "LineString", "coordinates": [[177.00771753049742, 68.80317635106488], [177.00220557759536, 68.80495821564242]]}, "properties": {"source": "247034", "target": "6707413"}}, {"type": "Feature", "geometry": {"type": "LineString", "coordinates": [[177.00771753049742, 68.80317635106488], [177.00075663354806, 68.8034765073123]]}, "properties": {"source": "247034", "target": "417314"}}, {"type": "Feature", "geometry": {"type": "LineString", "coordinates": [[177.00771753049742, 68.80317635106488], [177.00220587777733, 68.80570142930966]]}, "properties": {"source": "247034", "target": "6767459"}}, {"type": "Feature", "geometry": {"type": "LineString", "coordinates": [[177.00771753049742, 68.80317635106488], [176.9958603361161, 68.80574927470877]]}, "properties": {"source": "247034", "target": "210936"}}, {"type": "Feature", "geometry": {"type": "LineString", "coordinates": [[176.99412308598795, 68.80079991060165], [177.00713851589177, 68.80478218172641]]}, "properties": {"source": "658892", "target": "25281250"}}, {"type": "Feature", "geometry": {"type": "LineString", "coordinates": [[176.99412308598795, 68.80079991060165], [177.0087542706691, 68.80321561167983]]}, "properties": {"source": "658892", "target": "27272406"}}, {"type": "Feature", "geometry": {"type": "LineString", "coordinates": [[177.00127247321615, 68.80045014968391], [177.0037430704715, 68.80526742891584]]}, "properties": {"source": "29455861", "target": "30177542"}}, {"type": "Feature", "geometry": {"type": "LineString", "coordinates": [[177.00127247321615, 68.80045014968391], [177.00608752510476, 68.80357880058281]]}, "properties": {"source": "29455861", "target": "29423961"}}, {"type": "Feature", "geometry": {"type": "LineString", "coordinates": [[177.00127247321615, 68.80045014968391], [176.99957955050968, 68.8006307847763]]}, "properties": {"source": "29455861", "target": "6604084"}}, {"type": "Feature", "geometry": {"type": "LineString", "coordinates": [[177.00127247321615, 68.80045014968391], [176.99560628637676, 68.80073768700143]]}, "properties": {"source": "29455861", "target": "774363"}}, {"type": "Feature", "geometry": {"type": "LineString", "coordinates": [[177.00127247321615, 68.80045014968391], [177.00713851589177, 68.80478218172641]]}, "properties": {"source": "29455861", "target": "25281250"}}, {"type": "Feature", "geometry": {"type": "LineString", "coordinates": [[177.00127247321615, 68.80045014968391], [177.0087542706691, 68.80321561167983]]}, "properties": {"source": "29455861", "target": "27272406"}}, {"type": "Feature", "geometry": {"type": "LineString", "coordinates": [[176.99712068153212, 68.80177650809577], [176.99467306267843, 68.80597427915305]]}, "properties": {"source": "744001", "target": "20673043"}}, {"type": "Feature", "geometry": {"type": "LineString", "coordinates": [[176.99712068153212, 68.80177650809577], [176.99593319362498, 68.80154812639802]]}, "properties": {"source": "744001", "target": "960966"}}, {"type": "Feature", "geometry": {"type": "LineString", "coordinates": [[176.99712068153212, 68.80177650809577], [177.00820375736612, 68.80021669852158]]}, "properties": {"source": "744001", "target": "20504942"}}, {"type": "Feature", "geometry": {"type": "LineString", "coordinates": [[176.99712068153212, 68.80177650809577], [177.01166555618, 68.80474491899705]]}, "properties": {"source": "744001", "target": "18615941"}}, {"type": "Feature", "geometry": {"type": "LineString", "coordinates": [[176.99712068153212, 68.80177650809577], [176.99292954044233, 68.8022947888843]]}, "properties": {"source": "744001", "target": "18719875"}}, {"type": "Feature", "geometry": {"type": "LineString", "coordinates": [[176.99712068153212, 68.80177650809577], [177.01080020421068, 68.80576177186975]]}, "properties": {"source": "744001", "target": "1175573"}}, {"type": "Feature", "geometry": {"type": "LineString", "coordinates": [[176.99527384837512, 68.80018909089415], [177.00850069900076, 68.80550285136047]]}, "properties": {"source": "152315", "target": "17134426"}}, {"type": "Feature", "geometry": {"type": "LineString", "coordinates": [[176.99527384837512, 68.80018909089415], [177.0119313685687, 68.80589414321116]]}, "properties": {"source": "152315", "target": "16245508"}}, {"type": "Feature", "geometry": {"type": "LineString", "coordinates": [[177.00771753049742, 68.80317635106488], [176.99567506343806, 68.80215579276853]]}, "properties": {"source": "247034", "target": "18007626"}}, {"type": "Feature", "geometry": {"type": "LineString", "coordinates": [[177.00771753049742, 68.80317635106488], [177.00542046472947, 68.80023799651661]]}, "properties": {"source": "247034", "target": "18077742"}}, {"type": "Feature", "geometry": {"type": "LineString", "coordinates": [[177.00771753049742, 68.80317635106488], [177.00900575965835, 68.80403033581948]]}, "properties": {"source": "247034", "target": "1518929"}}, {"type": "Feature", "geometry": {"type": "LineString", "coordinates": [[177.00771753049742, 68.80317635106488], [176.99320189646346, 68.80359903115414]]}, "properties": {"source": "247034", "target": "1098223"}}, {"type": "Feature", "geometry": {"type": "LineString", "coordinates": [[177.00771753049742, 68.80317635106488], [177.00775270020785, 68.80377356960079]]}, "properties": {"source": "247034", "target": "18922376"}}, {"type": "Feature", "geometry": {"type": "LineString", "coordinates": [[177.00771753049742, 68.80317635106488], [177.00406302409954, 68.80504982055214]]}, "properties": {"source": "247034", "target": "1067680"}}, {"type": "Feature", "geometry": {"type": "LineString", "coordinates": [[177.01165818340377, 68.80331790597779], [177.00853886355367, 68.80319352166691]]}, "properties": {"source": "24692936", "target": "24208502"}}, {"type": "Feature", "geometry": {"type": "LineString", "coordinates": [[177.01165818340377, 68.80331790597779], [177.00058711377108, 68.80049484107892]]}, "properties": {"source": "24692936", "target": "13085596"}}, {"type": "Feature", "geometry": {"type": "LineString", "coordinates": [[177.01165818340377, 68.80331790597779], [177.00713851589177, 68.80478218172641]]}, "properties": {"source": "24692936", "target": "25281250"}}, {"type": "Feature", "geometry": {"type": "LineString", "coordinates": [[177.01165818340377, 68.80331790597779], [176.99412308598795, 68.80079991060165]]}, "properties": {"source": "24692936", "target": "658892"}}, {"type": "Feature", "geometry": {"type": "LineString", "coordinates": [[177.01165818340377, 68.80331790597779], [177.00340875629098, 68.80617684493069]]}, "properties": {"source": "24692936", "target": "18987202"}}, {"type": "Feature", "geometry": {"type": "LineString", "coordinates": [[177.00739624493661, 68.80516723495992], [176.99467306267843, 68.80597427915305]]}, "properties": {"source": "25489952", "target": "20673043"}}, {"type": "Feature", "geometry": {"type": "LineString", "coordinates": [[177.00739624493661, 68.80516723495992], [177.00771753049742, 68.80317635106488]]}, "properties": {"source": "25489952", "target": "247034"}}, {"type": "Feature", "geometry": {"type": "LineString", "coordinates": [[177.00739624493661, 68.80516723495992], [176.9949991285455, 68.8036840038894]]}, "properties": {"source": "25489952", "target": "1926787"}}, {"type": "Feature", "geometry": {"type": "LineString", "coordinates": [[177.00739624493661, 68.80516723495992], [177.0080146265925, 68.80029427988433]]}, "properties": {"source": "25489952", "target": "20688965"}}, {"type": "Feature", "geometry": {"type": "LineString", "coordinates": [[177.00739624493661, 68.80516723495992], [177.00288697435036, 68.80328375984996]]}, "properties": {"source": "25489952", "target": "598133"}}, {"type": "Feature", "geometry": {"type": "LineString", "coordinates": [[177.00489516338985, 68.8020225553498], [176.99562790012567, 68.80554411270913]]}, "properties": {"source": "13574308", "target": "352610"}}, {"type": "Feature", "geometry": {"type": "LineString", "coordinates": [[177.00489516338985, 68.8020225553498], [177.00220557759536, 68.80495821564242]]}, "properties": {"source": "13574308", "target": "6707413"}}, {"type": "Feature", "geometry": {"type": "LineString", "coordinates": [[177.00489516338985, 68.8020225553498], [177.00220587777733, 68.80570142930966]]}, "properties": {"source": "13574308", "target": "6767459"}}, {"type": "Feature", "geometry": {"type": "LineString", "coordinates": [[177.00489516338985, 68.8020225553498], [176.9958603361161, 68.80574927470877]]}, "properties": {"source": "13574308", "target": "210936"}}, {"type": "Feature", "geometry": {"type": "LineString", "coordinates": [[177.00484611904983, 68.8026934974169], [177.00853886355367, 68.80319352166691]]}, "properties": {"source": "3484257", "target": "24208502"}}, {"type": "Feature", "geometry": {"type": "LineString", "coordinates": [[177.00484611904983, 68.8026934974169], [177.00850069900076, 68.80550285136047]]}, "properties": {"source": "3484257", "target": "17134426"}}, {"type": "Feature", "geometry": {"type": "LineString", "coordinates": [[177.00484611904983, 68.8026934974169], [177.0119313685687, 68.80589414321116]]}, "properties": {"source": "3484257", "target": "16245508"}}, {"type": "Feature", "geometry": {"type": "LineString", "coordinates": [[177.00484611904983, 68.8026934974169], [177.00124836475106, 68.80460239309556]]}, "properties": {"source": "3484257", "target": "25665367"}}, {"type": "Feature", "geometry": {"type": "LineString", "coordinates": [[177.00484611904983, 68.8026934974169], [176.99798866347726, 68.80245859188344]]}, "properties": {"source": "3484257", "target": "29489192"}}, {"type": "Feature", "geometry": {"type": "LineString", "coordinates": [[177.0119313685687, 68.80589414321116], [177.00853886355367, 68.80319352166691]]}, "properties": {"source": "16245508", "target": "24208502"}}, {"type": "Feature", "geometry": {"type": "LineString", "coordinates": [[177.0119313685687, 68.80589414321116], [177.00850069900076, 68.80550285136047]]}, "properties": {"source": "16245508", "target": "17134426"}}, {"type": "Feature", "geometry": {"type": "LineString", "coordinates": [[177.00075663354806, 68.8034765073123], [176.99467306267843, 68.80597427915305]]}, "properties": {"source": "417314", "target": "20673043"}}, {"type": "Feature", "geometry": {"type": "LineString", "coordinates": [[177.00075663354806, 68.8034765073123], [176.9958603361161, 68.80574927470877]]}, "properties": {"source": "417314", "target": "210936"}}, {"type": "Feature", "geometry": {"type": "LineString", "coordinates": [[177.0109022904125, 68.80469932107445], [177.00608752510476, 68.80357880058281]]}, "properties": {"source": "2042515", "target": "29423961"}}, {"type": "Feature", "geometry": {"type": "LineString", "coordinates": [[177.0109022904125, 68.80469932107445], [176.99422665325136, 68.80328733811473]]}, "properties": {"source": "2042515", "target": "25657587"}}, {"type": "Feature", "geometry": {"type": "LineString", "coordinates": [[177.0109022904125, 68.80469932107445], [177.01165818340377, 68.80331790597779]]}, "properties": {"source": "2042515", "target": "24692936"}}, {"type": "Feature", "geometry": {"type": "LineString", "coordinates": [[176.99593319362498, 68.80154812639802], [176.99467306267843, 68.80597427915305]]}, "properties": {"source": "960966", "target": "20673043"}}, {"type": "Feature", "geometry": {"type": "LineString", "coordinates": [[176.99593319362498, 68.80154812639802], [177.00820375736612, 68.80021669852158]]}, "properties": {"source": "960966", "target": "20504942"}}, {"type": "Feature", "geometry": {"type": "LineString", "coordinates": [[176.99593319362498, 68.80154812639802], [177.01080020421068, 68.80576177186975]]}, "properties": {"source": "960966", "target": "1175573"}}, {"type": "Feature", "geometry": {"type": "LineString", "coordinates": [[177.00049741448362, 68.80182689784064], [177.00850069900076, 68.80550285136047]]}, "properties": {"source": "1217898", "target": "17134426"}}, {"type": "Feature", "geometry": {"type": "LineString", "coordinates": [[177.00049741448362, 68.80182689784064], [176.99527384837512, 68.80018909089415]]}, "properties": {"source": "1217898", "target": "152315"}}, {"type": "Feature", "geometry": {"type": "LineString", "coordinates": [[177.00049741448362, 68.80182689784064], [176.99952532249773, 68.80127240427277]]}, "properties": {"source": "1217898", "target": "1589453"}}, {"type": "Feature", "geometry": {"type": "LineString", "coordinates": [[177.01166555618, 68.80474491899705], [176.99467306267843, 68.80597427915305]]}, "properties": {"source": "18615941", "target": "20673043"}}, {"type": "Feature", "geometry": {"type": "LineString", "coordinates": [[177.01166555618, 68.80474491899705], [176.99593319362498, 68.80154812639802]]}, "properties": {"source": "18615941", "target": "960966"}}, {"type": "Feature", "geometry": {"type": "LineString", "coordinates": [[177.01166555618, 68.80474491899705], [177.00820375736612, 68.80021669852158]]}, "properties": {"source": "18615941", "target": "20504942"}}, {"type": "Feature", "geometry": {"type": "LineString", "coordinates": [[176.99615587124316, 68.80466805512822], [177.00220587777733, 68.80570142930966]]}, "properties": {"source": "1308339", "target": "6767459"}}, {"type": "Feature", "geometry": {"type": "LineString", "coordinates": [[176.99615587124316, 68.80466805512822], [176.99738866638882, 68.80556826471218]]}, "properties": {"source": "1308339", "target": "2686042"}}, {"type": "Feature", "geometry": {"type": "LineString", "coordinates": [[176.99615587124316, 68.80466805512822], [176.99726825110167, 68.80461179613607]]}, "properties": {"source": "1308339", "target": "1645962"}}, {"type": "Feature", "geometry": {"type": "LineString", "coordinates": [[177.00018033877126, 68.80163241481509], [177.0037430704715, 68.80526742891584]]}, "properties": {"source": "18759562", "target": "30177542"}}, {"type": "Feature", "geometry": {"type": "LineString", "coordinates": [[177.00018033877126, 68.80163241481509], [177.00608752510476, 68.80357880058281]]}, "properties": {"source": "18759562", "target": "29423961"}}, {"type": "Feature", "geometry": {"type": "LineString", "coordinates": [[177.00018033877126, 68.80163241481509], [176.99422665325136, 68.80328733811473]]}, "properties": {"source": "18759562", "target": "25657587"}}, {"type": "Feature", "geometry": {"type": "LineString", "coordinates": [[177.00018033877126, 68.80163241481509], [176.9968230665511, 68.80615892768628]]}, "properties": {"source": "18759562", "target": "19030698"}}, {"type": "Feature", "geometry": {"type": "LineString", "coordinates": [[177.0037430704715, 68.80526742891584], [177.00608752510476, 68.80357880058281]]}, "properties": {"source": "30177542", "target": "29423961"}}, {"type": "Feature", "geometry": {"type": "LineString", "coordinates": [[177.0037430704715, 68.80526742891584], [176.99422665325136, 68.80328733811473]]}, "properties": {"source": "30177542", "target": "25657587"}}, {"type": "Feature", "geometry": {"type": "LineString", "coordinates": [[177.0037430704715, 68.80526742891584], [176.99957955050968, 68.8006307847763]]}, "properties": {"source": "30177542", "target": "6604084"}}, {"type": "Feature", "geometry": {"type": "LineString", "coordinates": [[177.0037430704715, 68.80526742891584], [177.00603981255136, 68.80342987455873]]}, "properties": {"source": "30177542", "target": "2486517"}}, {"type": "Feature", "geometry": {"type": "LineString", "coordinates": [[177.0037430704715, 68.80526742891584], [177.00853886355367, 68.80319352166691]]}, "properties": {"source": "30177542", "target": "24208502"}}, {"type": "Feature", "geometry": {"type": "LineString", "coordinates": [[177.0037430704715, 68.80526742891584], [177.0026329940141, 68.80355357298458]]}, "properties": {"source": "30177542", "target": "1707893"}}, {"type": "Feature", "geometry": {"type": "LineString", "coordinates": [[177.0037430704715, 68.80526742891584], [177.00058711377108, 68.80049484107892]]}, "properties": {"source": "30177542", "target": "13085596"}}, {"type": "Feature", "geometry": {"type": "LineString", "coordinates": [[177.0037430704715, 68.80526742891584], [176.99763240091187, 68.80476410032279]]}, "properties": {"source": "30177542", "target": "16130605"}}, {"type": "Feature", "geometry": {"type": "LineString", "coordinates": [[177.0037430704715, 68.80526742891584], [177.00713851589177, 68.80478218172641]]}, "properties": {"source": "30177542", "target": "25281250"}}, {"type": "Feature", "geometry": {"type": "LineString", "coordinates": [[177.0037430704715, 68.80526742891584], [177.0109022904125, 68.80469932107445]]}, "properties": {"source": "30177542", "target": "2042515"}}, {"type": "Feature", "geometry": {"type": "LineString", "coordinates": [[177.0037430704715, 68.80526742891584], [176.99412308598795, 68.80079991060165]]}, "properties": {"source": "30177542", "target": "658892"}}, {"type": "Feature", "geometry": {"type": "LineString", "coordinates": [[177.0037430704715, 68.80526742891584], [177.0087542706691, 68.80321561167983]]}, "properties": {"source": "30177542", "target": "27272406"}}, {"type": "Feature", "geometry": {"type": "LineString", "coordinates": [[177.0037430704715, 68.80526742891584], [177.00340875629098, 68.80617684493069]]}, "properties": {"source": "30177542", "target": "18987202"}}, {"type": "Feature", "geometry": {"type": "LineString", "coordinates": [[177.0037430704715, 68.80526742891584], [177.011656179925, 68.80298292898999]]}, "properties": {"source": "30177542", "target": "1343403"}}, {"type": "Feature", "geometry": {"type": "LineString", "coordinates": [[177.0037430704715, 68.80526742891584], [177.00607057352687, 68.80585548809898]]}, "properties": {"source": "30177542", "target": "18905676"}}, {"type": "Feature", "geometry": {"type": "LineString", "coordinates": [[177.0037430704715, 68.80526742891584], [177.01165818340377, 68.80331790597779]]}, "properties": {"source": "30177542", "target": "24692936"}}, {"type": "Feature", "geometry": {"type": "LineString", "coordinates": [[176.99422665325136, 68.80328733811473], [177.00713851589177, 68.80478218172641]]}, "properties": {"source": "25657587", "target": "25281250"}}, {"type": "Feature", "geometry": {"type": "LineString", "coordinates": [[176.99422665325136, 68.80328733811473], [176.99412308598795, 68.80079991060165]]}, "properties": {"source": "25657587", "target": "658892"}}, {"type": "Feature", "geometry": {"type": "LineString", "coordinates": [[176.99422665325136, 68.80328733811473], [177.00340875629098, 68.80617684493069]]}, "properties": {"source": "25657587", "target": "18987202"}}, {"type": "Feature", "geometry": {"type": "LineString", "coordinates": [[176.99422665325136, 68.80328733811473], [177.00607057352687, 68.80585548809898]]}, "properties": {"source": "25657587", "target": "18905676"}}, {"type": "Feature", "geometry": {"type": "LineString", "coordinates": [[176.9968230665511, 68.80615892768628], [177.0037430704715, 68.80526742891584]]}, "properties": {"source": "19030698", "target": "30177542"}}, {"type": "Feature", "geometry": {"type": "LineString", "coordinates": [[176.9968230665511, 68.80615892768628], [177.00608752510476, 68.80357880058281]]}, "properties": {"source": "19030698", "target": "29423961"}}, {"type": "Feature", "geometry": {"type": "LineString", "coordinates": [[176.9968230665511, 68.80615892768628], [176.99422665325136, 68.80328733811473]]}, "properties": {"source": "19030698", "target": "25657587"}}, {"type": "Feature", "geometry": {"type": "LineString", "coordinates": [[176.9968230665511, 68.80615892768628], [176.99957955050968, 68.8006307847763]]}, "properties": {"source": "19030698", "target": "6604084"}}, {"type": "Feature", "geometry": {"type": "LineString", "coordinates": [[176.9968230665511, 68.80615892768628], [177.00603981255136, 68.80342987455873]]}, "properties": {"source": "19030698", "target": "2486517"}}, {"type": "Feature", "geometry": {"type": "LineString", "coordinates": [[176.9968230665511, 68.80615892768628], [176.99560628637676, 68.80073768700143]]}, "properties": {"source": "19030698", "target": "774363"}}, {"type": "Feature", "geometry": {"type": "LineString", "coordinates": [[176.9968230665511, 68.80615892768628], [177.00853886355367, 68.80319352166691]]}, "properties": {"source": "19030698", "target": "24208502"}}, {"type": "Feature", "geometry": {"type": "LineString", "coordinates": [[176.9968230665511, 68.80615892768628], [177.0026329940141, 68.80355357298458]]}, "properties": {"source": "19030698", "target": "1707893"}}, {"type": "Feature", "geometry": {"type": "LineString", "coordinates": [[176.9968230665511, 68.80615892768628], [177.00058711377108, 68.80049484107892]]}, "properties": {"source": "19030698", "target": "13085596"}}, {"type": "Feature", "geometry": {"type": "LineString", "coordinates": [[176.9968230665511, 68.80615892768628], [176.99763240091187, 68.80476410032279]]}, "properties": {"source": "19030698", "target": "16130605"}}, {"type": "Feature", "geometry": {"type": "LineString", "coordinates": [[176.9968230665511, 68.80615892768628], [177.0109022904125, 68.80469932107445]]}, "properties": {"source": "19030698", "target": "2042515"}}, {"type": "Feature", "geometry": {"type": "LineString", "coordinates": [[176.9968230665511, 68.80615892768628], [177.01165818340377, 68.80331790597779]]}, "properties": {"source": "19030698", "target": "24692936"}}, {"type": "Feature", "geometry": {"type": "LineString", "coordinates": [[177.00406752534963, 68.79989420042907], [176.99798866347726, 68.80245859188344]]}, "properties": {"source": "26783744", "target": "29489192"}}, {"type": "Feature", "geometry": {"type": "LineString", "coordinates": [[177.00621122671248, 68.80054086308738], [177.0037430704715, 68.80526742891584]]}, "properties": {"source": "15901379", "target": "30177542"}}, {"type": "Feature", "geometry": {"type": "LineString", "coordinates": [[177.00621122671248, 68.80054086308738], [177.00608752510476, 68.80357880058281]]}, "properties": {"source": "15901379", "target": "29423961"}}, {"type": "Feature", "geometry": {"type": "LineString", "coordinates": [[177.00621122671248, 68.80054086308738], [176.99422665325136, 68.80328733811473]]}, "properties": {"source": "15901379", "target": "25657587"}}, {"type": "Feature", "geometry": {"type": "LineString", "coordinates": [[177.00621122671248, 68.80054086308738], [176.9968230665511, 68.80615892768628]]}, "properties": {"source": "15901379", "target": "19030698"}}, {"type": "Feature", "geometry": {"type": "LineString", "coordinates": [[177.00621122671248, 68.80054086308738], [176.99957955050968, 68.8006307847763]]}, "properties": {"source": "15901379", "target": "6604084"}}, {"type": "Feature", "geometry": {"type": "LineString", "coordinates": [[177.00621122671248, 68.80054086308738], [177.00603981255136, 68.80342987455873]]}, "properties": {"source": "15901379", "target": "2486517"}}, {"type": "Feature", "geometry": {"type": "LineString", "coordinates": [[177.00621122671248, 68.80054086308738], [176.99560628637676, 68.80073768700143]]}, "properties": {"source": "15901379", "target": "774363"}}, {"type": "Feature", "geometry": {"type": "LineString", "coordinates": [[176.99763240091187, 68.80476410032279], [176.99422665325136, 68.80328733811473]]}, "properties": {"source": "16130605", "target": "25657587"}}, {"type": "Feature", "geometry": {"type": "LineString", "coordinates": [[177.0034947353505, 68.80243934857987], [177.00853886355367, 68.80319352166691]]}, "properties": {"source": "3999281", "target": "24208502"}}, {"type": "Feature", "geometry": {"type": "LineString", "coordinates": [[177.0034947353505, 68.80243934857987], [177.00850069900076, 68.80550285136047]]}, "properties": {"source": "3999281", "target": "17134426"}}, {"type": "Feature", "geometry": {"type": "LineString", "coordinates": [[177.0034947353505, 68.80243934857987], [177.00406752534963, 68.79989420042907]]}, "properties": {"source": "3999281", "target": "26783744"}}, {"type": "Feature", "geometry": {"type": "LineString", "coordinates": [[177.0034947353505, 68.80243934857987], [177.0061955322189, 68.80333154166249]]}, "properties": {"source": "3999281", "target": "2624860"}}, {"type": "Feature", "geometry": {"type": "LineString", "coordinates": [[177.0034947353505, 68.80243934857987], [177.00484611904983, 68.8026934974169]]}, "properties": {"source": "3999281", "target": "3484257"}}, {"type": "Feature", "geometry": {"type": "LineString", "coordinates": [[177.00621122671248, 68.80054086308738], [177.01165818340377, 68.80331790597779]]}, "properties": {"source": "15901379", "target": "24692936"}}, {"type": "Feature", "geometry": {"type": "LineString", "coordinates": [[176.99763240091187, 68.80476410032279], [177.01165818340377, 68.80331790597779]]}, "properties": {"source": "16130605", "target": "24692936"}}, {"type": "Feature", "geometry": {"type": "LineString", "coordinates": [[176.99957955050968, 68.8006307847763], [177.0026329940141, 68.80355357298458]]}, "properties": {"source": "6604084", "target": "1707893"}}, {"type": "Feature", "geometry": {"type": "LineString", "coordinates": [[176.99957955050968, 68.8006307847763], [177.00058711377108, 68.80049484107892]]}, "properties": {"source": "6604084", "target": "13085596"}}, {"type": "Feature", "geometry": {"type": "LineString", "coordinates": [[176.99957955050968, 68.8006307847763], [176.99763240091187, 68.80476410032279]]}, "properties": {"source": "6604084", "target": "16130605"}}, {"type": "Feature", "geometry": {"type": "LineString", "coordinates": [[176.99957955050968, 68.8006307847763], [177.00713851589177, 68.80478218172641]]}, "properties": {"source": "6604084", "target": "25281250"}}, {"type": "Feature", "geometry": {"type": "LineString", "coordinates": [[176.99957955050968, 68.8006307847763], [176.99412308598795, 68.80079991060165]]}, "properties": {"source": "6604084", "target": "658892"}}, {"type": "Feature", "geometry": {"type": "LineString", "coordinates": [[176.99957955050968, 68.8006307847763], [177.0087542706691, 68.80321561167983]]}, "properties": {"source": "6604084", "target": "27272406"}}, {"type": "Feature", "geometry": {"type": "LineString", "coordinates": [[177.00603981255136, 68.80342987455873], [176.99422665325136, 68.80328733811473]]}, "properties": {"source": "2486517", "target": "25657587"}}, {"type": "Feature", "geometry": {"type": "LineString", "coordinates": [[177.00603981255136, 68.80342987455873], [177.00853886355367, 68.80319352166691]]}, "properties": {"source": "2486517", "target": "24208502"}}, {"type": "Feature", "geometry": {"type": "LineString", "coordinates": [[177.00603981255136, 68.80342987455873], [177.00058711377108, 68.80049484107892]]}, "properties": {"source": "2486517", "target": "13085596"}}, {"type": "Feature", "geometry": {"type": "LineString", "coordinates": [[177.00603981255136, 68.80342987455873], [176.99763240091187, 68.80476410032279]]}, "properties": {"source": "2486517", "target": "16130605"}}, {"type": "Feature", "geometry": {"type": "LineString", "coordinates": [[177.00603981255136, 68.80342987455873], [177.00713851589177, 68.80478218172641]]}, "properties": {"source": "2486517", "target": "25281250"}}, {"type": "Feature", "geometry": {"type": "LineString", "coordinates": [[177.00603981255136, 68.80342987455873], [177.00340875629098, 68.80617684493069]]}, "properties": {"source": "2486517", "target": "18987202"}}, {"type": "Feature", "geometry": {"type": "LineString", "coordinates": [[176.9949991285455, 68.8036840038894], [177.0037430704715, 68.80526742891584]]}, "properties": {"source": "1926787", "target": "30177542"}}, {"type": "Feature", "geometry": {"type": "LineString", "coordinates": [[176.9949991285455, 68.8036840038894], [177.00608752510476, 68.80357880058281]]}, "properties": {"source": "1926787", "target": "29423961"}}, {"type": "Feature", "geometry": {"type": "LineString", "coordinates": [[176.9949991285455, 68.8036840038894], [176.99422665325136, 68.80328733811473]]}, "properties": {"source": "1926787", "target": "25657587"}}, {"type": "Feature", "geometry": {"type": "LineString", "coordinates": [[177.00603981255136, 68.80342987455873], [177.01165818340377, 68.80331790597779]]}, "properties": {"source": "2486517", "target": "24692936"}}, {"type": "Feature", "geometry": {"type": "LineString", "coordinates": [[177.0028225363992, 68.80321184877988], [176.99560628637676, 68.80073768700143]]}, "properties": {"source": "1637553", "target": "774363"}}, {"type": "Feature", "geometry": {"type": "LineString", "coordinates": [[177.0028225363992, 68.80321184877988], [177.0026329940141, 68.80355357298458]]}, "properties": {"source": "1637553", "target": "1707893"}}, {"type": "Feature", "geometry": {"type": "LineString", "coordinates": [[177.0028225363992, 68.80321184877988], [177.00058711377108, 68.80049484107892]]}, "properties": {"source": "1637553", "target": "13085596"}}, {"type": "Feature", "geometry": {"type": "LineString", "coordinates": [[177.0028225363992, 68.80321184877988], [177.00621122671248, 68.80054086308738]]}, "properties": {"source": "1637553", "target": "15901379"}}, {"type": "Feature", "geometry": {"type": "LineString", "coordinates": [[177.0028225363992, 68.80321184877988], [176.99763240091187, 68.80476410032279]]}, "properties": {"source": "1637553", "target": "16130605"}}, {"type": "Feature", "geometry": {"type": "LineString", "coordinates": [[176.99562790012567, 68.80554411270913], [176.99467306267843, 68.80597427915305]]}, "properties": {"source": "352610", "target": "20673043"}}, {"type": "Feature", "geometry": {"type": "LineString", "coordinates": [[176.99562790012567, 68.80554411270913], [177.00771753049742, 68.80317635106488]]}, "properties": {"source": "352610", "target": "247034"}}, {"type": "Feature", "geometry": {"type": "LineString", "coordinates": [[176.99562790012567, 68.80554411270913], [177.00288697435036, 68.80328375984996]]}, "properties": {"source": "352610", "target": "598133"}}, {"type": "Feature", "geometry": {"type": "LineString", "coordinates": [[176.99562790012567, 68.80554411270913], [177.00220557759536, 68.80495821564242]]}, "properties": {"source": "352610", "target": "6707413"}}, {"type": "Feature", "geometry": {"type": "LineString", "coordinates": [[176.99562790012567, 68.80554411270913], [177.00075663354806, 68.8034765073123]]}, "properties": {"source": "352610", "target": "417314"}}, {"type": "Feature", "geometry": {"type": "LineString", "coordinates": [[176.99562790012567, 68.80554411270913], [177.00220587777733, 68.80570142930966]]}, "properties": {"source": "352610", "target": "6767459"}}, {"type": "Feature", "geometry": {"type": "LineString", "coordinates": [[176.99562790012567, 68.80554411270913], [176.9958603361161, 68.80574927470877]]}, "properties": {"source": "352610", "target": "210936"}}, {"type": "Feature", "geometry": {"type": "LineString", "coordinates": [[176.99562790012567, 68.80554411270913], [176.99360741983344, 68.80367241192951]]}, "properties": {"source": "352610", "target": "6333179"}}, {"type": "Feature", "geometry": {"type": "LineString", "coordinates": [[177.01106038933563, 68.80114496585546], [176.99467306267843, 68.80597427915305]]}, "properties": {"source": "360431", "target": "20673043"}}, {"type": "Feature", "geometry": {"type": "LineString", "coordinates": [[177.01106038933563, 68.80114496585546], [177.00771753049742, 68.80317635106488]]}, "properties": {"source": "360431", "target": "247034"}}, {"type": "Feature", "geometry": {"type": "LineString", "coordinates": [[177.01106038933563, 68.80114496585546], [177.0080146265925, 68.80029427988433]]}, "properties": {"source": "360431", "target": "20688965"}}, {"type": "Feature", "geometry": {"type": "LineString", "coordinates": [[177.0037430704715, 68.80526742891584], [177.00496324659667, 68.80120598146624]]}, "properties": {"source": "30177542", "target": "273499"}}, {"type": "Feature", "geometry": {"type": "LineString", "coordinates": [[177.00608752510476, 68.80357880058281], [176.99422665325136, 68.80328733811473]]}, "properties": {"source": "29423961", "target": "25657587"}}, {"type": "Feature", "geometry": {"type": "LineString", "coordinates": [[177.00608752510476, 68.80357880058281], [177.00603981255136, 68.80342987455873]]}, "properties": {"source": "29423961", "target": "2486517"}}, {"type": "Feature", "geometry": {"type": "LineString", "coordinates": [[177.00608752510476, 68.80357880058281], [177.00853886355367, 68.80319352166691]]}, "properties": {"source": "29423961", "target": "24208502"}}, {"type": "Feature", "geometry": {"type": "LineString", "coordinates": [[177.00608752510476, 68.80357880058281], [177.00058711377108, 68.80049484107892]]}, "properties": {"source": "29423961", "target": "13085596"}}, {"type": "Feature", "geometry": {"type": "LineString", "coordinates": [[177.00608752510476, 68.80357880058281], [176.99763240091187, 68.80476410032279]]}, "properties": {"source": "29423961", "target": "16130605"}}, {"type": "Feature", "geometry": {"type": "LineString", "coordinates": [[177.00608752510476, 68.80357880058281], [177.00713851589177, 68.80478218172641]]}, "properties": {"source": "29423961", "target": "25281250"}}, {"type": "Feature", "geometry": {"type": "LineString", "coordinates": [[177.00608752510476, 68.80357880058281], [176.99412308598795, 68.80079991060165]]}, "properties": {"source": "29423961", "target": "658892"}}, {"type": "Feature", "geometry": {"type": "LineString", "coordinates": [[177.00608752510476, 68.80357880058281], [177.0087542706691, 68.80321561167983]]}, "properties": {"source": "29423961", "target": "27272406"}}, {"type": "Feature", "geometry": {"type": "LineString", "coordinates": [[177.00608752510476, 68.80357880058281], [177.00340875629098, 68.80617684493069]]}, "properties": {"source": "29423961", "target": "18987202"}}, {"type": "Feature", "geometry": {"type": "LineString", "coordinates": [[177.00608752510476, 68.80357880058281], [177.011656179925, 68.80298292898999]]}, "properties": {"source": "29423961", "target": "1343403"}}, {"type": "Feature", "geometry": {"type": "LineString", "coordinates": [[177.00608752510476, 68.80357880058281], [177.00607057352687, 68.80585548809898]]}, "properties": {"source": "29423961", "target": "18905676"}}, {"type": "Feature", "geometry": {"type": "LineString", "coordinates": [[176.99422665325136, 68.80328733811473], [177.00853886355367, 68.80319352166691]]}, "properties": {"source": "25657587", "target": "24208502"}}, {"type": "Feature", "geometry": {"type": "LineString", "coordinates": [[176.99422665325136, 68.80328733811473], [177.00058711377108, 68.80049484107892]]}, "properties": {"source": "25657587", "target": "13085596"}}, {"type": "Feature", "geometry": {"type": "LineString", "coordinates": [[177.00608752510476, 68.80357880058281], [177.01165818340377, 68.80331790597779]]}, "properties": {"source": "29423961", "target": "24692936"}}, {"type": "Feature", "geometry": {"type": "LineString", "coordinates": [[176.99422665325136, 68.80328733811473], [177.01165818340377, 68.80331790597779]]}, "properties": {"source": "25657587", "target": "24692936"}}, {"type": "Feature", "geometry": {"type": "LineString", "coordinates": [[177.0109022904125, 68.80469932107445], [177.00603981255136, 68.80342987455873]]}, "properties": {"source": "2042515", "target": "2486517"}}, {"type": "Feature", "geometry": {"type": "LineString", "coordinates": [[177.0109022904125, 68.80469932107445], [177.0026329940141, 68.80355357298458]]}, "properties": {"source": "2042515", "target": "1707893"}}, {"type": "Feature", "geometry": {"type": "LineString", "coordinates": [[176.99703203596397, 68.80046265394714], [177.0037430704715, 68.80526742891584]]}, "properties": {"source": "187748", "target": "30177542"}}, {"type": "Feature", "geometry": {"type": "LineString", "coordinates": [[176.99703203596397, 68.80046265394714], [177.00608752510476, 68.80357880058281]]}, "properties": {"source": "187748", "target": "29423961"}}, {"type": "Feature", "geometry": {"type": "LineString", "coordinates": [[176.99703203596397, 68.80046265394714], [176.99422665325136, 68.80328733811473]]}, "properties": {"source": "187748", "target": "25657587"}}, {"type": "Feature", "geometry": {"type": "LineString", "coordinates": [[176.99703203596397, 68.80046265394714], [176.9968230665511, 68.80615892768628]]}, "properties": {"source": "187748", "target": "19030698"}}, {"type": "Feature", "geometry": {"type": "LineString", "coordinates": [[176.99703203596397, 68.80046265394714], [176.99957955050968, 68.8006307847763]]}, "properties": {"source": "187748", "target": "6604084"}}, {"type": "Feature", "geometry": {"type": "LineString", "coordinates": [[176.99703203596397, 68.80046265394714], [177.00603981255136, 68.80342987455873]]}, "properties": {"source": "187748", "target": "2486517"}}, {"type": "Feature", "geometry": {"type": "LineString", "coordinates": [[176.99845817775196, 68.80490764661374], [177.00853886355367, 68.80319352166691]]}, "properties": {"source": "22879818", "target": "24208502"}}, {"type": "Feature", "geometry": {"type": "LineString", "coordinates": [[176.99845817775196, 68.80490764661374], [177.00850069900076, 68.80550285136047]]}, "properties": {"source": "22879818", "target": "17134426"}}, {"type": "Feature", "geometry": {"type": "LineString", "coordinates": [[176.99845817775196, 68.80490764661374], [177.00484611904983, 68.8026934974169]]}, "properties": {"source": "22879818", "target": "3484257"}}, {"type": "Feature", "geometry": {"type": "LineString", "coordinates": [[176.99845817775196, 68.80490764661374], [177.0119313685687, 68.80589414321116]]}, "properties": {"source": "22879818", "target": "16245508"}}, {"type": "Feature", "geometry": {"type": "LineString", "coordinates": [[176.99845817775196, 68.80490764661374], [177.00124836475106, 68.80460239309556]]}, "properties": {"source": "22879818", "target": "25665367"}}, {"type": "Feature", "geometry": {"type": "LineString", "coordinates": [[177.00124836475106, 68.80460239309556], [177.00850069900076, 68.80550285136047]]}, "properties": {"source": "25665367", "target": "17134426"}}, {"type": "Feature", "geometry": {"type": "LineString", "coordinates": [[177.00124836475106, 68.80460239309556], [176.99798866347726, 68.80245859188344]]}, "properties": {"source": "25665367", "target": "29489192"}}, {"type": "Feature", "geometry": {"type": "LineString", "coordinates": [[176.99703203596397, 68.80046265394714], [177.01165818340377, 68.80331790597779]]}, "properties": {"source": "187748", "target": "24692936"}}, {"type": "Feature", "geometry": {"type": "LineString", "coordinates": [[177.00061915373027, 68.80143316940118], [177.0119313685687, 68.80589414321116]]}, "properties": {"source": "1034438", "target": "16245508"}}, {"type": "Feature", "geometry": {"type": "LineString", "coordinates": [[177.00061915373027, 68.80143316940118], [176.99527384837512, 68.80018909089415]]}, "properties": {"source": "1034438", "target": "152315"}}, {"type": "Feature", "geometry": {"type": "LineString", "coordinates": [[177.00701116676936, 68.79990913883219], [176.99560628637676, 68.80073768700143]]}, "properties": {"source": "8649031", "target": "774363"}}, {"type": "Feature", "geometry": {"type": "LineString", "coordinates": [[176.9978346726245, 68.80601834547], [177.00771753049742, 68.80317635106488]]}, "properties": {"source": "11398968", "target": "247034"}}, {"type": "Feature", "geometry": {"type": "LineString", "coordinates": [[176.9978346726245, 68.80601834547], [177.00406302409954, 68.80504982055214]]}, "properties": {"source": "11398968", "target": "1067680"}}, {"type": "Feature", "geometry": {"type": "LineString", "coordinates": [[177.00566844252705, 68.80222118041502], [177.00771753049742, 68.80317635106488]]}, "properties": {"source": "2429611", "target": "247034"}}, {"type": "Feature", "geometry": {"type": "LineString", "coordinates": [[176.9995711703403, 68.8008822788884], [177.00447295872345, 68.80203920670306]]}, "properties": {"source": "2988914", "target": "26023240"}}, {"type": "Feature", "geometry": {"type": "LineString", "coordinates": [[176.9995711703403, 68.8008822788884], [176.99496485493574, 68.80289244240171]]}, "properties": {"source": "2988914", "target": "31211176"}}, {"type": "Feature", "geometry": {"type": "LineString", "coordinates": [[176.99952532249773, 68.80127240427277], [177.00850069900076, 68.80550285136047]]}, "properties": {"source": "1589453", "target": "17134426"}}, {"type": "Feature", "geometry": {"type": "LineString", "coordinates": [[176.99780185594807, 68.80541014627329], [176.99422665325136, 68.80328733811473]]}, "properties": {"source": "13058786", "target": "25657587"}}, {"type": "Feature", "geometry": {"type": "LineString", "coordinates": [[176.99617922174548, 68.80551122544117], [176.99527384837512, 68.80018909089415]]}, "properties": {"source": "1180391", "target": "152315"}}, {"type": "Feature", "geometry": {"type": "LineString", "coordinates": [[177.00151083118573, 68.80405068980127], [177.00049741448362, 68.80182689784064]]}, "properties": {"source": "84922", "target": "1217898"}}, {"type": "Feature", "geometry": {"type": "LineString", "coordinates": [[177.00836404965673, 68.80547527103607], [177.00701116676936, 68.79990913883219]]}, "properties": {"source": "2714056", "target": "8649031"}}, {"type": "Feature", "geometry": {"type": "LineString", "coordinates": [[177.00438057381905, 68.8061073227785], [177.01091973044657, 68.80149422987492]]}, "properties": {"source": "3305949", "target": "12131187"}}, {"type": "Feature", "geometry": {"type": "LineString", "coordinates": [[177.00496324659667, 68.80120598146624], [177.00608752510476, 68.80357880058281]]}, "properties": {"source": "273499", "target": "29423961"}}, {"type": "Feature", "geometry": {"type": "LineString", "coordinates": [[177.00739624493661, 68.80516723495992], [176.99562790012567, 68.80554411270913]]}, "properties": {"source": "25489952", "target": "352610"}}, {"type": "Feature", "geometry": {"type": "LineString", "coordinates": [[177.00739624493661, 68.80516723495992], [177.01106038933563, 68.80114496585546]]}, "properties": {"source": "25489952", "target": "360431"}}, {"type": "Feature", "geometry": {"type": "LineString", "coordinates": [[177.00739624493661, 68.80516723495992], [177.00220557759536, 68.80495821564242]]}, "properties": {"source": "25489952", "target": "6707413"}}, {"type": "Feature", "geometry": {"type": "LineString", "coordinates": [[177.00739624493661, 68.80516723495992], [177.00489516338985, 68.8020225553498]]}, "properties": {"source": "25489952", "target": "13574308"}}, {"type": "Feature", "geometry": {"type": "LineString", "coordinates": [[177.00739624493661, 68.80516723495992], [177.00075663354806, 68.8034765073123]]}, "properties": {"source": "25489952", "target": "417314"}}, {"type": "Feature", "geometry": {"type": "LineString", "coordinates": [[177.00739624493661, 68.80516723495992], [177.00220587777733, 68.80570142930966]]}, "properties": {"source": "25489952", "target": "6767459"}}, {"type": "Feature", "geometry": {"type": "LineString", "coordinates": [[177.00739624493661, 68.80516723495992], [176.9958603361161, 68.80574927470877]]}, "properties": {"source": "25489952", "target": "210936"}}, {"type": "Feature", "geometry": {"type": "LineString", "coordinates": [[177.00739624493661, 68.80516723495992], [176.99567506343806, 68.80215579276853]]}, "properties": {"source": "25489952", "target": "18007626"}}, {"type": "Feature", "geometry": {"type": "LineString", "coordinates": [[177.00739624493661, 68.80516723495992], [177.00542046472947, 68.80023799651661]]}, "properties": {"source": "25489952", "target": "18077742"}}, {"type": "Feature", "geometry": {"type": "LineString", "coordinates": [[177.00739624493661, 68.80516723495992], [177.00900575965835, 68.80403033581948]]}, "properties": {"source": "25489952", "target": "1518929"}}, {"type": "Feature", "geometry": {"type": "LineString", "coordinates": [[177.00739624493661, 68.80516723495992], [176.99320189646346, 68.80359903115414]]}, "properties": {"source": "25489952", "target": "1098223"}}, {"type": "Feature", "geometry": {"type": "LineString", "coordinates": [[177.00739624493661, 68.80516723495992], [177.00775270020785, 68.80377356960079]]}, "properties": {"source": "25489952", "target": "18922376"}}, {"type": "Feature", "geometry": {"type": "LineString", "coordinates": [[177.00739624493661, 68.80516723495992], [177.00566844252705, 68.80222118041502]]}, "properties": {"source": "25489952", "target": "2429611"}}, {"type": "Feature", "geometry": {"type": "LineString", "coordinates": [[176.99957955050968, 68.8006307847763], [177.00608752510476, 68.80357880058281]]}, "properties": {"source": "6604084", "target": "29423961"}}, {"type": "Feature", "geometry": {"type": "LineString", "coordinates": [[176.99957955050968, 68.8006307847763], [176.99422665325136, 68.80328733811473]]}, "properties": {"source": "6604084", "target": "25657587"}}, {"type": "Feature", "geometry": {"type": "LineString", "coordinates": [[176.99957955050968, 68.8006307847763], [177.00603981255136, 68.80342987455873]]}, "properties": {"source": "6604084", "target": "2486517"}}, {"type": "Feature", "geometry": {"type": "LineString", "coordinates": [[177.0094150827938, 68.80599042269219], [176.99780185594807, 68.80541014627329]]}, "properties": {"source": "27817371", "target": "13058786"}}, {"type": "Feature", "geometry": {"type": "LineString", "coordinates": [[177.00447295872345, 68.80203920670306], [176.99422665325136, 68.80328733811473]]}, "properties": {"source": "26023240", "target": "25657587"}}, {"type": "Feature", "geometry": {"type": "LineString", "coordinates": [[177.011656179925, 68.80298292898999], [176.99422665325136, 68.80328733811473]]}, "properties": {"source": "1343403", "target": "25657587"}}, {"type": "Feature", "geometry": {"type": "LineString", "coordinates": [[176.99535815324862, 68.80592025282021], [177.00058711377108, 68.80049484107892]]}, "properties": {"source": "12322392", "target": "13085596"}}, {"type": "Feature", "geometry": {"type": "LineString", "coordinates": [[177.00697810123938, 68.80226388882036], [176.9997196885688, 68.80386986201992]]}, "properties": {"source": "9653286", "target": "11381743"}}, {"type": "Feature", "geometry": {"type": "LineString", "coordinates": [[177.00697810123938, 68.80226388882036], [177.00188189118296, 68.80234726094366]]}, "properties": {"source": "9653286", "target": "9517153"}}, {"type": "Feature", "geometry": {"type": "LineString", "coordinates": [[177.00697810123938, 68.80226388882036], [176.99535815324862, 68.80592025282021]]}, "properties": {"source": "9653286", "target": "12322392"}}, {"type": "Feature", "geometry": {"type": "LineString", "coordinates": [[176.99762071401665, 68.8040524284553], [177.0037430704715, 68.80526742891584]]}, "properties": {"source": "17258177", "target": "30177542"}}, {"type": "Feature", "geometry": {"type": "LineString", "coordinates": [[176.99762071401665, 68.8040524284553], [177.00608752510476, 68.80357880058281]]}, "properties": {"source": "17258177", "target": "29423961"}}, {"type": "Feature", "geometry": {"type": "LineString", "coordinates": [[176.99762071401665, 68.8040524284553], [176.9968230665511, 68.80615892768628]]}, "properties": {"source": "17258177", "target": "19030698"}}, {"type": "Feature", "geometry": {"type": "LineString", "coordinates": [[176.99715835800095, 68.80019912683522], [177.0037430704715, 68.80526742891584]]}, "properties": {"source": "1909749", "target": "30177542"}}, {"type": "Feature", "geometry": {"type": "LineString", "coordinates": [[176.99715835800095, 68.80019912683522], [177.00608752510476, 68.80357880058281]]}, "properties": {"source": "1909749", "target": "29423961"}}, {"type": "Feature", "geometry": {"type": "LineString", "coordinates": [[176.99715835800095, 68.80019912683522], [176.99422665325136, 68.80328733811473]]}, "properties": {"source": "1909749", "target": "25657587"}}, {"type": "Feature", "geometry": {"type": "LineString", "coordinates": [[177.0050854448096, 68.80545759704424], [177.00529567845194, 68.80560835149694]]}, "properties": {"source": "7203565", "target": "11791746"}}, {"type": "Feature", "geometry": {"type": "LineString", "coordinates": [[176.99309344640966, 68.8052340873183], [176.99422665325136, 68.80328733811473]]}, "properties": {"source": "26882074", "target": "25657587"}}, {"type": "Feature", "geometry": {"type": "LineString", "coordinates": [[176.99309344640966, 68.8052340873183], [177.00447295872345, 68.80203920670306]]}, "properties": {"source": "26882074", "target": "26023240"}}, {"type": "Feature", "geometry": {"type": "LineString", "coordinates": [[177.01091973044657, 68.80149422987492], [177.00220557759536, 68.80495821564242]]}, "properties": {"source": "12131187", "target": "6707413"}}, {"type": "Feature", "geometry": {"type": "LineString", "coordinates": [[177.01091973044657, 68.80149422987492], [177.0050854448096, 68.80545759704424]]}, "properties": {"source": "12131187", "target": "7203565"}}, {"type": "Feature", "geometry": {"type": "LineString", "coordinates": [[177.01091973044657, 68.80149422987492], [177.00529567845194, 68.80560835149694]]}, "properties": {"source": "12131187", "target": "11791746"}}, {"type": "Feature", "geometry": {"type": "LineString", "coordinates": [[176.99360741983344, 68.80367241192951], [177.00220557759536, 68.80495821564242]]}, "properties": {"source": "6333179", "target": "6707413"}}, {"type": "Feature", "geometry": {"type": "LineString", "coordinates": [[176.99360741983344, 68.80367241192951], [177.00220587777733, 68.80570142930966]]}, "properties": {"source": "6333179", "target": "6767459"}}, {"type": "Feature", "geometry": {"type": "LineString", "coordinates": [[176.99292954044233, 68.8022947888843], [176.99467306267843, 68.80597427915305]]}, "properties": {"source": "18719875", "target": "20673043"}}, {"type": "Feature", "geometry": {"type": "LineString", "coordinates": [[176.99292954044233, 68.8022947888843], [176.99593319362498, 68.80154812639802]]}, "properties": {"source": "18719875", "target": "960966"}}, {"type": "Feature", "geometry": {"type": "LineString", "coordinates": [[176.99292954044233, 68.8022947888843], [177.00820375736612, 68.80021669852158]]}, "properties": {"source": "18719875", "target": "20504942"}}, {"type": "Feature", "geometry": {"type": "LineString", "coordinates": [[176.9997196885688, 68.80386986201992], [177.00058711377108, 68.80049484107892]]}, "properties": {"source": "11381743", "target": "13085596"}}, {"type": "Feature", "geometry": {"type": "LineString", "coordinates": [[176.9997196885688, 68.80386986201992], [177.00188189118296, 68.80234726094366]]}, "properties": {"source": "11381743", "target": "9517153"}}, {"type": "Feature", "geometry": {"type": "LineString", "coordinates": [[176.9997196885688, 68.80386986201992], [176.99535815324862, 68.80592025282021]]}, "properties": {"source": "11381743", "target": "12322392"}}, {"type": "Feature", "geometry": {"type": "LineString", "coordinates": [[177.00188189118296, 68.80234726094366], [177.00058711377108, 68.80049484107892]]}, "properties": {"source": "9517153", "target": "13085596"}}, {"type": "Feature", "geometry": {"type": "LineString", "coordinates": [[177.00188189118296, 68.80234726094366], [176.99535815324862, 68.80592025282021]]}, "properties": {"source": "9517153", "target": "12322392"}}, {"type": "Feature", "geometry": {"type": "LineString", "coordinates": [[177.0094150827938, 68.80599042269219], [176.99422665325136, 68.80328733811473]]}, "properties": {"source": "27817371", "target": "25657587"}}, {"type": "Feature", "geometry": {"type": "LineString", "coordinates": [[177.0094150827938, 68.80599042269219], [177.00447295872345, 68.80203920670306]]}, "properties": {"source": "27817371", "target": "26023240"}}, {"type": "Feature", "geometry": {"type": "LineString", "coordinates": [[177.0094150827938, 68.80599042269219], [176.99309344640966, 68.8052340873183]]}, "properties": {"source": "27817371", "target": "26882074"}}, {"type": "Feature", "geometry": {"type": "LineString", "coordinates": [[176.9949991285455, 68.8036840038894], [176.9968230665511, 68.80615892768628]]}, "properties": {"source": "1926787", "target": "19030698"}}, {"type": "Feature", "geometry": {"type": "LineString", "coordinates": [[176.9949991285455, 68.8036840038894], [176.99467306267843, 68.80597427915305]]}, "properties": {"source": "1926787", "target": "20673043"}}, {"type": "Feature", "geometry": {"type": "LineString", "coordinates": [[176.9949991285455, 68.8036840038894], [177.00771753049742, 68.80317635106488]]}, "properties": {"source": "1926787", "target": "247034"}}, {"type": "Feature", "geometry": {"type": "LineString", "coordinates": [[176.9949991285455, 68.8036840038894], [177.00603981255136, 68.80342987455873]]}, "properties": {"source": "1926787", "target": "2486517"}}, {"type": "Feature", "geometry": {"type": "LineString", "coordinates": [[176.9949991285455, 68.8036840038894], [177.0080146265925, 68.80029427988433]]}, "properties": {"source": "1926787", "target": "20688965"}}, {"type": "Feature", "geometry": {"type": "LineString", "coordinates": [[176.9949991285455, 68.8036840038894], [177.0026329940141, 68.80355357298458]]}, "properties": {"source": "1926787", "target": "1707893"}}, {"type": "Feature", "geometry": {"type": "LineString", "coordinates": [[176.9949991285455, 68.8036840038894], [177.00621122671248, 68.80054086308738]]}, "properties": {"source": "1926787", "target": "15901379"}}, {"type": "Feature", "geometry": {"type": "LineString", "coordinates": [[176.9949991285455, 68.8036840038894], [176.99763240091187, 68.80476410032279]]}, "properties": {"source": "1926787", "target": "16130605"}}, {"type": "Feature", "geometry": {"type": "LineString", "coordinates": [[176.9949991285455, 68.8036840038894], [176.99567506343806, 68.80215579276853]]}, "properties": {"source": "1926787", "target": "18007626"}}, {"type": "Feature", "geometry": {"type": "LineString", "coordinates": [[177.0080146265925, 68.80029427988433], [176.99467306267843, 68.80597427915305]]}, "properties": {"source": "20688965", "target": "20673043"}}, {"type": "Feature", "geometry": {"type": "LineString", "coordinates": [[177.0080146265925, 68.80029427988433], [177.00771753049742, 68.80317635106488]]}, "properties": {"source": "20688965", "target": "247034"}}, {"type": "Feature", "geometry": {"type": "LineString", "coordinates": [[177.0080146265925, 68.80029427988433], [176.99562790012567, 68.80554411270913]]}, "properties": {"source": "20688965", "target": "352610"}}, {"type": "Feature", "geometry": {"type": "LineString", "coordinates": [[177.0080146265925, 68.80029427988433], [177.00075663354806, 68.8034765073123]]}, "properties": {"source": "20688965", "target": "417314"}}, {"type": "Feature", "geometry": {"type": "LineString", "coordinates": [[177.0080146265925, 68.80029427988433], [176.9958603361161, 68.80574927470877]]}, "properties": {"source": "20688965", "target": "210936"}}, {"type": "Feature", "geometry": {"type": "LineString", "coordinates": [[177.0080146265925, 68.80029427988433], [176.99567506343806, 68.80215579276853]]}, "properties": {"source": "20688965", "target": "18007626"}}, {"type": "Feature", "geometry": {"type": "LineString", "coordinates": [[176.9949991285455, 68.8036840038894], [177.01165818340377, 68.80331790597779]]}, "properties": {"source": "1926787", "target": "24692936"}}, {"type": "Feature", "geometry": {"type": "LineString", "coordinates": [[177.0080146265925, 68.80029427988433], [177.00542046472947, 68.80023799651661]]}, "properties": {"source": "20688965", "target": "18077742"}}, {"type": "Feature", "geometry": {"type": "LineString", "coordinates": [[177.0080146265925, 68.80029427988433], [177.00900575965835, 68.80403033581948]]}, "properties": {"source": "20688965", "target": "1518929"}}, {"type": "Feature", "geometry": {"type": "LineString", "coordinates": [[177.0080146265925, 68.80029427988433], [176.99320189646346, 68.80359903115414]]}, "properties": {"source": "20688965", "target": "1098223"}}, {"type": "Feature", "geometry": {"type": "LineString", "coordinates": [[177.0080146265925, 68.80029427988433], [177.00775270020785, 68.80377356960079]]}, "properties": {"source": "20688965", "target": "18922376"}}, {"type": "Feature", "geometry": {"type": "LineString", "coordinates": [[177.00288697435036, 68.80328375984996], [177.0037430704715, 68.80526742891584]]}, "properties": {"source": "598133", "target": "30177542"}}, {"type": "Feature", "geometry": {"type": "LineString", "coordinates": [[177.00288697435036, 68.80328375984996], [177.00608752510476, 68.80357880058281]]}, "properties": {"source": "598133", "target": "29423961"}}, {"type": "Feature", "geometry": {"type": "LineString", "coordinates": [[177.00288697435036, 68.80328375984996], [176.99422665325136, 68.80328733811473]]}, "properties": {"source": "598133", "target": "25657587"}}, {"type": "Feature", "geometry": {"type": "LineString", "coordinates": [[177.00288697435036, 68.80328375984996], [176.99957955050968, 68.8006307847763]]}, "properties": {"source": "598133", "target": "6604084"}}, {"type": "Feature", "geometry": {"type": "LineString", "coordinates": [[177.00288697435036, 68.80328375984996], [176.99560628637676, 68.80073768700143]]}, "properties": {"source": "598133", "target": "774363"}}, {"type": "Feature", "geometry": {"type": "LineString", "coordinates": [[177.00288697435036, 68.80328375984996], [177.00220557759536, 68.80495821564242]]}, "properties": {"source": "598133", "target": "6707413"}}, {"type": "Feature", "geometry": {"type": "LineString", "coordinates": [[177.00288697435036, 68.80328375984996], [177.00713851589177, 68.80478218172641]]}, "properties": {"source": "598133", "target": "25281250"}}, {"type": "Feature", "geometry": {"type": "LineString", "coordinates": [[177.00288697435036, 68.80328375984996], [177.00075663354806, 68.8034765073123]]}, "properties": {"source": "598133", "target": "417314"}}, {"type": "Feature", "geometry": {"type": "LineString", "coordinates": [[177.00288697435036, 68.80328375984996], [177.00220587777733, 68.80570142930966]]}, "properties": {"source": "598133", "target": "6767459"}}, {"type": "Feature", "geometry": {"type": "LineString", "coordinates": [[177.00288697435036, 68.80328375984996], [177.0087542706691, 68.80321561167983]]}, "properties": {"source": "598133", "target": "27272406"}}, {"type": "Feature", "geometry": {"type": "LineString", "coordinates": [[176.99560628637676, 68.80073768700143], [177.0037430704715, 68.80526742891584]]}, "properties": {"source": "774363", "target": "30177542"}}, {"type": "Feature", "geometry": {"type": "LineString", "coordinates": [[177.00288697435036, 68.80328375984996], [177.01165818340377, 68.80331790597779]]}, "properties": {"source": "598133", "target": "24692936"}}, {"type": "Feature", "geometry": {"type": "LineString", "coordinates": [[176.99560628637676, 68.80073768700143], [177.00608752510476, 68.80357880058281]]}, "properties": {"source": "774363", "target": "29423961"}}, {"type": "Feature", "geometry": {"type": "LineString", "coordinates": [[176.99560628637676, 68.80073768700143], [176.99957955050968, 68.8006307847763]]}, "properties": {"source": "774363", "target": "6604084"}}, {"type": "Feature", "geometry": {"type": "LineString", "coordinates": [[176.99560628637676, 68.80073768700143], [177.0026329940141, 68.80355357298458]]}, "properties": {"source": "774363", "target": "1707893"}}, {"type": "Feature", "geometry": {"type": "LineString", "coordinates": [[176.99560628637676, 68.80073768700143], [176.99763240091187, 68.80476410032279]]}, "properties": {"source": "774363", "target": "16130605"}}, {"type": "Feature", "geometry": {"type": "LineString", "coordinates": [[176.99560628637676, 68.80073768700143], [177.0087542706691, 68.80321561167983]]}, "properties": {"source": "774363", "target": "27272406"}}, {"type": "Feature", "geometry": {"type": "LineString", "coordinates": [[176.99560628637676, 68.80073768700143], [177.00872084575263, 68.80188581215523]]}, "properties": {"source": "774363", "target": "6261824"}}, {"type": "Feature", "geometry": {"type": "LineString", "coordinates": [[177.00853886355367, 68.80319352166691], [177.00850069900076, 68.80550285136047]]}, "properties": {"source": "24208502", "target": "17134426"}}, {"type": "Feature", "geometry": {"type": "LineString", "coordinates": [[177.00853886355367, 68.80319352166691], [177.00713851589177, 68.80478218172641]]}, "properties": {"source": "24208502", "target": "25281250"}}, {"type": "Feature", "geometry": {"type": "LineString", "coordinates": [[177.0028225363992, 68.80321184877988], [177.0037430704715, 68.80526742891584]]}, "properties": {"source": "1637553", "target": "30177542"}}, {"type": "Feature", "geometry": {"type": "LineString", "coordinates": [[177.0028225363992, 68.80321184877988], [177.00608752510476, 68.80357880058281]]}, "properties": {"source": "1637553", "target": "29423961"}}, {"type": "Feature", "geometry": {"type": "LineString", "coordinates": [[177.0028225363992, 68.80321184877988], [176.99422665325136, 68.80328733811473]]}, "properties": {"source": "1637553", "target": "25657587"}}, {"type": "Feature", "geometry": {"type": "LineString", "coordinates": [[177.0028225363992, 68.80321184877988], [176.9968230665511, 68.80615892768628]]}, "properties": {"source": "1637553", "target": "19030698"}}, {"type": "Feature", "geometry": {"type": "LineString", "coordinates": [[177.0028225363992, 68.80321184877988], [176.99957955050968, 68.8006307847763]]}, "properties": {"source": "1637553", "target": "6604084"}}, {"type": "Feature", "geometry": {"type": "LineString", "coordinates": [[177.0028225363992, 68.80321184877988], [177.00603981255136, 68.80342987455873]]}, "properties": {"source": "1637553", "target": "2486517"}}, {"type": "Feature", "geometry": {"type": "LineString", "coordinates": [[177.0028225363992, 68.80321184877988], [176.9949991285455, 68.8036840038894]]}, "properties": {"source": "1637553", "target": "1926787"}}, {"type": "Feature", "geometry": {"type": "LineString", "coordinates": [[177.0028225363992, 68.80321184877988], [177.01165818340377, 68.80331790597779]]}, "properties": {"source": "1637553", "target": "24692936"}}, {"type": "Feature", "geometry": {"type": "LineString", "coordinates": [[177.01106038933563, 68.80114496585546], [177.00288697435036, 68.80328375984996]]}, "properties": {"source": "360431", "target": "598133"}}, {"type": "Feature", "geometry": {"type": "LineString", "coordinates": [[177.01106038933563, 68.80114496585546], [176.99562790012567, 68.80554411270913]]}, "properties": {"source": "360431", "target": "352610"}}, {"type": "Feature", "geometry": {"type": "LineString", "coordinates": [[177.01106038933563, 68.80114496585546], [177.00075663354806, 68.8034765073123]]}, "properties": {"source": "360431", "target": "417314"}}, {"type": "Feature", "geometry": {"type": "LineString", "coordinates": [[177.01106038933563, 68.80114496585546], [176.9958603361161, 68.80574927470877]]}, "properties": {"source": "360431", "target": "210936"}}, {"type": "Feature", "geometry": {"type": "LineString", "coordinates": [[177.01106038933563, 68.80114496585546], [176.99615587124316, 68.80466805512822]]}, "properties": {"source": "360431", "target": "1308339"}}, {"type": "Feature", "geometry": {"type": "LineString", "coordinates": [[177.01106038933563, 68.80114496585546], [176.99360741983344, 68.80367241192951]]}, "properties": {"source": "360431", "target": "6333179"}}, {"type": "Feature", "geometry": {"type": "LineString", "coordinates": [[177.01106038933563, 68.80114496585546], [176.99738866638882, 68.80556826471218]]}, "properties": {"source": "360431", "target": "2686042"}}, {"type": "Feature", "geometry": {"type": "LineString", "coordinates": [[177.00220557759536, 68.80495821564242], [177.00220587777733, 68.80570142930966]]}, "properties": {"source": "6707413", "target": "6767459"}}, {"type": "Feature", "geometry": {"type": "LineString", "coordinates": [[177.00220557759536, 68.80495821564242], [176.99567506343806, 68.80215579276853]]}, "properties": {"source": "6707413", "target": "18007626"}}, {"type": "Feature", "geometry": {"type": "LineString", "coordinates": [[177.00220557759536, 68.80495821564242], [177.0050854448096, 68.80545759704424]]}, "properties": {"source": "6707413", "target": "7203565"}}, {"type": "Feature", "geometry": {"type": "LineString", "coordinates": [[177.00220557759536, 68.80495821564242], [177.00529567845194, 68.80560835149694]]}, "properties": {"source": "6707413", "target": "11791746"}}, {"type": "Feature", "geometry": {"type": "LineString", "coordinates": [[177.0026329940141, 68.80355357298458], [177.00608752510476, 68.80357880058281]]}, "properties": {"source": "1707893", "target": "29423961"}}, {"type": "Feature", "geometry": {"type": "LineString", "coordinates": [[177.0026329940141, 68.80355357298458], [176.99422665325136, 68.80328733811473]]}, "properties": {"source": "1707893", "target": "25657587"}}, {"type": "Feature", "geometry": {"type": "LineString", "coordinates": [[177.0026329940141, 68.80355357298458], [177.00603981255136, 68.80342987455873]]}, "properties": {"source": "1707893", "target": "2486517"}}, {"type": "Feature", "geometry": {"type": "LineString", "coordinates": [[176.99728215985948, 68.8024210608801], [177.0037430704715, 68.80526742891584]]}, "properties": {"source": "17276185", "target": "30177542"}}, {"type": "Feature", "geometry": {"type": "LineString", "coordinates": [[177.0026329940141, 68.80355357298458], [177.01165818340377, 68.80331790597779]]}, "properties": {"source": "1707893", "target": "24692936"}}, {"type": "Feature", "geometry": {"type": "LineString", "coordinates": [[176.99728215985948, 68.8024210608801], [177.00608752510476, 68.80357880058281]]}, "properties": {"source": "17276185", "target": "29423961"}}, {"type": "Feature", "geometry": {"type": "LineString", "coordinates": [[176.99728215985948, 68.8024210608801], [176.99422665325136, 68.80328733811473]]}, "properties": {"source": "17276185", "target": "25657587"}}, {"type": "Feature", "geometry": {"type": "LineString", "coordinates": [[176.99728215985948, 68.8024210608801], [176.9968230665511, 68.80615892768628]]}, "properties": {"source": "17276185", "target": "19030698"}}, {"type": "Feature", "geometry": {"type": "LineString", "coordinates": [[176.99728215985948, 68.8024210608801], [176.99957955050968, 68.8006307847763]]}, "properties": {"source": "17276185", "target": "6604084"}}, {"type": "Feature", "geometry": {"type": "LineString", "coordinates": [[176.99728215985948, 68.8024210608801], [177.00603981255136, 68.80342987455873]]}, "properties": {"source": "17276185", "target": "2486517"}}, {"type": "Feature", "geometry": {"type": "LineString", "coordinates": [[176.99728215985948, 68.8024210608801], [176.9949991285455, 68.8036840038894]]}, "properties": {"source": "17276185", "target": "1926787"}}, {"type": "Feature", "geometry": {"type": "LineString", "coordinates": [[176.99728215985948, 68.8024210608801], [176.99560628637676, 68.80073768700143]]}, "properties": {"source": "17276185", "target": "774363"}}, {"type": "Feature", "geometry": {"type": "LineString", "coordinates": [[176.99728215985948, 68.8024210608801], [177.0109022904125, 68.80469932107445]]}, "properties": {"source": "17276185", "target": "2042515"}}, {"type": "Feature", "geometry": {"type": "LineString", "coordinates": [[177.00406752534963, 68.79989420042907], [177.00853886355367, 68.80319352166691]]}, "properties": {"source": "26783744", "target": "24208502"}}, {"type": "Feature", "geometry": {"type": "LineString", "coordinates": [[177.00406752534963, 68.79989420042907], [177.00850069900076, 68.80550285136047]]}, "properties": {"source": "26783744", "target": "17134426"}}, {"type": "Feature", "geometry": {"type": "LineString", "coordinates": [[177.00406752534963, 68.79989420042907], [177.00484611904983, 68.8026934974169]]}, "properties": {"source": "26783744", "target": "3484257"}}, {"type": "Feature", "geometry": {"type": "LineString", "coordinates": [[177.00406752534963, 68.79989420042907], [177.0119313685687, 68.80589414321116]]}, "properties": {"source": "26783744", "target": "16245508"}}, {"type": "Feature", "geometry": {"type": "LineString", "coordinates": [[177.00406752534963, 68.79989420042907], [176.99845817775196, 68.80490764661374]]}, "properties": {"source": "26783744", "target": "22879818"}}, {"type": "Feature", "geometry": {"type": "LineString", "coordinates": [[177.00406752534963, 68.79989420042907], [177.00124836475106, 68.80460239309556]]}, "properties": {"source": "26783744", "target": "25665367"}}, {"type": "Feature", "geometry": {"type": "LineString", "coordinates": [[177.00406752534963, 68.79989420042907], [176.99527384837512, 68.80018909089415]]}, "properties": {"source": "26783744", "target": "152315"}}, {"type": "Feature", "geometry": {"type": "LineString", "coordinates": [[176.99728215985948, 68.8024210608801], [177.01165818340377, 68.80331790597779]]}, "properties": {"source": "17276185", "target": "24692936"}}]}