{"type": "FeatureCollection", "features": [{"type": "Feature", "geometry": {"type": "LineString", "coordinates": [[85.73775357395982, 69.23063014693287], [85.73407480704446, 69.23015103071006]]}, "properties": {"source": "904940", "target": "904962"}}, {"type": "Feature", "geometry": {"type": "LineString", "coordinates": [[85.73775357395982, 69.23063014693287], [85.73674060292666, 69.23009572090714]]}, "properties": {"source": "904940", "target": "904946"}}, {"type": "Feature", "geometry": {"type": "LineString", "coordinates": [[85.73775357395982, 69.23063014693287], [85.73594893156479, 69.22973393613535]]}, "properties": {"source": "904940", "target": "904947"}}, {"type": "Feature", "geometry": {"type": "LineString", "coordinates": [[85.73775357395982, 69.23063014693287], [85.74023007669291, 69.22971612264132]]}, "properties": {"source": "904940", "target": "904957"}}, {"type": "Feature", "geometry": {"type": "LineString", "coordinates": [[85.73775357395982, 69.23063014693287], [85.73620966872687, 69.23188028972774]]}, "properties": {"source": "904940", "target": "904939"}}, {"type": "Feature", "geometry": {"type": "LineString", "coordinates": [[85.73775357395982, 69.23063014693287], [85.73566620542533, 69.23171505357624]]}, "properties": {"source": "904940", "target": "904966"}}, {"type": "Feature", "geometry": {"type": "LineString", "coordinates": [[85.73775357395982, 69.23063014693287], [85.7353277085598, 69.23138279162131]]}, "properties": {"source": "904940", "target": "904959"}}, {"type": "Feature", "geometry": {"type": "LineString", "coordinates": [[85.73775357395982, 69.23063014693287], [85.73416265618584, 69.23093594051815]]}, "properties": {"source": "904940", "target": "904942"}}, {"type": "Feature", "geometry": {"type": "LineString", "coordinates": [[85.73775357395982, 69.23063014693287], [85.73535467491308, 69.22979889628729]]}, "properties": {"source": "904940", "target": "645886"}}, {"type": "Feature", "geometry": {"type": "LineString", "coordinates": [[85.73775357395982, 69.23063014693287], [85.73588484010304, 69.2297881878531]]}, "properties": {"source": "904940", "target": "850289"}}, {"type": "Feature", "geometry": {"type": "LineString", "coordinates": [[85.73775357395982, 69.23063014693287], [85.73550090380672, 69.23055948100321]]}, "properties": {"source": "904940", "target": "898214"}}, {"type": "Feature", "geometry": {"type": "LineString", "coordinates": [[85.73535467491308, 69.22979889628729], [85.73531719900473, 69.23057018238092]]}, "properties": {"source": "645886", "target": "3854220"}}, {"type": "Feature", "geometry": {"type": "LineString", "coordinates": [[85.73535467491308, 69.22979889628729], [85.73825112370872, 69.23092870926209]]}, "properties": {"source": "645886", "target": "2258644"}}, {"type": "Feature", "geometry": {"type": "LineString", "coordinates": [[85.73535467491308, 69.22979889628729], [85.73634693898452, 69.23133847103128]]}, "properties": {"source": "645886", "target": "1856723"}}, {"type": "Feature", "geometry": {"type": "LineString", "coordinates": [[85.73620292081512, 69.23133550837872], [85.73899907379757, 69.23079148278981]]}, "properties": {"source": "904964", "target": "904948"}}, {"type": "Feature", "geometry": {"type": "LineString", "coordinates": [[85.73620292081512, 69.23133550837872], [85.73594893156479, 69.22973393613535]]}, "properties": {"source": "904964", "target": "904947"}}, {"type": "Feature", "geometry": {"type": "LineString", "coordinates": [[85.73620292081512, 69.23133550837872], [85.7353277085598, 69.23138279162131]]}, "properties": {"source": "904964", "target": "904959"}}, {"type": "Feature", "geometry": {"type": "LineString", "coordinates": [[85.73620292081512, 69.23133550837872], [85.73401030645971, 69.22979262795585]]}, "properties": {"source": "904964", "target": "904965"}}, {"type": "Feature", "geometry": {"type": "LineString", "coordinates": [[85.73620292081512, 69.23133550837872], [85.73531719900473, 69.23057018238092]]}, "properties": {"source": "904964", "target": "3854220"}}, {"type": "Feature", "geometry": {"type": "LineString", "coordinates": [[85.73620292081512, 69.23133550837872], [85.73825112370872, 69.23092870926209]]}, "properties": {"source": "904964", "target": "2258644"}}, {"type": "Feature", "geometry": {"type": "LineString", "coordinates": [[85.73620292081512, 69.23133550837872], [85.73634693898452, 69.23133847103128]]}, "properties": {"source": "904964", "target": "1856723"}}, {"type": "Feature", "geometry": {"type": "LineString", "coordinates": [[85.73620292081512, 69.23133550837872], [85.73719656308384, 69.23028082509404]]}, "properties": {"source": "904964", "target": "1540959"}}, {"type": "Feature", "geometry": {"type": "LineString", "coordinates": [[85.73775357395982, 69.23063014693287], [85.73504106408893, 69.23111280305369]]}, "properties": {"source": "904940", "target": "1215871"}}, {"type": "Feature", "geometry": {"type": "LineString", "coordinates": [[85.73775357395982, 69.23063014693287], [85.73531719900473, 69.23057018238092]]}, "properties": {"source": "904940", "target": "3854220"}}, {"type": "Feature", "geometry": {"type": "LineString", "coordinates": [[85.73775357395982, 69.23063014693287], [85.73825112370872, 69.23092870926209]]}, "properties": {"source": "904940", "target": "2258644"}}, {"type": "Feature", "geometry": {"type": "LineString", "coordinates": [[85.73775357395982, 69.23063014693287], [85.73441446557331, 69.23068814032547]]}, "properties": {"source": "904940", "target": "1215870"}}, {"type": "Feature", "geometry": {"type": "LineString", "coordinates": [[85.73775357395982, 69.23063014693287], [85.73634693898452, 69.23133847103128]]}, "properties": {"source": "904940", "target": "1856723"}}, {"type": "Feature", "geometry": {"type": "LineString", "coordinates": [[85.73588049235707, 69.23072200177904], [85.73634693898452, 69.23133847103128]]}, "properties": {"source": "904963", "target": "1856723"}}, {"type": "Feature", "geometry": {"type": "LineString", "coordinates": [[85.73588049235707, 69.23072200177904], [85.73404949096329, 69.23064598350973]]}, "properties": {"source": "904963", "target": "1018609"}}, {"type": "Feature", "geometry": {"type": "LineString", "coordinates": [[85.73588049235707, 69.23072200177904], [85.73719656308384, 69.23028082509404]]}, "properties": {"source": "904963", "target": "1540959"}}, {"type": "Feature", "geometry": {"type": "LineString", "coordinates": [[85.73588049235707, 69.23072200177904], [85.7391696923466, 69.23051203375229]]}, "properties": {"source": "904963", "target": "907180"}}, {"type": "Feature", "geometry": {"type": "LineString", "coordinates": [[85.73407480704446, 69.23015103071006], [85.73946822956651, 69.2309263017514]]}, "properties": {"source": "904962", "target": "904960"}}, {"type": "Feature", "geometry": {"type": "LineString", "coordinates": [[85.73407480704446, 69.23015103071006], [85.73899907379757, 69.23079148278981]]}, "properties": {"source": "904962", "target": "904948"}}, {"type": "Feature", "geometry": {"type": "LineString", "coordinates": [[85.73407480704446, 69.23015103071006], [85.73588049235707, 69.23072200177904]]}, "properties": {"source": "904962", "target": "904963"}}, {"type": "Feature", "geometry": {"type": "LineString", "coordinates": [[85.73407480704446, 69.23015103071006], [85.73674060292666, 69.23009572090714]]}, "properties": {"source": "904962", "target": "904946"}}, {"type": "Feature", "geometry": {"type": "LineString", "coordinates": [[85.73407480704446, 69.23015103071006], [85.73594893156479, 69.22973393613535]]}, "properties": {"source": "904962", "target": "904947"}}, {"type": "Feature", "geometry": {"type": "LineString", "coordinates": [[85.73407480704446, 69.23015103071006], [85.74023007669291, 69.22971612264132]]}, "properties": {"source": "904962", "target": "904957"}}, {"type": "Feature", "geometry": {"type": "LineString", "coordinates": [[85.73407480704446, 69.23015103071006], [85.73620966872687, 69.23188028972774]]}, "properties": {"source": "904962", "target": "904939"}}, {"type": "Feature", "geometry": {"type": "LineString", "coordinates": [[85.74023007669291, 69.22971612264132], [85.7366963415896, 69.22999348857894]]}, "properties": {"source": "904957", "target": "1215869"}}, {"type": "Feature", "geometry": {"type": "LineString", "coordinates": [[85.74023007669291, 69.22971612264132], [85.73404949096329, 69.23064598350973]]}, "properties": {"source": "904957", "target": "1018609"}}, {"type": "Feature", "geometry": {"type": "LineString", "coordinates": [[85.73775357395982, 69.23063014693287], [85.73946822956651, 69.2309263017514]]}, "properties": {"source": "904940", "target": "904960"}}, {"type": "Feature", "geometry": {"type": "LineString", "coordinates": [[85.73775357395982, 69.23063014693287], [85.73899907379757, 69.23079148278981]]}, "properties": {"source": "904940", "target": "904948"}}, {"type": "Feature", "geometry": {"type": "LineString", "coordinates": [[85.73775357395982, 69.23063014693287], [85.73588049235707, 69.23072200177904]]}, "properties": {"source": "904940", "target": "904963"}}, {"type": "Feature", "geometry": {"type": "LineString", "coordinates": [[85.73899907379757, 69.23079148278981], [85.73441446557331, 69.23068814032547]]}, "properties": {"source": "904948", "target": "1215870"}}, {"type": "Feature", "geometry": {"type": "LineString", "coordinates": [[85.73899907379757, 69.23079148278981], [85.73634693898452, 69.23133847103128]]}, "properties": {"source": "904948", "target": "1856723"}}, {"type": "Feature", "geometry": {"type": "LineString", "coordinates": [[85.73899907379757, 69.23079148278981], [85.73719656308384, 69.23028082509404]]}, "properties": {"source": "904948", "target": "1540959"}}, {"type": "Feature", "geometry": {"type": "LineString", "coordinates": [[85.73588049235707, 69.23072200177904], [85.73946822956651, 69.2309263017514]]}, "properties": {"source": "904963", "target": "904960"}}, {"type": "Feature", "geometry": {"type": "LineString", "coordinates": [[85.73588049235707, 69.23072200177904], [85.73899907379757, 69.23079148278981]]}, "properties": {"source": "904963", "target": "904948"}}, {"type": "Feature", "geometry": {"type": "LineString", "coordinates": [[85.73588049235707, 69.23072200177904], [85.73674060292666, 69.23009572090714]]}, "properties": {"source": "904963", "target": "904946"}}, {"type": "Feature", "geometry": {"type": "LineString", "coordinates": [[85.73588049235707, 69.23072200177904], [85.73594893156479, 69.22973393613535]]}, "properties": {"source": "904963", "target": "904947"}}, {"type": "Feature", "geometry": {"type": "LineString", "coordinates": [[85.73588049235707, 69.23072200177904], [85.7353277085598, 69.23138279162131]]}, "properties": {"source": "904963", "target": "904959"}}, {"type": "Feature", "geometry": {"type": "LineString", "coordinates": [[85.73588049235707, 69.23072200177904], [85.73401030645971, 69.22979262795585]]}, "properties": {"source": "904963", "target": "904965"}}, {"type": "Feature", "geometry": {"type": "LineString", "coordinates": [[85.73588049235707, 69.23072200177904], [85.73620292081512, 69.23133550837872]]}, "properties": {"source": "904963", "target": "904964"}}, {"type": "Feature", "geometry": {"type": "LineString", "coordinates": [[85.73588049235707, 69.23072200177904], [85.73588484010304, 69.2297881878531]]}, "properties": {"source": "904963", "target": "850289"}}, {"type": "Feature", "geometry": {"type": "LineString", "coordinates": [[85.73566620542533, 69.23171505357624], [85.73531719900473, 69.23057018238092]]}, "properties": {"source": "904966", "target": "3854220"}}, {"type": "Feature", "geometry": {"type": "LineString", "coordinates": [[85.73566620542533, 69.23171505357624], [85.7382361839791, 69.2299893279584]]}, "properties": {"source": "904966", "target": "1002520"}}, {"type": "Feature", "geometry": {"type": "LineString", "coordinates": [[85.73566620542533, 69.23171505357624], [85.7391696923466, 69.23051203375229]]}, "properties": {"source": "904966", "target": "907180"}}, {"type": "Feature", "geometry": {"type": "LineString", "coordinates": [[85.7353277085598, 69.23138279162131], [85.73401030645971, 69.22979262795585]]}, "properties": {"source": "904959", "target": "904965"}}, {"type": "Feature", "geometry": {"type": "LineString", "coordinates": [[85.73416265618584, 69.23093594051815], [85.73946822956651, 69.2309263017514]]}, "properties": {"source": "904942", "target": "904960"}}, {"type": "Feature", "geometry": {"type": "LineString", "coordinates": [[85.73416265618584, 69.23093594051815], [85.73899907379757, 69.23079148278981]]}, "properties": {"source": "904942", "target": "904948"}}, {"type": "Feature", "geometry": {"type": "LineString", "coordinates": [[85.73416265618584, 69.23093594051815], [85.73588049235707, 69.23072200177904]]}, "properties": {"source": "904942", "target": "904963"}}, {"type": "Feature", "geometry": {"type": "LineString", "coordinates": [[85.73416265618584, 69.23093594051815], [85.73674060292666, 69.23009572090714]]}, "properties": {"source": "904942", "target": "904946"}}, {"type": "Feature", "geometry": {"type": "LineString", "coordinates": [[85.73416265618584, 69.23093594051815], [85.73594893156479, 69.22973393613535]]}, "properties": {"source": "904942", "target": "904947"}}, {"type": "Feature", "geometry": {"type": "LineString", "coordinates": [[85.73416265618584, 69.23093594051815], [85.73620966872687, 69.23188028972774]]}, "properties": {"source": "904942", "target": "904939"}}, {"type": "Feature", "geometry": {"type": "LineString", "coordinates": [[85.73416265618584, 69.23093594051815], [85.73566620542533, 69.23171505357624]]}, "properties": {"source": "904942", "target": "904966"}}, {"type": "Feature", "geometry": {"type": "LineString", "coordinates": [[85.73416265618584, 69.23093594051815], [85.7353277085598, 69.23138279162131]]}, "properties": {"source": "904942", "target": "904959"}}, {"type": "Feature", "geometry": {"type": "LineString", "coordinates": [[85.73416265618584, 69.23093594051815], [85.73535467491308, 69.22979889628729]]}, "properties": {"source": "904942", "target": "645886"}}, {"type": "Feature", "geometry": {"type": "LineString", "coordinates": [[85.73416265618584, 69.23093594051815], [85.73401030645971, 69.22979262795585]]}, "properties": {"source": "904942", "target": "904965"}}, {"type": "Feature", "geometry": {"type": "LineString", "coordinates": [[85.73416265618584, 69.23093594051815], [85.73550090380672, 69.23055948100321]]}, "properties": {"source": "904942", "target": "898214"}}, {"type": "Feature", "geometry": {"type": "LineString", "coordinates": [[85.73416265618584, 69.23093594051815], [85.7382361839791, 69.2299893279584]]}, "properties": {"source": "904942", "target": "1002520"}}, {"type": "Feature", "geometry": {"type": "LineString", "coordinates": [[85.73588049235707, 69.23072200177904], [85.73765384206246, 69.23084323863782]]}, "properties": {"source": "904963", "target": "627449"}}, {"type": "Feature", "geometry": {"type": "LineString", "coordinates": [[85.73588049235707, 69.23072200177904], [85.73504106408893, 69.23111280305369]]}, "properties": {"source": "904963", "target": "1215871"}}, {"type": "Feature", "geometry": {"type": "LineString", "coordinates": [[85.73588049235707, 69.23072200177904], [85.73531719900473, 69.23057018238092]]}, "properties": {"source": "904963", "target": "3854220"}}, {"type": "Feature", "geometry": {"type": "LineString", "coordinates": [[85.73588049235707, 69.23072200177904], [85.73825112370872, 69.23092870926209]]}, "properties": {"source": "904963", "target": "2258644"}}, {"type": "Feature", "geometry": {"type": "LineString", "coordinates": [[85.73588049235707, 69.23072200177904], [85.73441446557331, 69.23068814032547]]}, "properties": {"source": "904963", "target": "1215870"}}, {"type": "Feature", "geometry": {"type": "LineString", "coordinates": [[85.73674060292666, 69.23009572090714], [85.73531719900473, 69.23057018238092]]}, "properties": {"source": "904946", "target": "3854220"}}, {"type": "Feature", "geometry": {"type": "LineString", "coordinates": [[85.73674060292666, 69.23009572090714], [85.73825112370872, 69.23092870926209]]}, "properties": {"source": "904946", "target": "2258644"}}, {"type": "Feature", "geometry": {"type": "LineString", "coordinates": [[85.73674060292666, 69.23009572090714], [85.73634693898452, 69.23133847103128]]}, "properties": {"source": "904946", "target": "1856723"}}, {"type": "Feature", "geometry": {"type": "LineString", "coordinates": [[85.73674060292666, 69.23009572090714], [85.73719656308384, 69.23028082509404]]}, "properties": {"source": "904946", "target": "1540959"}}, {"type": "Feature", "geometry": {"type": "LineString", "coordinates": [[85.73594893156479, 69.22973393613535], [85.73899907379757, 69.23079148278981]]}, "properties": {"source": "904947", "target": "904948"}}, {"type": "Feature", "geometry": {"type": "LineString", "coordinates": [[85.73594893156479, 69.22973393613535], [85.7353277085598, 69.23138279162131]]}, "properties": {"source": "904947", "target": "904959"}}, {"type": "Feature", "geometry": {"type": "LineString", "coordinates": [[85.73594893156479, 69.22973393613535], [85.73401030645971, 69.22979262795585]]}, "properties": {"source": "904947", "target": "904965"}}, {"type": "Feature", "geometry": {"type": "LineString", "coordinates": [[85.73594893156479, 69.22973393613535], [85.73588484010304, 69.2297881878531]]}, "properties": {"source": "904947", "target": "850289"}}, {"type": "Feature", "geometry": {"type": "LineString", "coordinates": [[85.73594893156479, 69.22973393613535], [85.73504106408893, 69.23111280305369]]}, "properties": {"source": "904947", "target": "1215871"}}, {"type": "Feature", "geometry": {"type": "LineString", "coordinates": [[85.73594893156479, 69.22973393613535], [85.73441446557331, 69.23068814032547]]}, "properties": {"source": "904947", "target": "1215870"}}, {"type": "Feature", "geometry": {"type": "LineString", "coordinates": [[85.74023007669291, 69.22971612264132], [85.73946822956651, 69.2309263017514]]}, "properties": {"source": "904957", "target": "904960"}}, {"type": "Feature", "geometry": {"type": "LineString", "coordinates": [[85.73899907379757, 69.23079148278981], [85.7353277085598, 69.23138279162131]]}, "properties": {"source": "904948", "target": "904959"}}, {"type": "Feature", "geometry": {"type": "LineString", "coordinates": [[85.73899907379757, 69.23079148278981], [85.73401030645971, 69.22979262795585]]}, "properties": {"source": "904948", "target": "904965"}}, {"type": "Feature", "geometry": {"type": "LineString", "coordinates": [[85.73899907379757, 69.23079148278981], [85.73588484010304, 69.2297881878531]]}, "properties": {"source": "904948", "target": "850289"}}, {"type": "Feature", "geometry": {"type": "LineString", "coordinates": [[85.73899907379757, 69.23079148278981], [85.73531719900473, 69.23057018238092]]}, "properties": {"source": "904948", "target": "3854220"}}, {"type": "Feature", "geometry": {"type": "LineString", "coordinates": [[85.73899907379757, 69.23079148278981], [85.73825112370872, 69.23092870926209]]}, "properties": {"source": "904948", "target": "2258644"}}, {"type": "Feature", "geometry": {"type": "LineString", "coordinates": [[85.73550090380672, 69.23055948100321], [85.73535467491308, 69.22979889628729]]}, "properties": {"source": "898214", "target": "645886"}}, {"type": "Feature", "geometry": {"type": "LineString", "coordinates": [[85.73550090380672, 69.23055948100321], [85.73401030645971, 69.22979262795585]]}, "properties": {"source": "898214", "target": "904965"}}, {"type": "Feature", "geometry": {"type": "LineString", "coordinates": [[85.73550090380672, 69.23055948100321], [85.7382361839791, 69.2299893279584]]}, "properties": {"source": "898214", "target": "1002520"}}, {"type": "Feature", "geometry": {"type": "LineString", "coordinates": [[85.73765384206246, 69.23084323863782], [85.73899907379757, 69.23079148278981]]}, "properties": {"source": "627449", "target": "904948"}}, {"type": "Feature", "geometry": {"type": "LineString", "coordinates": [[85.73765384206246, 69.23084323863782], [85.73674060292666, 69.23009572090714]]}, "properties": {"source": "627449", "target": "904946"}}, {"type": "Feature", "geometry": {"type": "LineString", "coordinates": [[85.73765384206246, 69.23084323863782], [85.73594893156479, 69.22973393613535]]}, "properties": {"source": "627449", "target": "904947"}}, {"type": "Feature", "geometry": {"type": "LineString", "coordinates": [[85.73765384206246, 69.23084323863782], [85.73588484010304, 69.2297881878531]]}, "properties": {"source": "627449", "target": "850289"}}, {"type": "Feature", "geometry": {"type": "LineString", "coordinates": [[85.73765384206246, 69.23084323863782], [85.73404949096329, 69.23064598350973]]}, "properties": {"source": "627449", "target": "1018609"}}, {"type": "Feature", "geometry": {"type": "LineString", "coordinates": [[85.73504106408893, 69.23111280305369], [85.73899907379757, 69.23079148278981]]}, "properties": {"source": "1215871", "target": "904948"}}, {"type": "Feature", "geometry": {"type": "LineString", "coordinates": [[85.73504106408893, 69.23111280305369], [85.73441446557331, 69.23068814032547]]}, "properties": {"source": "1215871", "target": "1215870"}}, {"type": "Feature", "geometry": {"type": "LineString", "coordinates": [[85.73531719900473, 69.23057018238092], [85.73634693898452, 69.23133847103128]]}, "properties": {"source": "3854220", "target": "1856723"}}, {"type": "Feature", "geometry": {"type": "LineString", "coordinates": [[85.73535467491308, 69.22979889628729], [85.73899907379757, 69.23079148278981]]}, "properties": {"source": "645886", "target": "904948"}}, {"type": "Feature", "geometry": {"type": "LineString", "coordinates": [[85.73535467491308, 69.22979889628729], [85.73674060292666, 69.23009572090714]]}, "properties": {"source": "645886", "target": "904946"}}, {"type": "Feature", "geometry": {"type": "LineString", "coordinates": [[85.73535467491308, 69.22979889628729], [85.73594893156479, 69.22973393613535]]}, "properties": {"source": "645886", "target": "904947"}}, {"type": "Feature", "geometry": {"type": "LineString", "coordinates": [[85.73535467491308, 69.22979889628729], [85.7353277085598, 69.23138279162131]]}, "properties": {"source": "645886", "target": "904959"}}, {"type": "Feature", "geometry": {"type": "LineString", "coordinates": [[85.73535467491308, 69.22979889628729], [85.73765384206246, 69.23084323863782]]}, "properties": {"source": "645886", "target": "627449"}}, {"type": "Feature", "geometry": {"type": "LineString", "coordinates": [[85.73775357395982, 69.23063014693287], [85.7382361839791, 69.2299893279584]]}, "properties": {"source": "904940", "target": "1002520"}}, {"type": "Feature", "geometry": {"type": "LineString", "coordinates": [[85.73775357395982, 69.23063014693287], [85.73719656308384, 69.23028082509404]]}, "properties": {"source": "904940", "target": "1540959"}}, {"type": "Feature", "geometry": {"type": "LineString", "coordinates": [[85.73620966872687, 69.23188028972774], [85.73946822956651, 69.2309263017514]]}, "properties": {"source": "904939", "target": "904960"}}, {"type": "Feature", "geometry": {"type": "LineString", "coordinates": [[85.73620966872687, 69.23188028972774], [85.73899907379757, 69.23079148278981]]}, "properties": {"source": "904939", "target": "904948"}}, {"type": "Feature", "geometry": {"type": "LineString", "coordinates": [[85.73620966872687, 69.23188028972774], [85.73588049235707, 69.23072200177904]]}, "properties": {"source": "904939", "target": "904963"}}, {"type": "Feature", "geometry": {"type": "LineString", "coordinates": [[85.73620966872687, 69.23188028972774], [85.73674060292666, 69.23009572090714]]}, "properties": {"source": "904939", "target": "904946"}}, {"type": "Feature", "geometry": {"type": "LineString", "coordinates": [[85.73620966872687, 69.23188028972774], [85.73594893156479, 69.22973393613535]]}, "properties": {"source": "904939", "target": "904947"}}, {"type": "Feature", "geometry": {"type": "LineString", "coordinates": [[85.73620966872687, 69.23188028972774], [85.73535467491308, 69.22979889628729]]}, "properties": {"source": "904939", "target": "645886"}}, {"type": "Feature", "geometry": {"type": "LineString", "coordinates": [[85.73620966872687, 69.23188028972774], [85.73588484010304, 69.2297881878531]]}, "properties": {"source": "904939", "target": "850289"}}, {"type": "Feature", "geometry": {"type": "LineString", "coordinates": [[85.73620966872687, 69.23188028972774], [85.73550090380672, 69.23055948100321]]}, "properties": {"source": "904939", "target": "898214"}}, {"type": "Feature", "geometry": {"type": "LineString", "coordinates": [[85.73620966872687, 69.23188028972774], [85.73765384206246, 69.23084323863782]]}, "properties": {"source": "904939", "target": "627449"}}, {"type": "Feature", "geometry": {"type": "LineString", "coordinates": [[85.73674060292666, 69.23009572090714], [85.73594893156479, 69.22973393613535]]}, "properties": {"source": "904946", "target": "904947"}}, {"type": "Feature", "geometry": {"type": "LineString", "coordinates": [[85.73674060292666, 69.23009572090714], [85.7353277085598, 69.23138279162131]]}, "properties": {"source": "904946", "target": "904959"}}, {"type": "Feature", "geometry": {"type": "LineString", "coordinates": [[85.73674060292666, 69.23009572090714], [85.73401030645971, 69.22979262795585]]}, "properties": {"source": "904946", "target": "904965"}}, {"type": "Feature", "geometry": {"type": "LineString", "coordinates": [[85.73674060292666, 69.23009572090714], [85.73588484010304, 69.2297881878531]]}, "properties": {"source": "904946", "target": "850289"}}, {"type": "Feature", "geometry": {"type": "LineString", "coordinates": [[85.73674060292666, 69.23009572090714], [85.73504106408893, 69.23111280305369]]}, "properties": {"source": "904946", "target": "1215871"}}, {"type": "Feature", "geometry": {"type": "LineString", "coordinates": [[85.73761345469444, 69.2303786085844], [85.73765384206246, 69.23084323863782]]}, "properties": {"source": "1850959", "target": "627449"}}, {"type": "Feature", "geometry": {"type": "LineString", "coordinates": [[85.73761345469444, 69.2303786085844], [85.73427551362278, 69.22988601834464]]}, "properties": {"source": "1850959", "target": "2328522"}}, {"type": "Feature", "geometry": {"type": "LineString", "coordinates": [[85.73761345469444, 69.2303786085844], [85.73404949096329, 69.23064598350973]]}, "properties": {"source": "1850959", "target": "1018609"}}, {"type": "Feature", "geometry": {"type": "LineString", "coordinates": [[85.7366963415896, 69.22999348857894], [85.73946822956651, 69.2309263017514]]}, "properties": {"source": "1215869", "target": "904960"}}, {"type": "Feature", "geometry": {"type": "LineString", "coordinates": [[85.7366963415896, 69.22999348857894], [85.73899907379757, 69.23079148278981]]}, "properties": {"source": "1215869", "target": "904948"}}, {"type": "Feature", "geometry": {"type": "LineString", "coordinates": [[85.7366963415896, 69.22999348857894], [85.73588049235707, 69.23072200177904]]}, "properties": {"source": "1215869", "target": "904963"}}, {"type": "Feature", "geometry": {"type": "LineString", "coordinates": [[85.7366963415896, 69.22999348857894], [85.73594893156479, 69.22973393613535]]}, "properties": {"source": "1215869", "target": "904947"}}, {"type": "Feature", "geometry": {"type": "LineString", "coordinates": [[85.7366963415896, 69.22999348857894], [85.73620966872687, 69.23188028972774]]}, "properties": {"source": "1215869", "target": "904939"}}, {"type": "Feature", "geometry": {"type": "LineString", "coordinates": [[85.7366963415896, 69.22999348857894], [85.73504106408893, 69.23111280305369]]}, "properties": {"source": "1215869", "target": "1215871"}}, {"type": "Feature", "geometry": {"type": "LineString", "coordinates": [[85.7366963415896, 69.22999348857894], [85.73441446557331, 69.23068814032547]]}, "properties": {"source": "1215869", "target": "1215870"}}, {"type": "Feature", "geometry": {"type": "LineString", "coordinates": [[85.7366963415896, 69.22999348857894], [85.73404949096329, 69.23064598350973]]}, "properties": {"source": "1215869", "target": "1018609"}}, {"type": "Feature", "geometry": {"type": "LineString", "coordinates": [[85.73620966872687, 69.23188028972774], [85.73504106408893, 69.23111280305369]]}, "properties": {"source": "904939", "target": "1215871"}}, {"type": "Feature", "geometry": {"type": "LineString", "coordinates": [[85.73620966872687, 69.23188028972774], [85.73531719900473, 69.23057018238092]]}, "properties": {"source": "904939", "target": "3854220"}}, {"type": "Feature", "geometry": {"type": "LineString", "coordinates": [[85.73620966872687, 69.23188028972774], [85.73825112370872, 69.23092870926209]]}, "properties": {"source": "904939", "target": "2258644"}}, {"type": "Feature", "geometry": {"type": "LineString", "coordinates": [[85.73620966872687, 69.23188028972774], [85.73441446557331, 69.23068814032547]]}, "properties": {"source": "904939", "target": "1215870"}}, {"type": "Feature", "geometry": {"type": "LineString", "coordinates": [[85.73620966872687, 69.23188028972774], [85.73634693898452, 69.23133847103128]]}, "properties": {"source": "904939", "target": "1856723"}}, {"type": "Feature", "geometry": {"type": "LineString", "coordinates": [[85.73946822956651, 69.2309263017514], [85.73401030645971, 69.22979262795585]]}, "properties": {"source": "904960", "target": "904965"}}, {"type": "Feature", "geometry": {"type": "LineString", "coordinates": [[85.73946822956651, 69.2309263017514], [85.73620292081512, 69.23133550837872]]}, "properties": {"source": "904960", "target": "904964"}}, {"type": "Feature", "geometry": {"type": "LineString", "coordinates": [[85.73946822956651, 69.2309263017514], [85.73588484010304, 69.2297881878531]]}, "properties": {"source": "904960", "target": "850289"}}, {"type": "Feature", "geometry": {"type": "LineString", "coordinates": [[85.73946822956651, 69.2309263017514], [85.73504106408893, 69.23111280305369]]}, "properties": {"source": "904960", "target": "1215871"}}, {"type": "Feature", "geometry": {"type": "LineString", "coordinates": [[85.73946822956651, 69.2309263017514], [85.73531719900473, 69.23057018238092]]}, "properties": {"source": "904960", "target": "3854220"}}, {"type": "Feature", "geometry": {"type": "LineString", "coordinates": [[85.73946822956651, 69.2309263017514], [85.73825112370872, 69.23092870926209]]}, "properties": {"source": "904960", "target": "2258644"}}, {"type": "Feature", "geometry": {"type": "LineString", "coordinates": [[85.73946822956651, 69.2309263017514], [85.73441446557331, 69.23068814032547]]}, "properties": {"source": "904960", "target": "1215870"}}, {"type": "Feature", "geometry": {"type": "LineString", "coordinates": [[85.73946822956651, 69.2309263017514], [85.73634693898452, 69.23133847103128]]}, "properties": {"source": "904960", "target": "1856723"}}, {"type": "Feature", "geometry": {"type": "LineString", "coordinates": [[85.73946822956651, 69.2309263017514], [85.7382361839791, 69.2299893279584]]}, "properties": {"source": "904960", "target": "1002520"}}, {"type": "Feature", "geometry": {"type": "LineString", "coordinates": [[85.73946822956651, 69.2309263017514], [85.73719656308384, 69.23028082509404]]}, "properties": {"source": "904960", "target": "1540959"}}, {"type": "Feature", "geometry": {"type": "LineString", "coordinates": [[85.73946822956651, 69.2309263017514], [85.7391696923466, 69.23051203375229]]}, "properties": {"source": "904960", "target": "907180"}}, {"type": "Feature", "geometry": {"type": "LineString", "coordinates": [[85.74023007669291, 69.22971612264132], [85.73899907379757, 69.23079148278981]]}, "properties": {"source": "904957", "target": "904948"}}, {"type": "Feature", "geometry": {"type": "LineString", "coordinates": [[85.74023007669291, 69.22971612264132], [85.73588049235707, 69.23072200177904]]}, "properties": {"source": "904957", "target": "904963"}}, {"type": "Feature", "geometry": {"type": "LineString", "coordinates": [[85.74023007669291, 69.22971612264132], [85.73674060292666, 69.23009572090714]]}, "properties": {"source": "904957", "target": "904946"}}, {"type": "Feature", "geometry": {"type": "LineString", "coordinates": [[85.74023007669291, 69.22971612264132], [85.73594893156479, 69.22973393613535]]}, "properties": {"source": "904957", "target": "904947"}}, {"type": "Feature", "geometry": {"type": "LineString", "coordinates": [[85.74023007669291, 69.22971612264132], [85.73620966872687, 69.23188028972774]]}, "properties": {"source": "904957", "target": "904939"}}, {"type": "Feature", "geometry": {"type": "LineString", "coordinates": [[85.73634693898452, 69.23133847103128], [85.73719656308384, 69.23028082509404]]}, "properties": {"source": "1856723", "target": "1540959"}}, {"type": "Feature", "geometry": {"type": "LineString", "coordinates": [[85.7382361839791, 69.2299893279584], [85.73899907379757, 69.23079148278981]]}, "properties": {"source": "1002520", "target": "904948"}}, {"type": "Feature", "geometry": {"type": "LineString", "coordinates": [[85.7382361839791, 69.2299893279584], [85.73674060292666, 69.23009572090714]]}, "properties": {"source": "1002520", "target": "904946"}}, {"type": "Feature", "geometry": {"type": "LineString", "coordinates": [[85.7382361839791, 69.2299893279584], [85.7353277085598, 69.23138279162131]]}, "properties": {"source": "1002520", "target": "904959"}}, {"type": "Feature", "geometry": {"type": "LineString", "coordinates": [[85.7382361839791, 69.2299893279584], [85.73535467491308, 69.22979889628729]]}, "properties": {"source": "1002520", "target": "645886"}}, {"type": "Feature", "geometry": {"type": "LineString", "coordinates": [[85.7382361839791, 69.2299893279584], [85.73401030645971, 69.22979262795585]]}, "properties": {"source": "1002520", "target": "904965"}}, {"type": "Feature", "geometry": {"type": "LineString", "coordinates": [[85.73404949096329, 69.23064598350973], [85.73588484010304, 69.2297881878531]]}, "properties": {"source": "1018609", "target": "850289"}}, {"type": "Feature", "geometry": {"type": "LineString", "coordinates": [[85.73404949096329, 69.23064598350973], [85.73504106408893, 69.23111280305369]]}, "properties": {"source": "1018609", "target": "1215871"}}, {"type": "Feature", "geometry": {"type": "LineString", "coordinates": [[85.73404949096329, 69.23064598350973], [85.73441446557331, 69.23068814032547]]}, "properties": {"source": "1018609", "target": "1215870"}}, {"type": "Feature", "geometry": {"type": "LineString", "coordinates": [[85.7391696923466, 69.23051203375229], [85.7353277085598, 69.23138279162131]]}, "properties": {"source": "907180", "target": "904959"}}, {"type": "Feature", "geometry": {"type": "LineString", "coordinates": [[85.7391696923466, 69.23051203375229], [85.73401030645971, 69.22979262795585]]}, "properties": {"source": "907180", "target": "904965"}}, {"type": "Feature", "geometry": {"type": "LineString", "coordinates": [[85.73761345469444, 69.2303786085844], [85.73407480704446, 69.23015103071006]]}, "properties": {"source": "1850959", "target": "904962"}}, {"type": "Feature", "geometry": {"type": "LineString", "coordinates": [[85.73761345469444, 69.2303786085844], [85.73594893156479, 69.22973393613535]]}, "properties": {"source": "1850959", "target": "904947"}}, {"type": "Feature", "geometry": {"type": "LineString", "coordinates": [[85.73761345469444, 69.2303786085844], [85.74023007669291, 69.22971612264132]]}, "properties": {"source": "1850959", "target": "904957"}}, {"type": "Feature", "geometry": {"type": "LineString", "coordinates": [[85.73761345469444, 69.2303786085844], [85.74044181877184, 69.23150334656694]]}, "properties": {"source": "1850959", "target": "904958"}}, {"type": "Feature", "geometry": {"type": "LineString", "coordinates": [[85.73761345469444, 69.2303786085844], [85.73588484010304, 69.2297881878531]]}, "properties": {"source": "1850959", "target": "850289"}}, {"type": "Feature", "geometry": {"type": "LineString", "coordinates": [[85.73620966872687, 69.23188028972774], [85.73719656308384, 69.23028082509404]]}, "properties": {"source": "904939", "target": "1540959"}}, {"type": "Feature", "geometry": {"type": "LineString", "coordinates": [[85.74044181877184, 69.23150334656694], [85.73946822956651, 69.2309263017514]]}, "properties": {"source": "904958", "target": "904960"}}, {"type": "Feature", "geometry": {"type": "LineString", "coordinates": [[85.74044181877184, 69.23150334656694], [85.73899907379757, 69.23079148278981]]}, "properties": {"source": "904958", "target": "904948"}}, {"type": "Feature", "geometry": {"type": "LineString", "coordinates": [[85.74044181877184, 69.23150334656694], [85.73588049235707, 69.23072200177904]]}, "properties": {"source": "904958", "target": "904963"}}, {"type": "Feature", "geometry": {"type": "LineString", "coordinates": [[85.74044181877184, 69.23150334656694], [85.73674060292666, 69.23009572090714]]}, "properties": {"source": "904958", "target": "904946"}}, {"type": "Feature", "geometry": {"type": "LineString", "coordinates": [[85.74044181877184, 69.23150334656694], [85.73594893156479, 69.22973393613535]]}, "properties": {"source": "904958", "target": "904947"}}, {"type": "Feature", "geometry": {"type": "LineString", "coordinates": [[85.74044181877184, 69.23150334656694], [85.73620966872687, 69.23188028972774]]}, "properties": {"source": "904958", "target": "904939"}}, {"type": "Feature", "geometry": {"type": "LineString", "coordinates": [[85.74044181877184, 69.23150334656694], [85.73566620542533, 69.23171505357624]]}, "properties": {"source": "904958", "target": "904966"}}, {"type": "Feature", "geometry": {"type": "LineString", "coordinates": [[85.74044181877184, 69.23150334656694], [85.7353277085598, 69.23138279162131]]}, "properties": {"source": "904958", "target": "904959"}}, {"type": "Feature", "geometry": {"type": "LineString", "coordinates": [[85.74044181877184, 69.23150334656694], [85.73401030645971, 69.22979262795585]]}, "properties": {"source": "904958", "target": "904965"}}, {"type": "Feature", "geometry": {"type": "LineString", "coordinates": [[85.74044181877184, 69.23150334656694], [85.73620292081512, 69.23133550837872]]}, "properties": {"source": "904958", "target": "904964"}}, {"type": "Feature", "geometry": {"type": "LineString", "coordinates": [[85.73531719900473, 69.23057018238092], [85.73719656308384, 69.23028082509404]]}, "properties": {"source": "3854220", "target": "1540959"}}, {"type": "Feature", "geometry": {"type": "LineString", "coordinates": [[85.73427551362278, 69.22988601834464], [85.73946822956651, 69.2309263017514]]}, "properties": {"source": "2328522", "target": "904960"}}, {"type": "Feature", "geometry": {"type": "LineString", "coordinates": [[85.73427551362278, 69.22988601834464], [85.73899907379757, 69.23079148278981]]}, "properties": {"source": "2328522", "target": "904948"}}, {"type": "Feature", "geometry": {"type": "LineString", "coordinates": [[85.73427551362278, 69.22988601834464], [85.73588049235707, 69.23072200177904]]}, "properties": {"source": "2328522", "target": "904963"}}, {"type": "Feature", "geometry": {"type": "LineString", "coordinates": [[85.73427551362278, 69.22988601834464], [85.73594893156479, 69.22973393613535]]}, "properties": {"source": "2328522", "target": "904947"}}, {"type": "Feature", "geometry": {"type": "LineString", "coordinates": [[85.73407480704446, 69.23015103071006], [85.73620292081512, 69.23133550837872]]}, "properties": {"source": "904962", "target": "904964"}}, {"type": "Feature", "geometry": {"type": "LineString", "coordinates": [[85.73407480704446, 69.23015103071006], [85.73588484010304, 69.2297881878531]]}, "properties": {"source": "904962", "target": "850289"}}, {"type": "Feature", "geometry": {"type": "LineString", "coordinates": [[85.73407480704446, 69.23015103071006], [85.73765384206246, 69.23084323863782]]}, "properties": {"source": "904962", "target": "627449"}}, {"type": "Feature", "geometry": {"type": "LineString", "coordinates": [[85.73407480704446, 69.23015103071006], [85.73504106408893, 69.23111280305369]]}, "properties": {"source": "904962", "target": "1215871"}}, {"type": "Feature", "geometry": {"type": "LineString", "coordinates": [[85.73407480704446, 69.23015103071006], [85.73531719900473, 69.23057018238092]]}, "properties": {"source": "904962", "target": "3854220"}}, {"type": "Feature", "geometry": {"type": "LineString", "coordinates": [[85.73407480704446, 69.23015103071006], [85.73427551362278, 69.22988601834464]]}, "properties": {"source": "904962", "target": "2328522"}}, {"type": "Feature", "geometry": {"type": "LineString", "coordinates": [[85.73407480704446, 69.23015103071006], [85.73825112370872, 69.23092870926209]]}, "properties": {"source": "904962", "target": "2258644"}}, {"type": "Feature", "geometry": {"type": "LineString", "coordinates": [[85.73407480704446, 69.23015103071006], [85.73441446557331, 69.23068814032547]]}, "properties": {"source": "904962", "target": "1215870"}}, {"type": "Feature", "geometry": {"type": "LineString", "coordinates": [[85.73407480704446, 69.23015103071006], [85.7366963415896, 69.22999348857894]]}, "properties": {"source": "904962", "target": "1215869"}}, {"type": "Feature", "geometry": {"type": "LineString", "coordinates": [[85.73407480704446, 69.23015103071006], [85.7391696923466, 69.23051203375229]]}, "properties": {"source": "904962", "target": "907180"}}, {"type": "Feature", "geometry": {"type": "LineString", "coordinates": [[85.73674060292666, 69.23009572090714], [85.73899907379757, 69.23079148278981]]}, "properties": {"source": "904946", "target": "904948"}}, {"type": "Feature", "geometry": {"type": "LineString", "coordinates": [[85.73550090380672, 69.23055948100321], [85.73946822956651, 69.2309263017514]]}, "properties": {"source": "898214", "target": "904960"}}, {"type": "Feature", "geometry": {"type": "LineString", "coordinates": [[85.73550090380672, 69.23055948100321], [85.73899907379757, 69.23079148278981]]}, "properties": {"source": "898214", "target": "904948"}}, {"type": "Feature", "geometry": {"type": "LineString", "coordinates": [[85.73550090380672, 69.23055948100321], [85.73674060292666, 69.23009572090714]]}, "properties": {"source": "898214", "target": "904946"}}, {"type": "Feature", "geometry": {"type": "LineString", "coordinates": [[85.73550090380672, 69.23055948100321], [85.73594893156479, 69.22973393613535]]}, "properties": {"source": "898214", "target": "904947"}}, {"type": "Feature", "geometry": {"type": "LineString", "coordinates": [[85.73550090380672, 69.23055948100321], [85.7353277085598, 69.23138279162131]]}, "properties": {"source": "898214", "target": "904959"}}, {"type": "Feature", "geometry": {"type": "LineString", "coordinates": [[85.73427551362278, 69.22988601834464], [85.74044181877184, 69.23150334656694]]}, "properties": {"source": "2328522", "target": "904958"}}, {"type": "Feature", "geometry": {"type": "LineString", "coordinates": [[85.73427551362278, 69.22988601834464], [85.73588484010304, 69.2297881878531]]}, "properties": {"source": "2328522", "target": "850289"}}, {"type": "Feature", "geometry": {"type": "LineString", "coordinates": [[85.73427551362278, 69.22988601834464], [85.73550090380672, 69.23055948100321]]}, "properties": {"source": "2328522", "target": "898214"}}, {"type": "Feature", "geometry": {"type": "LineString", "coordinates": [[85.73427551362278, 69.22988601834464], [85.73765384206246, 69.23084323863782]]}, "properties": {"source": "2328522", "target": "627449"}}, {"type": "Feature", "geometry": {"type": "LineString", "coordinates": [[85.73427551362278, 69.22988601834464], [85.73404949096329, 69.23064598350973]]}, "properties": {"source": "2328522", "target": "1018609"}}, {"type": "Feature", "geometry": {"type": "LineString", "coordinates": [[85.73825112370872, 69.23092870926209], [85.73531719900473, 69.23057018238092]]}, "properties": {"source": "2258644", "target": "3854220"}}, {"type": "Feature", "geometry": {"type": "LineString", "coordinates": [[85.73825112370872, 69.23092870926209], [85.73634693898452, 69.23133847103128]]}, "properties": {"source": "2258644", "target": "1856723"}}, {"type": "Feature", "geometry": {"type": "LineString", "coordinates": [[85.73825112370872, 69.23092870926209], [85.73719656308384, 69.23028082509404]]}, "properties": {"source": "2258644", "target": "1540959"}}, {"type": "Feature", "geometry": {"type": "LineString", "coordinates": [[85.73761345469444, 69.2303786085844], [85.73946822956651, 69.2309263017514]]}, "properties": {"source": "1850959", "target": "904960"}}, {"type": "Feature", "geometry": {"type": "LineString", "coordinates": [[85.73761345469444, 69.2303786085844], [85.73899907379757, 69.23079148278981]]}, "properties": {"source": "1850959", "target": "904948"}}, {"type": "Feature", "geometry": {"type": "LineString", "coordinates": [[85.73761345469444, 69.2303786085844], [85.73588049235707, 69.23072200177904]]}, "properties": {"source": "1850959", "target": "904963"}}, {"type": "Feature", "geometry": {"type": "LineString", "coordinates": [[85.74044181877184, 69.23150334656694], [85.73588484010304, 69.2297881878531]]}, "properties": {"source": "904958", "target": "850289"}}, {"type": "Feature", "geometry": {"type": "LineString", "coordinates": [[85.74044181877184, 69.23150334656694], [85.73765384206246, 69.23084323863782]]}, "properties": {"source": "904958", "target": "627449"}}, {"type": "Feature", "geometry": {"type": "LineString", "coordinates": [[85.74044181877184, 69.23150334656694], [85.73504106408893, 69.23111280305369]]}, "properties": {"source": "904958", "target": "1215871"}}, {"type": "Feature", "geometry": {"type": "LineString", "coordinates": [[85.74044181877184, 69.23150334656694], [85.73441446557331, 69.23068814032547]]}, "properties": {"source": "904958", "target": "1215870"}}, {"type": "Feature", "geometry": {"type": "LineString", "coordinates": [[85.74044181877184, 69.23150334656694], [85.7366963415896, 69.22999348857894]]}, "properties": {"source": "904958", "target": "1215869"}}, {"type": "Feature", "geometry": {"type": "LineString", "coordinates": [[85.74044181877184, 69.23150334656694], [85.73404949096329, 69.23064598350973]]}, "properties": {"source": "904958", "target": "1018609"}}, {"type": "Feature", "geometry": {"type": "LineString", "coordinates": [[85.73566620542533, 69.23171505357624], [85.73946822956651, 69.2309263017514]]}, "properties": {"source": "904966", "target": "904960"}}, {"type": "Feature", "geometry": {"type": "LineString", "coordinates": [[85.73566620542533, 69.23171505357624], [85.73899907379757, 69.23079148278981]]}, "properties": {"source": "904966", "target": "904948"}}, {"type": "Feature", "geometry": {"type": "LineString", "coordinates": [[85.73566620542533, 69.23171505357624], [85.73588049235707, 69.23072200177904]]}, "properties": {"source": "904966", "target": "904963"}}, {"type": "Feature", "geometry": {"type": "LineString", "coordinates": [[85.73566620542533, 69.23171505357624], [85.73674060292666, 69.23009572090714]]}, "properties": {"source": "904966", "target": "904946"}}, {"type": "Feature", "geometry": {"type": "LineString", "coordinates": [[85.73566620542533, 69.23171505357624], [85.73594893156479, 69.22973393613535]]}, "properties": {"source": "904966", "target": "904947"}}, {"type": "Feature", "geometry": {"type": "LineString", "coordinates": [[85.73566620542533, 69.23171505357624], [85.7353277085598, 69.23138279162131]]}, "properties": {"source": "904966", "target": "904959"}}, {"type": "Feature", "geometry": {"type": "LineString", "coordinates": [[85.73566620542533, 69.23171505357624], [85.73535467491308, 69.22979889628729]]}, "properties": {"source": "904966", "target": "645886"}}, {"type": "Feature", "geometry": {"type": "LineString", "coordinates": [[85.73566620542533, 69.23171505357624], [85.73401030645971, 69.22979262795585]]}, "properties": {"source": "904966", "target": "904965"}}, {"type": "Feature", "geometry": {"type": "LineString", "coordinates": [[85.73566620542533, 69.23171505357624], [85.73620292081512, 69.23133550837872]]}, "properties": {"source": "904966", "target": "904964"}}, {"type": "Feature", "geometry": {"type": "LineString", "coordinates": [[85.73566620542533, 69.23171505357624], [85.73550090380672, 69.23055948100321]]}, "properties": {"source": "904966", "target": "898214"}}, {"type": "Feature", "geometry": {"type": "LineString", "coordinates": [[85.73946822956651, 69.2309263017514], [85.73899907379757, 69.23079148278981]]}, "properties": {"source": "904960", "target": "904948"}}, {"type": "Feature", "geometry": {"type": "LineString", "coordinates": [[85.73946822956651, 69.2309263017514], [85.73674060292666, 69.23009572090714]]}, "properties": {"source": "904960", "target": "904946"}}, {"type": "Feature", "geometry": {"type": "LineString", "coordinates": [[85.73946822956651, 69.2309263017514], [85.73594893156479, 69.22973393613535]]}, "properties": {"source": "904960", "target": "904947"}}, {"type": "Feature", "geometry": {"type": "LineString", "coordinates": [[85.73946822956651, 69.2309263017514], [85.7353277085598, 69.23138279162131]]}, "properties": {"source": "904960", "target": "904959"}}, {"type": "Feature", "geometry": {"type": "LineString", "coordinates": [[85.73946822956651, 69.2309263017514], [85.73535467491308, 69.22979889628729]]}, "properties": {"source": "904960", "target": "645886"}}, {"type": "Feature", "geometry": {"type": "LineString", "coordinates": [[85.74023007669291, 69.22971612264132], [85.74044181877184, 69.23150334656694]]}, "properties": {"source": "904957", "target": "904958"}}, {"type": "Feature", "geometry": {"type": "LineString", "coordinates": [[85.74023007669291, 69.22971612264132], [85.73566620542533, 69.23171505357624]]}, "properties": {"source": "904957", "target": "904966"}}, {"type": "Feature", "geometry": {"type": "LineString", "coordinates": [[85.74023007669291, 69.22971612264132], [85.7353277085598, 69.23138279162131]]}, "properties": {"source": "904957", "target": "904959"}}, {"type": "Feature", "geometry": {"type": "LineString", "coordinates": [[85.74023007669291, 69.22971612264132], [85.73416265618584, 69.23093594051815]]}, "properties": {"source": "904957", "target": "904942"}}, {"type": "Feature", "geometry": {"type": "LineString", "coordinates": [[85.74023007669291, 69.22971612264132], [85.73401030645971, 69.22979262795585]]}, "properties": {"source": "904957", "target": "904965"}}, {"type": "Feature", "geometry": {"type": "LineString", "coordinates": [[85.74023007669291, 69.22971612264132], [85.73620292081512, 69.23133550837872]]}, "properties": {"source": "904957", "target": "904964"}}, {"type": "Feature", "geometry": {"type": "LineString", "coordinates": [[85.74023007669291, 69.22971612264132], [85.73588484010304, 69.2297881878531]]}, "properties": {"source": "904957", "target": "850289"}}, {"type": "Feature", "geometry": {"type": "LineString", "coordinates": [[85.74023007669291, 69.22971612264132], [85.73765384206246, 69.23084323863782]]}, "properties": {"source": "904957", "target": "627449"}}, {"type": "Feature", "geometry": {"type": "LineString", "coordinates": [[85.74023007669291, 69.22971612264132], [85.73504106408893, 69.23111280305369]]}, "properties": {"source": "904957", "target": "1215871"}}, {"type": "Feature", "geometry": {"type": "LineString", "coordinates": [[85.74023007669291, 69.22971612264132], [85.73427551362278, 69.22988601834464]]}, "properties": {"source": "904957", "target": "2328522"}}, {"type": "Feature", "geometry": {"type": "LineString", "coordinates": [[85.74023007669291, 69.22971612264132], [85.73441446557331, 69.23068814032547]]}, "properties": {"source": "904957", "target": "1215870"}}, {"type": "Feature", "geometry": {"type": "LineString", "coordinates": [[85.73407480704446, 69.23015103071006], [85.74044181877184, 69.23150334656694]]}, "properties": {"source": "904962", "target": "904958"}}, {"type": "Feature", "geometry": {"type": "LineString", "coordinates": [[85.73407480704446, 69.23015103071006], [85.73566620542533, 69.23171505357624]]}, "properties": {"source": "904962", "target": "904966"}}, {"type": "Feature", "geometry": {"type": "LineString", "coordinates": [[85.73407480704446, 69.23015103071006], [85.7353277085598, 69.23138279162131]]}, "properties": {"source": "904962", "target": "904959"}}, {"type": "Feature", "geometry": {"type": "LineString", "coordinates": [[85.73407480704446, 69.23015103071006], [85.73416265618584, 69.23093594051815]]}, "properties": {"source": "904962", "target": "904942"}}, {"type": "Feature", "geometry": {"type": "LineString", "coordinates": [[85.73407480704446, 69.23015103071006], [85.73401030645971, 69.22979262795585]]}, "properties": {"source": "904962", "target": "904965"}}]}