{"type": "FeatureCollection", "features": [{"type": "Feature", "geometry": {"type": "LineString", "coordinates": [[134.62130167510344, 69.23055460107736], [134.62126175084234, 69.22989140397317]]}, "properties": {"source": "567673", "target": "2427401"}}, {"type": "Feature", "geometry": {"type": "LineString", "coordinates": [[134.62130167510344, 69.23055460107736], [134.62219121668636, 69.23035405055245]]}, "properties": {"source": "567673", "target": "533616"}}, {"type": "Feature", "geometry": {"type": "LineString", "coordinates": [[134.62130167510344, 69.23055460107736], [134.62091010429378, 69.23047901208511]]}, "properties": {"source": "567673", "target": "3322230"}}, {"type": "Feature", "geometry": {"type": "LineString", "coordinates": [[134.62130167510344, 69.23055460107736], [134.62183517213856, 69.2306660602901]]}, "properties": {"source": "567673", "target": "399413"}}, {"type": "Feature", "geometry": {"type": "LineString", "coordinates": [[134.62026560688946, 69.22980381256377], [134.62126175084234, 69.22989140397317]]}, "properties": {"source": "1542832", "target": "2427401"}}, {"type": "Feature", "geometry": {"type": "LineString", "coordinates": [[134.62026560688946, 69.22980381256377], [134.62217309299052, 69.23034656745097]]}, "properties": {"source": "1542832", "target": "17289376"}}, {"type": "Feature", "geometry": {"type": "LineString", "coordinates": [[134.62283368608655, 69.23083558764637], [134.62147015113044, 69.23085211984264]]}, "properties": {"source": "17671920", "target": "2267730"}}, {"type": "Feature", "geometry": {"type": "LineString", "coordinates": [[134.62283368608655, 69.23083558764637], [134.62126175084234, 69.22989140397317]]}, "properties": {"source": "17671920", "target": "2427401"}}, {"type": "Feature", "geometry": {"type": "LineString", "coordinates": [[134.62217309299052, 69.23034656745097], [134.62218901293733, 69.2298972053789]]}, "properties": {"source": "17289376", "target": "11346143"}}, {"type": "Feature", "geometry": {"type": "LineString", "coordinates": [[134.62217309299052, 69.23034656745097], [134.62313702435483, 69.23052915027074]]}, "properties": {"source": "17289376", "target": "13389825"}}, {"type": "Feature", "geometry": {"type": "LineString", "coordinates": [[134.62219121668636, 69.23035405055245], [134.62147015113044, 69.23085211984264]]}, "properties": {"source": "533616", "target": "2267730"}}, {"type": "Feature", "geometry": {"type": "LineString", "coordinates": [[134.62219121668636, 69.23035405055245], [134.62126175084234, 69.22989140397317]]}, "properties": {"source": "533616", "target": "2427401"}}, {"type": "Feature", "geometry": {"type": "LineString", "coordinates": [[134.62219121668636, 69.23035405055245], [134.62091010429378, 69.23047901208511]]}, "properties": {"source": "533616", "target": "3322230"}}, {"type": "Feature", "geometry": {"type": "LineString", "coordinates": [[134.62219121668636, 69.23035405055245], [134.62183517213856, 69.2306660602901]]}, "properties": {"source": "533616", "target": "399413"}}, {"type": "Feature", "geometry": {"type": "LineString", "coordinates": [[134.62219121668636, 69.23035405055245], [134.62310467831486, 69.22976403705408]]}, "properties": {"source": "533616", "target": "64226"}}, {"type": "Feature", "geometry": {"type": "LineString", "coordinates": [[134.62219121668636, 69.23035405055245], [134.62100744185136, 69.22989212660511]]}, "properties": {"source": "533616", "target": "513532"}}, {"type": "Feature", "geometry": {"type": "LineString", "coordinates": [[134.62229752346667, 69.2297751541177], [134.62147015113044, 69.23085211984264]]}, "properties": {"source": "17564960", "target": "2267730"}}, {"type": "Feature", "geometry": {"type": "LineString", "coordinates": [[134.62229752346667, 69.2297751541177], [134.62126175084234, 69.22989140397317]]}, "properties": {"source": "17564960", "target": "2427401"}}, {"type": "Feature", "geometry": {"type": "LineString", "coordinates": [[134.62229752346667, 69.2297751541177], [134.62217309299052, 69.23034656745097]]}, "properties": {"source": "17564960", "target": "17289376"}}, {"type": "Feature", "geometry": {"type": "LineString", "coordinates": [[134.62229752346667, 69.2297751541177], [134.62219121668636, 69.23035405055245]]}, "properties": {"source": "17564960", "target": "533616"}}, {"type": "Feature", "geometry": {"type": "LineString", "coordinates": [[134.62229752346667, 69.2297751541177], [134.62091010429378, 69.23047901208511]]}, "properties": {"source": "17564960", "target": "3322230"}}, {"type": "Feature", "geometry": {"type": "LineString", "coordinates": [[134.62229752346667, 69.2297751541177], [134.62183517213856, 69.2306660602901]]}, "properties": {"source": "17564960", "target": "399413"}}, {"type": "Feature", "geometry": {"type": "LineString", "coordinates": [[134.62229752346667, 69.2297751541177], [134.62310467831486, 69.22976403705408]]}, "properties": {"source": "17564960", "target": "64226"}}, {"type": "Feature", "geometry": {"type": "LineString", "coordinates": [[134.62229752346667, 69.2297751541177], [134.62130167510344, 69.23055460107736]]}, "properties": {"source": "17564960", "target": "567673"}}, {"type": "Feature", "geometry": {"type": "LineString", "coordinates": [[134.62147015113044, 69.23085211984264], [134.62126175084234, 69.22989140397317]]}, "properties": {"source": "2267730", "target": "2427401"}}, {"type": "Feature", "geometry": {"type": "LineString", "coordinates": [[134.62147015113044, 69.23085211984264], [134.62183517213856, 69.2306660602901]]}, "properties": {"source": "2267730", "target": "399413"}}, {"type": "Feature", "geometry": {"type": "LineString", "coordinates": [[134.62147015113044, 69.23085211984264], [134.62100744185136, 69.22989212660511]]}, "properties": {"source": "2267730", "target": "513532"}}, {"type": "Feature", "geometry": {"type": "LineString", "coordinates": [[134.62147015113044, 69.23085211984264], [134.62218901293733, 69.2298972053789]]}, "properties": {"source": "2267730", "target": "11346143"}}, {"type": "Feature", "geometry": {"type": "LineString", "coordinates": [[134.62147015113044, 69.23085211984264], [134.62313702435483, 69.23052915027074]]}, "properties": {"source": "2267730", "target": "13389825"}}, {"type": "Feature", "geometry": {"type": "LineString", "coordinates": [[134.62126175084234, 69.22989140397317], [134.62183517213856, 69.2306660602901]]}, "properties": {"source": "2427401", "target": "399413"}}, {"type": "Feature", "geometry": {"type": "LineString", "coordinates": [[134.62126175084234, 69.22989140397317], [134.62100744185136, 69.22989212660511]]}, "properties": {"source": "2427401", "target": "513532"}}, {"type": "Feature", "geometry": {"type": "LineString", "coordinates": [[134.62126175084234, 69.22989140397317], [134.62218901293733, 69.2298972053789]]}, "properties": {"source": "2427401", "target": "11346143"}}, {"type": "Feature", "geometry": {"type": "LineString", "coordinates": [[134.62126175084234, 69.22989140397317], [134.62313702435483, 69.23052915027074]]}, "properties": {"source": "2427401", "target": "13389825"}}, {"type": "Feature", "geometry": {"type": "LineString", "coordinates": [[134.62217309299052, 69.23034656745097], [134.62147015113044, 69.23085211984264]]}, "properties": {"source": "17289376", "target": "2267730"}}, {"type": "Feature", "geometry": {"type": "LineString", "coordinates": [[134.62217309299052, 69.23034656745097], [134.62126175084234, 69.22989140397317]]}, "properties": {"source": "17289376", "target": "2427401"}}, {"type": "Feature", "geometry": {"type": "LineString", "coordinates": [[134.62217309299052, 69.23034656745097], [134.62219121668636, 69.23035405055245]]}, "properties": {"source": "17289376", "target": "533616"}}, {"type": "Feature", "geometry": {"type": "LineString", "coordinates": [[134.62217309299052, 69.23034656745097], [134.62091010429378, 69.23047901208511]]}, "properties": {"source": "17289376", "target": "3322230"}}, {"type": "Feature", "geometry": {"type": "LineString", "coordinates": [[134.62217309299052, 69.23034656745097], [134.62183517213856, 69.2306660602901]]}, "properties": {"source": "17289376", "target": "399413"}}, {"type": "Feature", "geometry": {"type": "LineString", "coordinates": [[134.62217309299052, 69.23034656745097], [134.62310467831486, 69.22976403705408]]}, "properties": {"source": "17289376", "target": "64226"}}, {"type": "Feature", "geometry": {"type": "LineString", "coordinates": [[134.62217309299052, 69.23034656745097], [134.62163398863555, 69.229847675585]]}, "properties": {"source": "17289376", "target": "1848513"}}, {"type": "Feature", "geometry": {"type": "LineString", "coordinates": [[134.62130167510344, 69.23055460107736], [134.62100744185136, 69.22989212660511]]}, "properties": {"source": "567673", "target": "513532"}}, {"type": "Feature", "geometry": {"type": "LineString", "coordinates": [[134.62130167510344, 69.23055460107736], [134.62113954486614, 69.2300349098366]]}, "properties": {"source": "567673", "target": "898405"}}, {"type": "Feature", "geometry": {"type": "LineString", "coordinates": [[134.62163398863555, 69.229847675585], [134.62147015113044, 69.23085211984264]]}, "properties": {"source": "1848513", "target": "2267730"}}, {"type": "Feature", "geometry": {"type": "LineString", "coordinates": [[134.62163398863555, 69.229847675585], [134.62126175084234, 69.22989140397317]]}, "properties": {"source": "1848513", "target": "2427401"}}, {"type": "Feature", "geometry": {"type": "LineString", "coordinates": [[134.62163398863555, 69.229847675585], [134.62219121668636, 69.23035405055245]]}, "properties": {"source": "1848513", "target": "533616"}}, {"type": "Feature", "geometry": {"type": "LineString", "coordinates": [[134.62163398863555, 69.229847675585], [134.62091010429378, 69.23047901208511]]}, "properties": {"source": "1848513", "target": "3322230"}}, {"type": "Feature", "geometry": {"type": "LineString", "coordinates": [[134.62163398863555, 69.229847675585], [134.62183517213856, 69.2306660602901]]}, "properties": {"source": "1848513", "target": "399413"}}, {"type": "Feature", "geometry": {"type": "LineString", "coordinates": [[134.62100744185136, 69.22989212660511], [134.62183517213856, 69.2306660602901]]}, "properties": {"source": "513532", "target": "399413"}}, {"type": "Feature", "geometry": {"type": "LineString", "coordinates": [[134.623087826862, 69.22981059238191], [134.62147015113044, 69.23085211984264]]}, "properties": {"source": "989169", "target": "2267730"}}, {"type": "Feature", "geometry": {"type": "LineString", "coordinates": [[134.623087826862, 69.22981059238191], [134.62126175084234, 69.22989140397317]]}, "properties": {"source": "989169", "target": "2427401"}}, {"type": "Feature", "geometry": {"type": "LineString", "coordinates": [[134.623087826862, 69.22981059238191], [134.62217309299052, 69.23034656745097]]}, "properties": {"source": "989169", "target": "17289376"}}, {"type": "Feature", "geometry": {"type": "LineString", "coordinates": [[134.623087826862, 69.22981059238191], [134.62163398863555, 69.229847675585]]}, "properties": {"source": "989169", "target": "1848513"}}, {"type": "Feature", "geometry": {"type": "LineString", "coordinates": [[134.62113954486614, 69.2300349098366], [134.62219121668636, 69.23035405055245]]}, "properties": {"source": "898405", "target": "533616"}}, {"type": "Feature", "geometry": {"type": "LineString", "coordinates": [[134.62113954486614, 69.2300349098366], [134.62310467831486, 69.22976403705408]]}, "properties": {"source": "898405", "target": "64226"}}, {"type": "Feature", "geometry": {"type": "LineString", "coordinates": [[134.62113954486614, 69.2300349098366], [134.623087826862, 69.22981059238191]]}, "properties": {"source": "898405", "target": "989169"}}, {"type": "Feature", "geometry": {"type": "LineString", "coordinates": [[134.62026560688946, 69.22980381256377], [134.62147015113044, 69.23085211984264]]}, "properties": {"source": "1542832", "target": "2267730"}}, {"type": "Feature", "geometry": {"type": "LineString", "coordinates": [[134.62229752346667, 69.2297751541177], [134.62163398863555, 69.229847675585]]}, "properties": {"source": "17564960", "target": "1848513"}}, {"type": "Feature", "geometry": {"type": "LineString", "coordinates": [[134.62229752346667, 69.2297751541177], [134.623087826862, 69.22981059238191]]}, "properties": {"source": "17564960", "target": "989169"}}, {"type": "Feature", "geometry": {"type": "LineString", "coordinates": [[134.62091010429378, 69.23047901208511], [134.62147015113044, 69.23085211984264]]}, "properties": {"source": "3322230", "target": "2267730"}}, {"type": "Feature", "geometry": {"type": "LineString", "coordinates": [[134.62091010429378, 69.23047901208511], [134.62126175084234, 69.22989140397317]]}, "properties": {"source": "3322230", "target": "2427401"}}, {"type": "Feature", "geometry": {"type": "LineString", "coordinates": [[134.62091010429378, 69.23047901208511], [134.62183517213856, 69.2306660602901]]}, "properties": {"source": "3322230", "target": "399413"}}, {"type": "Feature", "geometry": {"type": "LineString", "coordinates": [[134.62091010429378, 69.23047901208511], [134.62100744185136, 69.22989212660511]]}, "properties": {"source": "3322230", "target": "513532"}}, {"type": "Feature", "geometry": {"type": "LineString", "coordinates": [[134.62310467831486, 69.22976403705408], [134.62147015113044, 69.23085211984264]]}, "properties": {"source": "64226", "target": "2267730"}}, {"type": "Feature", "geometry": {"type": "LineString", "coordinates": [[134.62310467831486, 69.22976403705408], [134.62126175084234, 69.22989140397317]]}, "properties": {"source": "64226", "target": "2427401"}}, {"type": "Feature", "geometry": {"type": "LineString", "coordinates": [[134.62310467831486, 69.22976403705408], [134.62091010429378, 69.23047901208511]]}, "properties": {"source": "64226", "target": "3322230"}}, {"type": "Feature", "geometry": {"type": "LineString", "coordinates": [[134.62310467831486, 69.22976403705408], [134.62183517213856, 69.2306660602901]]}, "properties": {"source": "64226", "target": "399413"}}, {"type": "Feature", "geometry": {"type": "LineString", "coordinates": [[134.62310467831486, 69.22976403705408], [134.62100744185136, 69.22989212660511]]}, "properties": {"source": "64226", "target": "513532"}}, {"type": "Feature", "geometry": {"type": "LineString", "coordinates": [[134.62130167510344, 69.23055460107736], [134.62147015113044, 69.23085211984264]]}, "properties": {"source": "567673", "target": "2267730"}}]}