{"type": "FeatureCollection", "features": [{"type": "Feature", "geometry": {"type": "LineString", "coordinates": [[-154.09424943241328, 69.0386322739214], [-154.10710007800964, 69.04202763920264]]}, "properties": {"source": "11511269", "target": "1084572"}}, {"type": "Feature", "geometry": {"type": "LineString", "coordinates": [[-154.09424943241328, 69.0386322739214], [-154.10573452302256, 69.04224509346088]]}, "properties": {"source": "11511269", "target": "1482667"}}, {"type": "Feature", "geometry": {"type": "LineString", "coordinates": [[-154.09424943241328, 69.0386322739214], [-154.10683096004772, 69.03965750755773]]}, "properties": {"source": "11511269", "target": "25241379"}}, {"type": "Feature", "geometry": {"type": "LineString", "coordinates": [[-154.09834316336844, 69.03943872661512], [-154.09983188973698, 69.03810282634072]]}, "properties": {"source": "13435175", "target": "3362565"}}, {"type": "Feature", "geometry": {"type": "LineString", "coordinates": [[-154.10169538990655, 69.03822818933872], [-154.0987375481284, 69.03999296907077]]}, "properties": {"source": "126436", "target": "1275698"}}, {"type": "Feature", "geometry": {"type": "LineString", "coordinates": [[-154.10169538990655, 69.03822818933872], [-154.0929151975455, 69.04009201639951]]}, "properties": {"source": "126436", "target": "1747053"}}, {"type": "Feature", "geometry": {"type": "LineString", "coordinates": [[-154.1054455018311, 69.03740598452708], [-154.0994053308558, 69.04215718410236]]}, "properties": {"source": "23653375", "target": "12381480"}}, {"type": "Feature", "geometry": {"type": "LineString", "coordinates": [[-154.1054455018311, 69.03740598452708], [-154.10411220601506, 69.04345871501957]]}, "properties": {"source": "23653375", "target": "12304925"}}, {"type": "Feature", "geometry": {"type": "LineString", "coordinates": [[-154.1054455018311, 69.03740598452708], [-154.09457449457156, 69.03720305852787]]}, "properties": {"source": "23653375", "target": "26590277"}}, {"type": "Feature", "geometry": {"type": "LineString", "coordinates": [[-154.1054455018311, 69.03740598452708], [-154.099857363234, 69.0416182206713]]}, "properties": {"source": "23653375", "target": "23461831"}}, {"type": "Feature", "geometry": {"type": "LineString", "coordinates": [[-154.1012822610235, 69.03781811186747], [-154.10411220601506, 69.04345871501957]]}, "properties": {"source": "23653459", "target": "12304925"}}, {"type": "Feature", "geometry": {"type": "LineString", "coordinates": [[-154.1012822610235, 69.03781811186747], [-154.09457449457156, 69.03720305852787]]}, "properties": {"source": "23653459", "target": "26590277"}}, {"type": "Feature", "geometry": {"type": "LineString", "coordinates": [[-154.0982070014257, 69.04181844704067], [-154.09983188973698, 69.03810282634072]]}, "properties": {"source": "15430059", "target": "3362565"}}, {"type": "Feature", "geometry": {"type": "LineString", "coordinates": [[-154.0982070014257, 69.04181844704067], [-154.08937091094103, 69.04292076723979]]}, "properties": {"source": "15430059", "target": "1083962"}}, {"type": "Feature", "geometry": {"type": "LineString", "coordinates": [[-154.0982070014257, 69.04181844704067], [-154.10665070672675, 69.03969665520589]]}, "properties": {"source": "15430059", "target": "19371839"}}, {"type": "Feature", "geometry": {"type": "LineString", "coordinates": [[-154.0982070014257, 69.04181844704067], [-154.10213421578055, 69.03757538642503]]}, "properties": {"source": "15430059", "target": "13603927"}}, {"type": "Feature", "geometry": {"type": "LineString", "coordinates": [[-154.0982070014257, 69.04181844704067], [-154.0950564356313, 69.03777121744349]]}, "properties": {"source": "15430059", "target": "153616"}}, {"type": "Feature", "geometry": {"type": "LineString", "coordinates": [[-154.0982070014257, 69.04181844704067], [-154.09834316336844, 69.03943872661512]]}, "properties": {"source": "15430059", "target": "13435175"}}, {"type": "Feature", "geometry": {"type": "LineString", "coordinates": [[-154.09019315978838, 69.03853036750778], [-154.10540378705468, 69.04028609225918]]}, "properties": {"source": "1127209", "target": "699989"}}, {"type": "Feature", "geometry": {"type": "LineString", "coordinates": [[-154.09019315978838, 69.03853036750778], [-154.10302865489638, 69.0407407848644]]}, "properties": {"source": "1127209", "target": "1498607"}}, {"type": "Feature", "geometry": {"type": "LineString", "coordinates": [[-154.09019315978838, 69.03853036750778], [-154.0987375481284, 69.03999296907077]]}, "properties": {"source": "1127209", "target": "1275698"}}, {"type": "Feature", "geometry": {"type": "LineString", "coordinates": [[-154.09019315978838, 69.03853036750778], [-154.09561355055797, 69.04132136761595]]}, "properties": {"source": "1127209", "target": "1190677"}}, {"type": "Feature", "geometry": {"type": "LineString", "coordinates": [[-154.10601886930039, 69.04042393735986], [-154.09809351035034, 69.03749682842272]]}, "properties": {"source": "6054436", "target": "2409744"}}, {"type": "Feature", "geometry": {"type": "LineString", "coordinates": [[-154.10601886930039, 69.04042393735986], [-154.09449478350913, 69.04050785069964]]}, "properties": {"source": "6054436", "target": "6716481"}}, {"type": "Feature", "geometry": {"type": "LineString", "coordinates": [[-154.10601886930039, 69.04042393735986], [-154.09833066458864, 69.03789722660784]]}, "properties": {"source": "6054436", "target": "17567003"}}, {"type": "Feature", "geometry": {"type": "LineString", "coordinates": [[-154.10601886930039, 69.04042393735986], [-154.09758618168198, 69.03767660908142]]}, "properties": {"source": "6054436", "target": "4064706"}}, {"type": "Feature", "geometry": {"type": "LineString", "coordinates": [[-154.10601886930039, 69.04042393735986], [-154.1011891653093, 69.04195712248378]]}, "properties": {"source": "6054436", "target": "22535477"}}, {"type": "Feature", "geometry": {"type": "LineString", "coordinates": [[-154.10601886930039, 69.04042393735986], [-154.09665693753863, 69.03885772990824]]}, "properties": {"source": "6054436", "target": "8505357"}}, {"type": "Feature", "geometry": {"type": "LineString", "coordinates": [[-154.10601886930039, 69.04042393735986], [-154.09596452411867, 69.03720678121243]]}, "properties": {"source": "6054436", "target": "6048136"}}, {"type": "Feature", "geometry": {"type": "LineString", "coordinates": [[-154.10118721752627, 69.03829206319858], [-154.10540378705468, 69.04028609225918]]}, "properties": {"source": "8025846", "target": "699989"}}, {"type": "Feature", "geometry": {"type": "LineString", "coordinates": [[-154.10118721752627, 69.03829206319858], [-154.1028724110181, 69.03751504292916]]}, "properties": {"source": "8025846", "target": "5966663"}}, {"type": "Feature", "geometry": {"type": "LineString", "coordinates": [[-154.10118721752627, 69.03829206319858], [-154.10302865489638, 69.0407407848644]]}, "properties": {"source": "8025846", "target": "1498607"}}, {"type": "Feature", "geometry": {"type": "LineString", "coordinates": [[-154.10118721752627, 69.03829206319858], [-154.10601886930039, 69.04042393735986]]}, "properties": {"source": "8025846", "target": "6054436"}}, {"type": "Feature", "geometry": {"type": "LineString", "coordinates": [[-154.10118721752627, 69.03829206319858], [-154.09160925376054, 69.04248088683397]]}, "properties": {"source": "8025846", "target": "25311984"}}, {"type": "Feature", "geometry": {"type": "LineString", "coordinates": [[-154.10118721752627, 69.03829206319858], [-154.09739726165282, 69.03903116826373]]}, "properties": {"source": "8025846", "target": "1756146"}}, {"type": "Feature", "geometry": {"type": "LineString", "coordinates": [[-154.10118721752627, 69.03829206319858], [-154.09478180671712, 69.03772142993995]]}, "properties": {"source": "8025846", "target": "757320"}}, {"type": "Feature", "geometry": {"type": "LineString", "coordinates": [[-154.10118721752627, 69.03829206319858], [-154.09729213181816, 69.0410466405896]]}, "properties": {"source": "8025846", "target": "868495"}}, {"type": "Feature", "geometry": {"type": "LineString", "coordinates": [[-154.10118721752627, 69.03829206319858], [-154.09273384815955, 69.04343914479162]]}, "properties": {"source": "8025846", "target": "6565409"}}, {"type": "Feature", "geometry": {"type": "LineString", "coordinates": [[-154.09001924105192, 69.03960102791365], [-154.10491012416531, 69.04087258638825]]}, "properties": {"source": "5071340", "target": "14059022"}}, {"type": "Feature", "geometry": {"type": "LineString", "coordinates": [[-154.10710007800964, 69.04202763920264], [-154.10487050172125, 69.04078340941442]]}, "properties": {"source": "1084572", "target": "2793055"}}, {"type": "Feature", "geometry": {"type": "LineString", "coordinates": [[-154.10710007800964, 69.04202763920264], [-154.10573452302256, 69.04224509346088]]}, "properties": {"source": "1084572", "target": "1482667"}}, {"type": "Feature", "geometry": {"type": "LineString", "coordinates": [[-154.10225126801143, 69.03876951729546], [-154.1028724110181, 69.03751504292916]]}, "properties": {"source": "10843353", "target": "5966663"}}, {"type": "Feature", "geometry": {"type": "LineString", "coordinates": [[-154.1030007681433, 69.03943117425024], [-154.10527105154821, 69.04347381455457]]}, "properties": {"source": "92852", "target": "797093"}}, {"type": "Feature", "geometry": {"type": "LineString", "coordinates": [[-154.1030007681433, 69.03943117425024], [-154.0888269169826, 69.04289002261436]]}, "properties": {"source": "92852", "target": "663774"}}, {"type": "Feature", "geometry": {"type": "LineString", "coordinates": [[-154.10302865489638, 69.0407407848644], [-154.09739726165282, 69.03903116826373]]}, "properties": {"source": "1498607", "target": "1756146"}}, {"type": "Feature", "geometry": {"type": "LineString", "coordinates": [[-154.10302865489638, 69.0407407848644], [-154.10179606279578, 69.03970807329895]]}, "properties": {"source": "1498607", "target": "352555"}}, {"type": "Feature", "geometry": {"type": "LineString", "coordinates": [[-154.10302865489638, 69.0407407848644], [-154.09478180671712, 69.03772142993995]]}, "properties": {"source": "1498607", "target": "757320"}}, {"type": "Feature", "geometry": {"type": "LineString", "coordinates": [[-154.10302865489638, 69.0407407848644], [-154.09345194030448, 69.03871505388611]]}, "properties": {"source": "1498607", "target": "15446"}}, {"type": "Feature", "geometry": {"type": "LineString", "coordinates": [[-154.10302865489638, 69.0407407848644], [-154.10225126801143, 69.03876951729546]]}, "properties": {"source": "1498607", "target": "10843353"}}, {"type": "Feature", "geometry": {"type": "LineString", "coordinates": [[-154.10601886930039, 69.04042393735986], [-154.1028724110181, 69.03751504292916]]}, "properties": {"source": "6054436", "target": "5966663"}}, {"type": "Feature", "geometry": {"type": "LineString", "coordinates": [[-154.10601886930039, 69.04042393735986], [-154.1070490598848, 69.03863757409212]]}, "properties": {"source": "6054436", "target": "610492"}}, {"type": "Feature", "geometry": {"type": "LineString", "coordinates": [[-154.10601886930039, 69.04042393735986], [-154.09739726165282, 69.03903116826373]]}, "properties": {"source": "6054436", "target": "1756146"}}, {"type": "Feature", "geometry": {"type": "LineString", "coordinates": [[-154.10601886930039, 69.04042393735986], [-154.09478180671712, 69.03772142993995]]}, "properties": {"source": "6054436", "target": "757320"}}, {"type": "Feature", "geometry": {"type": "LineString", "coordinates": [[-154.10302865489638, 69.0407407848644], [-154.10586087904204, 69.0413082622135]]}, "properties": {"source": "1498607", "target": "103858"}}, {"type": "Feature", "geometry": {"type": "LineString", "coordinates": [[-154.10414417066053, 69.04023792224166], [-154.10615861881416, 69.03948121096087]]}, "properties": {"source": "12381462", "target": "12381351"}}, {"type": "Feature", "geometry": {"type": "LineString", "coordinates": [[-154.10414417066053, 69.04023792224166], [-154.10211304384381, 69.04331242672322]]}, "properties": {"source": "12381462", "target": "12381504"}}, {"type": "Feature", "geometry": {"type": "LineString", "coordinates": [[-154.10414417066053, 69.04023792224166], [-154.0994053308558, 69.04215718410236]]}, "properties": {"source": "12381462", "target": "12381480"}}, {"type": "Feature", "geometry": {"type": "LineString", "coordinates": [[-154.10414417066053, 69.04023792224166], [-154.10411220601506, 69.04345871501957]]}, "properties": {"source": "12381462", "target": "12304925"}}, {"type": "Feature", "geometry": {"type": "LineString", "coordinates": [[-154.08937091094103, 69.04292076723979], [-154.10487050172125, 69.04078340941442]]}, "properties": {"source": "1083962", "target": "2793055"}}, {"type": "Feature", "geometry": {"type": "LineString", "coordinates": [[-154.08937091094103, 69.04292076723979], [-154.09983188973698, 69.03810282634072]]}, "properties": {"source": "1083962", "target": "3362565"}}, {"type": "Feature", "geometry": {"type": "LineString", "coordinates": [[-154.10118721752627, 69.03829206319858], [-154.09665693753863, 69.03885772990824]]}, "properties": {"source": "8025846", "target": "8505357"}}, {"type": "Feature", "geometry": {"type": "LineString", "coordinates": [[-154.10118721752627, 69.03829206319858], [-154.10225126801143, 69.03876951729546]]}, "properties": {"source": "8025846", "target": "10843353"}}, {"type": "Feature", "geometry": {"type": "LineString", "coordinates": [[-154.09160925376054, 69.04248088683397], [-154.1028724110181, 69.03751504292916]]}, "properties": {"source": "25311984", "target": "5966663"}}, {"type": "Feature", "geometry": {"type": "LineString", "coordinates": [[-154.09160925376054, 69.04248088683397], [-154.10601886930039, 69.04042393735986]]}, "properties": {"source": "25311984", "target": "6054436"}}, {"type": "Feature", "geometry": {"type": "LineString", "coordinates": [[-154.09160925376054, 69.04248088683397], [-154.1012822610235, 69.03781811186747]]}, "properties": {"source": "25311984", "target": "23653459"}}, {"type": "Feature", "geometry": {"type": "LineString", "coordinates": [[-154.09160925376054, 69.04248088683397], [-154.09809351035034, 69.03749682842272]]}, "properties": {"source": "25311984", "target": "2409744"}}, {"type": "Feature", "geometry": {"type": "LineString", "coordinates": [[-154.09160925376054, 69.04248088683397], [-154.10615861881416, 69.03948121096087]]}, "properties": {"source": "25311984", "target": "12381351"}}, {"type": "Feature", "geometry": {"type": "LineString", "coordinates": [[-154.09160925376054, 69.04248088683397], [-154.10211304384381, 69.04331242672322]]}, "properties": {"source": "25311984", "target": "12381504"}}, {"type": "Feature", "geometry": {"type": "LineString", "coordinates": [[-154.09160925376054, 69.04248088683397], [-154.09833066458864, 69.03789722660784]]}, "properties": {"source": "25311984", "target": "17567003"}}, {"type": "Feature", "geometry": {"type": "LineString", "coordinates": [[-154.09160925376054, 69.04248088683397], [-154.0994053308558, 69.04215718410236]]}, "properties": {"source": "25311984", "target": "12381480"}}, {"type": "Feature", "geometry": {"type": "LineString", "coordinates": [[-154.10781094508445, 69.04116080354012], [-154.0987375481284, 69.03999296907077]]}, "properties": {"source": "1077718", "target": "1275698"}}, {"type": "Feature", "geometry": {"type": "LineString", "coordinates": [[-154.10781094508445, 69.04116080354012], [-154.0929151975455, 69.04009201639951]]}, "properties": {"source": "1077718", "target": "1747053"}}, {"type": "Feature", "geometry": {"type": "LineString", "coordinates": [[-154.10781094508445, 69.04116080354012], [-154.09561355055797, 69.04132136761595]]}, "properties": {"source": "1077718", "target": "1190677"}}, {"type": "Feature", "geometry": {"type": "LineString", "coordinates": [[-154.10781094508445, 69.04116080354012], [-154.10179606279578, 69.03970807329895]]}, "properties": {"source": "1077718", "target": "352555"}}, {"type": "Feature", "geometry": {"type": "LineString", "coordinates": [[-154.10781094508445, 69.04116080354012], [-154.10574313770903, 69.03840059993504]]}, "properties": {"source": "1077718", "target": "249006"}}, {"type": "Feature", "geometry": {"type": "LineString", "coordinates": [[-154.10781094508445, 69.04116080354012], [-154.1001414608682, 69.03788340071273]]}, "properties": {"source": "1077718", "target": "420687"}}, {"type": "Feature", "geometry": {"type": "LineString", "coordinates": [[-154.09729213181816, 69.0410466405896], [-154.10179606279578, 69.03970807329895]]}, "properties": {"source": "868495", "target": "352555"}}, {"type": "Feature", "geometry": {"type": "LineString", "coordinates": [[-154.09729213181816, 69.0410466405896], [-154.09478180671712, 69.03772142993995]]}, "properties": {"source": "868495", "target": "757320"}}, {"type": "Feature", "geometry": {"type": "LineString", "coordinates": [[-154.09729213181816, 69.0410466405896], [-154.09273384815955, 69.04343914479162]]}, "properties": {"source": "868495", "target": "6565409"}}, {"type": "Feature", "geometry": {"type": "LineString", "coordinates": [[-154.09729213181816, 69.0410466405896], [-154.09665693753863, 69.03885772990824]]}, "properties": {"source": "868495", "target": "8505357"}}, {"type": "Feature", "geometry": {"type": "LineString", "coordinates": [[-154.10049259132464, 69.03825620086832], [-154.10540378705468, 69.04028609225918]]}, "properties": {"source": "1072200", "target": "699989"}}, {"type": "Feature", "geometry": {"type": "LineString", "coordinates": [[-154.10049259132464, 69.03825620086832], [-154.10302865489638, 69.0407407848644]]}, "properties": {"source": "1072200", "target": "1498607"}}, {"type": "Feature", "geometry": {"type": "LineString", "coordinates": [[-154.10049259132464, 69.03825620086832], [-154.0987375481284, 69.03999296907077]]}, "properties": {"source": "1072200", "target": "1275698"}}, {"type": "Feature", "geometry": {"type": "LineString", "coordinates": [[-154.10049259132464, 69.03825620086832], [-154.0929151975455, 69.04009201639951]]}, "properties": {"source": "1072200", "target": "1747053"}}, {"type": "Feature", "geometry": {"type": "LineString", "coordinates": [[-154.10049259132464, 69.03825620086832], [-154.09561355055797, 69.04132136761595]]}, "properties": {"source": "1072200", "target": "1190677"}}, {"type": "Feature", "geometry": {"type": "LineString", "coordinates": [[-154.10049259132464, 69.03825620086832], [-154.10179606279578, 69.03970807329895]]}, "properties": {"source": "1072200", "target": "352555"}}, {"type": "Feature", "geometry": {"type": "LineString", "coordinates": [[-154.0895355384927, 69.04339793201316], [-154.10665070672675, 69.03969665520589]]}, "properties": {"source": "3290034", "target": "19371839"}}, {"type": "Feature", "geometry": {"type": "LineString", "coordinates": [[-154.10491012416531, 69.04087258638825], [-154.1028724110181, 69.03751504292916]]}, "properties": {"source": "14059022", "target": "5966663"}}, {"type": "Feature", "geometry": {"type": "LineString", "coordinates": [[-154.10491012416531, 69.04087258638825], [-154.09809351035034, 69.03749682842272]]}, "properties": {"source": "14059022", "target": "2409744"}}, {"type": "Feature", "geometry": {"type": "LineString", "coordinates": [[-154.1011891653093, 69.04195712248378], [-154.1028724110181, 69.03751504292916]]}, "properties": {"source": "22535477", "target": "5966663"}}, {"type": "Feature", "geometry": {"type": "LineString", "coordinates": [[-154.10299644522598, 69.04125833370833], [-154.10527105154821, 69.04347381455457]]}, "properties": {"source": "661226", "target": "797093"}}, {"type": "Feature", "geometry": {"type": "LineString", "coordinates": [[-154.10362513573824, 69.03807049804828], [-154.09983188973698, 69.03810282634072]]}, "properties": {"source": "195534", "target": "3362565"}}, {"type": "Feature", "geometry": {"type": "LineString", "coordinates": [[-154.10362513573824, 69.03807049804828], [-154.10665070672675, 69.03969665520589]]}, "properties": {"source": "195534", "target": "19371839"}}, {"type": "Feature", "geometry": {"type": "LineString", "coordinates": [[-154.10111840591094, 69.04297159599889], [-154.09983188973698, 69.03810282634072]]}, "properties": {"source": "15721399", "target": "3362565"}}, {"type": "Feature", "geometry": {"type": "LineString", "coordinates": [[-154.10111840591094, 69.04297159599889], [-154.0982070014257, 69.04181844704067]]}, "properties": {"source": "15721399", "target": "15430059"}}, {"type": "Feature", "geometry": {"type": "LineString", "coordinates": [[-154.1026551931216, 69.04299002423221], [-154.0987375481284, 69.03999296907077]]}, "properties": {"source": "1228822", "target": "1275698"}}, {"type": "Feature", "geometry": {"type": "LineString", "coordinates": [[-154.1026551931216, 69.04299002423221], [-154.10574313770903, 69.03840059993504]]}, "properties": {"source": "1228822", "target": "249006"}}, {"type": "Feature", "geometry": {"type": "LineString", "coordinates": [[-154.0981555762071, 69.03880644501774], [-154.10540378705468, 69.04028609225918]]}, "properties": {"source": "638073", "target": "699989"}}, {"type": "Feature", "geometry": {"type": "LineString", "coordinates": [[-154.0981555762071, 69.03880644501774], [-154.1070490598848, 69.03863757409212]]}, "properties": {"source": "638073", "target": "610492"}}, {"type": "Feature", "geometry": {"type": "LineString", "coordinates": [[-154.0981555762071, 69.03880644501774], [-154.09478180671712, 69.03772142993995]]}, "properties": {"source": "638073", "target": "757320"}}, {"type": "Feature", "geometry": {"type": "LineString", "coordinates": [[-154.09001924105192, 69.03960102791365], [-154.1028724110181, 69.03751504292916]]}, "properties": {"source": "5071340", "target": "5966663"}}, {"type": "Feature", "geometry": {"type": "LineString", "coordinates": [[-154.09001924105192, 69.03960102791365], [-154.10487050172125, 69.04078340941442]]}, "properties": {"source": "5071340", "target": "2793055"}}, {"type": "Feature", "geometry": {"type": "LineString", "coordinates": [[-154.09478180671712, 69.03772142993995], [-154.1028724110181, 69.03751504292916]]}, "properties": {"source": "757320", "target": "5966663"}}, {"type": "Feature", "geometry": {"type": "LineString", "coordinates": [[-154.09478180671712, 69.03772142993995], [-154.09739726165282, 69.03903116826373]]}, "properties": {"source": "757320", "target": "1756146"}}, {"type": "Feature", "geometry": {"type": "LineString", "coordinates": [[-154.09478180671712, 69.03772142993995], [-154.09449478350913, 69.04050785069964]]}, "properties": {"source": "757320", "target": "6716481"}}, {"type": "Feature", "geometry": {"type": "LineString", "coordinates": [[-154.09688056380392, 69.04127998862802], [-154.10487050172125, 69.04078340941442]]}, "properties": {"source": "24271263", "target": "2793055"}}, {"type": "Feature", "geometry": {"type": "LineString", "coordinates": [[-154.09688056380392, 69.04127998862802], [-154.09983188973698, 69.03810282634072]]}, "properties": {"source": "24271263", "target": "3362565"}}, {"type": "Feature", "geometry": {"type": "LineString", "coordinates": [[-154.09688056380392, 69.04127998862802], [-154.0982070014257, 69.04181844704067]]}, "properties": {"source": "24271263", "target": "15430059"}}, {"type": "Feature", "geometry": {"type": "LineString", "coordinates": [[-154.10540378705468, 69.04028609225918], [-154.1028724110181, 69.03751504292916]]}, "properties": {"source": "699989", "target": "5966663"}}, {"type": "Feature", "geometry": {"type": "LineString", "coordinates": [[-154.10540378705468, 69.04028609225918], [-154.10302865489638, 69.0407407848644]]}, "properties": {"source": "699989", "target": "1498607"}}, {"type": "Feature", "geometry": {"type": "LineString", "coordinates": [[-154.10540378705468, 69.04028609225918], [-154.10601886930039, 69.04042393735986]]}, "properties": {"source": "699989", "target": "6054436"}}, {"type": "Feature", "geometry": {"type": "LineString", "coordinates": [[-154.10540378705468, 69.04028609225918], [-154.1070490598848, 69.03863757409212]]}, "properties": {"source": "699989", "target": "610492"}}, {"type": "Feature", "geometry": {"type": "LineString", "coordinates": [[-154.10540378705468, 69.04028609225918], [-154.09739726165282, 69.03903116826373]]}, "properties": {"source": "699989", "target": "1756146"}}, {"type": "Feature", "geometry": {"type": "LineString", "coordinates": [[-154.10540378705468, 69.04028609225918], [-154.10179606279578, 69.03970807329895]]}, "properties": {"source": "699989", "target": "352555"}}, {"type": "Feature", "geometry": {"type": "LineString", "coordinates": [[-154.10540378705468, 69.04028609225918], [-154.09478180671712, 69.03772142993995]]}, "properties": {"source": "699989", "target": "757320"}}, {"type": "Feature", "geometry": {"type": "LineString", "coordinates": [[-154.10540378705468, 69.04028609225918], [-154.09809351035034, 69.03749682842272]]}, "properties": {"source": "699989", "target": "2409744"}}, {"type": "Feature", "geometry": {"type": "LineString", "coordinates": [[-154.10540378705468, 69.04028609225918], [-154.09449478350913, 69.04050785069964]]}, "properties": {"source": "699989", "target": "6716481"}}, {"type": "Feature", "geometry": {"type": "LineString", "coordinates": [[-154.10540378705468, 69.04028609225918], [-154.09758618168198, 69.03767660908142]]}, "properties": {"source": "699989", "target": "4064706"}}, {"type": "Feature", "geometry": {"type": "LineString", "coordinates": [[-154.09019315978838, 69.03853036750778], [-154.10574313770903, 69.03840059993504]]}, "properties": {"source": "1127209", "target": "249006"}}, {"type": "Feature", "geometry": {"type": "LineString", "coordinates": [[-154.09019315978838, 69.03853036750778], [-154.1001414608682, 69.03788340071273]]}, "properties": {"source": "1127209", "target": "420687"}}, {"type": "Feature", "geometry": {"type": "LineString", "coordinates": [[-154.09338884032124, 69.04341132425995], [-154.09160925376054, 69.04248088683397]]}, "properties": {"source": "2315897", "target": "25311984"}}, {"type": "Feature", "geometry": {"type": "LineString", "coordinates": [[-154.09338884032124, 69.04341132425995], [-154.1054455018311, 69.03740598452708]]}, "properties": {"source": "2315897", "target": "23653375"}}, {"type": "Feature", "geometry": {"type": "LineString", "coordinates": [[-154.09338884032124, 69.04341132425995], [-154.1012822610235, 69.03781811186747]]}, "properties": {"source": "2315897", "target": "23653459"}}, {"type": "Feature", "geometry": {"type": "LineString", "coordinates": [[-154.09338884032124, 69.04341132425995], [-154.10414417066053, 69.04023792224166]]}, "properties": {"source": "2315897", "target": "12381462"}}, {"type": "Feature", "geometry": {"type": "LineString", "coordinates": [[-154.09338884032124, 69.04341132425995], [-154.10615861881416, 69.03948121096087]]}, "properties": {"source": "2315897", "target": "12381351"}}, {"type": "Feature", "geometry": {"type": "LineString", "coordinates": [[-154.09338884032124, 69.04341132425995], [-154.10211304384381, 69.04331242672322]]}, "properties": {"source": "2315897", "target": "12381504"}}, {"type": "Feature", "geometry": {"type": "LineString", "coordinates": [[-154.09338884032124, 69.04341132425995], [-154.0994053308558, 69.04215718410236]]}, "properties": {"source": "2315897", "target": "12381480"}}, {"type": "Feature", "geometry": {"type": "LineString", "coordinates": [[-154.09338884032124, 69.04341132425995], [-154.10411220601506, 69.04345871501957]]}, "properties": {"source": "2315897", "target": "12304925"}}, {"type": "Feature", "geometry": {"type": "LineString", "coordinates": [[-154.09338884032124, 69.04341132425995], [-154.09457449457156, 69.03720305852787]]}, "properties": {"source": "2315897", "target": "26590277"}}, {"type": "Feature", "geometry": {"type": "LineString", "coordinates": [[-154.1001414608682, 69.03788340071273], [-154.0987375481284, 69.03999296907077]]}, "properties": {"source": "420687", "target": "1275698"}}, {"type": "Feature", "geometry": {"type": "LineString", "coordinates": [[-154.1001414608682, 69.03788340071273], [-154.10179606279578, 69.03970807329895]]}, "properties": {"source": "420687", "target": "352555"}}, {"type": "Feature", "geometry": {"type": "LineString", "coordinates": [[-154.10414417066053, 69.04023792224166], [-154.09160925376054, 69.04248088683397]]}, "properties": {"source": "12381462", "target": "25311984"}}, {"type": "Feature", "geometry": {"type": "LineString", "coordinates": [[-154.10414417066053, 69.04023792224166], [-154.1012822610235, 69.03781811186747]]}, "properties": {"source": "12381462", "target": "23653459"}}, {"type": "Feature", "geometry": {"type": "LineString", "coordinates": [[-154.1001414608682, 69.03788340071273], [-154.10586087904204, 69.0413082622135]]}, "properties": {"source": "420687", "target": "103858"}}, {"type": "Feature", "geometry": {"type": "LineString", "coordinates": [[-154.10540378705468, 69.04028609225918], [-154.09665693753863, 69.03885772990824]]}, "properties": {"source": "699989", "target": "8505357"}}, {"type": "Feature", "geometry": {"type": "LineString", "coordinates": [[-154.1028724110181, 69.03751504292916], [-154.09809351035034, 69.03749682842272]]}, "properties": {"source": "5966663", "target": "2409744"}}, {"type": "Feature", "geometry": {"type": "LineString", "coordinates": [[-154.10302865489638, 69.0407407848644], [-154.1028724110181, 69.03751504292916]]}, "properties": {"source": "1498607", "target": "5966663"}}, {"type": "Feature", "geometry": {"type": "LineString", "coordinates": [[-154.10302865489638, 69.0407407848644], [-154.10601886930039, 69.04042393735986]]}, "properties": {"source": "1498607", "target": "6054436"}}, {"type": "Feature", "geometry": {"type": "LineString", "coordinates": [[-154.10302865489638, 69.0407407848644], [-154.0987375481284, 69.03999296907077]]}, "properties": {"source": "1498607", "target": "1275698"}}, {"type": "Feature", "geometry": {"type": "LineString", "coordinates": [[-154.10302865489638, 69.0407407848644], [-154.1070490598848, 69.03863757409212]]}, "properties": {"source": "1498607", "target": "610492"}}, {"type": "Feature", "geometry": {"type": "LineString", "coordinates": [[-154.08937091094103, 69.04292076723979], [-154.10665070672675, 69.03969665520589]]}, "properties": {"source": "1083962", "target": "19371839"}}, {"type": "Feature", "geometry": {"type": "LineString", "coordinates": [[-154.08937091094103, 69.04292076723979], [-154.10213421578055, 69.03757538642503]]}, "properties": {"source": "1083962", "target": "13603927"}}, {"type": "Feature", "geometry": {"type": "LineString", "coordinates": [[-154.08937091094103, 69.04292076723979], [-154.0950564356313, 69.03777121744349]]}, "properties": {"source": "1083962", "target": "153616"}}, {"type": "Feature", "geometry": {"type": "LineString", "coordinates": [[-154.10615861881416, 69.03948121096087], [-154.1012822610235, 69.03781811186747]]}, "properties": {"source": "12381351", "target": "23653459"}}, {"type": "Feature", "geometry": {"type": "LineString", "coordinates": [[-154.10615861881416, 69.03948121096087], [-154.10211304384381, 69.04331242672322]]}, "properties": {"source": "12381351", "target": "12381504"}}, {"type": "Feature", "geometry": {"type": "LineString", "coordinates": [[-154.10615861881416, 69.03948121096087], [-154.0994053308558, 69.04215718410236]]}, "properties": {"source": "12381351", "target": "12381480"}}, {"type": "Feature", "geometry": {"type": "LineString", "coordinates": [[-154.10615861881416, 69.03948121096087], [-154.10411220601506, 69.04345871501957]]}, "properties": {"source": "12381351", "target": "12304925"}}, {"type": "Feature", "geometry": {"type": "LineString", "coordinates": [[-154.10211304384381, 69.04331242672322], [-154.1012822610235, 69.03781811186747]]}, "properties": {"source": "12381504", "target": "23653459"}}, {"type": "Feature", "geometry": {"type": "LineString", "coordinates": [[-154.10211304384381, 69.04331242672322], [-154.0994053308558, 69.04215718410236]]}, "properties": {"source": "12381504", "target": "12381480"}}, {"type": "Feature", "geometry": {"type": "LineString", "coordinates": [[-154.10211304384381, 69.04331242672322], [-154.10411220601506, 69.04345871501957]]}, "properties": {"source": "12381504", "target": "12304925"}}, {"type": "Feature", "geometry": {"type": "LineString", "coordinates": [[-154.10118721752627, 69.03829206319858], [-154.09809351035034, 69.03749682842272]]}, "properties": {"source": "8025846", "target": "2409744"}}, {"type": "Feature", "geometry": {"type": "LineString", "coordinates": [[-154.10118721752627, 69.03829206319858], [-154.09449478350913, 69.04050785069964]]}, "properties": {"source": "8025846", "target": "6716481"}}, {"type": "Feature", "geometry": {"type": "LineString", "coordinates": [[-154.10118721752627, 69.03829206319858], [-154.09833066458864, 69.03789722660784]]}, "properties": {"source": "8025846", "target": "17567003"}}, {"type": "Feature", "geometry": {"type": "LineString", "coordinates": [[-154.10118721752627, 69.03829206319858], [-154.09758618168198, 69.03767660908142]]}, "properties": {"source": "8025846", "target": "4064706"}}, {"type": "Feature", "geometry": {"type": "LineString", "coordinates": [[-154.10118721752627, 69.03829206319858], [-154.08981139756054, 69.03992696885328]]}, "properties": {"source": "8025846", "target": "1593004"}}, {"type": "Feature", "geometry": {"type": "LineString", "coordinates": [[-154.10118721752627, 69.03829206319858], [-154.1011891653093, 69.04195712248378]]}, "properties": {"source": "8025846", "target": "22535477"}}, {"type": "Feature", "geometry": {"type": "LineString", "coordinates": [[-154.107406360146, 69.03813452605485], [-154.1054455018311, 69.03740598452708]]}, "properties": {"source": "27985410", "target": "23653375"}}, {"type": "Feature", "geometry": {"type": "LineString", "coordinates": [[-154.107406360146, 69.03813452605485], [-154.1012822610235, 69.03781811186747]]}, "properties": {"source": "27985410", "target": "23653459"}}, {"type": "Feature", "geometry": {"type": "LineString", "coordinates": [[-154.107406360146, 69.03813452605485], [-154.099857363234, 69.0416182206713]]}, "properties": {"source": "27985410", "target": "23461831"}}, {"type": "Feature", "geometry": {"type": "LineString", "coordinates": [[-154.107406360146, 69.03813452605485], [-154.09131111676493, 69.04157585115814]]}, "properties": {"source": "27985410", "target": "25319044"}}, {"type": "Feature", "geometry": {"type": "LineString", "coordinates": [[-154.107406360146, 69.03813452605485], [-154.09429182236414, 69.04281940152708]]}, "properties": {"source": "27985410", "target": "30046626"}}, {"type": "Feature", "geometry": {"type": "LineString", "coordinates": [[-154.08981139756054, 69.03992696885328], [-154.1028724110181, 69.03751504292916]]}, "properties": {"source": "1593004", "target": "5966663"}}, {"type": "Feature", "geometry": {"type": "LineString", "coordinates": [[-154.08981139756054, 69.03992696885328], [-154.10601886930039, 69.04042393735986]]}, "properties": {"source": "1593004", "target": "6054436"}}, {"type": "Feature", "geometry": {"type": "LineString", "coordinates": [[-154.08981139756054, 69.03992696885328], [-154.09739726165282, 69.03903116826373]]}, "properties": {"source": "1593004", "target": "1756146"}}, {"type": "Feature", "geometry": {"type": "LineString", "coordinates": [[-154.08981139756054, 69.03992696885328], [-154.10179606279578, 69.03970807329895]]}, "properties": {"source": "1593004", "target": "352555"}}, {"type": "Feature", "geometry": {"type": "LineString", "coordinates": [[-154.09424943241328, 69.0386322739214], [-154.10487050172125, 69.04078340941442]]}, "properties": {"source": "11511269", "target": "2793055"}}, {"type": "Feature", "geometry": {"type": "LineString", "coordinates": [[-154.09160925376054, 69.04248088683397], [-154.10411220601506, 69.04345871501957]]}, "properties": {"source": "25311984", "target": "12304925"}}, {"type": "Feature", "geometry": {"type": "LineString", "coordinates": [[-154.09160925376054, 69.04248088683397], [-154.09457449457156, 69.03720305852787]]}, "properties": {"source": "25311984", "target": "26590277"}}, {"type": "Feature", "geometry": {"type": "LineString", "coordinates": [[-154.09160925376054, 69.04248088683397], [-154.09096536470722, 69.0426385978364]]}, "properties": {"source": "25311984", "target": "2356810"}}, {"type": "Feature", "geometry": {"type": "LineString", "coordinates": [[-154.09160925376054, 69.04248088683397], [-154.09728060038665, 69.04351812273126]]}, "properties": {"source": "25311984", "target": "12862304"}}, {"type": "Feature", "geometry": {"type": "LineString", "coordinates": [[-154.0987375481284, 69.03999296907077], [-154.09345194030448, 69.03871505388611]]}, "properties": {"source": "1275698", "target": "15446"}}, {"type": "Feature", "geometry": {"type": "LineString", "coordinates": [[-154.1044961648155, 69.03804464262967], [-154.09424943241328, 69.0386322739214]]}, "properties": {"source": "1055024", "target": "11511269"}}, {"type": "Feature", "geometry": {"type": "LineString", "coordinates": [[-154.1044961648155, 69.03804464262967], [-154.10573452302256, 69.04224509346088]]}, "properties": {"source": "1055024", "target": "1482667"}}, {"type": "Feature", "geometry": {"type": "LineString", "coordinates": [[-154.0914691787025, 69.04180284369232], [-154.10527105154821, 69.04347381455457]]}, "properties": {"source": "6530400", "target": "797093"}}, {"type": "Feature", "geometry": {"type": "LineString", "coordinates": [[-154.0914691787025, 69.04180284369232], [-154.0888269169826, 69.04289002261436]]}, "properties": {"source": "6530400", "target": "663774"}}, {"type": "Feature", "geometry": {"type": "LineString", "coordinates": [[-154.0914691787025, 69.04180284369232], [-154.10047936192257, 69.0410976234727]]}, "properties": {"source": "6530400", "target": "6380292"}}, {"type": "Feature", "geometry": {"type": "LineString", "coordinates": [[-154.0914691787025, 69.04180284369232], [-154.10149048654057, 69.04027421163136]]}, "properties": {"source": "6530400", "target": "7804666"}}, {"type": "Feature", "geometry": {"type": "LineString", "coordinates": [[-154.0914691787025, 69.04180284369232], [-154.10299644522598, 69.04125833370833]]}, "properties": {"source": "6530400", "target": "661226"}}, {"type": "Feature", "geometry": {"type": "LineString", "coordinates": [[-154.0888269169826, 69.04289002261436], [-154.10527105154821, 69.04347381455457]]}, "properties": {"source": "663774", "target": "797093"}}, {"type": "Feature", "geometry": {"type": "LineString", "coordinates": [[-154.0888269169826, 69.04289002261436], [-154.10047936192257, 69.0410976234727]]}, "properties": {"source": "663774", "target": "6380292"}}, {"type": "Feature", "geometry": {"type": "LineString", "coordinates": [[-154.0987375481284, 69.03999296907077], [-154.10586087904204, 69.0413082622135]]}, "properties": {"source": "1275698", "target": "103858"}}, {"type": "Feature", "geometry": {"type": "LineString", "coordinates": [[-154.0914691787025, 69.04180284369232], [-154.1030007681433, 69.03943117425024]]}, "properties": {"source": "6530400", "target": "92852"}}, {"type": "Feature", "geometry": {"type": "LineString", "coordinates": [[-154.09388507737594, 69.04034745039112], [-154.09478180671712, 69.03772142993995]]}, "properties": {"source": "69532", "target": "757320"}}, {"type": "Feature", "geometry": {"type": "LineString", "coordinates": [[-154.09388507737594, 69.04034745039112], [-154.09729213181816, 69.0410466405896]]}, "properties": {"source": "69532", "target": "868495"}}, {"type": "Feature", "geometry": {"type": "LineString", "coordinates": [[-154.10616848467578, 69.04302959619847], [-154.0982070014257, 69.04181844704067]]}, "properties": {"source": "214794", "target": "15430059"}}, {"type": "Feature", "geometry": {"type": "LineString", "coordinates": [[-154.10616848467578, 69.04302959619847], [-154.08937091094103, 69.04292076723979]]}, "properties": {"source": "214794", "target": "1083962"}}, {"type": "Feature", "geometry": {"type": "LineString", "coordinates": [[-154.10616848467578, 69.04302959619847], [-154.10665070672675, 69.03969665520589]]}, "properties": {"source": "214794", "target": "19371839"}}, {"type": "Feature", "geometry": {"type": "LineString", "coordinates": [[-154.10616848467578, 69.04302959619847], [-154.10213421578055, 69.03757538642503]]}, "properties": {"source": "214794", "target": "13603927"}}, {"type": "Feature", "geometry": {"type": "LineString", "coordinates": [[-154.0919364488007, 69.03736030856513], [-154.10302865489638, 69.0407407848644]]}, "properties": {"source": "1060931", "target": "1498607"}}, {"type": "Feature", "geometry": {"type": "LineString", "coordinates": [[-154.0919364488007, 69.03736030856513], [-154.0987375481284, 69.03999296907077]]}, "properties": {"source": "1060931", "target": "1275698"}}, {"type": "Feature", "geometry": {"type": "LineString", "coordinates": [[-154.0919364488007, 69.03736030856513], [-154.10574313770903, 69.03840059993504]]}, "properties": {"source": "1060931", "target": "249006"}}, {"type": "Feature", "geometry": {"type": "LineString", "coordinates": [[-154.0919364488007, 69.03736030856513], [-154.1001414608682, 69.03788340071273]]}, "properties": {"source": "1060931", "target": "420687"}}, {"type": "Feature", "geometry": {"type": "LineString", "coordinates": [[-154.1054455018311, 69.03740598452708], [-154.09160925376054, 69.04248088683397]]}, "properties": {"source": "23653375", "target": "25311984"}}, {"type": "Feature", "geometry": {"type": "LineString", "coordinates": [[-154.1054455018311, 69.03740598452708], [-154.1012822610235, 69.03781811186747]]}, "properties": {"source": "23653375", "target": "23653459"}}, {"type": "Feature", "geometry": {"type": "LineString", "coordinates": [[-154.1054455018311, 69.03740598452708], [-154.10414417066053, 69.04023792224166]]}, "properties": {"source": "23653375", "target": "12381462"}}, {"type": "Feature", "geometry": {"type": "LineString", "coordinates": [[-154.1054455018311, 69.03740598452708], [-154.10615861881416, 69.03948121096087]]}, "properties": {"source": "23653375", "target": "12381351"}}, {"type": "Feature", "geometry": {"type": "LineString", "coordinates": [[-154.1054455018311, 69.03740598452708], [-154.10211304384381, 69.04331242672322]]}, "properties": {"source": "23653375", "target": "12381504"}}, {"type": "Feature", "geometry": {"type": "LineString", "coordinates": [[-154.0919364488007, 69.03736030856513], [-154.10586087904204, 69.0413082622135]]}, "properties": {"source": "1060931", "target": "103858"}}, {"type": "Feature", "geometry": {"type": "LineString", "coordinates": [[-154.09273384815955, 69.04343914479162], [-154.1070490598848, 69.03863757409212]]}, "properties": {"source": "6565409", "target": "610492"}}, {"type": "Feature", "geometry": {"type": "LineString", "coordinates": [[-154.09273384815955, 69.04343914479162], [-154.09478180671712, 69.03772142993995]]}, "properties": {"source": "6565409", "target": "757320"}}, {"type": "Feature", "geometry": {"type": "LineString", "coordinates": [[-154.09273384815955, 69.04343914479162], [-154.09809351035034, 69.03749682842272]]}, "properties": {"source": "6565409", "target": "2409744"}}, {"type": "Feature", "geometry": {"type": "LineString", "coordinates": [[-154.09273384815955, 69.04343914479162], [-154.09449478350913, 69.04050785069964]]}, "properties": {"source": "6565409", "target": "6716481"}}, {"type": "Feature", "geometry": {"type": "LineString", "coordinates": [[-154.09273384815955, 69.04343914479162], [-154.1011891653093, 69.04195712248378]]}, "properties": {"source": "6565409", "target": "22535477"}}, {"type": "Feature", "geometry": {"type": "LineString", "coordinates": [[-154.0919364488007, 69.03736030856513], [-154.10540378705468, 69.04028609225918]]}, "properties": {"source": "1060931", "target": "699989"}}, {"type": "Feature", "geometry": {"type": "LineString", "coordinates": [[-154.09108431267884, 69.03897450464743], [-154.10302865489638, 69.0407407848644]]}, "properties": {"source": "1232153", "target": "1498607"}}, {"type": "Feature", "geometry": {"type": "LineString", "coordinates": [[-154.09108431267884, 69.03897450464743], [-154.0987375481284, 69.03999296907077]]}, "properties": {"source": "1232153", "target": "1275698"}}, {"type": "Feature", "geometry": {"type": "LineString", "coordinates": [[-154.09108431267884, 69.03897450464743], [-154.0929151975455, 69.04009201639951]]}, "properties": {"source": "1232153", "target": "1747053"}}, {"type": "Feature", "geometry": {"type": "LineString", "coordinates": [[-154.09108431267884, 69.03897450464743], [-154.10574313770903, 69.03840059993504]]}, "properties": {"source": "1232153", "target": "249006"}}, {"type": "Feature", "geometry": {"type": "LineString", "coordinates": [[-154.09108431267884, 69.03897450464743], [-154.1001414608682, 69.03788340071273]]}, "properties": {"source": "1232153", "target": "420687"}}, {"type": "Feature", "geometry": {"type": "LineString", "coordinates": [[-154.09108431267884, 69.03897450464743], [-154.10053154294968, 69.0401198238595]]}, "properties": {"source": "1232153", "target": "595777"}}, {"type": "Feature", "geometry": {"type": "LineString", "coordinates": [[-154.09108431267884, 69.03897450464743], [-154.10761996118137, 69.04283934846637]]}, "properties": {"source": "1232153", "target": "595730"}}, {"type": "Feature", "geometry": {"type": "LineString", "coordinates": [[-154.09108431267884, 69.03897450464743], [-154.1011501483449, 69.04206766947391]]}, "properties": {"source": "1232153", "target": "431970"}}, {"type": "Feature", "geometry": {"type": "LineString", "coordinates": [[-154.10781094508445, 69.04116080354012], [-154.10540378705468, 69.04028609225918]]}, "properties": {"source": "1077718", "target": "699989"}}, {"type": "Feature", "geometry": {"type": "LineString", "coordinates": [[-154.10781094508445, 69.04116080354012], [-154.10302865489638, 69.0407407848644]]}, "properties": {"source": "1077718", "target": "1498607"}}, {"type": "Feature", "geometry": {"type": "LineString", "coordinates": [[-154.09449478350913, 69.04050785069964], [-154.1028724110181, 69.03751504292916]]}, "properties": {"source": "6716481", "target": "5966663"}}, {"type": "Feature", "geometry": {"type": "LineString", "coordinates": [[-154.1044961648155, 69.03804464262967], [-154.10487050172125, 69.04078340941442]]}, "properties": {"source": "1055024", "target": "2793055"}}, {"type": "Feature", "geometry": {"type": "LineString", "coordinates": [[-154.1044961648155, 69.03804464262967], [-154.10527105154821, 69.04347381455457]]}, "properties": {"source": "1055024", "target": "797093"}}, {"type": "Feature", "geometry": {"type": "LineString", "coordinates": [[-154.1044961648155, 69.03804464262967], [-154.0914691787025, 69.04180284369232]]}, "properties": {"source": "1055024", "target": "6530400"}}, {"type": "Feature", "geometry": {"type": "LineString", "coordinates": [[-154.1044961648155, 69.03804464262967], [-154.0888269169826, 69.04289002261436]]}, "properties": {"source": "1055024", "target": "663774"}}, {"type": "Feature", "geometry": {"type": "LineString", "coordinates": [[-154.1044961648155, 69.03804464262967], [-154.10047936192257, 69.0410976234727]]}, "properties": {"source": "1055024", "target": "6380292"}}, {"type": "Feature", "geometry": {"type": "LineString", "coordinates": [[-154.0994053308558, 69.04215718410236], [-154.1012822610235, 69.03781811186747]]}, "properties": {"source": "12381480", "target": "23653459"}}, {"type": "Feature", "geometry": {"type": "LineString", "coordinates": [[-154.0950564356313, 69.03777121744349], [-154.09983188973698, 69.03810282634072]]}, "properties": {"source": "153616", "target": "3362565"}}, {"type": "Feature", "geometry": {"type": "LineString", "coordinates": [[-154.0950564356313, 69.03777121744349], [-154.10213421578055, 69.03757538642503]]}, "properties": {"source": "153616", "target": "13603927"}}, {"type": "Feature", "geometry": {"type": "LineString", "coordinates": [[-154.0950564356313, 69.03777121744349], [-154.09834316336844, 69.03943872661512]]}, "properties": {"source": "153616", "target": "13435175"}}, {"type": "Feature", "geometry": {"type": "LineString", "coordinates": [[-154.09758618168198, 69.03767660908142], [-154.1028724110181, 69.03751504292916]]}, "properties": {"source": "4064706", "target": "5966663"}}, {"type": "Feature", "geometry": {"type": "LineString", "coordinates": [[-154.10047936192257, 69.0410976234727], [-154.10527105154821, 69.04347381455457]]}, "properties": {"source": "6380292", "target": "797093"}}, {"type": "Feature", "geometry": {"type": "LineString", "coordinates": [[-154.10047936192257, 69.0410976234727], [-154.10299644522598, 69.04125833370833]]}, "properties": {"source": "6380292", "target": "661226"}}, {"type": "Feature", "geometry": {"type": "LineString", "coordinates": [[-154.09388507737594, 69.04034745039112], [-154.10540378705468, 69.04028609225918]]}, "properties": {"source": "69532", "target": "699989"}}, {"type": "Feature", "geometry": {"type": "LineString", "coordinates": [[-154.09388507737594, 69.04034745039112], [-154.10601886930039, 69.04042393735986]]}, "properties": {"source": "69532", "target": "6054436"}}, {"type": "Feature", "geometry": {"type": "LineString", "coordinates": [[-154.09388507737594, 69.04034745039112], [-154.10118721752627, 69.03829206319858]]}, "properties": {"source": "69532", "target": "8025846"}}, {"type": "Feature", "geometry": {"type": "LineString", "coordinates": [[-154.09349518076615, 69.041703337802], [-154.09019315978838, 69.03853036750778]]}, "properties": {"source": "2011960", "target": "1127209"}}, {"type": "Feature", "geometry": {"type": "LineString", "coordinates": [[-154.09799650484777, 69.0428374544951], [-154.0987375481284, 69.03999296907077]]}, "properties": {"source": "925266", "target": "1275698"}}, {"type": "Feature", "geometry": {"type": "LineString", "coordinates": [[-154.09799650484777, 69.0428374544951], [-154.09561355055797, 69.04132136761595]]}, "properties": {"source": "925266", "target": "1190677"}}, {"type": "Feature", "geometry": {"type": "LineString", "coordinates": [[-154.09799650484777, 69.0428374544951], [-154.09478180671712, 69.03772142993995]]}, "properties": {"source": "925266", "target": "757320"}}, {"type": "Feature", "geometry": {"type": "LineString", "coordinates": [[-154.09799650484777, 69.0428374544951], [-154.09729213181816, 69.0410466405896]]}, "properties": {"source": "925266", "target": "868495"}}, {"type": "Feature", "geometry": {"type": "LineString", "coordinates": [[-154.09799650484777, 69.0428374544951], [-154.10049259132464, 69.03825620086832]]}, "properties": {"source": "925266", "target": "1072200"}}, {"type": "Feature", "geometry": {"type": "LineString", "coordinates": [[-154.09799650484777, 69.0428374544951], [-154.0919364488007, 69.03736030856513]]}, "properties": {"source": "925266", "target": "1060931"}}, {"type": "Feature", "geometry": {"type": "LineString", "coordinates": [[-154.09799650484777, 69.0428374544951], [-154.09108431267884, 69.03897450464743]]}, "properties": {"source": "925266", "target": "1232153"}}, {"type": "Feature", "geometry": {"type": "LineString", "coordinates": [[-154.09799650484777, 69.0428374544951], [-154.10781094508445, 69.04116080354012]]}, "properties": {"source": "925266", "target": "1077718"}}, {"type": "Feature", "geometry": {"type": "LineString", "coordinates": [[-154.09799650484777, 69.0428374544951], [-154.09019315978838, 69.03853036750778]]}, "properties": {"source": "925266", "target": "1127209"}}, {"type": "Feature", "geometry": {"type": "LineString", "coordinates": [[-154.09799650484777, 69.0428374544951], [-154.10169538990655, 69.03822818933872]]}, "properties": {"source": "925266", "target": "126436"}}, {"type": "Feature", "geometry": {"type": "LineString", "coordinates": [[-154.09273384815955, 69.04343914479162], [-154.10540378705468, 69.04028609225918]]}, "properties": {"source": "6565409", "target": "699989"}}, {"type": "Feature", "geometry": {"type": "LineString", "coordinates": [[-154.09273384815955, 69.04343914479162], [-154.1028724110181, 69.03751504292916]]}, "properties": {"source": "6565409", "target": "5966663"}}, {"type": "Feature", "geometry": {"type": "LineString", "coordinates": [[-154.09273384815955, 69.04343914479162], [-154.10601886930039, 69.04042393735986]]}, "properties": {"source": "6565409", "target": "6054436"}}, {"type": "Feature", "geometry": {"type": "LineString", "coordinates": [[-154.09273384815955, 69.04343914479162], [-154.09160925376054, 69.04248088683397]]}, "properties": {"source": "6565409", "target": "25311984"}}, {"type": "Feature", "geometry": {"type": "LineString", "coordinates": [[-154.09799650484777, 69.0428374544951], [-154.10586087904204, 69.0413082622135]]}, "properties": {"source": "925266", "target": "103858"}}, {"type": "Feature", "geometry": {"type": "LineString", "coordinates": [[-154.09729213181816, 69.0410466405896], [-154.10540378705468, 69.04028609225918]]}, "properties": {"source": "868495", "target": "699989"}}, {"type": "Feature", "geometry": {"type": "LineString", "coordinates": [[-154.09729213181816, 69.0410466405896], [-154.1028724110181, 69.03751504292916]]}, "properties": {"source": "868495", "target": "5966663"}}, {"type": "Feature", "geometry": {"type": "LineString", "coordinates": [[-154.09729213181816, 69.0410466405896], [-154.10302865489638, 69.0407407848644]]}, "properties": {"source": "868495", "target": "1498607"}}, {"type": "Feature", "geometry": {"type": "LineString", "coordinates": [[-154.09729213181816, 69.0410466405896], [-154.10601886930039, 69.04042393735986]]}, "properties": {"source": "868495", "target": "6054436"}}, {"type": "Feature", "geometry": {"type": "LineString", "coordinates": [[-154.09729213181816, 69.0410466405896], [-154.1070490598848, 69.03863757409212]]}, "properties": {"source": "868495", "target": "610492"}}, {"type": "Feature", "geometry": {"type": "LineString", "coordinates": [[-154.09729213181816, 69.0410466405896], [-154.09739726165282, 69.03903116826373]]}, "properties": {"source": "868495", "target": "1756146"}}, {"type": "Feature", "geometry": {"type": "LineString", "coordinates": [[-154.1070490598848, 69.03863757409212], [-154.1028724110181, 69.03751504292916]]}, "properties": {"source": "610492", "target": "5966663"}}, {"type": "Feature", "geometry": {"type": "LineString", "coordinates": [[-154.1070490598848, 69.03863757409212], [-154.09739726165282, 69.03903116826373]]}, "properties": {"source": "610492", "target": "1756146"}}, {"type": "Feature", "geometry": {"type": "LineString", "coordinates": [[-154.1070490598848, 69.03863757409212], [-154.09478180671712, 69.03772142993995]]}, "properties": {"source": "610492", "target": "757320"}}, {"type": "Feature", "geometry": {"type": "LineString", "coordinates": [[-154.1070490598848, 69.03863757409212], [-154.09809351035034, 69.03749682842272]]}, "properties": {"source": "610492", "target": "2409744"}}, {"type": "Feature", "geometry": {"type": "LineString", "coordinates": [[-154.1070490598848, 69.03863757409212], [-154.09449478350913, 69.04050785069964]]}, "properties": {"source": "610492", "target": "6716481"}}, {"type": "Feature", "geometry": {"type": "LineString", "coordinates": [[-154.1070490598848, 69.03863757409212], [-154.09833066458864, 69.03789722660784]]}, "properties": {"source": "610492", "target": "17567003"}}, {"type": "Feature", "geometry": {"type": "LineString", "coordinates": [[-154.1070490598848, 69.03863757409212], [-154.09758618168198, 69.03767660908142]]}, "properties": {"source": "610492", "target": "4064706"}}, {"type": "Feature", "geometry": {"type": "LineString", "coordinates": [[-154.1070490598848, 69.03863757409212], [-154.09596452411867, 69.03720678121243]]}, "properties": {"source": "610492", "target": "6048136"}}, {"type": "Feature", "geometry": {"type": "LineString", "coordinates": [[-154.10487050172125, 69.04078340941442], [-154.1028724110181, 69.03751504292916]]}, "properties": {"source": "2793055", "target": "5966663"}}, {"type": "Feature", "geometry": {"type": "LineString", "coordinates": [[-154.10487050172125, 69.04078340941442], [-154.09809351035034, 69.03749682842272]]}, "properties": {"source": "2793055", "target": "2409744"}}, {"type": "Feature", "geometry": {"type": "LineString", "coordinates": [[-154.099857363234, 69.0416182206713], [-154.1012822610235, 69.03781811186747]]}, "properties": {"source": "23461831", "target": "23653459"}}, {"type": "Feature", "geometry": {"type": "LineString", "coordinates": [[-154.09096536470722, 69.0426385978364], [-154.09728060038665, 69.04351812273126]]}, "properties": {"source": "2356810", "target": "12862304"}}, {"type": "Feature", "geometry": {"type": "LineString", "coordinates": [[-154.09131111676493, 69.04157585115814], [-154.09429182236414, 69.04281940152708]]}, "properties": {"source": "25319044", "target": "30046626"}}, {"type": "Feature", "geometry": {"type": "LineString", "coordinates": [[-154.10057647630816, 69.04054372504638], [-154.10527105154821, 69.04347381455457]]}, "properties": {"source": "1995094", "target": "797093"}}, {"type": "Feature", "geometry": {"type": "LineString", "coordinates": [[-154.09579673936244, 69.04039380133727], [-154.09457449457156, 69.03720305852787]]}, "properties": {"source": "24611589", "target": "26590277"}}, {"type": "Feature", "geometry": {"type": "LineString", "coordinates": [[-154.09864248164422, 69.03841751843228], [-154.10527105154821, 69.04347381455457]]}, "properties": {"source": "1312654", "target": "797093"}}, {"type": "Feature", "geometry": {"type": "LineString", "coordinates": [[-154.09349518076615, 69.041703337802], [-154.0987375481284, 69.03999296907077]]}, "properties": {"source": "2011960", "target": "1275698"}}, {"type": "Feature", "geometry": {"type": "LineString", "coordinates": [[-154.09349518076615, 69.041703337802], [-154.09739726165282, 69.03903116826373]]}, "properties": {"source": "2011960", "target": "1756146"}}, {"type": "Feature", "geometry": {"type": "LineString", "coordinates": [[-154.09349518076615, 69.041703337802], [-154.0929151975455, 69.04009201639951]]}, "properties": {"source": "2011960", "target": "1747053"}}, {"type": "Feature", "geometry": {"type": "LineString", "coordinates": [[-154.09349518076615, 69.041703337802], [-154.09561355055797, 69.04132136761595]]}, "properties": {"source": "2011960", "target": "1190677"}}, {"type": "Feature", "geometry": {"type": "LineString", "coordinates": [[-154.09349518076615, 69.041703337802], [-154.10049259132464, 69.03825620086832]]}, "properties": {"source": "2011960", "target": "1072200"}}, {"type": "Feature", "geometry": {"type": "LineString", "coordinates": [[-154.09349518076615, 69.041703337802], [-154.10574313770903, 69.03840059993504]]}, "properties": {"source": "2011960", "target": "249006"}}, {"type": "Feature", "geometry": {"type": "LineString", "coordinates": [[-154.09349518076615, 69.041703337802], [-154.0919364488007, 69.03736030856513]]}, "properties": {"source": "2011960", "target": "1060931"}}, {"type": "Feature", "geometry": {"type": "LineString", "coordinates": [[-154.09349518076615, 69.041703337802], [-154.09108431267884, 69.03897450464743]]}, "properties": {"source": "2011960", "target": "1232153"}}, {"type": "Feature", "geometry": {"type": "LineString", "coordinates": [[-154.09349518076615, 69.041703337802], [-154.10781094508445, 69.04116080354012]]}, "properties": {"source": "2011960", "target": "1077718"}}, {"type": "Feature", "geometry": {"type": "LineString", "coordinates": [[-154.09349518076615, 69.041703337802], [-154.10586087904204, 69.0413082622135]]}, "properties": {"source": "2011960", "target": "103858"}}, {"type": "Feature", "geometry": {"type": "LineString", "coordinates": [[-154.0888269169826, 69.04289002261436], [-154.10149048654057, 69.04027421163136]]}, "properties": {"source": "663774", "target": "7804666"}}, {"type": "Feature", "geometry": {"type": "LineString", "coordinates": [[-154.0888269169826, 69.04289002261436], [-154.10299644522598, 69.04125833370833]]}, "properties": {"source": "663774", "target": "661226"}}, {"type": "Feature", "geometry": {"type": "LineString", "coordinates": [[-154.09833066458864, 69.03789722660784], [-154.1028724110181, 69.03751504292916]]}, "properties": {"source": "17567003", "target": "5966663"}}, {"type": "Feature", "geometry": {"type": "LineString", "coordinates": [[-154.09833066458864, 69.03789722660784], [-154.09739726165282, 69.03903116826373]]}, "properties": {"source": "17567003", "target": "1756146"}}, {"type": "Feature", "geometry": {"type": "LineString", "coordinates": [[-154.10213421578055, 69.03757538642503], [-154.09983188973698, 69.03810282634072]]}, "properties": {"source": "13603927", "target": "3362565"}}, {"type": "Feature", "geometry": {"type": "LineString", "coordinates": [[-154.10213421578055, 69.03757538642503], [-154.10665070672675, 69.03969665520589]]}, "properties": {"source": "13603927", "target": "19371839"}}, {"type": "Feature", "geometry": {"type": "LineString", "coordinates": [[-154.10169538990655, 69.03822818933872], [-154.10574313770903, 69.03840059993504]]}, "properties": {"source": "126436", "target": "249006"}}, {"type": "Feature", "geometry": {"type": "LineString", "coordinates": [[-154.10053154294968, 69.0401198238595], [-154.10761996118137, 69.04283934846637]]}, "properties": {"source": "595777", "target": "595730"}}, {"type": "Feature", "geometry": {"type": "LineString", "coordinates": [[-154.10053154294968, 69.0401198238595], [-154.1011501483449, 69.04206766947391]]}, "properties": {"source": "595777", "target": "431970"}}, {"type": "Feature", "geometry": {"type": "LineString", "coordinates": [[-154.10053154294968, 69.0401198238595], [-154.09084228929777, 69.03892194584546]]}, "properties": {"source": "595777", "target": "733324"}}, {"type": "Feature", "geometry": {"type": "LineString", "coordinates": [[-154.10761996118137, 69.04283934846637], [-154.1011501483449, 69.04206766947391]]}, "properties": {"source": "595730", "target": "431970"}}, {"type": "Feature", "geometry": {"type": "LineString", "coordinates": [[-154.10761996118137, 69.04283934846637], [-154.09084228929777, 69.03892194584546]]}, "properties": {"source": "595730", "target": "733324"}}, {"type": "Feature", "geometry": {"type": "LineString", "coordinates": [[-154.10149048654057, 69.04027421163136], [-154.10527105154821, 69.04347381455457]]}, "properties": {"source": "7804666", "target": "797093"}}, {"type": "Feature", "geometry": {"type": "LineString", "coordinates": [[-154.10149048654057, 69.04027421163136], [-154.10047936192257, 69.0410976234727]]}, "properties": {"source": "7804666", "target": "6380292"}}, {"type": "Feature", "geometry": {"type": "LineString", "coordinates": [[-154.0895355384927, 69.04339793201316], [-154.10487050172125, 69.04078340941442]]}, "properties": {"source": "3290034", "target": "2793055"}}, {"type": "Feature", "geometry": {"type": "LineString", "coordinates": [[-154.0895355384927, 69.04339793201316], [-154.09983188973698, 69.03810282634072]]}, "properties": {"source": "3290034", "target": "3362565"}}, {"type": "Feature", "geometry": {"type": "LineString", "coordinates": [[-154.0929151975455, 69.04009201639951], [-154.1026551931216, 69.04299002423221]]}, "properties": {"source": "1747053", "target": "1228822"}}, {"type": "Feature", "geometry": {"type": "LineString", "coordinates": [[-154.09561355055797, 69.04132136761595], [-154.10540378705468, 69.04028609225918]]}, "properties": {"source": "1190677", "target": "699989"}}, {"type": "Feature", "geometry": {"type": "LineString", "coordinates": [[-154.09561355055797, 69.04132136761595], [-154.10302865489638, 69.0407407848644]]}, "properties": {"source": "1190677", "target": "1498607"}}, {"type": "Feature", "geometry": {"type": "LineString", "coordinates": [[-154.09561355055797, 69.04132136761595], [-154.0987375481284, 69.03999296907077]]}, "properties": {"source": "1190677", "target": "1275698"}}, {"type": "Feature", "geometry": {"type": "LineString", "coordinates": [[-154.09561355055797, 69.04132136761595], [-154.09739726165282, 69.03903116826373]]}, "properties": {"source": "1190677", "target": "1756146"}}, {"type": "Feature", "geometry": {"type": "LineString", "coordinates": [[-154.09561355055797, 69.04132136761595], [-154.10574313770903, 69.03840059993504]]}, "properties": {"source": "1190677", "target": "249006"}}, {"type": "Feature", "geometry": {"type": "LineString", "coordinates": [[-154.09561355055797, 69.04132136761595], [-154.0919364488007, 69.03736030856513]]}, "properties": {"source": "1190677", "target": "1060931"}}, {"type": "Feature", "geometry": {"type": "LineString", "coordinates": [[-154.09561355055797, 69.04132136761595], [-154.1001414608682, 69.03788340071273]]}, "properties": {"source": "1190677", "target": "420687"}}, {"type": "Feature", "geometry": {"type": "LineString", "coordinates": [[-154.10179606279578, 69.03970807329895], [-154.1070490598848, 69.03863757409212]]}, "properties": {"source": "352555", "target": "610492"}}, {"type": "Feature", "geometry": {"type": "LineString", "coordinates": [[-154.10179606279578, 69.03970807329895], [-154.09739726165282, 69.03903116826373]]}, "properties": {"source": "352555", "target": "1756146"}}, {"type": "Feature", "geometry": {"type": "LineString", "coordinates": [[-154.10179606279578, 69.03970807329895], [-154.09478180671712, 69.03772142993995]]}, "properties": {"source": "352555", "target": "757320"}}, {"type": "Feature", "geometry": {"type": "LineString", "coordinates": [[-154.10179606279578, 69.03970807329895], [-154.09809351035034, 69.03749682842272]]}, "properties": {"source": "352555", "target": "2409744"}}, {"type": "Feature", "geometry": {"type": "LineString", "coordinates": [[-154.10179606279578, 69.03970807329895], [-154.09449478350913, 69.04050785069964]]}, "properties": {"source": "352555", "target": "6716481"}}, {"type": "Feature", "geometry": {"type": "LineString", "coordinates": [[-154.10179606279578, 69.03970807329895], [-154.09833066458864, 69.03789722660784]]}, "properties": {"source": "352555", "target": "17567003"}}, {"type": "Feature", "geometry": {"type": "LineString", "coordinates": [[-154.10179606279578, 69.03970807329895], [-154.09758618168198, 69.03767660908142]]}, "properties": {"source": "352555", "target": "4064706"}}, {"type": "Feature", "geometry": {"type": "LineString", "coordinates": [[-154.09561355055797, 69.04132136761595], [-154.10586087904204, 69.0413082622135]]}, "properties": {"source": "1190677", "target": "103858"}}, {"type": "Feature", "geometry": {"type": "LineString", "coordinates": [[-154.10487050172125, 69.04078340941442], [-154.09983188973698, 69.03810282634072]]}, "properties": {"source": "2793055", "target": "3362565"}}, {"type": "Feature", "geometry": {"type": "LineString", "coordinates": [[-154.10487050172125, 69.04078340941442], [-154.10665070672675, 69.03969665520589]]}, "properties": {"source": "2793055", "target": "19371839"}}, {"type": "Feature", "geometry": {"type": "LineString", "coordinates": [[-154.10487050172125, 69.04078340941442], [-154.09834316336844, 69.03943872661512]]}, "properties": {"source": "2793055", "target": "13435175"}}, {"type": "Feature", "geometry": {"type": "LineString", "coordinates": [[-154.10487050172125, 69.04078340941442], [-154.10491012416531, 69.04087258638825]]}, "properties": {"source": "2793055", "target": "14059022"}}, {"type": "Feature", "geometry": {"type": "LineString", "coordinates": [[-154.10487050172125, 69.04078340941442], [-154.10362513573824, 69.03807049804828]]}, "properties": {"source": "2793055", "target": "195534"}}, {"type": "Feature", "geometry": {"type": "LineString", "coordinates": [[-154.10487050172125, 69.04078340941442], [-154.10683096004772, 69.03965750755773]]}, "properties": {"source": "2793055", "target": "25241379"}}, {"type": "Feature", "geometry": {"type": "LineString", "coordinates": [[-154.09739726165282, 69.03903116826373], [-154.1028724110181, 69.03751504292916]]}, "properties": {"source": "1756146", "target": "5966663"}}, {"type": "Feature", "geometry": {"type": "LineString", "coordinates": [[-154.09739726165282, 69.03903116826373], [-154.09345194030448, 69.03871505388611]]}, "properties": {"source": "1756146", "target": "15446"}}, {"type": "Feature", "geometry": {"type": "LineString", "coordinates": [[-154.0929151975455, 69.04009201639951], [-154.0987375481284, 69.03999296907077]]}, "properties": {"source": "1747053", "target": "1275698"}}, {"type": "Feature", "geometry": {"type": "LineString", "coordinates": [[-154.0929151975455, 69.04009201639951], [-154.09739726165282, 69.03903116826373]]}, "properties": {"source": "1747053", "target": "1756146"}}, {"type": "Feature", "geometry": {"type": "LineString", "coordinates": [[-154.0929151975455, 69.04009201639951], [-154.09561355055797, 69.04132136761595]]}, "properties": {"source": "1747053", "target": "1190677"}}, {"type": "Feature", "geometry": {"type": "LineString", "coordinates": [[-154.0929151975455, 69.04009201639951], [-154.10574313770903, 69.03840059993504]]}, "properties": {"source": "1747053", "target": "249006"}}, {"type": "Feature", "geometry": {"type": "LineString", "coordinates": [[-154.0929151975455, 69.04009201639951], [-154.0919364488007, 69.03736030856513]]}, "properties": {"source": "1747053", "target": "1060931"}}, {"type": "Feature", "geometry": {"type": "LineString", "coordinates": [[-154.0929151975455, 69.04009201639951], [-154.09019315978838, 69.03853036750778]]}, "properties": {"source": "1747053", "target": "1127209"}}, {"type": "Feature", "geometry": {"type": "LineString", "coordinates": [[-154.0929151975455, 69.04009201639951], [-154.09345194030448, 69.03871505388611]]}, "properties": {"source": "1747053", "target": "15446"}}, {"type": "Feature", "geometry": {"type": "LineString", "coordinates": [[-154.0929151975455, 69.04009201639951], [-154.10586087904204, 69.0413082622135]]}, "properties": {"source": "1747053", "target": "103858"}}, {"type": "Feature", "geometry": {"type": "LineString", "coordinates": [[-154.10049259132464, 69.03825620086832], [-154.10574313770903, 69.03840059993504]]}, "properties": {"source": "1072200", "target": "249006"}}, {"type": "Feature", "geometry": {"type": "LineString", "coordinates": [[-154.10049259132464, 69.03825620086832], [-154.0919364488007, 69.03736030856513]]}, "properties": {"source": "1072200", "target": "1060931"}}, {"type": "Feature", "geometry": {"type": "LineString", "coordinates": [[-154.10049259132464, 69.03825620086832], [-154.1001414608682, 69.03788340071273]]}, "properties": {"source": "1072200", "target": "420687"}}, {"type": "Feature", "geometry": {"type": "LineString", "coordinates": [[-154.10574313770903, 69.03840059993504], [-154.0987375481284, 69.03999296907077]]}, "properties": {"source": "249006", "target": "1275698"}}, {"type": "Feature", "geometry": {"type": "LineString", "coordinates": [[-154.09688056380392, 69.04127998862802], [-154.08937091094103, 69.04292076723979]]}, "properties": {"source": "24271263", "target": "1083962"}}, {"type": "Feature", "geometry": {"type": "LineString", "coordinates": [[-154.09688056380392, 69.04127998862802], [-154.10665070672675, 69.03969665520589]]}, "properties": {"source": "24271263", "target": "19371839"}}, {"type": "Feature", "geometry": {"type": "LineString", "coordinates": [[-154.09688056380392, 69.04127998862802], [-154.10213421578055, 69.03757538642503]]}, "properties": {"source": "24271263", "target": "13603927"}}, {"type": "Feature", "geometry": {"type": "LineString", "coordinates": [[-154.09688056380392, 69.04127998862802], [-154.0950564356313, 69.03777121744349]]}, "properties": {"source": "24271263", "target": "153616"}}, {"type": "Feature", "geometry": {"type": "LineString", "coordinates": [[-154.09688056380392, 69.04127998862802], [-154.10616848467578, 69.04302959619847]]}, "properties": {"source": "24271263", "target": "214794"}}, {"type": "Feature", "geometry": {"type": "LineString", "coordinates": [[-154.09688056380392, 69.04127998862802], [-154.09834316336844, 69.03943872661512]]}, "properties": {"source": "24271263", "target": "13435175"}}, {"type": "Feature", "geometry": {"type": "LineString", "coordinates": [[-154.09688056380392, 69.04127998862802], [-154.0895355384927, 69.04339793201316]]}, "properties": {"source": "24271263", "target": "3290034"}}, {"type": "Feature", "geometry": {"type": "LineString", "coordinates": [[-154.09688056380392, 69.04127998862802], [-154.10362513573824, 69.03807049804828]]}, "properties": {"source": "24271263", "target": "195534"}}, {"type": "Feature", "geometry": {"type": "LineString", "coordinates": [[-154.09688056380392, 69.04127998862802], [-154.10111840591094, 69.04297159599889]]}, "properties": {"source": "24271263", "target": "15721399"}}, {"type": "Feature", "geometry": {"type": "LineString", "coordinates": [[-154.09688056380392, 69.04127998862802], [-154.10545174308453, 69.0408498362776]]}, "properties": {"source": "24271263", "target": "28440726"}}, {"type": "Feature", "geometry": {"type": "LineString", "coordinates": [[-154.10049259132464, 69.03825620086832], [-154.10586087904204, 69.0413082622135]]}, "properties": {"source": "1072200", "target": "103858"}}, {"type": "Feature", "geometry": {"type": "LineString", "coordinates": [[-154.10574313770903, 69.03840059993504], [-154.10586087904204, 69.0413082622135]]}, "properties": {"source": "249006", "target": "103858"}}]}