{"type": "FeatureCollection", "features": [{"type": "Feature", "geometry": {"type": "LineString", "coordinates": [[96.6219388703168, 69.23110644026144], [96.62219478637246, 69.22981981925406]]}, "properties": {"source": "22798624", "target": "21108603"}}, {"type": "Feature", "geometry": {"type": "LineString", "coordinates": [[96.6219388703168, 69.23110644026144], [96.6256441266064, 69.23037789979864]]}, "properties": {"source": "22798624", "target": "20541004"}}, {"type": "Feature", "geometry": {"type": "LineString", "coordinates": [[96.6219388703168, 69.23110644026144], [96.6263184775832, 69.23133371566419]]}, "properties": {"source": "22798624", "target": "24423168"}}, {"type": "Feature", "geometry": {"type": "LineString", "coordinates": [[96.6219388703168, 69.23110644026144], [96.62243928031143, 69.23019027343881]]}, "properties": {"source": "22798624", "target": "17571364"}}, {"type": "Feature", "geometry": {"type": "LineString", "coordinates": [[96.6219388703168, 69.23110644026144], [96.62254101634369, 69.22972123191107]]}, "properties": {"source": "22798624", "target": "28667884"}}, {"type": "Feature", "geometry": {"type": "LineString", "coordinates": [[96.6219388703168, 69.23110644026144], [96.6249529536139, 69.22999804214157]]}, "properties": {"source": "22798624", "target": "17345212"}}, {"type": "Feature", "geometry": {"type": "LineString", "coordinates": [[96.62259658714936, 69.22991494438847], [96.62219478637246, 69.22981981925406]]}, "properties": {"source": "7745542", "target": "21108603"}}, {"type": "Feature", "geometry": {"type": "LineString", "coordinates": [[96.62515968911953, 69.2312289348138], [96.62634018814316, 69.23062601564874]]}, "properties": {"source": "18953626", "target": "2330529"}}, {"type": "Feature", "geometry": {"type": "LineString", "coordinates": [[96.62606012982258, 69.23042511546925], [96.62201294767965, 69.23052308094174]]}, "properties": {"source": "18742222", "target": "21699671"}}, {"type": "Feature", "geometry": {"type": "LineString", "coordinates": [[96.62606012982258, 69.23042511546925], [96.62630809790221, 69.23148834372392]]}, "properties": {"source": "18742222", "target": "21250355"}}, {"type": "Feature", "geometry": {"type": "LineString", "coordinates": [[96.62606012982258, 69.23042511546925], [96.62534888493508, 69.22981993526858]]}, "properties": {"source": "18742222", "target": "21280344"}}, {"type": "Feature", "geometry": {"type": "LineString", "coordinates": [[96.62606012982258, 69.23042511546925], [96.62576878450875, 69.2303829071987]]}, "properties": {"source": "18742222", "target": "22942194"}}, {"type": "Feature", "geometry": {"type": "LineString", "coordinates": [[96.62606012982258, 69.23042511546925], [96.62219478637246, 69.22981981925406]]}, "properties": {"source": "18742222", "target": "21108603"}}, {"type": "Feature", "geometry": {"type": "LineString", "coordinates": [[96.62606012982258, 69.23042511546925], [96.6256441266064, 69.23037789979864]]}, "properties": {"source": "18742222", "target": "20541004"}}, {"type": "Feature", "geometry": {"type": "LineString", "coordinates": [[96.6219030947355, 69.23023283004727], [96.62634018814316, 69.23062601564874]]}, "properties": {"source": "23356238", "target": "2330529"}}, {"type": "Feature", "geometry": {"type": "LineString", "coordinates": [[96.6219030947355, 69.23023283004727], [96.62515968911953, 69.2312289348138]]}, "properties": {"source": "23356238", "target": "18953626"}}, {"type": "Feature", "geometry": {"type": "LineString", "coordinates": [[96.6219030947355, 69.23023283004727], [96.6216049390921, 69.23076515253265]]}, "properties": {"source": "23356238", "target": "20924009"}}, {"type": "Feature", "geometry": {"type": "LineString", "coordinates": [[96.6219030947355, 69.23023283004727], [96.62243928031143, 69.23019027343881]]}, "properties": {"source": "23356238", "target": "17571364"}}, {"type": "Feature", "geometry": {"type": "LineString", "coordinates": [[96.6219030947355, 69.23023283004727], [96.62132160033491, 69.23061168963352]]}, "properties": {"source": "23356238", "target": "979544"}}, {"type": "Feature", "geometry": {"type": "LineString", "coordinates": [[96.6219030947355, 69.23023283004727], [96.62248562025661, 69.23153987729353]]}, "properties": {"source": "23356238", "target": "25527263"}}, {"type": "Feature", "geometry": {"type": "LineString", "coordinates": [[96.6219030947355, 69.23023283004727], [96.62254101634369, 69.22972123191107]]}, "properties": {"source": "23356238", "target": "28667884"}}, {"type": "Feature", "geometry": {"type": "LineString", "coordinates": [[96.6263184775832, 69.23133371566419], [96.62219478637246, 69.22981981925406]]}, "properties": {"source": "24423168", "target": "21108603"}}, {"type": "Feature", "geometry": {"type": "LineString", "coordinates": [[96.6263184775832, 69.23133371566419], [96.62254101634369, 69.22972123191107]]}, "properties": {"source": "24423168", "target": "28667884"}}, {"type": "Feature", "geometry": {"type": "LineString", "coordinates": [[96.6219030947355, 69.23023283004727], [96.62201294767965, 69.23052308094174]]}, "properties": {"source": "23356238", "target": "21699671"}}, {"type": "Feature", "geometry": {"type": "LineString", "coordinates": [[96.6219030947355, 69.23023283004727], [96.62534888493508, 69.22981993526858]]}, "properties": {"source": "23356238", "target": "21280344"}}, {"type": "Feature", "geometry": {"type": "LineString", "coordinates": [[96.6219030947355, 69.23023283004727], [96.62219478637246, 69.22981981925406]]}, "properties": {"source": "23356238", "target": "21108603"}}, {"type": "Feature", "geometry": {"type": "LineString", "coordinates": [[96.6219030947355, 69.23023283004727], [96.6256441266064, 69.23037789979864]]}, "properties": {"source": "23356238", "target": "20541004"}}, {"type": "Feature", "geometry": {"type": "LineString", "coordinates": [[96.6219030947355, 69.23023283004727], [96.6263184775832, 69.23133371566419]]}, "properties": {"source": "23356238", "target": "24423168"}}, {"type": "Feature", "geometry": {"type": "LineString", "coordinates": [[96.6219030947355, 69.23023283004727], [96.6219388703168, 69.23110644026144]]}, "properties": {"source": "23356238", "target": "22798624"}}, {"type": "Feature", "geometry": {"type": "LineString", "coordinates": [[96.6219030947355, 69.23023283004727], [96.62259658714936, 69.22991494438847]]}, "properties": {"source": "23356238", "target": "7745542"}}, {"type": "Feature", "geometry": {"type": "LineString", "coordinates": [[96.62256894813356, 69.23103042004965], [96.62219478637246, 69.22981981925406]]}, "properties": {"source": "160010", "target": "21108603"}}, {"type": "Feature", "geometry": {"type": "LineString", "coordinates": [[96.62256894813356, 69.23103042004965], [96.6219030947355, 69.23023283004727]]}, "properties": {"source": "160010", "target": "23356238"}}, {"type": "Feature", "geometry": {"type": "LineString", "coordinates": [[96.62177480121193, 69.23066718141268], [96.62201294767965, 69.23052308094174]]}, "properties": {"source": "20613504", "target": "21699671"}}, {"type": "Feature", "geometry": {"type": "LineString", "coordinates": [[96.62177480121193, 69.23066718141268], [96.62630809790221, 69.23148834372392]]}, "properties": {"source": "20613504", "target": "21250355"}}, {"type": "Feature", "geometry": {"type": "LineString", "coordinates": [[96.62177480121193, 69.23066718141268], [96.62534888493508, 69.22981993526858]]}, "properties": {"source": "20613504", "target": "21280344"}}, {"type": "Feature", "geometry": {"type": "LineString", "coordinates": [[96.62177480121193, 69.23066718141268], [96.62219478637246, 69.22981981925406]]}, "properties": {"source": "20613504", "target": "21108603"}}, {"type": "Feature", "geometry": {"type": "LineString", "coordinates": [[96.62177480121193, 69.23066718141268], [96.6256441266064, 69.23037789979864]]}, "properties": {"source": "20613504", "target": "20541004"}}, {"type": "Feature", "geometry": {"type": "LineString", "coordinates": [[96.62677841500005, 69.23081125174537], [96.62201294767965, 69.23052308094174]]}, "properties": {"source": "19138924", "target": "21699671"}}, {"type": "Feature", "geometry": {"type": "LineString", "coordinates": [[96.62677841500005, 69.23081125174537], [96.62219478637246, 69.22981981925406]]}, "properties": {"source": "19138924", "target": "21108603"}}, {"type": "Feature", "geometry": {"type": "LineString", "coordinates": [[96.62630809790221, 69.23148834372392], [96.62534888493508, 69.22981993526858]]}, "properties": {"source": "21250355", "target": "21280344"}}, {"type": "Feature", "geometry": {"type": "LineString", "coordinates": [[96.62630809790221, 69.23148834372392], [96.62576878450875, 69.2303829071987]]}, "properties": {"source": "21250355", "target": "22942194"}}, {"type": "Feature", "geometry": {"type": "LineString", "coordinates": [[96.62630809790221, 69.23148834372392], [96.62219478637246, 69.22981981925406]]}, "properties": {"source": "21250355", "target": "21108603"}}, {"type": "Feature", "geometry": {"type": "LineString", "coordinates": [[96.62630809790221, 69.23148834372392], [96.6219030947355, 69.23023283004727]]}, "properties": {"source": "21250355", "target": "23356238"}}, {"type": "Feature", "geometry": {"type": "LineString", "coordinates": [[96.62630809790221, 69.23148834372392], [96.6256441266064, 69.23037789979864]]}, "properties": {"source": "21250355", "target": "20541004"}}, {"type": "Feature", "geometry": {"type": "LineString", "coordinates": [[96.62630809790221, 69.23148834372392], [96.6263184775832, 69.23133371566419]]}, "properties": {"source": "21250355", "target": "24423168"}}, {"type": "Feature", "geometry": {"type": "LineString", "coordinates": [[96.62630809790221, 69.23148834372392], [96.6219388703168, 69.23110644026144]]}, "properties": {"source": "21250355", "target": "22798624"}}, {"type": "Feature", "geometry": {"type": "LineString", "coordinates": [[96.62576878450875, 69.2303829071987], [96.62634018814316, 69.23062601564874]]}, "properties": {"source": "22942194", "target": "2330529"}}, {"type": "Feature", "geometry": {"type": "LineString", "coordinates": [[96.62576878450875, 69.2303829071987], [96.62515968911953, 69.2312289348138]]}, "properties": {"source": "22942194", "target": "18953626"}}, {"type": "Feature", "geometry": {"type": "LineString", "coordinates": [[96.62576878450875, 69.2303829071987], [96.6216049390921, 69.23076515253265]]}, "properties": {"source": "22942194", "target": "20924009"}}, {"type": "Feature", "geometry": {"type": "LineString", "coordinates": [[96.62576878450875, 69.2303829071987], [96.62243928031143, 69.23019027343881]]}, "properties": {"source": "22942194", "target": "17571364"}}, {"type": "Feature", "geometry": {"type": "LineString", "coordinates": [[96.62576878450875, 69.2303829071987], [96.6233493313706, 69.22998676614503]]}, "properties": {"source": "22942194", "target": "22522036"}}, {"type": "Feature", "geometry": {"type": "LineString", "coordinates": [[96.62576878450875, 69.2303829071987], [96.62132160033491, 69.23061168963352]]}, "properties": {"source": "22942194", "target": "979544"}}, {"type": "Feature", "geometry": {"type": "LineString", "coordinates": [[96.62576878450875, 69.2303829071987], [96.62248562025661, 69.23153987729353]]}, "properties": {"source": "22942194", "target": "25527263"}}, {"type": "Feature", "geometry": {"type": "LineString", "coordinates": [[96.62576878450875, 69.2303829071987], [96.62254101634369, 69.22972123191107]]}, "properties": {"source": "22942194", "target": "28667884"}}, {"type": "Feature", "geometry": {"type": "LineString", "coordinates": [[96.62219478637246, 69.22981981925406], [96.6256441266064, 69.23037789979864]]}, "properties": {"source": "21108603", "target": "20541004"}}, {"type": "Feature", "geometry": {"type": "LineString", "coordinates": [[96.6268022415536, 69.23063976872331], [96.62201294767965, 69.23052308094174]]}, "properties": {"source": "8448586", "target": "21699671"}}, {"type": "Feature", "geometry": {"type": "LineString", "coordinates": [[96.6268022415536, 69.23063976872331], [96.62219478637246, 69.22981981925406]]}, "properties": {"source": "8448586", "target": "21108603"}}, {"type": "Feature", "geometry": {"type": "LineString", "coordinates": [[96.6268022415536, 69.23063976872331], [96.62259658714936, 69.22991494438847]]}, "properties": {"source": "8448586", "target": "7745542"}}, {"type": "Feature", "geometry": {"type": "LineString", "coordinates": [[96.6268022415536, 69.23063976872331], [96.62634018814316, 69.23062601564874]]}, "properties": {"source": "8448586", "target": "2330529"}}, {"type": "Feature", "geometry": {"type": "LineString", "coordinates": [[96.62256894813356, 69.23103042004965], [96.62201294767965, 69.23052308094174]]}, "properties": {"source": "160010", "target": "21699671"}}, {"type": "Feature", "geometry": {"type": "LineString", "coordinates": [[96.62256894813356, 69.23103042004965], [96.62534888493508, 69.22981993526858]]}, "properties": {"source": "160010", "target": "21280344"}}, {"type": "Feature", "geometry": {"type": "LineString", "coordinates": [[96.62256894813356, 69.23103042004965], [96.62576878450875, 69.2303829071987]]}, "properties": {"source": "160010", "target": "22942194"}}, {"type": "Feature", "geometry": {"type": "LineString", "coordinates": [[96.62534888493508, 69.22981993526858], [96.62259658714936, 69.22991494438847]]}, "properties": {"source": "21280344", "target": "7745542"}}, {"type": "Feature", "geometry": {"type": "LineString", "coordinates": [[96.62534888493508, 69.22981993526858], [96.62634018814316, 69.23062601564874]]}, "properties": {"source": "21280344", "target": "2330529"}}, {"type": "Feature", "geometry": {"type": "LineString", "coordinates": [[96.62534888493508, 69.22981993526858], [96.62515968911953, 69.2312289348138]]}, "properties": {"source": "21280344", "target": "18953626"}}, {"type": "Feature", "geometry": {"type": "LineString", "coordinates": [[96.62534888493508, 69.22981993526858], [96.6216049390921, 69.23076515253265]]}, "properties": {"source": "21280344", "target": "20924009"}}, {"type": "Feature", "geometry": {"type": "LineString", "coordinates": [[96.62534888493508, 69.22981993526858], [96.62243928031143, 69.23019027343881]]}, "properties": {"source": "21280344", "target": "17571364"}}, {"type": "Feature", "geometry": {"type": "LineString", "coordinates": [[96.62534888493508, 69.22981993526858], [96.6268022415536, 69.23063976872331]]}, "properties": {"source": "21280344", "target": "8448586"}}, {"type": "Feature", "geometry": {"type": "LineString", "coordinates": [[96.62534888493508, 69.22981993526858], [96.62677841500005, 69.23081125174537]]}, "properties": {"source": "21280344", "target": "19138924"}}, {"type": "Feature", "geometry": {"type": "LineString", "coordinates": [[96.62534888493508, 69.22981993526858], [96.62205562388198, 69.23067830750435]]}, "properties": {"source": "21280344", "target": "20509855"}}, {"type": "Feature", "geometry": {"type": "LineString", "coordinates": [[96.62576878450875, 69.2303829071987], [96.62201294767965, 69.23052308094174]]}, "properties": {"source": "22942194", "target": "21699671"}}, {"type": "Feature", "geometry": {"type": "LineString", "coordinates": [[96.62576878450875, 69.2303829071987], [96.62534888493508, 69.22981993526858]]}, "properties": {"source": "22942194", "target": "21280344"}}, {"type": "Feature", "geometry": {"type": "LineString", "coordinates": [[96.62576878450875, 69.2303829071987], [96.62219478637246, 69.22981981925406]]}, "properties": {"source": "22942194", "target": "21108603"}}, {"type": "Feature", "geometry": {"type": "LineString", "coordinates": [[96.62576878450875, 69.2303829071987], [96.6219030947355, 69.23023283004727]]}, "properties": {"source": "22942194", "target": "23356238"}}, {"type": "Feature", "geometry": {"type": "LineString", "coordinates": [[96.62576878450875, 69.2303829071987], [96.6256441266064, 69.23037789979864]]}, "properties": {"source": "22942194", "target": "20541004"}}, {"type": "Feature", "geometry": {"type": "LineString", "coordinates": [[96.62576878450875, 69.2303829071987], [96.6263184775832, 69.23133371566419]]}, "properties": {"source": "22942194", "target": "24423168"}}, {"type": "Feature", "geometry": {"type": "LineString", "coordinates": [[96.62576878450875, 69.2303829071987], [96.6219388703168, 69.23110644026144]]}, "properties": {"source": "22942194", "target": "22798624"}}, {"type": "Feature", "geometry": {"type": "LineString", "coordinates": [[96.62576878450875, 69.2303829071987], [96.62259658714936, 69.22991494438847]]}, "properties": {"source": "22942194", "target": "7745542"}}, {"type": "Feature", "geometry": {"type": "LineString", "coordinates": [[96.62630809790221, 69.23148834372392], [96.62259658714936, 69.22991494438847]]}, "properties": {"source": "21250355", "target": "7745542"}}, {"type": "Feature", "geometry": {"type": "LineString", "coordinates": [[96.62630809790221, 69.23148834372392], [96.62634018814316, 69.23062601564874]]}, "properties": {"source": "21250355", "target": "2330529"}}, {"type": "Feature", "geometry": {"type": "LineString", "coordinates": [[96.62630809790221, 69.23148834372392], [96.62515968911953, 69.2312289348138]]}, "properties": {"source": "21250355", "target": "18953626"}}, {"type": "Feature", "geometry": {"type": "LineString", "coordinates": [[96.62630809790221, 69.23148834372392], [96.62499071676149, 69.23036833626472]]}, "properties": {"source": "21250355", "target": "1007486"}}, {"type": "Feature", "geometry": {"type": "LineString", "coordinates": [[96.62630809790221, 69.23148834372392], [96.6216049390921, 69.23076515253265]]}, "properties": {"source": "21250355", "target": "20924009"}}, {"type": "Feature", "geometry": {"type": "LineString", "coordinates": [[96.62630809790221, 69.23148834372392], [96.62243928031143, 69.23019027343881]]}, "properties": {"source": "21250355", "target": "17571364"}}, {"type": "Feature", "geometry": {"type": "LineString", "coordinates": [[96.62630809790221, 69.23148834372392], [96.6233493313706, 69.22998676614503]]}, "properties": {"source": "21250355", "target": "22522036"}}, {"type": "Feature", "geometry": {"type": "LineString", "coordinates": [[96.62630809790221, 69.23148834372392], [96.6268022415536, 69.23063976872331]]}, "properties": {"source": "21250355", "target": "8448586"}}, {"type": "Feature", "geometry": {"type": "LineString", "coordinates": [[96.62630809790221, 69.23148834372392], [96.62256894813356, 69.23103042004965]]}, "properties": {"source": "21250355", "target": "160010"}}, {"type": "Feature", "geometry": {"type": "LineString", "coordinates": [[96.62677841500005, 69.23081125174537], [96.6256441266064, 69.23037789979864]]}, "properties": {"source": "19138924", "target": "20541004"}}, {"type": "Feature", "geometry": {"type": "LineString", "coordinates": [[96.62205562388198, 69.23067830750435], [96.62219478637246, 69.22981981925406]]}, "properties": {"source": "20509855", "target": "21108603"}}, {"type": "Feature", "geometry": {"type": "LineString", "coordinates": [[96.62205562388198, 69.23067830750435], [96.6256441266064, 69.23037789979864]]}, "properties": {"source": "20509855", "target": "20541004"}}, {"type": "Feature", "geometry": {"type": "LineString", "coordinates": [[96.62132160033491, 69.23061168963352], [96.6263184775832, 69.23133371566419]]}, "properties": {"source": "979544", "target": "24423168"}}, {"type": "Feature", "geometry": {"type": "LineString", "coordinates": [[96.62132160033491, 69.23061168963352], [96.62259658714936, 69.22991494438847]]}, "properties": {"source": "979544", "target": "7745542"}}, {"type": "Feature", "geometry": {"type": "LineString", "coordinates": [[96.62368479054516, 69.23032400776586], [96.62259658714936, 69.22991494438847]]}, "properties": {"source": "5617015", "target": "7745542"}}, {"type": "Feature", "geometry": {"type": "LineString", "coordinates": [[96.62368479054516, 69.23032400776586], [96.62243928031143, 69.23019027343881]]}, "properties": {"source": "5617015", "target": "17571364"}}, {"type": "Feature", "geometry": {"type": "LineString", "coordinates": [[96.62259658714936, 69.22991494438847], [96.6263184775832, 69.23133371566419]]}, "properties": {"source": "7745542", "target": "24423168"}}, {"type": "Feature", "geometry": {"type": "LineString", "coordinates": [[96.62634018814316, 69.23062601564874], [96.62219478637246, 69.22981981925406]]}, "properties": {"source": "2330529", "target": "21108603"}}, {"type": "Feature", "geometry": {"type": "LineString", "coordinates": [[96.62634018814316, 69.23062601564874], [96.6263184775832, 69.23133371566419]]}, "properties": {"source": "2330529", "target": "24423168"}}, {"type": "Feature", "geometry": {"type": "LineString", "coordinates": [[96.62634018814316, 69.23062601564874], [96.62259658714936, 69.22991494438847]]}, "properties": {"source": "2330529", "target": "7745542"}}, {"type": "Feature", "geometry": {"type": "LineString", "coordinates": [[96.62515968911953, 69.2312289348138], [96.62201294767965, 69.23052308094174]]}, "properties": {"source": "18953626", "target": "21699671"}}, {"type": "Feature", "geometry": {"type": "LineString", "coordinates": [[96.62515968911953, 69.2312289348138], [96.62219478637246, 69.22981981925406]]}, "properties": {"source": "18953626", "target": "21108603"}}, {"type": "Feature", "geometry": {"type": "LineString", "coordinates": [[96.62515968911953, 69.2312289348138], [96.6256441266064, 69.23037789979864]]}, "properties": {"source": "18953626", "target": "20541004"}}, {"type": "Feature", "geometry": {"type": "LineString", "coordinates": [[96.62515968911953, 69.2312289348138], [96.6263184775832, 69.23133371566419]]}, "properties": {"source": "18953626", "target": "24423168"}}, {"type": "Feature", "geometry": {"type": "LineString", "coordinates": [[96.62515968911953, 69.2312289348138], [96.62259658714936, 69.22991494438847]]}, "properties": {"source": "18953626", "target": "7745542"}}, {"type": "Feature", "geometry": {"type": "LineString", "coordinates": [[96.62368479054516, 69.23032400776586], [96.62132160033491, 69.23061168963352]]}, "properties": {"source": "5617015", "target": "979544"}}, {"type": "Feature", "geometry": {"type": "LineString", "coordinates": [[96.62248562025661, 69.23153987729353], [96.6263184775832, 69.23133371566419]]}, "properties": {"source": "25527263", "target": "24423168"}}, {"type": "Feature", "geometry": {"type": "LineString", "coordinates": [[96.62248562025661, 69.23153987729353], [96.6219388703168, 69.23110644026144]]}, "properties": {"source": "25527263", "target": "22798624"}}, {"type": "Feature", "geometry": {"type": "LineString", "coordinates": [[96.62243029333052, 69.2313235372394], [96.62201294767965, 69.23052308094174]]}, "properties": {"source": "4329393", "target": "21699671"}}, {"type": "Feature", "geometry": {"type": "LineString", "coordinates": [[96.62243029333052, 69.2313235372394], [96.62634018814316, 69.23062601564874]]}, "properties": {"source": "4329393", "target": "2330529"}}, {"type": "Feature", "geometry": {"type": "LineString", "coordinates": [[96.62243029333052, 69.2313235372394], [96.6268022415536, 69.23063976872331]]}, "properties": {"source": "4329393", "target": "8448586"}}, {"type": "Feature", "geometry": {"type": "LineString", "coordinates": [[96.6249529536139, 69.22999804214157], [96.6256441266064, 69.23037789979864]]}, "properties": {"source": "17345212", "target": "20541004"}}, {"type": "Feature", "geometry": {"type": "LineString", "coordinates": [[96.62606012982258, 69.23042511546925], [96.6263184775832, 69.23133371566419]]}, "properties": {"source": "18742222", "target": "24423168"}}, {"type": "Feature", "geometry": {"type": "LineString", "coordinates": [[96.62606012982258, 69.23042511546925], [96.62259658714936, 69.22991494438847]]}, "properties": {"source": "18742222", "target": "7745542"}}, {"type": "Feature", "geometry": {"type": "LineString", "coordinates": [[96.62606012982258, 69.23042511546925], [96.62634018814316, 69.23062601564874]]}, "properties": {"source": "18742222", "target": "2330529"}}, {"type": "Feature", "geometry": {"type": "LineString", "coordinates": [[96.62606012982258, 69.23042511546925], [96.62515968911953, 69.2312289348138]]}, "properties": {"source": "18742222", "target": "18953626"}}, {"type": "Feature", "geometry": {"type": "LineString", "coordinates": [[96.62499071676149, 69.23036833626472], [96.62201294767965, 69.23052308094174]]}, "properties": {"source": "1007486", "target": "21699671"}}, {"type": "Feature", "geometry": {"type": "LineString", "coordinates": [[96.62499071676149, 69.23036833626472], [96.62534888493508, 69.22981993526858]]}, "properties": {"source": "1007486", "target": "21280344"}}, {"type": "Feature", "geometry": {"type": "LineString", "coordinates": [[96.62499071676149, 69.23036833626472], [96.62576878450875, 69.2303829071987]]}, "properties": {"source": "1007486", "target": "22942194"}}, {"type": "Feature", "geometry": {"type": "LineString", "coordinates": [[96.62499071676149, 69.23036833626472], [96.62219478637246, 69.22981981925406]]}, "properties": {"source": "1007486", "target": "21108603"}}, {"type": "Feature", "geometry": {"type": "LineString", "coordinates": [[96.62499071676149, 69.23036833626472], [96.6219030947355, 69.23023283004727]]}, "properties": {"source": "1007486", "target": "23356238"}}, {"type": "Feature", "geometry": {"type": "LineString", "coordinates": [[96.62499071676149, 69.23036833626472], [96.6256441266064, 69.23037789979864]]}, "properties": {"source": "1007486", "target": "20541004"}}, {"type": "Feature", "geometry": {"type": "LineString", "coordinates": [[96.62499071676149, 69.23036833626472], [96.6219388703168, 69.23110644026144]]}, "properties": {"source": "1007486", "target": "22798624"}}, {"type": "Feature", "geometry": {"type": "LineString", "coordinates": [[96.62499071676149, 69.23036833626472], [96.62368479054516, 69.23032400776586]]}, "properties": {"source": "1007486", "target": "5617015"}}, {"type": "Feature", "geometry": {"type": "LineString", "coordinates": [[96.6216049390921, 69.23076515253265], [96.62201294767965, 69.23052308094174]]}, "properties": {"source": "20924009", "target": "21699671"}}, {"type": "Feature", "geometry": {"type": "LineString", "coordinates": [[96.6216049390921, 69.23076515253265], [96.62219478637246, 69.22981981925406]]}, "properties": {"source": "20924009", "target": "21108603"}}, {"type": "Feature", "geometry": {"type": "LineString", "coordinates": [[96.6216049390921, 69.23076515253265], [96.6256441266064, 69.23037789979864]]}, "properties": {"source": "20924009", "target": "20541004"}}, {"type": "Feature", "geometry": {"type": "LineString", "coordinates": [[96.6216049390921, 69.23076515253265], [96.6263184775832, 69.23133371566419]]}, "properties": {"source": "20924009", "target": "24423168"}}, {"type": "Feature", "geometry": {"type": "LineString", "coordinates": [[96.6216049390921, 69.23076515253265], [96.6219388703168, 69.23110644026144]]}, "properties": {"source": "20924009", "target": "22798624"}}, {"type": "Feature", "geometry": {"type": "LineString", "coordinates": [[96.62243928031143, 69.23019027343881], [96.62219478637246, 69.22981981925406]]}, "properties": {"source": "17571364", "target": "21108603"}}, {"type": "Feature", "geometry": {"type": "LineString", "coordinates": [[96.62243928031143, 69.23019027343881], [96.6256441266064, 69.23037789979864]]}, "properties": {"source": "17571364", "target": "20541004"}}, {"type": "Feature", "geometry": {"type": "LineString", "coordinates": [[96.6233493313706, 69.22998676614503], [96.62201294767965, 69.23052308094174]]}, "properties": {"source": "22522036", "target": "21699671"}}, {"type": "Feature", "geometry": {"type": "LineString", "coordinates": [[96.6233493313706, 69.22998676614503], [96.62534888493508, 69.22981993526858]]}, "properties": {"source": "22522036", "target": "21280344"}}, {"type": "Feature", "geometry": {"type": "LineString", "coordinates": [[96.6233493313706, 69.22998676614503], [96.6219030947355, 69.23023283004727]]}, "properties": {"source": "22522036", "target": "23356238"}}, {"type": "Feature", "geometry": {"type": "LineString", "coordinates": [[96.6233493313706, 69.22998676614503], [96.6256441266064, 69.23037789979864]]}, "properties": {"source": "22522036", "target": "20541004"}}, {"type": "Feature", "geometry": {"type": "LineString", "coordinates": [[96.6233493313706, 69.22998676614503], [96.6263184775832, 69.23133371566419]]}, "properties": {"source": "22522036", "target": "24423168"}}, {"type": "Feature", "geometry": {"type": "LineString", "coordinates": [[96.6233493313706, 69.22998676614503], [96.6219388703168, 69.23110644026144]]}, "properties": {"source": "22522036", "target": "22798624"}}, {"type": "Feature", "geometry": {"type": "LineString", "coordinates": [[96.62630809790221, 69.23148834372392], [96.62677841500005, 69.23081125174537]]}, "properties": {"source": "21250355", "target": "19138924"}}, {"type": "Feature", "geometry": {"type": "LineString", "coordinates": [[96.62630809790221, 69.23148834372392], [96.62205562388198, 69.23067830750435]]}, "properties": {"source": "21250355", "target": "20509855"}}, {"type": "Feature", "geometry": {"type": "LineString", "coordinates": [[96.62534888493508, 69.22981993526858], [96.62201294767965, 69.23052308094174]]}, "properties": {"source": "21280344", "target": "21699671"}}, {"type": "Feature", "geometry": {"type": "LineString", "coordinates": [[96.62534888493508, 69.22981993526858], [96.62219478637246, 69.22981981925406]]}, "properties": {"source": "21280344", "target": "21108603"}}, {"type": "Feature", "geometry": {"type": "LineString", "coordinates": [[96.62534888493508, 69.22981993526858], [96.6256441266064, 69.23037789979864]]}, "properties": {"source": "21280344", "target": "20541004"}}, {"type": "Feature", "geometry": {"type": "LineString", "coordinates": [[96.62534888493508, 69.22981993526858], [96.6263184775832, 69.23133371566419]]}, "properties": {"source": "21280344", "target": "24423168"}}, {"type": "Feature", "geometry": {"type": "LineString", "coordinates": [[96.62534888493508, 69.22981993526858], [96.6219388703168, 69.23110644026144]]}, "properties": {"source": "21280344", "target": "22798624"}}, {"type": "Feature", "geometry": {"type": "LineString", "coordinates": [[96.62201294767965, 69.23052308094174], [96.62219478637246, 69.22981981925406]]}, "properties": {"source": "21699671", "target": "21108603"}}, {"type": "Feature", "geometry": {"type": "LineString", "coordinates": [[96.62201294767965, 69.23052308094174], [96.6256441266064, 69.23037789979864]]}, "properties": {"source": "21699671", "target": "20541004"}}, {"type": "Feature", "geometry": {"type": "LineString", "coordinates": [[96.62201294767965, 69.23052308094174], [96.6263184775832, 69.23133371566419]]}, "properties": {"source": "21699671", "target": "24423168"}}, {"type": "Feature", "geometry": {"type": "LineString", "coordinates": [[96.62201294767965, 69.23052308094174], [96.6219388703168, 69.23110644026144]]}, "properties": {"source": "21699671", "target": "22798624"}}, {"type": "Feature", "geometry": {"type": "LineString", "coordinates": [[96.62201294767965, 69.23052308094174], [96.62259658714936, 69.22991494438847]]}, "properties": {"source": "21699671", "target": "7745542"}}, {"type": "Feature", "geometry": {"type": "LineString", "coordinates": [[96.62201294767965, 69.23052308094174], [96.62634018814316, 69.23062601564874]]}, "properties": {"source": "21699671", "target": "2330529"}}, {"type": "Feature", "geometry": {"type": "LineString", "coordinates": [[96.62201294767965, 69.23052308094174], [96.62243928031143, 69.23019027343881]]}, "properties": {"source": "21699671", "target": "17571364"}}, {"type": "Feature", "geometry": {"type": "LineString", "coordinates": [[96.62201294767965, 69.23052308094174], [96.62205562388198, 69.23067830750435]]}, "properties": {"source": "21699671", "target": "20509855"}}, {"type": "Feature", "geometry": {"type": "LineString", "coordinates": [[96.62630809790221, 69.23148834372392], [96.62201294767965, 69.23052308094174]]}, "properties": {"source": "21250355", "target": "21699671"}}]}