{"type": "FeatureCollection", "features": [{"type": "Feature", "geometry": {"type": "LineString", "coordinates": [[2.806629524859318, 68.53308282881193], [2.8004953046203696, 68.52919232302102]]}, "properties": {"source": "20516921", "target": "1460379"}}, {"type": "Feature", "geometry": {"type": "LineString", "coordinates": [[2.806629524859318, 68.53308282881193], [2.7960345238147966, 68.53067992222933]]}, "properties": {"source": "20516921", "target": "1460341"}}, {"type": "Feature", "geometry": {"type": "LineString", "coordinates": [[2.806629524859318, 68.53308282881193], [2.803821237418447, 68.52948630224944]]}, "properties": {"source": "20516921", "target": "1087551"}}, {"type": "Feature", "geometry": {"type": "LineString", "coordinates": [[2.806629524859318, 68.53308282881193], [2.8171623472634906, 68.53449468229073]]}, "properties": {"source": "20516921", "target": "1460066"}}, {"type": "Feature", "geometry": {"type": "LineString", "coordinates": [[2.806629524859318, 68.53308282881193], [2.8195176198037473, 68.53024973577567]]}, "properties": {"source": "20516921", "target": "13260461"}}, {"type": "Feature", "geometry": {"type": "LineString", "coordinates": [[2.806629524859318, 68.53308282881193], [2.818630974104707, 68.53271660317515]]}, "properties": {"source": "20516921", "target": "17914326"}}, {"type": "Feature", "geometry": {"type": "LineString", "coordinates": [[2.802347118770399, 68.53376678931176], [2.803658895006123, 68.5347090044855]]}, "properties": {"source": "25016887", "target": "19975117"}}, {"type": "Feature", "geometry": {"type": "LineString", "coordinates": [[2.802347118770399, 68.53376678931176], [2.806861963090512, 68.5365933732912]]}, "properties": {"source": "25016887", "target": "24505349"}}, {"type": "Feature", "geometry": {"type": "LineString", "coordinates": [[2.802347118770399, 68.53376678931176], [2.8177936258593093, 68.5282653904539]]}, "properties": {"source": "25016887", "target": "26022157"}}, {"type": "Feature", "geometry": {"type": "LineString", "coordinates": [[2.802347118770399, 68.53376678931176], [2.818880633649428, 68.5350208170299]]}, "properties": {"source": "25016887", "target": "20766540"}}, {"type": "Feature", "geometry": {"type": "LineString", "coordinates": [[2.802347118770399, 68.53376678931176], [2.803402764314569, 68.53106229009563]]}, "properties": {"source": "25016887", "target": "17616284"}}, {"type": "Feature", "geometry": {"type": "LineString", "coordinates": [[2.818880633649428, 68.5350208170299], [2.7972165000553844, 68.53390046618034]]}, "properties": {"source": "20766540", "target": "17984223"}}, {"type": "Feature", "geometry": {"type": "LineString", "coordinates": [[2.8076043380357874, 68.53325444539723], [2.7985013494231907, 68.53456796349221]]}, "properties": {"source": "515577", "target": "6233988"}}, {"type": "Feature", "geometry": {"type": "LineString", "coordinates": [[2.8076043380357874, 68.53325444539723], [2.818310968713945, 68.53202368496065]]}, "properties": {"source": "515577", "target": "5245510"}}, {"type": "Feature", "geometry": {"type": "LineString", "coordinates": [[2.8076043380357874, 68.53325444539723], [2.821108446157126, 68.53079357571747]]}, "properties": {"source": "515577", "target": "6115693"}}, {"type": "Feature", "geometry": {"type": "LineString", "coordinates": [[2.8076043380357874, 68.53325444539723], [2.8009491517316576, 68.53251464894649]]}, "properties": {"source": "515577", "target": "5391867"}}, {"type": "Feature", "geometry": {"type": "LineString", "coordinates": [[2.8076043380357874, 68.53325444539723], [2.7975133874812457, 68.5303281829485]]}, "properties": {"source": "515577", "target": "533713"}}, {"type": "Feature", "geometry": {"type": "LineString", "coordinates": [[2.8026912831045365, 68.53433049825256], [2.8130022237186836, 68.53202607225595]]}, "properties": {"source": "533709", "target": "472329"}}, {"type": "Feature", "geometry": {"type": "LineString", "coordinates": [[2.8026912831045365, 68.53433049825256], [2.798197073578052, 68.5360650228958]]}, "properties": {"source": "533709", "target": "20516939"}}, {"type": "Feature", "geometry": {"type": "LineString", "coordinates": [[2.8026912831045365, 68.53433049825256], [2.814686413171472, 68.52949967787134]]}, "properties": {"source": "533709", "target": "27625475"}}, {"type": "Feature", "geometry": {"type": "LineString", "coordinates": [[2.8026912831045365, 68.53433049825256], [2.8012145904642978, 68.53083747132231]]}, "properties": {"source": "533709", "target": "20512149"}}, {"type": "Feature", "geometry": {"type": "LineString", "coordinates": [[2.8026912831045365, 68.53433049825256], [2.8097555777320053, 68.52978459229234]]}, "properties": {"source": "533709", "target": "18776721"}}, {"type": "Feature", "geometry": {"type": "LineString", "coordinates": [[2.8026912831045365, 68.53433049825256], [2.8077509014620716, 68.53451013173975]]}, "properties": {"source": "533709", "target": "4742363"}}, {"type": "Feature", "geometry": {"type": "LineString", "coordinates": [[2.8026912831045365, 68.53433049825256], [2.8037000289818366, 68.53264691430465]]}, "properties": {"source": "533709", "target": "1541806"}}, {"type": "Feature", "geometry": {"type": "LineString", "coordinates": [[2.8026912831045365, 68.53433049825256], [2.8006960650313886, 68.53233119087676]]}, "properties": {"source": "533709", "target": "476592"}}, {"type": "Feature", "geometry": {"type": "LineString", "coordinates": [[2.8026912831045365, 68.53433049825256], [2.8022648540003274, 68.53150392969948]]}, "properties": {"source": "533709", "target": "1460064"}}, {"type": "Feature", "geometry": {"type": "LineString", "coordinates": [[2.8130022237186836, 68.53202607225595], [2.7993570430963928, 68.5311503802688]]}, "properties": {"source": "472329", "target": "2236094"}}, {"type": "Feature", "geometry": {"type": "LineString", "coordinates": [[2.8130022237186836, 68.53202607225595], [2.814686413171472, 68.52949967787134]]}, "properties": {"source": "472329", "target": "27625475"}}, {"type": "Feature", "geometry": {"type": "LineString", "coordinates": [[2.815404560585989, 68.5327930743108], [2.816253711963782, 68.52843985985422]]}, "properties": {"source": "13279167", "target": "14431476"}}, {"type": "Feature", "geometry": {"type": "LineString", "coordinates": [[2.815404560585989, 68.5327930743108], [2.8186591096338987, 68.52924174330056]]}, "properties": {"source": "13279167", "target": "13628924"}}, {"type": "Feature", "geometry": {"type": "LineString", "coordinates": [[2.7985013494231907, 68.53456796349221], [2.818310968713945, 68.53202368496065]]}, "properties": {"source": "6233988", "target": "5245510"}}, {"type": "Feature", "geometry": {"type": "LineString", "coordinates": [[2.7985013494231907, 68.53456796349221], [2.821108446157126, 68.53079357571747]]}, "properties": {"source": "6233988", "target": "6115693"}}, {"type": "Feature", "geometry": {"type": "LineString", "coordinates": [[2.7985013494231907, 68.53456796349221], [2.8130354600348255, 68.53603237066645]]}, "properties": {"source": "6233988", "target": "7104442"}}, {"type": "Feature", "geometry": {"type": "LineString", "coordinates": [[2.816253711963782, 68.52843985985422], [2.806290897661029, 68.53400848176477]]}, "properties": {"source": "14431476", "target": "15885794"}}, {"type": "Feature", "geometry": {"type": "LineString", "coordinates": [[2.8155969385631465, 68.53391949278392], [2.799259631401412, 68.53488055077437]]}, "properties": {"source": "20766894", "target": "204163"}}, {"type": "Feature", "geometry": {"type": "LineString", "coordinates": [[2.8155969385631465, 68.53391949278392], [2.8201927750054097, 68.52811739457869]]}, "properties": {"source": "20766894", "target": "18125421"}}, {"type": "Feature", "geometry": {"type": "LineString", "coordinates": [[2.8073124535018508, 68.53214065014865], [2.814686413171472, 68.52949967787134]]}, "properties": {"source": "21942178", "target": "27625475"}}, {"type": "Feature", "geometry": {"type": "LineString", "coordinates": [[2.818310968713945, 68.53202368496065], [2.821108446157126, 68.53079357571747]]}, "properties": {"source": "5245510", "target": "6115693"}}, {"type": "Feature", "geometry": {"type": "LineString", "coordinates": [[2.800756699715919, 68.53427704628112], [2.8022648540003274, 68.53150392969948]]}, "properties": {"source": "173636", "target": "1460064"}}, {"type": "Feature", "geometry": {"type": "LineString", "coordinates": [[2.80982329177084, 68.53077521419777], [2.816164073323961, 68.53193194777819]]}, "properties": {"source": "13434453", "target": "18657053"}}, {"type": "Feature", "geometry": {"type": "LineString", "coordinates": [[2.80982329177084, 68.53077521419777], [2.807617979185892, 68.5330764534358]]}, "properties": {"source": "13434453", "target": "18744135"}}, {"type": "Feature", "geometry": {"type": "LineString", "coordinates": [[2.80982329177084, 68.53077521419777], [2.814210422400066, 68.53488041435239]]}, "properties": {"source": "13434453", "target": "18739594"}}, {"type": "Feature", "geometry": {"type": "LineString", "coordinates": [[2.80982329177084, 68.53077521419777], [2.802275291523415, 68.53271505857788]]}, "properties": {"source": "13434453", "target": "18718771"}}, {"type": "Feature", "geometry": {"type": "LineString", "coordinates": [[2.80982329177084, 68.53077521419777], [2.797161199835699, 68.52970482312585]]}, "properties": {"source": "13434453", "target": "18675090"}}, {"type": "Feature", "geometry": {"type": "LineString", "coordinates": [[2.816164073323961, 68.53193194777819], [2.8181449981985907, 68.53480544980002]]}, "properties": {"source": "18657053", "target": "18633005"}}, {"type": "Feature", "geometry": {"type": "LineString", "coordinates": [[2.816164073323961, 68.53193194777819], [2.8201927750054097, 68.52811739457869]]}, "properties": {"source": "18657053", "target": "18125421"}}, {"type": "Feature", "geometry": {"type": "LineString", "coordinates": [[2.803658895006123, 68.5347090044855], [2.7972165000553844, 68.53390046618034]]}, "properties": {"source": "19975117", "target": "17984223"}}, {"type": "Feature", "geometry": {"type": "LineString", "coordinates": [[2.803658895006123, 68.5347090044855], [2.806861963090512, 68.5365933732912]]}, "properties": {"source": "19975117", "target": "24505349"}}, {"type": "Feature", "geometry": {"type": "LineString", "coordinates": [[2.806629524859318, 68.53308282881193], [2.8076043380357874, 68.53325444539723]]}, "properties": {"source": "20516921", "target": "515577"}}, {"type": "Feature", "geometry": {"type": "LineString", "coordinates": [[2.806629524859318, 68.53308282881193], [2.8026912831045365, 68.53433049825256]]}, "properties": {"source": "20516921", "target": "533709"}}, {"type": "Feature", "geometry": {"type": "LineString", "coordinates": [[2.806629524859318, 68.53308282881193], [2.798197073578052, 68.5360650228958]]}, "properties": {"source": "20516921", "target": "20516939"}}, {"type": "Feature", "geometry": {"type": "LineString", "coordinates": [[2.806629524859318, 68.53308282881193], [2.8012145904642978, 68.53083747132231]]}, "properties": {"source": "20516921", "target": "20512149"}}, {"type": "Feature", "geometry": {"type": "LineString", "coordinates": [[2.806629524859318, 68.53308282881193], [2.8097555777320053, 68.52978459229234]]}, "properties": {"source": "20516921", "target": "18776721"}}, {"type": "Feature", "geometry": {"type": "LineString", "coordinates": [[2.806629524859318, 68.53308282881193], [2.8157551781434336, 68.52825904528945]]}, "properties": {"source": "20516921", "target": "252592"}}, {"type": "Feature", "geometry": {"type": "LineString", "coordinates": [[2.800756699715919, 68.53427704628112], [2.7975133874812457, 68.5303281829485]]}, "properties": {"source": "173636", "target": "533713"}}, {"type": "Feature", "geometry": {"type": "LineString", "coordinates": [[2.81541932573208, 68.52984642513877], [2.799259631401412, 68.53488055077437]]}, "properties": {"source": "18071099", "target": "204163"}}, {"type": "Feature", "geometry": {"type": "LineString", "coordinates": [[2.81541932573208, 68.52984642513877], [2.8155969385631465, 68.53391949278392]]}, "properties": {"source": "18071099", "target": "20766894"}}, {"type": "Feature", "geometry": {"type": "LineString", "coordinates": [[2.8181449981985907, 68.53480544980002], [2.807617979185892, 68.5330764534358]]}, "properties": {"source": "18633005", "target": "18744135"}}, {"type": "Feature", "geometry": {"type": "LineString", "coordinates": [[2.8181449981985907, 68.53480544980002], [2.814210422400066, 68.53488041435239]]}, "properties": {"source": "18633005", "target": "18739594"}}, {"type": "Feature", "geometry": {"type": "LineString", "coordinates": [[2.8181449981985907, 68.53480544980002], [2.802275291523415, 68.53271505857788]]}, "properties": {"source": "18633005", "target": "18718771"}}, {"type": "Feature", "geometry": {"type": "LineString", "coordinates": [[2.8181449981985907, 68.53480544980002], [2.797161199835699, 68.52970482312585]]}, "properties": {"source": "18633005", "target": "18675090"}}, {"type": "Feature", "geometry": {"type": "LineString", "coordinates": [[2.7991698404387932, 68.53410710070224], [2.8026912831045365, 68.53433049825256]]}, "properties": {"source": "6319390", "target": "533709"}}, {"type": "Feature", "geometry": {"type": "LineString", "coordinates": [[2.7991698404387932, 68.53410710070224], [2.8130022237186836, 68.53202607225595]]}, "properties": {"source": "6319390", "target": "472329"}}, {"type": "Feature", "geometry": {"type": "LineString", "coordinates": [[2.7991698404387932, 68.53410710070224], [2.8077509014620716, 68.53451013173975]]}, "properties": {"source": "6319390", "target": "4742363"}}, {"type": "Feature", "geometry": {"type": "LineString", "coordinates": [[2.7991698404387932, 68.53410710070224], [2.8006960650313886, 68.53233119087676]]}, "properties": {"source": "6319390", "target": "476592"}}, {"type": "Feature", "geometry": {"type": "LineString", "coordinates": [[2.8009491517316576, 68.53251464894649], [2.818310968713945, 68.53202368496065]]}, "properties": {"source": "5391867", "target": "5245510"}}, {"type": "Feature", "geometry": {"type": "LineString", "coordinates": [[2.8009491517316576, 68.53251464894649], [2.821108446157126, 68.53079357571747]]}, "properties": {"source": "5391867", "target": "6115693"}}, {"type": "Feature", "geometry": {"type": "LineString", "coordinates": [[2.803402764314569, 68.53106229009563], [2.7972165000553844, 68.53390046618034]]}, "properties": {"source": "17616284", "target": "17984223"}}, {"type": "Feature", "geometry": {"type": "LineString", "coordinates": [[2.803402764314569, 68.53106229009563], [2.806861963090512, 68.5365933732912]]}, "properties": {"source": "17616284", "target": "24505349"}}, {"type": "Feature", "geometry": {"type": "LineString", "coordinates": [[2.803402764314569, 68.53106229009563], [2.8177936258593093, 68.5282653904539]]}, "properties": {"source": "17616284", "target": "26022157"}}, {"type": "Feature", "geometry": {"type": "LineString", "coordinates": [[2.8195176198037473, 68.53024973577567], [2.8012145904642978, 68.53083747132231]]}, "properties": {"source": "13260461", "target": "20512149"}}, {"type": "Feature", "geometry": {"type": "LineString", "coordinates": [[2.8195176198037473, 68.53024973577567], [2.8097555777320053, 68.52978459229234]]}, "properties": {"source": "13260461", "target": "18776721"}}, {"type": "Feature", "geometry": {"type": "LineString", "coordinates": [[2.7975133874812457, 68.5303281829485], [2.8026912831045365, 68.53433049825256]]}, "properties": {"source": "533713", "target": "533709"}}, {"type": "Feature", "geometry": {"type": "LineString", "coordinates": [[2.7975133874812457, 68.5303281829485], [2.803821237418447, 68.52948630224944]]}, "properties": {"source": "533713", "target": "1087551"}}, {"type": "Feature", "geometry": {"type": "LineString", "coordinates": [[2.807958152166094, 68.53116605583952], [2.799259631401412, 68.53488055077437]]}, "properties": {"source": "16241901", "target": "204163"}}, {"type": "Feature", "geometry": {"type": "LineString", "coordinates": [[2.807958152166094, 68.53116605583952], [2.818129078887438, 68.52996644814482]]}, "properties": {"source": "16241901", "target": "12815231"}}, {"type": "Feature", "geometry": {"type": "LineString", "coordinates": [[2.807958152166094, 68.53116605583952], [2.8077363166925977, 68.53061502320386]]}, "properties": {"source": "16241901", "target": "8941054"}}, {"type": "Feature", "geometry": {"type": "LineString", "coordinates": [[2.818630974104707, 68.53271660317515], [2.798197073578052, 68.5360650228958]]}, "properties": {"source": "17914326", "target": "20516939"}}, {"type": "Feature", "geometry": {"type": "LineString", "coordinates": [[2.818630974104707, 68.53271660317515], [2.8012145904642978, 68.53083747132231]]}, "properties": {"source": "17914326", "target": "20512149"}}, {"type": "Feature", "geometry": {"type": "LineString", "coordinates": [[2.818630974104707, 68.53271660317515], [2.8097555777320053, 68.52978459229234]]}, "properties": {"source": "17914326", "target": "18776721"}}, {"type": "Feature", "geometry": {"type": "LineString", "coordinates": [[2.818129078887438, 68.52996644814482], [2.799259631401412, 68.53488055077437]]}, "properties": {"source": "12815231", "target": "204163"}}, {"type": "Feature", "geometry": {"type": "LineString", "coordinates": [[2.818129078887438, 68.52996644814482], [2.8077363166925977, 68.53061502320386]]}, "properties": {"source": "12815231", "target": "8941054"}}, {"type": "Feature", "geometry": {"type": "LineString", "coordinates": [[2.8130354600348255, 68.53603237066645], [2.821108446157126, 68.53079357571747]]}, "properties": {"source": "7104442", "target": "6115693"}}, {"type": "Feature", "geometry": {"type": "LineString", "coordinates": [[2.810762649946213, 68.5348677210657], [2.799633234449743, 68.53135186379043]]}, "properties": {"source": "8154777", "target": "8441977"}}, {"type": "Feature", "geometry": {"type": "LineString", "coordinates": [[2.810762649946213, 68.5348677210657], [2.8161350592309304, 68.53582934353435]]}, "properties": {"source": "8154777", "target": "8216599"}}, {"type": "Feature", "geometry": {"type": "LineString", "coordinates": [[2.810762649946213, 68.5348677210657], [2.8194206318364365, 68.53129083215268]]}, "properties": {"source": "8154777", "target": "8441978"}}, {"type": "Feature", "geometry": {"type": "LineString", "coordinates": [[2.8061449354429158, 68.52843502355236], [2.8177936258593093, 68.5282653904539]]}, "properties": {"source": "17253497", "target": "26022157"}}, {"type": "Feature", "geometry": {"type": "LineString", "coordinates": [[2.8061449354429158, 68.52843502355236], [2.81694840886027, 68.52881434076289]]}, "properties": {"source": "17253497", "target": "23130049"}}, {"type": "Feature", "geometry": {"type": "LineString", "coordinates": [[2.797526594149872, 68.53513286101204], [2.814686413171472, 68.52949967787134]]}, "properties": {"source": "20660725", "target": "27625475"}}, {"type": "Feature", "geometry": {"type": "LineString", "coordinates": [[2.797526594149872, 68.53513286101204], [2.816156212739827, 68.53294796093769]]}, "properties": {"source": "20660725", "target": "24458793"}}, {"type": "Feature", "geometry": {"type": "LineString", "coordinates": [[2.812921854261191, 68.53420509372668], [2.806861963090512, 68.5365933732912]]}, "properties": {"source": "26855697", "target": "24505349"}}, {"type": "Feature", "geometry": {"type": "LineString", "coordinates": [[2.812921854261191, 68.53420509372668], [2.8098430519832505, 68.53218411792025]]}, "properties": {"source": "26855697", "target": "388835"}}, {"type": "Feature", "geometry": {"type": "LineString", "coordinates": [[2.8037000289818366, 68.53264691430465], [2.8006960650313886, 68.53233119087676]]}, "properties": {"source": "1541806", "target": "476592"}}, {"type": "Feature", "geometry": {"type": "LineString", "coordinates": [[2.8026478582162895, 68.5355521913622], [2.8026912831045365, 68.53433049825256]]}, "properties": {"source": "325734", "target": "533709"}}, {"type": "Feature", "geometry": {"type": "LineString", "coordinates": [[2.8026478582162895, 68.5355521913622], [2.8130022237186836, 68.53202607225595]]}, "properties": {"source": "325734", "target": "472329"}}, {"type": "Feature", "geometry": {"type": "LineString", "coordinates": [[2.8026478582162895, 68.5355521913622], [2.7993570430963928, 68.5311503802688]]}, "properties": {"source": "325734", "target": "2236094"}}, {"type": "Feature", "geometry": {"type": "LineString", "coordinates": [[2.8026478582162895, 68.5355521913622], [2.814686413171472, 68.52949967787134]]}, "properties": {"source": "325734", "target": "27625475"}}, {"type": "Feature", "geometry": {"type": "LineString", "coordinates": [[2.8026478582162895, 68.5355521913622], [2.816156212739827, 68.53294796093769]]}, "properties": {"source": "325734", "target": "24458793"}}, {"type": "Feature", "geometry": {"type": "LineString", "coordinates": [[2.8026478582162895, 68.5355521913622], [2.8077509014620716, 68.53451013173975]]}, "properties": {"source": "325734", "target": "4742363"}}, {"type": "Feature", "geometry": {"type": "LineString", "coordinates": [[2.8026478582162895, 68.5355521913622], [2.8006960650313886, 68.53233119087676]]}, "properties": {"source": "325734", "target": "476592"}}, {"type": "Feature", "geometry": {"type": "LineString", "coordinates": [[2.8026478582162895, 68.5355521913622], [2.8045454657363393, 68.53526366611527]]}, "properties": {"source": "325734", "target": "2095560"}}, {"type": "Feature", "geometry": {"type": "LineString", "coordinates": [[2.802347118770399, 68.53376678931176], [2.7972165000553844, 68.53390046618034]]}, "properties": {"source": "25016887", "target": "17984223"}}, {"type": "Feature", "geometry": {"type": "LineString", "coordinates": [[2.8130587898265276, 68.52999163313359], [2.8130354600348255, 68.53603237066645]]}, "properties": {"source": "7470037", "target": "7104442"}}, {"type": "Feature", "geometry": {"type": "LineString", "coordinates": [[2.8130587898265276, 68.52999163313359], [2.818095258415468, 68.52981957419959]]}, "properties": {"source": "7470037", "target": "1006783"}}, {"type": "Feature", "geometry": {"type": "LineString", "coordinates": [[2.8130587898265276, 68.52999163313359], [2.811994372930826, 68.53301042503668]]}, "properties": {"source": "7470037", "target": "70426"}}, {"type": "Feature", "geometry": {"type": "LineString", "coordinates": [[2.8130587898265276, 68.52999163313359], [2.8020728630133362, 68.5307671877544]]}, "properties": {"source": "7470037", "target": "106269"}}, {"type": "Feature", "geometry": {"type": "LineString", "coordinates": [[2.8101326428135565, 68.53113369940496], [2.8026912831045365, 68.53433049825256]]}, "properties": {"source": "6426311", "target": "533709"}}, {"type": "Feature", "geometry": {"type": "LineString", "coordinates": [[2.8101326428135565, 68.53113369940496], [2.8130022237186836, 68.53202607225595]]}, "properties": {"source": "6426311", "target": "472329"}}, {"type": "Feature", "geometry": {"type": "LineString", "coordinates": [[2.8101326428135565, 68.53113369940496], [2.8077509014620716, 68.53451013173975]]}, "properties": {"source": "6426311", "target": "4742363"}}, {"type": "Feature", "geometry": {"type": "LineString", "coordinates": [[2.8101326428135565, 68.53113369940496], [2.8037000289818366, 68.53264691430465]]}, "properties": {"source": "6426311", "target": "1541806"}}, {"type": "Feature", "geometry": {"type": "LineString", "coordinates": [[2.8101326428135565, 68.53113369940496], [2.8006960650313886, 68.53233119087676]]}, "properties": {"source": "6426311", "target": "476592"}}, {"type": "Feature", "geometry": {"type": "LineString", "coordinates": [[2.8101326428135565, 68.53113369940496], [2.7991698404387932, 68.53410710070224]]}, "properties": {"source": "6426311", "target": "6319390"}}, {"type": "Feature", "geometry": {"type": "LineString", "coordinates": [[2.8101326428135565, 68.53113369940496], [2.80306270215371, 68.53137984742244]]}, "properties": {"source": "6426311", "target": "630376"}}, {"type": "Feature", "geometry": {"type": "LineString", "coordinates": [[2.814093163725431, 68.53622261468769], [2.7972165000553844, 68.53390046618034]]}, "properties": {"source": "16059465", "target": "17984223"}}, {"type": "Feature", "geometry": {"type": "LineString", "coordinates": [[2.814093163725431, 68.53622261468769], [2.803658895006123, 68.5347090044855]]}, "properties": {"source": "16059465", "target": "19975117"}}, {"type": "Feature", "geometry": {"type": "LineString", "coordinates": [[2.814093163725431, 68.53622261468769], [2.806861963090512, 68.5365933732912]]}, "properties": {"source": "16059465", "target": "24505349"}}, {"type": "Feature", "geometry": {"type": "LineString", "coordinates": [[2.814093163725431, 68.53622261468769], [2.8177936258593093, 68.5282653904539]]}, "properties": {"source": "16059465", "target": "26022157"}}, {"type": "Feature", "geometry": {"type": "LineString", "coordinates": [[2.814093163725431, 68.53622261468769], [2.802347118770399, 68.53376678931176]]}, "properties": {"source": "16059465", "target": "25016887"}}, {"type": "Feature", "geometry": {"type": "LineString", "coordinates": [[2.8022648540003274, 68.53150392969948], [2.8157551781434336, 68.52825904528945]]}, "properties": {"source": "1460064", "target": "252592"}}, {"type": "Feature", "geometry": {"type": "LineString", "coordinates": [[2.8004828118295677, 68.53101847669717], [2.812919990924968, 68.53130203635746]]}, "properties": {"source": "13639318", "target": "14656160"}}, {"type": "Feature", "geometry": {"type": "LineString", "coordinates": [[2.8004828118295677, 68.53101847669717], [2.8129829246978773, 68.53116167391008]]}, "properties": {"source": "13639318", "target": "13574317"}}, {"type": "Feature", "geometry": {"type": "LineString", "coordinates": [[2.8004828118295677, 68.53101847669717], [2.815404560585989, 68.5327930743108]]}, "properties": {"source": "13639318", "target": "13279167"}}, {"type": "Feature", "geometry": {"type": "LineString", "coordinates": [[2.8004828118295677, 68.53101847669717], [2.816253711963782, 68.52843985985422]]}, "properties": {"source": "13639318", "target": "14431476"}}, {"type": "Feature", "geometry": {"type": "LineString", "coordinates": [[2.8186423479958194, 68.52945965395259], [2.810262953514041, 68.52911989717919]]}, "properties": {"source": "1460633", "target": "1460328"}}, {"type": "Feature", "geometry": {"type": "LineString", "coordinates": [[2.8186423479958194, 68.52945965395259], [2.811178880622805, 68.53289442039647]]}, "properties": {"source": "1460633", "target": "1460382"}}, {"type": "Feature", "geometry": {"type": "LineString", "coordinates": [[2.8186423479958194, 68.52945965395259], [2.800756699715919, 68.53427704628112]]}, "properties": {"source": "1460633", "target": "173636"}}, {"type": "Feature", "geometry": {"type": "LineString", "coordinates": [[2.8186423479958194, 68.52945965395259], [2.8022648540003274, 68.53150392969948]]}, "properties": {"source": "1460633", "target": "1460064"}}, {"type": "Feature", "geometry": {"type": "LineString", "coordinates": [[2.8015885166433065, 68.53132302363318], [2.807617979185892, 68.5330764534358]]}, "properties": {"source": "23452785", "target": "18744135"}}, {"type": "Feature", "geometry": {"type": "LineString", "coordinates": [[2.8015885166433065, 68.53132302363318], [2.814210422400066, 68.53488041435239]]}, "properties": {"source": "23452785", "target": "18739594"}}, {"type": "Feature", "geometry": {"type": "LineString", "coordinates": [[2.8015885166433065, 68.53132302363318], [2.802275291523415, 68.53271505857788]]}, "properties": {"source": "23452785", "target": "18718771"}}, {"type": "Feature", "geometry": {"type": "LineString", "coordinates": [[2.8015885166433065, 68.53132302363318], [2.8153567692194486, 68.53516732258075]]}, "properties": {"source": "23452785", "target": "18744390"}}, {"type": "Feature", "geometry": {"type": "LineString", "coordinates": [[2.7992214938952316, 68.53465341616504], [2.80982487087806, 68.53294464619697]]}, "properties": {"source": "110009", "target": "4716291"}}, {"type": "Feature", "geometry": {"type": "LineString", "coordinates": [[2.7992214938952316, 68.53465341616504], [2.815074699501565, 68.53223170099841]]}, "properties": {"source": "110009", "target": "76136"}}, {"type": "Feature", "geometry": {"type": "LineString", "coordinates": [[2.8195176198037473, 68.53024973577567], [2.798197073578052, 68.5360650228958]]}, "properties": {"source": "13260461", "target": "20516939"}}, {"type": "Feature", "geometry": {"type": "LineString", "coordinates": [[2.812654011055969, 68.52941581082271], [2.813789462961779, 68.53146447477238]]}, "properties": {"source": "11961345", "target": "10754830"}}, {"type": "Feature", "geometry": {"type": "LineString", "coordinates": [[2.812654011055969, 68.52941581082271], [2.7963793456491715, 68.52931005274175]]}, "properties": {"source": "11961345", "target": "12252901"}}, {"type": "Feature", "geometry": {"type": "LineString", "coordinates": [[2.812654011055969, 68.52941581082271], [2.8129829246978773, 68.53116167391008]]}, "properties": {"source": "11961345", "target": "13574317"}}, {"type": "Feature", "geometry": {"type": "LineString", "coordinates": [[2.812654011055969, 68.52941581082271], [2.815404560585989, 68.5327930743108]]}, "properties": {"source": "11961345", "target": "13279167"}}, {"type": "Feature", "geometry": {"type": "LineString", "coordinates": [[2.799633234449743, 68.53135186379043], [2.8131070812089547, 68.52943498762971]]}, "properties": {"source": "8441977", "target": "14984628"}}, {"type": "Feature", "geometry": {"type": "LineString", "coordinates": [[2.799633234449743, 68.53135186379043], [2.8161350592309304, 68.53582934353435]]}, "properties": {"source": "8441977", "target": "8216599"}}, {"type": "Feature", "geometry": {"type": "LineString", "coordinates": [[2.814686413171472, 68.52949967787134], [2.8006960650313886, 68.53233119087676]]}, "properties": {"source": "27625475", "target": "476592"}}, {"type": "Feature", "geometry": {"type": "LineString", "coordinates": [[2.8012145904642978, 68.53083747132231], [2.8097555777320053, 68.52978459229234]]}, "properties": {"source": "20512149", "target": "18776721"}}, {"type": "Feature", "geometry": {"type": "LineString", "coordinates": [[2.8131070812089547, 68.52943498762971], [2.7972165000553844, 68.53390046618034]]}, "properties": {"source": "14984628", "target": "17984223"}}, {"type": "Feature", "geometry": {"type": "LineString", "coordinates": [[2.8131070812089547, 68.52943498762971], [2.7988180596658765, 68.53509130119627]]}, "properties": {"source": "14984628", "target": "11237857"}}, {"type": "Feature", "geometry": {"type": "LineString", "coordinates": [[2.8131070812089547, 68.52943498762971], [2.8194206318364365, 68.53129083215268]]}, "properties": {"source": "14984628", "target": "8441978"}}, {"type": "Feature", "geometry": {"type": "LineString", "coordinates": [[2.8131070812089547, 68.52943498762971], [2.813789462961779, 68.53146447477238]]}, "properties": {"source": "14984628", "target": "10754830"}}, {"type": "Feature", "geometry": {"type": "LineString", "coordinates": [[2.8131070812089547, 68.52943498762971], [2.7963793456491715, 68.52931005274175]]}, "properties": {"source": "14984628", "target": "12252901"}}, {"type": "Feature", "geometry": {"type": "LineString", "coordinates": [[2.816156212739827, 68.53294796093769], [2.814686413171472, 68.52949967787134]]}, "properties": {"source": "24458793", "target": "27625475"}}, {"type": "Feature", "geometry": {"type": "LineString", "coordinates": [[2.816156212739827, 68.53294796093769], [2.8077509014620716, 68.53451013173975]]}, "properties": {"source": "24458793", "target": "4742363"}}, {"type": "Feature", "geometry": {"type": "LineString", "coordinates": [[2.816156212739827, 68.53294796093769], [2.8037000289818366, 68.53264691430465]]}, "properties": {"source": "24458793", "target": "1541806"}}, {"type": "Feature", "geometry": {"type": "LineString", "coordinates": [[2.816156212739827, 68.53294796093769], [2.8006960650313886, 68.53233119087676]]}, "properties": {"source": "24458793", "target": "476592"}}, {"type": "Feature", "geometry": {"type": "LineString", "coordinates": [[2.816156212739827, 68.53294796093769], [2.8073124535018508, 68.53214065014865]]}, "properties": {"source": "24458793", "target": "21942178"}}, {"type": "Feature", "geometry": {"type": "LineString", "coordinates": [[2.806861963090512, 68.5365933732912], [2.8177936258593093, 68.5282653904539]]}, "properties": {"source": "24505349", "target": "26022157"}}, {"type": "Feature", "geometry": {"type": "LineString", "coordinates": [[2.806861963090512, 68.5365933732912], [2.8098430519832505, 68.53218411792025]]}, "properties": {"source": "24505349", "target": "388835"}}, {"type": "Feature", "geometry": {"type": "LineString", "coordinates": [[2.8157551781434336, 68.52825904528945], [2.8012145904642978, 68.53083747132231]]}, "properties": {"source": "252592", "target": "20512149"}}, {"type": "Feature", "geometry": {"type": "LineString", "coordinates": [[2.8157551781434336, 68.52825904528945], [2.8097555777320053, 68.52978459229234]]}, "properties": {"source": "252592", "target": "18776721"}}, {"type": "Feature", "geometry": {"type": "LineString", "coordinates": [[2.7963793456491715, 68.52931005274175], [2.7972165000553844, 68.53390046618034]]}, "properties": {"source": "12252901", "target": "17984223"}}, {"type": "Feature", "geometry": {"type": "LineString", "coordinates": [[2.7963793456491715, 68.52931005274175], [2.7988180596658765, 68.53509130119627]]}, "properties": {"source": "12252901", "target": "11237857"}}, {"type": "Feature", "geometry": {"type": "LineString", "coordinates": [[2.7963793456491715, 68.52931005274175], [2.813789462961779, 68.53146447477238]]}, "properties": {"source": "12252901", "target": "10754830"}}, {"type": "Feature", "geometry": {"type": "LineString", "coordinates": [[2.7963793456491715, 68.52931005274175], [2.805587927663936, 68.52909865092457]]}, "properties": {"source": "12252901", "target": "25345262"}}, {"type": "Feature", "geometry": {"type": "LineString", "coordinates": [[2.8171623472634906, 68.53449468229073], [2.798197073578052, 68.5360650228958]]}, "properties": {"source": "1460066", "target": "20516939"}}, {"type": "Feature", "geometry": {"type": "LineString", "coordinates": [[2.8171623472634906, 68.53449468229073], [2.8012145904642978, 68.53083747132231]]}, "properties": {"source": "1460066", "target": "20512149"}}, {"type": "Feature", "geometry": {"type": "LineString", "coordinates": [[2.8171623472634906, 68.53449468229073], [2.8097555777320053, 68.52978459229234]]}, "properties": {"source": "1460066", "target": "18776721"}}, {"type": "Feature", "geometry": {"type": "LineString", "coordinates": [[2.8171623472634906, 68.53449468229073], [2.8157551781434336, 68.52825904528945]]}, "properties": {"source": "1460066", "target": "252592"}}, {"type": "Feature", "geometry": {"type": "LineString", "coordinates": [[2.8171623472634906, 68.53449468229073], [2.8004953046203696, 68.52919232302102]]}, "properties": {"source": "1460066", "target": "1460379"}}, {"type": "Feature", "geometry": {"type": "LineString", "coordinates": [[2.797161199835699, 68.52970482312585], [2.814210422400066, 68.53488041435239]]}, "properties": {"source": "18675090", "target": "18739594"}}, {"type": "Feature", "geometry": {"type": "LineString", "coordinates": [[2.803821237418447, 68.52948630224944], [2.8097555777320053, 68.52978459229234]]}, "properties": {"source": "1087551", "target": "18776721"}}, {"type": "Feature", "geometry": {"type": "LineString", "coordinates": [[2.803821237418447, 68.52948630224944], [2.8004953046203696, 68.52919232302102]]}, "properties": {"source": "1087551", "target": "1460379"}}, {"type": "Feature", "geometry": {"type": "LineString", "coordinates": [[2.813789462961779, 68.53146447477238], [2.8035193879477447, 68.53093358624835]]}, "properties": {"source": "10754830", "target": "13019150"}}, {"type": "Feature", "geometry": {"type": "LineString", "coordinates": [[2.8130587898265276, 68.52999163313359], [2.7985013494231907, 68.53456796349221]]}, "properties": {"source": "7470037", "target": "6233988"}}, {"type": "Feature", "geometry": {"type": "LineString", "coordinates": [[2.8130587898265276, 68.52999163313359], [2.815074699501565, 68.53223170099841]]}, "properties": {"source": "7470037", "target": "76136"}}, {"type": "Feature", "geometry": {"type": "LineString", "coordinates": [[2.8130587898265276, 68.52999163313359], [2.7992214938952316, 68.53465341616504]]}, "properties": {"source": "7470037", "target": "110009"}}, {"type": "Feature", "geometry": {"type": "LineString", "coordinates": [[2.803660979670269, 68.53040942900563], [2.7993570430963928, 68.5311503802688]]}, "properties": {"source": "2136452", "target": "2236094"}}, {"type": "Feature", "geometry": {"type": "LineString", "coordinates": [[2.803660979670269, 68.53040942900563], [2.81952932875393, 68.53166350334911]]}, "properties": {"source": "2136452", "target": "2405401"}}, {"type": "Feature", "geometry": {"type": "LineString", "coordinates": [[2.8071810762905898, 68.53648452662358], [2.8161630695171027, 68.52982818076171]]}, "properties": {"source": "18104324", "target": "8223368"}}, {"type": "Feature", "geometry": {"type": "LineString", "coordinates": [[2.818095258415468, 68.52981957419959], [2.815074699501565, 68.53223170099841]]}, "properties": {"source": "1006783", "target": "76136"}}, {"type": "Feature", "geometry": {"type": "LineString", "coordinates": [[2.8169170541853816, 68.53152061297365], [2.806861963090512, 68.5365933732912]]}, "properties": {"source": "18950682", "target": "24505349"}}, {"type": "Feature", "geometry": {"type": "LineString", "coordinates": [[2.8201927750054097, 68.52811739457869], [2.799259631401412, 68.53488055077437]]}, "properties": {"source": "18125421", "target": "204163"}}, {"type": "Feature", "geometry": {"type": "LineString", "coordinates": [[2.8015991526961557, 68.52876526713152], [2.816253711963782, 68.52843985985422]]}, "properties": {"source": "15869428", "target": "14431476"}}, {"type": "Feature", "geometry": {"type": "LineString", "coordinates": [[2.8015991526961557, 68.52876526713152], [2.806290897661029, 68.53400848176477]]}, "properties": {"source": "15869428", "target": "15885794"}}, {"type": "Feature", "geometry": {"type": "LineString", "coordinates": [[2.811994372930826, 68.53301042503668], [2.815074699501565, 68.53223170099841]]}, "properties": {"source": "70426", "target": "76136"}}, {"type": "Feature", "geometry": {"type": "LineString", "coordinates": [[2.8020728630133362, 68.5307671877544], [2.815074699501565, 68.53223170099841]]}, "properties": {"source": "106269", "target": "76136"}}, {"type": "Feature", "geometry": {"type": "LineString", "coordinates": [[2.8016386461356717, 68.52875169076918], [2.807617979185892, 68.5330764534358]]}, "properties": {"source": "23012504", "target": "18744135"}}, {"type": "Feature", "geometry": {"type": "LineString", "coordinates": [[2.8016386461356717, 68.52875169076918], [2.8153567692194486, 68.53516732258075]]}, "properties": {"source": "23012504", "target": "18744390"}}, {"type": "Feature", "geometry": {"type": "LineString", "coordinates": [[2.81694840886027, 68.52881434076289], [2.8177936258593093, 68.5282653904539]]}, "properties": {"source": "23130049", "target": "26022157"}}, {"type": "Feature", "geometry": {"type": "LineString", "coordinates": [[2.8147400055284777, 68.53108965938799], [2.8131070812089547, 68.52943498762971]]}, "properties": {"source": "13479337", "target": "14984628"}}, {"type": "Feature", "geometry": {"type": "LineString", "coordinates": [[2.813439828685887, 68.53319666912017], [2.814210422400066, 68.53488041435239]]}, "properties": {"source": "31440261", "target": "18739594"}}, {"type": "Feature", "geometry": {"type": "LineString", "coordinates": [[2.807617979185892, 68.5330764534358], [2.8153567692194486, 68.53516732258075]]}, "properties": {"source": "18744135", "target": "18744390"}}, {"type": "Feature", "geometry": {"type": "LineString", "coordinates": [[2.7988180596658765, 68.53509130119627], [2.813789462961779, 68.53146447477238]]}, "properties": {"source": "11237857", "target": "10754830"}}, {"type": "Feature", "geometry": {"type": "LineString", "coordinates": [[2.7988180596658765, 68.53509130119627], [2.8035193879477447, 68.53093358624835]]}, "properties": {"source": "11237857", "target": "13019150"}}, {"type": "Feature", "geometry": {"type": "LineString", "coordinates": [[2.8077509014620716, 68.53451013173975], [2.8006960650313886, 68.53233119087676]]}, "properties": {"source": "4742363", "target": "476592"}}, {"type": "Feature", "geometry": {"type": "LineString", "coordinates": [[2.814210422400066, 68.53488041435239], [2.802275291523415, 68.53271505857788]]}, "properties": {"source": "18739594", "target": "18718771"}}, {"type": "Feature", "geometry": {"type": "LineString", "coordinates": [[2.812654011055969, 68.52941581082271], [2.8007729581697163, 68.52928093997193]]}, "properties": {"source": "11961345", "target": "4989526"}}, {"type": "Feature", "geometry": {"type": "LineString", "coordinates": [[2.812654011055969, 68.52941581082271], [2.7972165000553844, 68.53390046618034]]}, "properties": {"source": "11961345", "target": "17984223"}}, {"type": "Feature", "geometry": {"type": "LineString", "coordinates": [[2.812654011055969, 68.52941581082271], [2.8131070812089547, 68.52943498762971]]}, "properties": {"source": "11961345", "target": "14984628"}}, {"type": "Feature", "geometry": {"type": "LineString", "coordinates": [[2.812654011055969, 68.52941581082271], [2.7988180596658765, 68.53509130119627]]}, "properties": {"source": "11961345", "target": "11237857"}}, {"type": "Feature", "geometry": {"type": "LineString", "coordinates": [[2.812654011055969, 68.52941581082271], [2.812919990924968, 68.53130203635746]]}, "properties": {"source": "11961345", "target": "14656160"}}, {"type": "Feature", "geometry": {"type": "LineString", "coordinates": [[2.8175098530768423, 68.52914426093989], [2.8159267071358727, 68.52893910227613]]}, "properties": {"source": "18514734", "target": "21569382"}}, {"type": "Feature", "geometry": {"type": "LineString", "coordinates": [[2.797161199835699, 68.52970482312585], [2.802275291523415, 68.53271505857788]]}, "properties": {"source": "18675090", "target": "18718771"}}, {"type": "Feature", "geometry": {"type": "LineString", "coordinates": [[2.8174462687835558, 68.53345693982479], [2.807617979185892, 68.5330764534358]]}, "properties": {"source": "18640852", "target": "18744135"}}, {"type": "Feature", "geometry": {"type": "LineString", "coordinates": [[2.8174462687835558, 68.53345693982479], [2.814210422400066, 68.53488041435239]]}, "properties": {"source": "18640852", "target": "18739594"}}, {"type": "Feature", "geometry": {"type": "LineString", "coordinates": [[2.8174462687835558, 68.53345693982479], [2.802275291523415, 68.53271505857788]]}, "properties": {"source": "18640852", "target": "18718771"}}, {"type": "Feature", "geometry": {"type": "LineString", "coordinates": [[2.8174462687835558, 68.53345693982479], [2.797161199835699, 68.52970482312585]]}, "properties": {"source": "18640852", "target": "18675090"}}, {"type": "Feature", "geometry": {"type": "LineString", "coordinates": [[2.8174462687835558, 68.53345693982479], [2.8153567692194486, 68.53516732258075]]}, "properties": {"source": "18640852", "target": "18744390"}}, {"type": "Feature", "geometry": {"type": "LineString", "coordinates": [[2.818880633649428, 68.5350208170299], [2.803658895006123, 68.5347090044855]]}, "properties": {"source": "20766540", "target": "19975117"}}, {"type": "Feature", "geometry": {"type": "LineString", "coordinates": [[2.818880633649428, 68.5350208170299], [2.806861963090512, 68.5365933732912]]}, "properties": {"source": "20766540", "target": "24505349"}}, {"type": "Feature", "geometry": {"type": "LineString", "coordinates": [[2.818880633649428, 68.5350208170299], [2.8177936258593093, 68.5282653904539]]}, "properties": {"source": "20766540", "target": "26022157"}}, {"type": "Feature", "geometry": {"type": "LineString", "coordinates": [[2.818880633649428, 68.5350208170299], [2.8109517082450566, 68.53218834318031]]}, "properties": {"source": "20766540", "target": "18912308"}}, {"type": "Feature", "geometry": {"type": "LineString", "coordinates": [[2.818880633649428, 68.5350208170299], [2.8192134854029973, 68.53504417430895]]}, "properties": {"source": "20766540", "target": "19415528"}}, {"type": "Feature", "geometry": {"type": "LineString", "coordinates": [[2.8194206318364365, 68.53129083215268], [2.7988180596658765, 68.53509130119627]]}, "properties": {"source": "8441978", "target": "11237857"}}, {"type": "Feature", "geometry": {"type": "LineString", "coordinates": [[2.8194206318364365, 68.53129083215268], [2.8161630695171027, 68.52982818076171]]}, "properties": {"source": "8441978", "target": "8223368"}}, {"type": "Feature", "geometry": {"type": "LineString", "coordinates": [[2.803821237418447, 68.52948630224944], [2.798197073578052, 68.5360650228958]]}, "properties": {"source": "1087551", "target": "20516939"}}, {"type": "Feature", "geometry": {"type": "LineString", "coordinates": [[2.803821237418447, 68.52948630224944], [2.8012145904642978, 68.53083747132231]]}, "properties": {"source": "1087551", "target": "20512149"}}, {"type": "Feature", "geometry": {"type": "LineString", "coordinates": [[2.818880633649428, 68.5350208170299], [2.8159267071358727, 68.52893910227613]]}, "properties": {"source": "20766540", "target": "21569382"}}, {"type": "Feature", "geometry": {"type": "LineString", "coordinates": [[2.8153567692194486, 68.53516732258075], [2.814210422400066, 68.53488041435239]]}, "properties": {"source": "18744390", "target": "18739594"}}, {"type": "Feature", "geometry": {"type": "LineString", "coordinates": [[2.8153567692194486, 68.53516732258075], [2.802275291523415, 68.53271505857788]]}, "properties": {"source": "18744390", "target": "18718771"}}, {"type": "Feature", "geometry": {"type": "LineString", "coordinates": [[2.815074699501565, 68.53223170099841], [2.8130354600348255, 68.53603237066645]]}, "properties": {"source": "76136", "target": "7104442"}}, {"type": "Feature", "geometry": {"type": "LineString", "coordinates": [[2.8159267071358727, 68.52893910227613], [2.803658895006123, 68.5347090044855]]}, "properties": {"source": "21569382", "target": "19975117"}}, {"type": "Feature", "geometry": {"type": "LineString", "coordinates": [[2.8159267071358727, 68.52893910227613], [2.8109517082450566, 68.53218834318031]]}, "properties": {"source": "21569382", "target": "18912308"}}, {"type": "Feature", "geometry": {"type": "LineString", "coordinates": [[2.8159267071358727, 68.52893910227613], [2.8169170541853816, 68.53152061297365]]}, "properties": {"source": "21569382", "target": "18950682"}}, {"type": "Feature", "geometry": {"type": "LineString", "coordinates": [[2.810262953514041, 68.52911989717919], [2.8004953046203696, 68.52919232302102]]}, "properties": {"source": "1460328", "target": "1460379"}}, {"type": "Feature", "geometry": {"type": "LineString", "coordinates": [[2.811178880622805, 68.53289442039647], [2.8157551781434336, 68.52825904528945]]}, "properties": {"source": "1460382", "target": "252592"}}, {"type": "Feature", "geometry": {"type": "LineString", "coordinates": [[2.811178880622805, 68.53289442039647], [2.8004953046203696, 68.52919232302102]]}, "properties": {"source": "1460382", "target": "1460379"}}, {"type": "Feature", "geometry": {"type": "LineString", "coordinates": [[2.811178880622805, 68.53289442039647], [2.810262953514041, 68.52911989717919]]}, "properties": {"source": "1460382", "target": "1460328"}}, {"type": "Feature", "geometry": {"type": "LineString", "coordinates": [[2.811178880622805, 68.53289442039647], [2.800756699715919, 68.53427704628112]]}, "properties": {"source": "1460382", "target": "173636"}}, {"type": "Feature", "geometry": {"type": "LineString", "coordinates": [[2.8192134854029973, 68.53504417430895], [2.7972165000553844, 68.53390046618034]]}, "properties": {"source": "19415528", "target": "17984223"}}, {"type": "Feature", "geometry": {"type": "LineString", "coordinates": [[2.8192134854029973, 68.53504417430895], [2.803658895006123, 68.5347090044855]]}, "properties": {"source": "19415528", "target": "19975117"}}, {"type": "Feature", "geometry": {"type": "LineString", "coordinates": [[2.8192134854029973, 68.53504417430895], [2.8109517082450566, 68.53218834318031]]}, "properties": {"source": "19415528", "target": "18912308"}}, {"type": "Feature", "geometry": {"type": "LineString", "coordinates": [[2.800756699715919, 68.53427704628112], [2.810262953514041, 68.52911989717919]]}, "properties": {"source": "173636", "target": "1460328"}}, {"type": "Feature", "geometry": {"type": "LineString", "coordinates": [[2.8192134854029973, 68.53504417430895], [2.8159267071358727, 68.52893910227613]]}, "properties": {"source": "19415528", "target": "21569382"}}, {"type": "Feature", "geometry": {"type": "LineString", "coordinates": [[2.799633234449743, 68.53135186379043], [2.8194206318364365, 68.53129083215268]]}, "properties": {"source": "8441977", "target": "8441978"}}, {"type": "Feature", "geometry": {"type": "LineString", "coordinates": [[2.799633234449743, 68.53135186379043], [2.8161630695171027, 68.52982818076171]]}, "properties": {"source": "8441977", "target": "8223368"}}, {"type": "Feature", "geometry": {"type": "LineString", "coordinates": [[2.799633234449743, 68.53135186379043], [2.8030926775465446, 68.52996816436638]]}, "properties": {"source": "8441977", "target": "15777817"}}, {"type": "Feature", "geometry": {"type": "LineString", "coordinates": [[2.799633234449743, 68.53135186379043], [2.8071810762905898, 68.53648452662358]]}, "properties": {"source": "8441977", "target": "18104324"}}, {"type": "Feature", "geometry": {"type": "LineString", "coordinates": [[2.8161350592309304, 68.53582934353435], [2.8131070812089547, 68.52943498762971]]}, "properties": {"source": "8216599", "target": "14984628"}}, {"type": "Feature", "geometry": {"type": "LineString", "coordinates": [[2.8161350592309304, 68.53582934353435], [2.7988180596658765, 68.53509130119627]]}, "properties": {"source": "8216599", "target": "11237857"}}, {"type": "Feature", "geometry": {"type": "LineString", "coordinates": [[2.8161350592309304, 68.53582934353435], [2.8194206318364365, 68.53129083215268]]}, "properties": {"source": "8216599", "target": "8441978"}}, {"type": "Feature", "geometry": {"type": "LineString", "coordinates": [[2.8161350592309304, 68.53582934353435], [2.813789462961779, 68.53146447477238]]}, "properties": {"source": "8216599", "target": "10754830"}}, {"type": "Feature", "geometry": {"type": "LineString", "coordinates": [[2.8161350592309304, 68.53582934353435], [2.8161630695171027, 68.52982818076171]]}, "properties": {"source": "8216599", "target": "8223368"}}, {"type": "Feature", "geometry": {"type": "LineString", "coordinates": [[2.812919990924968, 68.53130203635746], [2.8129829246978773, 68.53116167391008]]}, "properties": {"source": "14656160", "target": "13574317"}}, {"type": "Feature", "geometry": {"type": "LineString", "coordinates": [[2.812919990924968, 68.53130203635746], [2.815404560585989, 68.5327930743108]]}, "properties": {"source": "14656160", "target": "13279167"}}, {"type": "Feature", "geometry": {"type": "LineString", "coordinates": [[2.812919990924968, 68.53130203635746], [2.816253711963782, 68.52843985985422]]}, "properties": {"source": "14656160", "target": "14431476"}}, {"type": "Feature", "geometry": {"type": "LineString", "coordinates": [[2.812919990924968, 68.53130203635746], [2.8155969385631465, 68.53391949278392]]}, "properties": {"source": "14656160", "target": "20766894"}}, {"type": "Feature", "geometry": {"type": "LineString", "coordinates": [[2.812919990924968, 68.53130203635746], [2.81541932573208, 68.52984642513877]]}, "properties": {"source": "14656160", "target": "18071099"}}, {"type": "Feature", "geometry": {"type": "LineString", "coordinates": [[2.812919990924968, 68.53130203635746], [2.8186591096338987, 68.52924174330056]]}, "properties": {"source": "14656160", "target": "13628924"}}, {"type": "Feature", "geometry": {"type": "LineString", "coordinates": [[2.8037000289818366, 68.53264691430465], [2.8077509014620716, 68.53451013173975]]}, "properties": {"source": "1541806", "target": "4742363"}}, {"type": "Feature", "geometry": {"type": "LineString", "coordinates": [[2.8007729581697163, 68.52928093997193], [2.7972165000553844, 68.53390046618034]]}, "properties": {"source": "4989526", "target": "17984223"}}, {"type": "Feature", "geometry": {"type": "LineString", "coordinates": [[2.8007729581697163, 68.52928093997193], [2.8131070812089547, 68.52943498762971]]}, "properties": {"source": "4989526", "target": "14984628"}}, {"type": "Feature", "geometry": {"type": "LineString", "coordinates": [[2.8007729581697163, 68.52928093997193], [2.7988180596658765, 68.53509130119627]]}, "properties": {"source": "4989526", "target": "11237857"}}, {"type": "Feature", "geometry": {"type": "LineString", "coordinates": [[2.8007729581697163, 68.52928093997193], [2.799633234449743, 68.53135186379043]]}, "properties": {"source": "4989526", "target": "8441977"}}, {"type": "Feature", "geometry": {"type": "LineString", "coordinates": [[2.8007729581697163, 68.52928093997193], [2.8161350592309304, 68.53582934353435]]}, "properties": {"source": "4989526", "target": "8216599"}}, {"type": "Feature", "geometry": {"type": "LineString", "coordinates": [[2.8007729581697163, 68.52928093997193], [2.8194206318364365, 68.53129083215268]]}, "properties": {"source": "4989526", "target": "8441978"}}, {"type": "Feature", "geometry": {"type": "LineString", "coordinates": [[2.8007729581697163, 68.52928093997193], [2.813789462961779, 68.53146447477238]]}, "properties": {"source": "4989526", "target": "10754830"}}, {"type": "Feature", "geometry": {"type": "LineString", "coordinates": [[2.8007729581697163, 68.52928093997193], [2.7963793456491715, 68.52931005274175]]}, "properties": {"source": "4989526", "target": "12252901"}}, {"type": "Feature", "geometry": {"type": "LineString", "coordinates": [[2.8007729581697163, 68.52928093997193], [2.80982487087806, 68.53294464619697]]}, "properties": {"source": "4989526", "target": "4716291"}}, {"type": "Feature", "geometry": {"type": "LineString", "coordinates": [[2.8007729581697163, 68.52928093997193], [2.7985013494231907, 68.53456796349221]]}, "properties": {"source": "4989526", "target": "6233988"}}, {"type": "Feature", "geometry": {"type": "LineString", "coordinates": [[2.8007729581697163, 68.52928093997193], [2.818310968713945, 68.53202368496065]]}, "properties": {"source": "4989526", "target": "5245510"}}, {"type": "Feature", "geometry": {"type": "LineString", "coordinates": [[2.8007729581697163, 68.52928093997193], [2.821108446157126, 68.53079357571747]]}, "properties": {"source": "4989526", "target": "6115693"}}, {"type": "Feature", "geometry": {"type": "LineString", "coordinates": [[2.8007729581697163, 68.52928093997193], [2.8009491517316576, 68.53251464894649]]}, "properties": {"source": "4989526", "target": "5391867"}}, {"type": "Feature", "geometry": {"type": "LineString", "coordinates": [[2.8007729581697163, 68.52928093997193], [2.7992214938952316, 68.53465341616504]]}, "properties": {"source": "4989526", "target": "110009"}}, {"type": "Feature", "geometry": {"type": "LineString", "coordinates": [[2.8007729581697163, 68.52928093997193], [2.8035193879477447, 68.53093358624835]]}, "properties": {"source": "4989526", "target": "13019150"}}, {"type": "Feature", "geometry": {"type": "LineString", "coordinates": [[2.8007729581697163, 68.52928093997193], [2.803893220252519, 68.53385277812953]]}, "properties": {"source": "4989526", "target": "318667"}}, {"type": "Feature", "geometry": {"type": "LineString", "coordinates": [[2.8130022237186836, 68.53202607225595], [2.816156212739827, 68.53294796093769]]}, "properties": {"source": "472329", "target": "24458793"}}, {"type": "Feature", "geometry": {"type": "LineString", "coordinates": [[2.8130022237186836, 68.53202607225595], [2.8077509014620716, 68.53451013173975]]}, "properties": {"source": "472329", "target": "4742363"}}, {"type": "Feature", "geometry": {"type": "LineString", "coordinates": [[2.8130022237186836, 68.53202607225595], [2.8037000289818366, 68.53264691430465]]}, "properties": {"source": "472329", "target": "1541806"}}, {"type": "Feature", "geometry": {"type": "LineString", "coordinates": [[2.8130022237186836, 68.53202607225595], [2.8006960650313886, 68.53233119087676]]}, "properties": {"source": "472329", "target": "476592"}}, {"type": "Feature", "geometry": {"type": "LineString", "coordinates": [[2.8130022237186836, 68.53202607225595], [2.8073124535018508, 68.53214065014865]]}, "properties": {"source": "472329", "target": "21942178"}}, {"type": "Feature", "geometry": {"type": "LineString", "coordinates": [[2.8130022237186836, 68.53202607225595], [2.8177249560800703, 68.53081169843423]]}, "properties": {"source": "472329", "target": "491595"}}, {"type": "Feature", "geometry": {"type": "LineString", "coordinates": [[2.8130022237186836, 68.53202607225595], [2.7978777448672645, 68.53450388431185]]}, "properties": {"source": "472329", "target": "34097817"}}, {"type": "Feature", "geometry": {"type": "LineString", "coordinates": [[2.816164073323961, 68.53193194777819], [2.807617979185892, 68.5330764534358]]}, "properties": {"source": "18657053", "target": "18744135"}}, {"type": "Feature", "geometry": {"type": "LineString", "coordinates": [[2.816164073323961, 68.53193194777819], [2.814210422400066, 68.53488041435239]]}, "properties": {"source": "18657053", "target": "18739594"}}, {"type": "Feature", "geometry": {"type": "LineString", "coordinates": [[2.816164073323961, 68.53193194777819], [2.812919990924968, 68.53130203635746]]}, "properties": {"source": "18657053", "target": "14656160"}}, {"type": "Feature", "geometry": {"type": "LineString", "coordinates": [[2.816164073323961, 68.53193194777819], [2.802275291523415, 68.53271505857788]]}, "properties": {"source": "18657053", "target": "18718771"}}, {"type": "Feature", "geometry": {"type": "LineString", "coordinates": [[2.816164073323961, 68.53193194777819], [2.797161199835699, 68.52970482312585]]}, "properties": {"source": "18657053", "target": "18675090"}}, {"type": "Feature", "geometry": {"type": "LineString", "coordinates": [[2.816164073323961, 68.53193194777819], [2.799259631401412, 68.53488055077437]]}, "properties": {"source": "18657053", "target": "204163"}}, {"type": "Feature", "geometry": {"type": "LineString", "coordinates": [[2.816164073323961, 68.53193194777819], [2.8174462687835558, 68.53345693982479]]}, "properties": {"source": "18657053", "target": "18640852"}}, {"type": "Feature", "geometry": {"type": "LineString", "coordinates": [[2.816164073323961, 68.53193194777819], [2.8155969385631465, 68.53391949278392]]}, "properties": {"source": "18657053", "target": "20766894"}}, {"type": "Feature", "geometry": {"type": "LineString", "coordinates": [[2.816164073323961, 68.53193194777819], [2.81541932573208, 68.52984642513877]]}, "properties": {"source": "18657053", "target": "18071099"}}, {"type": "Feature", "geometry": {"type": "LineString", "coordinates": [[2.814093163725431, 68.53622261468769], [2.8109517082450566, 68.53218834318031]]}, "properties": {"source": "16059465", "target": "18912308"}}, {"type": "Feature", "geometry": {"type": "LineString", "coordinates": [[2.814093163725431, 68.53622261468769], [2.8061811117615605, 68.53100391270371]]}, "properties": {"source": "16059465", "target": "8220913"}}, {"type": "Feature", "geometry": {"type": "LineString", "coordinates": [[2.799602850492306, 68.53662002773854], [2.8007729581697163, 68.52928093997193]]}, "properties": {"source": "555215", "target": "4989526"}}, {"type": "Feature", "geometry": {"type": "LineString", "coordinates": [[2.799602850492306, 68.53662002773854], [2.8131070812089547, 68.52943498762971]]}, "properties": {"source": "555215", "target": "14984628"}}, {"type": "Feature", "geometry": {"type": "LineString", "coordinates": [[2.799602850492306, 68.53662002773854], [2.7988180596658765, 68.53509130119627]]}, "properties": {"source": "555215", "target": "11237857"}}, {"type": "Feature", "geometry": {"type": "LineString", "coordinates": [[2.799602850492306, 68.53662002773854], [2.799633234449743, 68.53135186379043]]}, "properties": {"source": "555215", "target": "8441977"}}, {"type": "Feature", "geometry": {"type": "LineString", "coordinates": [[2.799602850492306, 68.53662002773854], [2.8161350592309304, 68.53582934353435]]}, "properties": {"source": "555215", "target": "8216599"}}, {"type": "Feature", "geometry": {"type": "LineString", "coordinates": [[2.799602850492306, 68.53662002773854], [2.8194206318364365, 68.53129083215268]]}, "properties": {"source": "555215", "target": "8441978"}}, {"type": "Feature", "geometry": {"type": "LineString", "coordinates": [[2.799602850492306, 68.53662002773854], [2.803893220252519, 68.53385277812953]]}, "properties": {"source": "555215", "target": "318667"}}, {"type": "Feature", "geometry": {"type": "LineString", "coordinates": [[2.803390669643562, 68.53131201922236], [2.7972165000553844, 68.53390046618034]]}, "properties": {"source": "17925084", "target": "17984223"}}, {"type": "Feature", "geometry": {"type": "LineString", "coordinates": [[2.803390669643562, 68.53131201922236], [2.803658895006123, 68.5347090044855]]}, "properties": {"source": "17925084", "target": "19975117"}}, {"type": "Feature", "geometry": {"type": "LineString", "coordinates": [[2.803390669643562, 68.53131201922236], [2.806861963090512, 68.5365933732912]]}, "properties": {"source": "17925084", "target": "24505349"}}, {"type": "Feature", "geometry": {"type": "LineString", "coordinates": [[2.803390669643562, 68.53131201922236], [2.8177936258593093, 68.5282653904539]]}, "properties": {"source": "17925084", "target": "26022157"}}, {"type": "Feature", "geometry": {"type": "LineString", "coordinates": [[2.803390669643562, 68.53131201922236], [2.802347118770399, 68.53376678931176]]}, "properties": {"source": "17925084", "target": "25016887"}}, {"type": "Feature", "geometry": {"type": "LineString", "coordinates": [[2.803390669643562, 68.53131201922236], [2.8109517082450566, 68.53218834318031]]}, "properties": {"source": "17925084", "target": "18912308"}}, {"type": "Feature", "geometry": {"type": "LineString", "coordinates": [[2.803390669643562, 68.53131201922236], [2.798785275517332, 68.53325218816721]]}, "properties": {"source": "17925084", "target": "16163122"}}, {"type": "Feature", "geometry": {"type": "LineString", "coordinates": [[2.8157551781434336, 68.52825904528945], [2.8004953046203696, 68.52919232302102]]}, "properties": {"source": "252592", "target": "1460379"}}, {"type": "Feature", "geometry": {"type": "LineString", "coordinates": [[2.8157551781434336, 68.52825904528945], [2.810262953514041, 68.52911989717919]]}, "properties": {"source": "252592", "target": "1460328"}}, {"type": "Feature", "geometry": {"type": "LineString", "coordinates": [[2.8004953046203696, 68.52919232302102], [2.8012145904642978, 68.53083747132231]]}, "properties": {"source": "1460379", "target": "20512149"}}, {"type": "Feature", "geometry": {"type": "LineString", "coordinates": [[2.8004953046203696, 68.52919232302102], [2.8097555777320053, 68.52978459229234]]}, "properties": {"source": "1460379", "target": "18776721"}}, {"type": "Feature", "geometry": {"type": "LineString", "coordinates": [[2.7960345238147966, 68.53067992222933], [2.798197073578052, 68.5360650228958]]}, "properties": {"source": "1460341", "target": "20516939"}}, {"type": "Feature", "geometry": {"type": "LineString", "coordinates": [[2.7960345238147966, 68.53067992222933], [2.8012145904642978, 68.53083747132231]]}, "properties": {"source": "1460341", "target": "20512149"}}, {"type": "Feature", "geometry": {"type": "LineString", "coordinates": [[2.7960345238147966, 68.53067992222933], [2.8097555777320053, 68.52978459229234]]}, "properties": {"source": "1460341", "target": "18776721"}}, {"type": "Feature", "geometry": {"type": "LineString", "coordinates": [[2.7960345238147966, 68.53067992222933], [2.8157551781434336, 68.52825904528945]]}, "properties": {"source": "1460341", "target": "252592"}}, {"type": "Feature", "geometry": {"type": "LineString", "coordinates": [[2.7960345238147966, 68.53067992222933], [2.8004953046203696, 68.52919232302102]]}, "properties": {"source": "1460341", "target": "1460379"}}, {"type": "Feature", "geometry": {"type": "LineString", "coordinates": [[2.7960345238147966, 68.53067992222933], [2.803821237418447, 68.52948630224944]]}, "properties": {"source": "1460341", "target": "1087551"}}, {"type": "Feature", "geometry": {"type": "LineString", "coordinates": [[2.7960345238147966, 68.53067992222933], [2.8171623472634906, 68.53449468229073]]}, "properties": {"source": "1460341", "target": "1460066"}}, {"type": "Feature", "geometry": {"type": "LineString", "coordinates": [[2.7960345238147966, 68.53067992222933], [2.810262953514041, 68.52911989717919]]}, "properties": {"source": "1460341", "target": "1460328"}}, {"type": "Feature", "geometry": {"type": "LineString", "coordinates": [[2.7960345238147966, 68.53067992222933], [2.8022648540003274, 68.53150392969948]]}, "properties": {"source": "1460341", "target": "1460064"}}, {"type": "Feature", "geometry": {"type": "LineString", "coordinates": [[2.807617979185892, 68.5330764534358], [2.814210422400066, 68.53488041435239]]}, "properties": {"source": "18744135", "target": "18739594"}}, {"type": "Feature", "geometry": {"type": "LineString", "coordinates": [[2.807617979185892, 68.5330764534358], [2.802275291523415, 68.53271505857788]]}, "properties": {"source": "18744135", "target": "18718771"}}, {"type": "Feature", "geometry": {"type": "LineString", "coordinates": [[2.807617979185892, 68.5330764534358], [2.797161199835699, 68.52970482312585]]}, "properties": {"source": "18744135", "target": "18675090"}}, {"type": "Feature", "geometry": {"type": "LineString", "coordinates": [[2.8113125848777543, 68.53468242218662], [2.7993570430963928, 68.5311503802688]]}, "properties": {"source": "15740083", "target": "2236094"}}, {"type": "Feature", "geometry": {"type": "LineString", "coordinates": [[2.8113125848777543, 68.53468242218662], [2.814686413171472, 68.52949967787134]]}, "properties": {"source": "15740083", "target": "27625475"}}, {"type": "Feature", "geometry": {"type": "LineString", "coordinates": [[2.8113125848777543, 68.53468242218662], [2.816156212739827, 68.53294796093769]]}, "properties": {"source": "15740083", "target": "24458793"}}, {"type": "Feature", "geometry": {"type": "LineString", "coordinates": [[2.8113125848777543, 68.53468242218662], [2.8037000289818366, 68.53264691430465]]}, "properties": {"source": "15740083", "target": "1541806"}}, {"type": "Feature", "geometry": {"type": "LineString", "coordinates": [[2.8113125848777543, 68.53468242218662], [2.8045454657363393, 68.53526366611527]]}, "properties": {"source": "15740083", "target": "2095560"}}, {"type": "Feature", "geometry": {"type": "LineString", "coordinates": [[2.8113125848777543, 68.53468242218662], [2.8073124535018508, 68.53214065014865]]}, "properties": {"source": "15740083", "target": "21942178"}}, {"type": "Feature", "geometry": {"type": "LineString", "coordinates": [[2.8045454657363393, 68.53526366611527], [2.7993570430963928, 68.5311503802688]]}, "properties": {"source": "2095560", "target": "2236094"}}, {"type": "Feature", "geometry": {"type": "LineString", "coordinates": [[2.8045454657363393, 68.53526366611527], [2.814686413171472, 68.52949967787134]]}, "properties": {"source": "2095560", "target": "27625475"}}, {"type": "Feature", "geometry": {"type": "LineString", "coordinates": [[2.8045454657363393, 68.53526366611527], [2.816156212739827, 68.53294796093769]]}, "properties": {"source": "2095560", "target": "24458793"}}, {"type": "Feature", "geometry": {"type": "LineString", "coordinates": [[2.8045454657363393, 68.53526366611527], [2.8073124535018508, 68.53214065014865]]}, "properties": {"source": "2095560", "target": "21942178"}}, {"type": "Feature", "geometry": {"type": "LineString", "coordinates": [[2.8129829246978773, 68.53116167391008], [2.815404560585989, 68.5327930743108]]}, "properties": {"source": "13574317", "target": "13279167"}}, {"type": "Feature", "geometry": {"type": "LineString", "coordinates": [[2.8129829246978773, 68.53116167391008], [2.816253711963782, 68.52843985985422]]}, "properties": {"source": "13574317", "target": "14431476"}}, {"type": "Feature", "geometry": {"type": "LineString", "coordinates": [[2.8129829246978773, 68.53116167391008], [2.8186591096338987, 68.52924174330056]]}, "properties": {"source": "13574317", "target": "13628924"}}, {"type": "Feature", "geometry": {"type": "LineString", "coordinates": [[2.80982487087806, 68.53294464619697], [2.818310968713945, 68.53202368496065]]}, "properties": {"source": "4716291", "target": "5245510"}}, {"type": "Feature", "geometry": {"type": "LineString", "coordinates": [[2.80982487087806, 68.53294464619697], [2.8009491517316576, 68.53251464894649]]}, "properties": {"source": "4716291", "target": "5391867"}}, {"type": "Feature", "geometry": {"type": "LineString", "coordinates": [[2.80982487087806, 68.53294464619697], [2.818095258415468, 68.52981957419959]]}, "properties": {"source": "4716291", "target": "1006783"}}, {"type": "Feature", "geometry": {"type": "LineString", "coordinates": [[2.803658895006123, 68.5347090044855], [2.8177936258593093, 68.5282653904539]]}, "properties": {"source": "19975117", "target": "26022157"}}, {"type": "Feature", "geometry": {"type": "LineString", "coordinates": [[2.803658895006123, 68.5347090044855], [2.8109517082450566, 68.53218834318031]]}, "properties": {"source": "19975117", "target": "18912308"}}, {"type": "Feature", "geometry": {"type": "LineString", "coordinates": [[2.803658895006123, 68.5347090044855], [2.803402764314569, 68.53106229009563]]}, "properties": {"source": "19975117", "target": "17616284"}}, {"type": "Feature", "geometry": {"type": "LineString", "coordinates": [[2.803658895006123, 68.5347090044855], [2.8169170541853816, 68.53152061297365]]}, "properties": {"source": "19975117", "target": "18950682"}}, {"type": "Feature", "geometry": {"type": "LineString", "coordinates": [[2.7993570430963928, 68.5311503802688], [2.814686413171472, 68.52949967787134]]}, "properties": {"source": "2236094", "target": "27625475"}}, {"type": "Feature", "geometry": {"type": "LineString", "coordinates": [[2.7993570430963928, 68.5311503802688], [2.816156212739827, 68.53294796093769]]}, "properties": {"source": "2236094", "target": "24458793"}}, {"type": "Feature", "geometry": {"type": "LineString", "coordinates": [[2.7993570430963928, 68.5311503802688], [2.8077509014620716, 68.53451013173975]]}, "properties": {"source": "2236094", "target": "4742363"}}, {"type": "Feature", "geometry": {"type": "LineString", "coordinates": [[2.7993570430963928, 68.5311503802688], [2.8037000289818366, 68.53264691430465]]}, "properties": {"source": "2236094", "target": "1541806"}}, {"type": "Feature", "geometry": {"type": "LineString", "coordinates": [[2.7993570430963928, 68.5311503802688], [2.8073124535018508, 68.53214065014865]]}, "properties": {"source": "2236094", "target": "21942178"}}, {"type": "Feature", "geometry": {"type": "LineString", "coordinates": [[2.7993570430963928, 68.5311503802688], [2.81952932875393, 68.53166350334911]]}, "properties": {"source": "2236094", "target": "2405401"}}, {"type": "Feature", "geometry": {"type": "LineString", "coordinates": [[2.798197073578052, 68.5360650228958], [2.8012145904642978, 68.53083747132231]]}, "properties": {"source": "20516939", "target": "20512149"}}, {"type": "Feature", "geometry": {"type": "LineString", "coordinates": [[2.798197073578052, 68.5360650228958], [2.8097555777320053, 68.52978459229234]]}, "properties": {"source": "20516939", "target": "18776721"}}, {"type": "Feature", "geometry": {"type": "LineString", "coordinates": [[2.798197073578052, 68.5360650228958], [2.8157551781434336, 68.52825904528945]]}, "properties": {"source": "20516939", "target": "252592"}}, {"type": "Feature", "geometry": {"type": "LineString", "coordinates": [[2.798197073578052, 68.5360650228958], [2.8004953046203696, 68.52919232302102]]}, "properties": {"source": "20516939", "target": "1460379"}}, {"type": "Feature", "geometry": {"type": "LineString", "coordinates": [[2.814686413171472, 68.52949967787134], [2.8077509014620716, 68.53451013173975]]}, "properties": {"source": "27625475", "target": "4742363"}}, {"type": "Feature", "geometry": {"type": "LineString", "coordinates": [[2.814686413171472, 68.52949967787134], [2.8037000289818366, 68.53264691430465]]}, "properties": {"source": "27625475", "target": "1541806"}}, {"type": "Feature", "geometry": {"type": "LineString", "coordinates": [[2.7972165000553844, 68.53390046618034], [2.806861963090512, 68.5365933732912]]}, "properties": {"source": "17984223", "target": "24505349"}}, {"type": "Feature", "geometry": {"type": "LineString", "coordinates": [[2.7972165000553844, 68.53390046618034], [2.7988180596658765, 68.53509130119627]]}, "properties": {"source": "17984223", "target": "11237857"}}, {"type": "Feature", "geometry": {"type": "LineString", "coordinates": [[2.7972165000553844, 68.53390046618034], [2.8177936258593093, 68.5282653904539]]}, "properties": {"source": "17984223", "target": "26022157"}}, {"type": "Feature", "geometry": {"type": "LineString", "coordinates": [[2.7972165000553844, 68.53390046618034], [2.813789462961779, 68.53146447477238]]}, "properties": {"source": "17984223", "target": "10754830"}}, {"type": "Feature", "geometry": {"type": "LineString", "coordinates": [[2.7972165000553844, 68.53390046618034], [2.8109517082450566, 68.53218834318031]]}, "properties": {"source": "17984223", "target": "18912308"}}, {"type": "Feature", "geometry": {"type": "LineString", "coordinates": [[2.7972165000553844, 68.53390046618034], [2.8035193879477447, 68.53093358624835]]}, "properties": {"source": "17984223", "target": "13019150"}}, {"type": "Feature", "geometry": {"type": "LineString", "coordinates": [[2.7972165000553844, 68.53390046618034], [2.8061811117615605, 68.53100391270371]]}, "properties": {"source": "17984223", "target": "8220913"}}, {"type": "Feature", "geometry": {"type": "LineString", "coordinates": [[2.8076043380357874, 68.53325444539723], [2.8007729581697163, 68.52928093997193]]}, "properties": {"source": "515577", "target": "4989526"}}, {"type": "Feature", "geometry": {"type": "LineString", "coordinates": [[2.8076043380357874, 68.53325444539723], [2.8026912831045365, 68.53433049825256]]}, "properties": {"source": "515577", "target": "533709"}}, {"type": "Feature", "geometry": {"type": "LineString", "coordinates": [[2.8076043380357874, 68.53325444539723], [2.798197073578052, 68.5360650228958]]}, "properties": {"source": "515577", "target": "20516939"}}, {"type": "Feature", "geometry": {"type": "LineString", "coordinates": [[2.8076043380357874, 68.53325444539723], [2.8012145904642978, 68.53083747132231]]}, "properties": {"source": "515577", "target": "20512149"}}, {"type": "Feature", "geometry": {"type": "LineString", "coordinates": [[2.8076043380357874, 68.53325444539723], [2.8097555777320053, 68.52978459229234]]}, "properties": {"source": "515577", "target": "18776721"}}, {"type": "Feature", "geometry": {"type": "LineString", "coordinates": [[2.8076043380357874, 68.53325444539723], [2.8157551781434336, 68.52825904528945]]}, "properties": {"source": "515577", "target": "252592"}}, {"type": "Feature", "geometry": {"type": "LineString", "coordinates": [[2.8076043380357874, 68.53325444539723], [2.8004953046203696, 68.52919232302102]]}, "properties": {"source": "515577", "target": "1460379"}}, {"type": "Feature", "geometry": {"type": "LineString", "coordinates": [[2.8076043380357874, 68.53325444539723], [2.803821237418447, 68.52948630224944]]}, "properties": {"source": "515577", "target": "1087551"}}, {"type": "Feature", "geometry": {"type": "LineString", "coordinates": [[2.8076043380357874, 68.53325444539723], [2.80982487087806, 68.53294464619697]]}, "properties": {"source": "515577", "target": "4716291"}}, {"type": "Feature", "geometry": {"type": "LineString", "coordinates": [[2.8161248829657666, 68.53422948191528], [2.799259631401412, 68.53488055077437]]}, "properties": {"source": "22397", "target": "204163"}}, {"type": "Feature", "geometry": {"type": "LineString", "coordinates": [[2.8161248829657666, 68.53422948191528], [2.8155969385631465, 68.53391949278392]]}, "properties": {"source": "22397", "target": "20766894"}}, {"type": "Feature", "geometry": {"type": "LineString", "coordinates": [[2.8161248829657666, 68.53422948191528], [2.81541932573208, 68.52984642513877]]}, "properties": {"source": "22397", "target": "18071099"}}, {"type": "Feature", "geometry": {"type": "LineString", "coordinates": [[2.8142962374005833, 68.53280022651768], [2.8130022237186836, 68.53202607225595]]}, "properties": {"source": "7079751", "target": "472329"}}, {"type": "Feature", "geometry": {"type": "LineString", "coordinates": [[2.8142962374005833, 68.53280022651768], [2.799127367982237, 68.53474418026099]]}, "properties": {"source": "7079751", "target": "576559"}}, {"type": "Feature", "geometry": {"type": "LineString", "coordinates": [[2.8142962374005833, 68.53280022651768], [2.8177249560800703, 68.53081169843423]]}, "properties": {"source": "7079751", "target": "491595"}}, {"type": "Feature", "geometry": {"type": "LineString", "coordinates": [[2.799127367982237, 68.53474418026099], [2.8130022237186836, 68.53202607225595]]}, "properties": {"source": "576559", "target": "472329"}}, {"type": "Feature", "geometry": {"type": "LineString", "coordinates": [[2.799127367982237, 68.53474418026099], [2.8177249560800703, 68.53081169843423]]}, "properties": {"source": "576559", "target": "491595"}}, {"type": "Feature", "geometry": {"type": "LineString", "coordinates": [[2.7985218279689548, 68.52895485822813], [2.807958152166094, 68.53116605583952]]}, "properties": {"source": "11066191", "target": "16241901"}}, {"type": "Feature", "geometry": {"type": "LineString", "coordinates": [[2.7985218279689548, 68.52895485822813], [2.818129078887438, 68.52996644814482]]}, "properties": {"source": "11066191", "target": "12815231"}}, {"type": "Feature", "geometry": {"type": "LineString", "coordinates": [[2.7985218279689548, 68.52895485822813], [2.8077363166925977, 68.53061502320386]]}, "properties": {"source": "11066191", "target": "8941054"}}, {"type": "Feature", "geometry": {"type": "LineString", "coordinates": [[2.8030926775465446, 68.52996816436638], [2.8161630695171027, 68.52982818076171]]}, "properties": {"source": "15777817", "target": "8223368"}}, {"type": "Feature", "geometry": {"type": "LineString", "coordinates": [[2.8030926775465446, 68.52996816436638], [2.8071810762905898, 68.53648452662358]]}, "properties": {"source": "15777817", "target": "18104324"}}, {"type": "Feature", "geometry": {"type": "LineString", "coordinates": [[2.8206718891433127, 68.53237173955185], [2.7993570430963928, 68.5311503802688]]}, "properties": {"source": "2405399", "target": "2236094"}}, {"type": "Feature", "geometry": {"type": "LineString", "coordinates": [[2.8206718891433127, 68.53237173955185], [2.803660979670269, 68.53040942900563]]}, "properties": {"source": "2405399", "target": "2136452"}}, {"type": "Feature", "geometry": {"type": "LineString", "coordinates": [[2.8206718891433127, 68.53237173955185], [2.81952932875393, 68.53166350334911]]}, "properties": {"source": "2405399", "target": "2405401"}}]}