{"type": "FeatureCollection", "features": [{"type": "Feature", "geometry": {"type": "LineString", "coordinates": [[111.87535160585065, 69.23060717028895], [111.87501606761532, 69.22998157048775]]}, "properties": {"source": "511259", "target": "8716104"}}, {"type": "Feature", "geometry": {"type": "LineString", "coordinates": [[111.87535160585065, 69.23060717028895], [111.87464776266762, 69.2307232063502]]}, "properties": {"source": "511259", "target": "3610998"}}, {"type": "Feature", "geometry": {"type": "LineString", "coordinates": [[111.87535160585065, 69.23060717028895], [111.87638666581654, 69.23017246867497]]}, "properties": {"source": "511259", "target": "1506676"}}, {"type": "Feature", "geometry": {"type": "LineString", "coordinates": [[111.87535160585065, 69.23060717028895], [111.87274245448089, 69.23031676509967]]}, "properties": {"source": "511259", "target": "583921"}}, {"type": "Feature", "geometry": {"type": "LineString", "coordinates": [[111.87512885000956, 69.23095114287642], [111.87501606761532, 69.22998157048775]]}, "properties": {"source": "31626669", "target": "8716104"}}, {"type": "Feature", "geometry": {"type": "LineString", "coordinates": [[111.87512885000956, 69.23095114287642], [111.87464776266762, 69.2307232063502]]}, "properties": {"source": "31626669", "target": "3610998"}}, {"type": "Feature", "geometry": {"type": "LineString", "coordinates": [[111.87512885000956, 69.23095114287642], [111.87471018882428, 69.23060712994135]]}, "properties": {"source": "31626669", "target": "574629"}}, {"type": "Feature", "geometry": {"type": "LineString", "coordinates": [[111.87341611292248, 69.23111433911171], [111.87493977749165, 69.23078573055838]]}, "properties": {"source": "511258", "target": "289570"}}, {"type": "Feature", "geometry": {"type": "LineString", "coordinates": [[111.87341611292248, 69.23111433911171], [111.87235409766231, 69.23122410648725]]}, "properties": {"source": "511258", "target": "395886"}}, {"type": "Feature", "geometry": {"type": "LineString", "coordinates": [[111.87341611292248, 69.23111433911171], [111.87615854634521, 69.23086196658724]]}, "properties": {"source": "511258", "target": "26068059"}}, {"type": "Feature", "geometry": {"type": "LineString", "coordinates": [[111.87341611292248, 69.23111433911171], [111.87222055845763, 69.23070432056667]]}, "properties": {"source": "511258", "target": "15811577"}}, {"type": "Feature", "geometry": {"type": "LineString", "coordinates": [[111.87341611292248, 69.23111433911171], [111.87638666581654, 69.23017246867497]]}, "properties": {"source": "511258", "target": "1506676"}}, {"type": "Feature", "geometry": {"type": "LineString", "coordinates": [[111.87341611292248, 69.23111433911171], [111.8768472139555, 69.22973490427674]]}, "properties": {"source": "511258", "target": "22571700"}}, {"type": "Feature", "geometry": {"type": "LineString", "coordinates": [[111.87341611292248, 69.23111433911171], [111.87274245448089, 69.23031676509967]]}, "properties": {"source": "511258", "target": "583921"}}, {"type": "Feature", "geometry": {"type": "LineString", "coordinates": [[111.87341611292248, 69.23111433911171], [111.8761432565089, 69.23130172991219]]}, "properties": {"source": "511258", "target": "29533238"}}, {"type": "Feature", "geometry": {"type": "LineString", "coordinates": [[111.87649920986928, 69.22996140111462], [111.8752542525171, 69.23098531065861]]}, "properties": {"source": "511257", "target": "511260"}}, {"type": "Feature", "geometry": {"type": "LineString", "coordinates": [[111.87649920986928, 69.22996140111462], [111.87575511458294, 69.23110390322816]]}, "properties": {"source": "511257", "target": "528038"}}, {"type": "Feature", "geometry": {"type": "LineString", "coordinates": [[111.87649920986928, 69.22996140111462], [111.87680360389584, 69.22986313862597]]}, "properties": {"source": "511257", "target": "6651233"}}, {"type": "Feature", "geometry": {"type": "LineString", "coordinates": [[111.87512885000956, 69.23095114287642], [111.87535160585065, 69.23060717028895]]}, "properties": {"source": "31626669", "target": "511259"}}, {"type": "Feature", "geometry": {"type": "LineString", "coordinates": [[111.87649920986928, 69.22996140111462], [111.87535160585065, 69.23060717028895]]}, "properties": {"source": "511257", "target": "511259"}}, {"type": "Feature", "geometry": {"type": "LineString", "coordinates": [[111.87649920986928, 69.22996140111462], [111.873003557613, 69.23080932536564]]}, "properties": {"source": "511257", "target": "511261"}}, {"type": "Feature", "geometry": {"type": "LineString", "coordinates": [[111.87649920986928, 69.22996140111462], [111.87501606761532, 69.22998157048775]]}, "properties": {"source": "511257", "target": "8716104"}}, {"type": "Feature", "geometry": {"type": "LineString", "coordinates": [[111.87649920986928, 69.22996140111462], [111.87464776266762, 69.2307232063502]]}, "properties": {"source": "511257", "target": "3610998"}}, {"type": "Feature", "geometry": {"type": "LineString", "coordinates": [[111.87649920986928, 69.22996140111462], [111.87471018882428, 69.23060712994135]]}, "properties": {"source": "511257", "target": "574629"}}, {"type": "Feature", "geometry": {"type": "LineString", "coordinates": [[111.87575511458294, 69.23110390322816], [111.87680360389584, 69.22986313862597]]}, "properties": {"source": "528038", "target": "6651233"}}, {"type": "Feature", "geometry": {"type": "LineString", "coordinates": [[111.87575511458294, 69.23110390322816], [111.87501606761532, 69.22998157048775]]}, "properties": {"source": "528038", "target": "8716104"}}, {"type": "Feature", "geometry": {"type": "LineString", "coordinates": [[111.87575511458294, 69.23110390322816], [111.87464776266762, 69.2307232063502]]}, "properties": {"source": "528038", "target": "3610998"}}, {"type": "Feature", "geometry": {"type": "LineString", "coordinates": [[111.87575511458294, 69.23110390322816], [111.87638666581654, 69.23017246867497]]}, "properties": {"source": "528038", "target": "1506676"}}, {"type": "Feature", "geometry": {"type": "LineString", "coordinates": [[111.87575511458294, 69.23110390322816], [111.87274245448089, 69.23031676509967]]}, "properties": {"source": "528038", "target": "583921"}}, {"type": "Feature", "geometry": {"type": "LineString", "coordinates": [[111.87575511458294, 69.23110390322816], [111.87623755666863, 69.2307388793854]]}, "properties": {"source": "528038", "target": "18114091"}}, {"type": "Feature", "geometry": {"type": "LineString", "coordinates": [[111.87680360389584, 69.22986313862597], [111.87501606761532, 69.22998157048775]]}, "properties": {"source": "6651233", "target": "8716104"}}, {"type": "Feature", "geometry": {"type": "LineString", "coordinates": [[111.87680360389584, 69.22986313862597], [111.87464776266762, 69.2307232063502]]}, "properties": {"source": "6651233", "target": "3610998"}}, {"type": "Feature", "geometry": {"type": "LineString", "coordinates": [[111.873003557613, 69.23080932536564], [111.87575511458294, 69.23110390322816]]}, "properties": {"source": "511261", "target": "528038"}}, {"type": "Feature", "geometry": {"type": "LineString", "coordinates": [[111.87535160585065, 69.23060717028895], [111.87575511458294, 69.23110390322816]]}, "properties": {"source": "511259", "target": "528038"}}, {"type": "Feature", "geometry": {"type": "LineString", "coordinates": [[111.87535160585065, 69.23060717028895], [111.87680360389584, 69.22986313862597]]}, "properties": {"source": "511259", "target": "6651233"}}, {"type": "Feature", "geometry": {"type": "LineString", "coordinates": [[111.87535160585065, 69.23060717028895], [111.873003557613, 69.23080932536564]]}, "properties": {"source": "511259", "target": "511261"}}, {"type": "Feature", "geometry": {"type": "LineString", "coordinates": [[111.8752542525171, 69.23098531065861], [111.87222055845763, 69.23070432056667]]}, "properties": {"source": "511260", "target": "15811577"}}, {"type": "Feature", "geometry": {"type": "LineString", "coordinates": [[111.8752542525171, 69.23098531065861], [111.87638666581654, 69.23017246867497]]}, "properties": {"source": "511260", "target": "1506676"}}, {"type": "Feature", "geometry": {"type": "LineString", "coordinates": [[111.8752542525171, 69.23098531065861], [111.87274245448089, 69.23031676509967]]}, "properties": {"source": "511260", "target": "583921"}}, {"type": "Feature", "geometry": {"type": "LineString", "coordinates": [[111.8752542525171, 69.23098531065861], [111.87623755666863, 69.2307388793854]]}, "properties": {"source": "511260", "target": "18114091"}}, {"type": "Feature", "geometry": {"type": "LineString", "coordinates": [[111.87222055845763, 69.23070432056667], [111.87464776266762, 69.2307232063502]]}, "properties": {"source": "15811577", "target": "3610998"}}, {"type": "Feature", "geometry": {"type": "LineString", "coordinates": [[111.87638666581654, 69.23017246867497], [111.87464776266762, 69.2307232063502]]}, "properties": {"source": "1506676", "target": "3610998"}}, {"type": "Feature", "geometry": {"type": "LineString", "coordinates": [[111.8768472139555, 69.22973490427674], [111.8752542525171, 69.23098531065861]]}, "properties": {"source": "22571700", "target": "511260"}}, {"type": "Feature", "geometry": {"type": "LineString", "coordinates": [[111.8768472139555, 69.22973490427674], [111.87680360389584, 69.22986313862597]]}, "properties": {"source": "22571700", "target": "6651233"}}, {"type": "Feature", "geometry": {"type": "LineString", "coordinates": [[111.8768472139555, 69.22973490427674], [111.87649920986928, 69.22996140111462]]}, "properties": {"source": "22571700", "target": "511257"}}, {"type": "Feature", "geometry": {"type": "LineString", "coordinates": [[111.8768472139555, 69.22973490427674], [111.87501606761532, 69.22998157048775]]}, "properties": {"source": "22571700", "target": "8716104"}}, {"type": "Feature", "geometry": {"type": "LineString", "coordinates": [[111.8768472139555, 69.22973490427674], [111.87464776266762, 69.2307232063502]]}, "properties": {"source": "22571700", "target": "3610998"}}, {"type": "Feature", "geometry": {"type": "LineString", "coordinates": [[111.8768472139555, 69.22973490427674], [111.87471018882428, 69.23060712994135]]}, "properties": {"source": "22571700", "target": "574629"}}, {"type": "Feature", "geometry": {"type": "LineString", "coordinates": [[111.8768472139555, 69.22973490427674], [111.87493977749165, 69.23078573055838]]}, "properties": {"source": "22571700", "target": "289570"}}, {"type": "Feature", "geometry": {"type": "LineString", "coordinates": [[111.8768472139555, 69.22973490427674], [111.87615854634521, 69.23086196658724]]}, "properties": {"source": "22571700", "target": "26068059"}}, {"type": "Feature", "geometry": {"type": "LineString", "coordinates": [[111.87213713338036, 69.22997498941405], [111.8752542525171, 69.23098531065861]]}, "properties": {"source": "6372680", "target": "511260"}}, {"type": "Feature", "geometry": {"type": "LineString", "coordinates": [[111.87213713338036, 69.22997498941405], [111.87575511458294, 69.23110390322816]]}, "properties": {"source": "6372680", "target": "528038"}}, {"type": "Feature", "geometry": {"type": "LineString", "coordinates": [[111.87235409766231, 69.23122410648725], [111.87638666581654, 69.23017246867497]]}, "properties": {"source": "395886", "target": "1506676"}}, {"type": "Feature", "geometry": {"type": "LineString", "coordinates": [[111.87615854634521, 69.23086196658724], [111.8752542525171, 69.23098531065861]]}, "properties": {"source": "26068059", "target": "511260"}}, {"type": "Feature", "geometry": {"type": "LineString", "coordinates": [[111.87615854634521, 69.23086196658724], [111.87575511458294, 69.23110390322816]]}, "properties": {"source": "26068059", "target": "528038"}}, {"type": "Feature", "geometry": {"type": "LineString", "coordinates": [[111.87615854634521, 69.23086196658724], [111.87680360389584, 69.22986313862597]]}, "properties": {"source": "26068059", "target": "6651233"}}, {"type": "Feature", "geometry": {"type": "LineString", "coordinates": [[111.87213713338036, 69.22997498941405], [111.87471018882428, 69.23060712994135]]}, "properties": {"source": "6372680", "target": "574629"}}, {"type": "Feature", "geometry": {"type": "LineString", "coordinates": [[111.87517782297004, 69.23044019619033], [111.8752542525171, 69.23098531065861]]}, "properties": {"source": "11797371", "target": "511260"}}, {"type": "Feature", "geometry": {"type": "LineString", "coordinates": [[111.87517782297004, 69.23044019619033], [111.87575511458294, 69.23110390322816]]}, "properties": {"source": "11797371", "target": "528038"}}, {"type": "Feature", "geometry": {"type": "LineString", "coordinates": [[111.87517782297004, 69.23044019619033], [111.87680360389584, 69.22986313862597]]}, "properties": {"source": "11797371", "target": "6651233"}}, {"type": "Feature", "geometry": {"type": "LineString", "coordinates": [[111.87517782297004, 69.23044019619033], [111.87501606761532, 69.22998157048775]]}, "properties": {"source": "11797371", "target": "8716104"}}, {"type": "Feature", "geometry": {"type": "LineString", "coordinates": [[111.87517782297004, 69.23044019619033], [111.87464776266762, 69.2307232063502]]}, "properties": {"source": "11797371", "target": "3610998"}}, {"type": "Feature", "geometry": {"type": "LineString", "coordinates": [[111.87517782297004, 69.23044019619033], [111.87222055845763, 69.23070432056667]]}, "properties": {"source": "11797371", "target": "15811577"}}, {"type": "Feature", "geometry": {"type": "LineString", "coordinates": [[111.87517782297004, 69.23044019619033], [111.87638666581654, 69.23017246867497]]}, "properties": {"source": "11797371", "target": "1506676"}}, {"type": "Feature", "geometry": {"type": "LineString", "coordinates": [[111.87274245448089, 69.23031676509967], [111.87680360389584, 69.22986313862597]]}, "properties": {"source": "583921", "target": "6651233"}}, {"type": "Feature", "geometry": {"type": "LineString", "coordinates": [[111.87274245448089, 69.23031676509967], [111.87501606761532, 69.22998157048775]]}, "properties": {"source": "583921", "target": "8716104"}}, {"type": "Feature", "geometry": {"type": "LineString", "coordinates": [[111.87213713338036, 69.22997498941405], [111.87512885000956, 69.23095114287642]]}, "properties": {"source": "6372680", "target": "31626669"}}, {"type": "Feature", "geometry": {"type": "LineString", "coordinates": [[111.87517782297004, 69.23044019619033], [111.87535160585065, 69.23060717028895]]}, "properties": {"source": "11797371", "target": "511259"}}, {"type": "Feature", "geometry": {"type": "LineString", "coordinates": [[111.87341611292248, 69.23111433911171], [111.87501606761532, 69.22998157048775]]}, "properties": {"source": "511258", "target": "8716104"}}, {"type": "Feature", "geometry": {"type": "LineString", "coordinates": [[111.87341611292248, 69.23111433911171], [111.87464776266762, 69.2307232063502]]}, "properties": {"source": "511258", "target": "3610998"}}, {"type": "Feature", "geometry": {"type": "LineString", "coordinates": [[111.87341611292248, 69.23111433911171], [111.87471018882428, 69.23060712994135]]}, "properties": {"source": "511258", "target": "574629"}}, {"type": "Feature", "geometry": {"type": "LineString", "coordinates": [[111.87341611292248, 69.23111433911171], [111.87546496647877, 69.2308793340222]]}, "properties": {"source": "511258", "target": "511263"}}, {"type": "Feature", "geometry": {"type": "LineString", "coordinates": [[111.87649920986928, 69.22996140111462], [111.87638666581654, 69.23017246867497]]}, "properties": {"source": "511257", "target": "1506676"}}, {"type": "Feature", "geometry": {"type": "LineString", "coordinates": [[111.87649920986928, 69.22996140111462], [111.87623755666863, 69.2307388793854]]}, "properties": {"source": "511257", "target": "18114091"}}, {"type": "Feature", "geometry": {"type": "LineString", "coordinates": [[111.87501606761532, 69.22998157048775], [111.87464776266762, 69.2307232063502]]}, "properties": {"source": "8716104", "target": "3610998"}}, {"type": "Feature", "geometry": {"type": "LineString", "coordinates": [[111.87471018882428, 69.23060712994135], [111.8752542525171, 69.23098531065861]]}, "properties": {"source": "574629", "target": "511260"}}, {"type": "Feature", "geometry": {"type": "LineString", "coordinates": [[111.87471018882428, 69.23060712994135], [111.87575511458294, 69.23110390322816]]}, "properties": {"source": "574629", "target": "528038"}}, {"type": "Feature", "geometry": {"type": "LineString", "coordinates": [[111.87471018882428, 69.23060712994135], [111.87680360389584, 69.22986313862597]]}, "properties": {"source": "574629", "target": "6651233"}}, {"type": "Feature", "geometry": {"type": "LineString", "coordinates": [[111.87471018882428, 69.23060712994135], [111.873003557613, 69.23080932536564]]}, "properties": {"source": "574629", "target": "511261"}}, {"type": "Feature", "geometry": {"type": "LineString", "coordinates": [[111.87471018882428, 69.23060712994135], [111.87501606761532, 69.22998157048775]]}, "properties": {"source": "574629", "target": "8716104"}}, {"type": "Feature", "geometry": {"type": "LineString", "coordinates": [[111.87471018882428, 69.23060712994135], [111.87274245448089, 69.23031676509967]]}, "properties": {"source": "574629", "target": "583921"}}, {"type": "Feature", "geometry": {"type": "LineString", "coordinates": [[111.87546496647877, 69.2308793340222], [111.8752542525171, 69.23098531065861]]}, "properties": {"source": "511263", "target": "511260"}}, {"type": "Feature", "geometry": {"type": "LineString", "coordinates": [[111.87649920986928, 69.22996140111462], [111.87512885000956, 69.23095114287642]]}, "properties": {"source": "511257", "target": "31626669"}}, {"type": "Feature", "geometry": {"type": "LineString", "coordinates": [[111.87471018882428, 69.23060712994135], [111.87535160585065, 69.23060717028895]]}, "properties": {"source": "574629", "target": "511259"}}, {"type": "Feature", "geometry": {"type": "LineString", "coordinates": [[111.87623755666863, 69.2307388793854], [111.87680360389584, 69.22986313862597]]}, "properties": {"source": "18114091", "target": "6651233"}}, {"type": "Feature", "geometry": {"type": "LineString", "coordinates": [[111.87623755666863, 69.2307388793854], [111.87501606761532, 69.22998157048775]]}, "properties": {"source": "18114091", "target": "8716104"}}, {"type": "Feature", "geometry": {"type": "LineString", "coordinates": [[111.87623755666863, 69.2307388793854], [111.87464776266762, 69.2307232063502]]}, "properties": {"source": "18114091", "target": "3610998"}}, {"type": "Feature", "geometry": {"type": "LineString", "coordinates": [[111.8761432565089, 69.23130172991219], [111.8752542525171, 69.23098531065861]]}, "properties": {"source": "29533238", "target": "511260"}}, {"type": "Feature", "geometry": {"type": "LineString", "coordinates": [[111.873003557613, 69.23080932536564], [111.87680360389584, 69.22986313862597]]}, "properties": {"source": "511261", "target": "6651233"}}, {"type": "Feature", "geometry": {"type": "LineString", "coordinates": [[111.873003557613, 69.23080932536564], [111.87501606761532, 69.22998157048775]]}, "properties": {"source": "511261", "target": "8716104"}}, {"type": "Feature", "geometry": {"type": "LineString", "coordinates": [[111.873003557613, 69.23080932536564], [111.87464776266762, 69.2307232063502]]}, "properties": {"source": "511261", "target": "3610998"}}, {"type": "Feature", "geometry": {"type": "LineString", "coordinates": [[111.873003557613, 69.23080932536564], [111.87638666581654, 69.23017246867497]]}, "properties": {"source": "511261", "target": "1506676"}}, {"type": "Feature", "geometry": {"type": "LineString", "coordinates": [[111.873003557613, 69.23080932536564], [111.87274245448089, 69.23031676509967]]}, "properties": {"source": "511261", "target": "583921"}}, {"type": "Feature", "geometry": {"type": "LineString", "coordinates": [[111.873003557613, 69.23080932536564], [111.87623755666863, 69.2307388793854]]}, "properties": {"source": "511261", "target": "18114091"}}, {"type": "Feature", "geometry": {"type": "LineString", "coordinates": [[111.87341611292248, 69.23111433911171], [111.8752542525171, 69.23098531065861]]}, "properties": {"source": "511258", "target": "511260"}}, {"type": "Feature", "geometry": {"type": "LineString", "coordinates": [[111.87341611292248, 69.23111433911171], [111.87575511458294, 69.23110390322816]]}, "properties": {"source": "511258", "target": "528038"}}, {"type": "Feature", "geometry": {"type": "LineString", "coordinates": [[111.87341611292248, 69.23111433911171], [111.87680360389584, 69.22986313862597]]}, "properties": {"source": "511258", "target": "6651233"}}, {"type": "Feature", "geometry": {"type": "LineString", "coordinates": [[111.87341611292248, 69.23111433911171], [111.873003557613, 69.23080932536564]]}, "properties": {"source": "511258", "target": "511261"}}, {"type": "Feature", "geometry": {"type": "LineString", "coordinates": [[111.87341611292248, 69.23111433911171], [111.87649920986928, 69.22996140111462]]}, "properties": {"source": "511258", "target": "511257"}}, {"type": "Feature", "geometry": {"type": "LineString", "coordinates": [[111.87341611292248, 69.23111433911171], [111.87535160585065, 69.23060717028895]]}, "properties": {"source": "511258", "target": "511259"}}, {"type": "Feature", "geometry": {"type": "LineString", "coordinates": [[111.87546496647877, 69.2308793340222], [111.87575511458294, 69.23110390322816]]}, "properties": {"source": "511263", "target": "528038"}}, {"type": "Feature", "geometry": {"type": "LineString", "coordinates": [[111.87546496647877, 69.2308793340222], [111.87680360389584, 69.22986313862597]]}, "properties": {"source": "511263", "target": "6651233"}}, {"type": "Feature", "geometry": {"type": "LineString", "coordinates": [[111.87546496647877, 69.2308793340222], [111.873003557613, 69.23080932536564]]}, "properties": {"source": "511263", "target": "511261"}}, {"type": "Feature", "geometry": {"type": "LineString", "coordinates": [[111.87615854634521, 69.23086196658724], [111.873003557613, 69.23080932536564]]}, "properties": {"source": "26068059", "target": "511261"}}, {"type": "Feature", "geometry": {"type": "LineString", "coordinates": [[111.87615854634521, 69.23086196658724], [111.87649920986928, 69.22996140111462]]}, "properties": {"source": "26068059", "target": "511257"}}, {"type": "Feature", "geometry": {"type": "LineString", "coordinates": [[111.87615854634521, 69.23086196658724], [111.87471018882428, 69.23060712994135]]}, "properties": {"source": "26068059", "target": "574629"}}, {"type": "Feature", "geometry": {"type": "LineString", "coordinates": [[111.87615854634521, 69.23086196658724], [111.87623755666863, 69.2307388793854]]}, "properties": {"source": "26068059", "target": "18114091"}}, {"type": "Feature", "geometry": {"type": "LineString", "coordinates": [[111.87222055845763, 69.23070432056667], [111.87575511458294, 69.23110390322816]]}, "properties": {"source": "15811577", "target": "528038"}}, {"type": "Feature", "geometry": {"type": "LineString", "coordinates": [[111.87222055845763, 69.23070432056667], [111.87680360389584, 69.22986313862597]]}, "properties": {"source": "15811577", "target": "6651233"}}, {"type": "Feature", "geometry": {"type": "LineString", "coordinates": [[111.87222055845763, 69.23070432056667], [111.873003557613, 69.23080932536564]]}, "properties": {"source": "15811577", "target": "511261"}}, {"type": "Feature", "geometry": {"type": "LineString", "coordinates": [[111.87222055845763, 69.23070432056667], [111.87501606761532, 69.22998157048775]]}, "properties": {"source": "15811577", "target": "8716104"}}, {"type": "Feature", "geometry": {"type": "LineString", "coordinates": [[111.87512885000956, 69.23095114287642], [111.87575511458294, 69.23110390322816]]}, "properties": {"source": "31626669", "target": "528038"}}, {"type": "Feature", "geometry": {"type": "LineString", "coordinates": [[111.87512885000956, 69.23095114287642], [111.87680360389584, 69.22986313862597]]}, "properties": {"source": "31626669", "target": "6651233"}}, {"type": "Feature", "geometry": {"type": "LineString", "coordinates": [[111.87546496647877, 69.2308793340222], [111.87535160585065, 69.23060717028895]]}, "properties": {"source": "511263", "target": "511259"}}, {"type": "Feature", "geometry": {"type": "LineString", "coordinates": [[111.87615854634521, 69.23086196658724], [111.87512885000956, 69.23095114287642]]}, "properties": {"source": "26068059", "target": "31626669"}}, {"type": "Feature", "geometry": {"type": "LineString", "coordinates": [[111.87222055845763, 69.23070432056667], [111.87535160585065, 69.23060717028895]]}, "properties": {"source": "15811577", "target": "511259"}}, {"type": "Feature", "geometry": {"type": "LineString", "coordinates": [[111.87545719234328, 69.23112520496889], [111.87235409766231, 69.23122410648725]]}, "properties": {"source": "574679", "target": "395886"}}, {"type": "Feature", "geometry": {"type": "LineString", "coordinates": [[111.87545719234328, 69.23112520496889], [111.87615854634521, 69.23086196658724]]}, "properties": {"source": "574679", "target": "26068059"}}, {"type": "Feature", "geometry": {"type": "LineString", "coordinates": [[111.87545719234328, 69.23112520496889], [111.87222055845763, 69.23070432056667]]}, "properties": {"source": "574679", "target": "15811577"}}, {"type": "Feature", "geometry": {"type": "LineString", "coordinates": [[111.87545719234328, 69.23112520496889], [111.87638666581654, 69.23017246867497]]}, "properties": {"source": "574679", "target": "1506676"}}, {"type": "Feature", "geometry": {"type": "LineString", "coordinates": [[111.87545719234328, 69.23112520496889], [111.8768472139555, 69.22973490427674]]}, "properties": {"source": "574679", "target": "22571700"}}, {"type": "Feature", "geometry": {"type": "LineString", "coordinates": [[111.87545719234328, 69.23112520496889], [111.87213713338036, 69.22997498941405]]}, "properties": {"source": "574679", "target": "6372680"}}, {"type": "Feature", "geometry": {"type": "LineString", "coordinates": [[111.87545719234328, 69.23112520496889], [111.87517782297004, 69.23044019619033]]}, "properties": {"source": "574679", "target": "11797371"}}, {"type": "Feature", "geometry": {"type": "LineString", "coordinates": [[111.87545719234328, 69.23112520496889], [111.87274245448089, 69.23031676509967]]}, "properties": {"source": "574679", "target": "583921"}}, {"type": "Feature", "geometry": {"type": "LineString", "coordinates": [[111.87545719234328, 69.23112520496889], [111.87623755666863, 69.2307388793854]]}, "properties": {"source": "574679", "target": "18114091"}}, {"type": "Feature", "geometry": {"type": "LineString", "coordinates": [[111.8752542525171, 69.23098531065861], [111.87575511458294, 69.23110390322816]]}, "properties": {"source": "511260", "target": "528038"}}, {"type": "Feature", "geometry": {"type": "LineString", "coordinates": [[111.8752542525171, 69.23098531065861], [111.87680360389584, 69.22986313862597]]}, "properties": {"source": "511260", "target": "6651233"}}, {"type": "Feature", "geometry": {"type": "LineString", "coordinates": [[111.8752542525171, 69.23098531065861], [111.873003557613, 69.23080932536564]]}, "properties": {"source": "511260", "target": "511261"}}, {"type": "Feature", "geometry": {"type": "LineString", "coordinates": [[111.8752542525171, 69.23098531065861], [111.87501606761532, 69.22998157048775]]}, "properties": {"source": "511260", "target": "8716104"}}, {"type": "Feature", "geometry": {"type": "LineString", "coordinates": [[111.8752542525171, 69.23098531065861], [111.87464776266762, 69.2307232063502]]}, "properties": {"source": "511260", "target": "3610998"}}, {"type": "Feature", "geometry": {"type": "LineString", "coordinates": [[111.87545719234328, 69.23112520496889], [111.87512885000956, 69.23095114287642]]}, "properties": {"source": "574679", "target": "31626669"}}, {"type": "Feature", "geometry": {"type": "LineString", "coordinates": [[111.8752542525171, 69.23098531065861], [111.87535160585065, 69.23060717028895]]}, "properties": {"source": "511260", "target": "511259"}}, {"type": "Feature", "geometry": {"type": "LineString", "coordinates": [[111.8761432565089, 69.23130172991219], [111.87575511458294, 69.23110390322816]]}, "properties": {"source": "29533238", "target": "528038"}}, {"type": "Feature", "geometry": {"type": "LineString", "coordinates": [[111.8761432565089, 69.23130172991219], [111.873003557613, 69.23080932536564]]}, "properties": {"source": "29533238", "target": "511261"}}, {"type": "Feature", "geometry": {"type": "LineString", "coordinates": [[111.8761432565089, 69.23130172991219], [111.87649920986928, 69.22996140111462]]}, "properties": {"source": "29533238", "target": "511257"}}, {"type": "Feature", "geometry": {"type": "LineString", "coordinates": [[111.87545719234328, 69.23112520496889], [111.8752542525171, 69.23098531065861]]}, "properties": {"source": "574679", "target": "511260"}}, {"type": "Feature", "geometry": {"type": "LineString", "coordinates": [[111.87545719234328, 69.23112520496889], [111.87575511458294, 69.23110390322816]]}, "properties": {"source": "574679", "target": "528038"}}, {"type": "Feature", "geometry": {"type": "LineString", "coordinates": [[111.87545719234328, 69.23112520496889], [111.87680360389584, 69.22986313862597]]}, "properties": {"source": "574679", "target": "6651233"}}, {"type": "Feature", "geometry": {"type": "LineString", "coordinates": [[111.87545719234328, 69.23112520496889], [111.873003557613, 69.23080932536564]]}, "properties": {"source": "574679", "target": "511261"}}, {"type": "Feature", "geometry": {"type": "LineString", "coordinates": [[111.87545719234328, 69.23112520496889], [111.87341611292248, 69.23111433911171]]}, "properties": {"source": "574679", "target": "511258"}}, {"type": "Feature", "geometry": {"type": "LineString", "coordinates": [[111.87545719234328, 69.23112520496889], [111.87649920986928, 69.22996140111462]]}, "properties": {"source": "574679", "target": "511257"}}, {"type": "Feature", "geometry": {"type": "LineString", "coordinates": [[111.87545719234328, 69.23112520496889], [111.87501606761532, 69.22998157048775]]}, "properties": {"source": "574679", "target": "8716104"}}, {"type": "Feature", "geometry": {"type": "LineString", "coordinates": [[111.87545719234328, 69.23112520496889], [111.87464776266762, 69.2307232063502]]}, "properties": {"source": "574679", "target": "3610998"}}, {"type": "Feature", "geometry": {"type": "LineString", "coordinates": [[111.87545719234328, 69.23112520496889], [111.87471018882428, 69.23060712994135]]}, "properties": {"source": "574679", "target": "574629"}}, {"type": "Feature", "geometry": {"type": "LineString", "coordinates": [[111.87545719234328, 69.23112520496889], [111.87546496647877, 69.2308793340222]]}, "properties": {"source": "574679", "target": "511263"}}, {"type": "Feature", "geometry": {"type": "LineString", "coordinates": [[111.87545719234328, 69.23112520496889], [111.87493977749165, 69.23078573055838]]}, "properties": {"source": "574679", "target": "289570"}}, {"type": "Feature", "geometry": {"type": "LineString", "coordinates": [[111.8761432565089, 69.23130172991219], [111.87535160585065, 69.23060717028895]]}, "properties": {"source": "29533238", "target": "511259"}}, {"type": "Feature", "geometry": {"type": "LineString", "coordinates": [[111.87545719234328, 69.23112520496889], [111.87535160585065, 69.23060717028895]]}, "properties": {"source": "574679", "target": "511259"}}, {"type": "Feature", "geometry": {"type": "LineString", "coordinates": [[111.87493977749165, 69.23078573055838], [111.873003557613, 69.23080932536564]]}, "properties": {"source": "289570", "target": "511261"}}, {"type": "Feature", "geometry": {"type": "LineString", "coordinates": [[111.87493977749165, 69.23078573055838], [111.87649920986928, 69.22996140111462]]}, "properties": {"source": "289570", "target": "511257"}}, {"type": "Feature", "geometry": {"type": "LineString", "coordinates": [[111.87493977749165, 69.23078573055838], [111.87464776266762, 69.2307232063502]]}, "properties": {"source": "289570", "target": "3610998"}}, {"type": "Feature", "geometry": {"type": "LineString", "coordinates": [[111.87493977749165, 69.23078573055838], [111.87235409766231, 69.23122410648725]]}, "properties": {"source": "289570", "target": "395886"}}, {"type": "Feature", "geometry": {"type": "LineString", "coordinates": [[111.87493977749165, 69.23078573055838], [111.87222055845763, 69.23070432056667]]}, "properties": {"source": "289570", "target": "15811577"}}, {"type": "Feature", "geometry": {"type": "LineString", "coordinates": [[111.87493977749165, 69.23078573055838], [111.87638666581654, 69.23017246867497]]}, "properties": {"source": "289570", "target": "1506676"}}, {"type": "Feature", "geometry": {"type": "LineString", "coordinates": [[111.87493977749165, 69.23078573055838], [111.87517782297004, 69.23044019619033]]}, "properties": {"source": "289570", "target": "11797371"}}, {"type": "Feature", "geometry": {"type": "LineString", "coordinates": [[111.87493977749165, 69.23078573055838], [111.87623755666863, 69.2307388793854]]}, "properties": {"source": "289570", "target": "18114091"}}, {"type": "Feature", "geometry": {"type": "LineString", "coordinates": [[111.87235409766231, 69.23122410648725], [111.8752542525171, 69.23098531065861]]}, "properties": {"source": "395886", "target": "511260"}}, {"type": "Feature", "geometry": {"type": "LineString", "coordinates": [[111.87235409766231, 69.23122410648725], [111.87575511458294, 69.23110390322816]]}, "properties": {"source": "395886", "target": "528038"}}, {"type": "Feature", "geometry": {"type": "LineString", "coordinates": [[111.87235409766231, 69.23122410648725], [111.87680360389584, 69.22986313862597]]}, "properties": {"source": "395886", "target": "6651233"}}, {"type": "Feature", "geometry": {"type": "LineString", "coordinates": [[111.87235409766231, 69.23122410648725], [111.873003557613, 69.23080932536564]]}, "properties": {"source": "395886", "target": "511261"}}, {"type": "Feature", "geometry": {"type": "LineString", "coordinates": [[111.87235409766231, 69.23122410648725], [111.87649920986928, 69.22996140111462]]}, "properties": {"source": "395886", "target": "511257"}}, {"type": "Feature", "geometry": {"type": "LineString", "coordinates": [[111.87235409766231, 69.23122410648725], [111.87464776266762, 69.2307232063502]]}, "properties": {"source": "395886", "target": "3610998"}}, {"type": "Feature", "geometry": {"type": "LineString", "coordinates": [[111.87235409766231, 69.23122410648725], [111.87471018882428, 69.23060712994135]]}, "properties": {"source": "395886", "target": "574629"}}, {"type": "Feature", "geometry": {"type": "LineString", "coordinates": [[111.87235409766231, 69.23122410648725], [111.87535160585065, 69.23060717028895]]}, "properties": {"source": "395886", "target": "511259"}}, {"type": "Feature", "geometry": {"type": "LineString", "coordinates": [[111.87213713338036, 69.22997498941405], [111.87680360389584, 69.22986313862597]]}, "properties": {"source": "6372680", "target": "6651233"}}, {"type": "Feature", "geometry": {"type": "LineString", "coordinates": [[111.87213713338036, 69.22997498941405], [111.873003557613, 69.23080932536564]]}, "properties": {"source": "6372680", "target": "511261"}}, {"type": "Feature", "geometry": {"type": "LineString", "coordinates": [[111.87213713338036, 69.22997498941405], [111.87501606761532, 69.22998157048775]]}, "properties": {"source": "6372680", "target": "8716104"}}, {"type": "Feature", "geometry": {"type": "LineString", "coordinates": [[111.87546496647877, 69.2308793340222], [111.87649920986928, 69.22996140111462]]}, "properties": {"source": "511263", "target": "511257"}}, {"type": "Feature", "geometry": {"type": "LineString", "coordinates": [[111.87546496647877, 69.2308793340222], [111.87501606761532, 69.22998157048775]]}, "properties": {"source": "511263", "target": "8716104"}}, {"type": "Feature", "geometry": {"type": "LineString", "coordinates": [[111.87546496647877, 69.2308793340222], [111.87471018882428, 69.23060712994135]]}, "properties": {"source": "511263", "target": "574629"}}, {"type": "Feature", "geometry": {"type": "LineString", "coordinates": [[111.87546496647877, 69.2308793340222], [111.87235409766231, 69.23122410648725]]}, "properties": {"source": "511263", "target": "395886"}}, {"type": "Feature", "geometry": {"type": "LineString", "coordinates": [[111.87546496647877, 69.2308793340222], [111.87615854634521, 69.23086196658724]]}, "properties": {"source": "511263", "target": "26068059"}}, {"type": "Feature", "geometry": {"type": "LineString", "coordinates": [[111.87546496647877, 69.2308793340222], [111.87213713338036, 69.22997498941405]]}, "properties": {"source": "511263", "target": "6372680"}}, {"type": "Feature", "geometry": {"type": "LineString", "coordinates": [[111.87546496647877, 69.2308793340222], [111.87274245448089, 69.23031676509967]]}, "properties": {"source": "511263", "target": "583921"}}, {"type": "Feature", "geometry": {"type": "LineString", "coordinates": [[111.87493977749165, 69.23078573055838], [111.8752542525171, 69.23098531065861]]}, "properties": {"source": "289570", "target": "511260"}}, {"type": "Feature", "geometry": {"type": "LineString", "coordinates": [[111.87493977749165, 69.23078573055838], [111.87575511458294, 69.23110390322816]]}, "properties": {"source": "289570", "target": "528038"}}, {"type": "Feature", "geometry": {"type": "LineString", "coordinates": [[111.87493977749165, 69.23078573055838], [111.87680360389584, 69.22986313862597]]}, "properties": {"source": "289570", "target": "6651233"}}, {"type": "Feature", "geometry": {"type": "LineString", "coordinates": [[111.87213713338036, 69.22997498941405], [111.87535160585065, 69.23060717028895]]}, "properties": {"source": "6372680", "target": "511259"}}, {"type": "Feature", "geometry": {"type": "LineString", "coordinates": [[111.87546496647877, 69.2308793340222], [111.87512885000956, 69.23095114287642]]}, "properties": {"source": "511263", "target": "31626669"}}, {"type": "Feature", "geometry": {"type": "LineString", "coordinates": [[111.87493977749165, 69.23078573055838], [111.87535160585065, 69.23060717028895]]}, "properties": {"source": "289570", "target": "511259"}}]}