{"type": "FeatureCollection", "features": [{"type": "Feature", "geometry": {"type": "LineString", "coordinates": [[24.348523913111535, 69.23028242642431], [24.349014069669806, 69.23241928599239]]}, "properties": {"source": "21898561", "target": "25096172"}}, {"type": "Feature", "geometry": {"type": "LineString", "coordinates": [[24.348335751381057, 69.2315415481319], [24.354733073138846, 69.23116273356595]]}, "properties": {"source": "981522", "target": "468020"}}, {"type": "Feature", "geometry": {"type": "LineString", "coordinates": [[24.348335751381057, 69.2315415481319], [24.3502924984671, 69.23071749115823]]}, "properties": {"source": "981522", "target": "1457436"}}, {"type": "Feature", "geometry": {"type": "LineString", "coordinates": [[24.348335751381057, 69.2315415481319], [24.351655131956846, 69.23102109225516]]}, "properties": {"source": "981522", "target": "27558832"}}, {"type": "Feature", "geometry": {"type": "LineString", "coordinates": [[24.348335751381057, 69.2315415481319], [24.347591997959142, 69.23176443023522]]}, "properties": {"source": "981522", "target": "16162463"}}, {"type": "Feature", "geometry": {"type": "LineString", "coordinates": [[24.350162432492056, 69.23163773566864], [24.352052235188808, 69.23058389580368]]}, "properties": {"source": "17983253", "target": "18524417"}}, {"type": "Feature", "geometry": {"type": "LineString", "coordinates": [[24.350162432492056, 69.23163773566864], [24.35459193589216, 69.23262893882384]]}, "properties": {"source": "17983253", "target": "18733249"}}, {"type": "Feature", "geometry": {"type": "LineString", "coordinates": [[24.354018079953306, 69.22988852345759], [24.351655131956846, 69.23102109225516]]}, "properties": {"source": "31352119", "target": "27558832"}}, {"type": "Feature", "geometry": {"type": "LineString", "coordinates": [[24.354018079953306, 69.22988852345759], [24.347591997959142, 69.23176443023522]]}, "properties": {"source": "31352119", "target": "16162463"}}, {"type": "Feature", "geometry": {"type": "LineString", "coordinates": [[24.354018079953306, 69.22988852345759], [24.354122048061015, 69.22991645355216]]}, "properties": {"source": "31352119", "target": "2934375"}}, {"type": "Feature", "geometry": {"type": "LineString", "coordinates": [[24.347324647056723, 69.23205335945073], [24.350037454003598, 69.23123924110931]]}, "properties": {"source": "1317661", "target": "12210960"}}, {"type": "Feature", "geometry": {"type": "LineString", "coordinates": [[24.34862052073774, 69.2319865005826], [24.352162702827513, 69.2305931171316]]}, "properties": {"source": "18053822", "target": "18302776"}}, {"type": "Feature", "geometry": {"type": "LineString", "coordinates": [[24.349412498152816, 69.23017262492556], [24.352052235188808, 69.23058389580368]]}, "properties": {"source": "13538435", "target": "18524417"}}, {"type": "Feature", "geometry": {"type": "LineString", "coordinates": [[24.349412498152816, 69.23017262492556], [24.349014069669806, 69.23241928599239]]}, "properties": {"source": "13538435", "target": "25096172"}}, {"type": "Feature", "geometry": {"type": "LineString", "coordinates": [[24.349412498152816, 69.23017262492556], [24.347996705905416, 69.23181197084881]]}, "properties": {"source": "13538435", "target": "15751159"}}, {"type": "Feature", "geometry": {"type": "LineString", "coordinates": [[24.349412498152816, 69.23017262492556], [24.351905237228863, 69.23237337432874]]}, "properties": {"source": "13538435", "target": "15792274"}}, {"type": "Feature", "geometry": {"type": "LineString", "coordinates": [[24.349014069669806, 69.23241928599239], [24.347996705905416, 69.23181197084881]]}, "properties": {"source": "25096172", "target": "15751159"}}, {"type": "Feature", "geometry": {"type": "LineString", "coordinates": [[24.349014069669806, 69.23241928599239], [24.351905237228863, 69.23237337432874]]}, "properties": {"source": "25096172", "target": "15792274"}}, {"type": "Feature", "geometry": {"type": "LineString", "coordinates": [[24.35459193589216, 69.23262893882384], [24.35031910320498, 69.23271630215822]]}, "properties": {"source": "18733249", "target": "12498492"}}, {"type": "Feature", "geometry": {"type": "LineString", "coordinates": [[24.354353404600545, 69.23165286519819], [24.350037454003598, 69.23123924110931]]}, "properties": {"source": "1013609", "target": "12210960"}}, {"type": "Feature", "geometry": {"type": "LineString", "coordinates": [[24.354353404600545, 69.23165286519819], [24.34929968391606, 69.2318989049524]]}, "properties": {"source": "1013609", "target": "2879557"}}, {"type": "Feature", "geometry": {"type": "LineString", "coordinates": [[24.354353404600545, 69.23165286519819], [24.34976852339213, 69.23110426645513]]}, "properties": {"source": "1013609", "target": "1036346"}}, {"type": "Feature", "geometry": {"type": "LineString", "coordinates": [[24.34929968391606, 69.2318989049524], [24.350037454003598, 69.23123924110931]]}, "properties": {"source": "2879557", "target": "12210960"}}, {"type": "Feature", "geometry": {"type": "LineString", "coordinates": [[24.34929968391606, 69.2318989049524], [24.34976852339213, 69.23110426645513]]}, "properties": {"source": "2879557", "target": "1036346"}}, {"type": "Feature", "geometry": {"type": "LineString", "coordinates": [[24.354122048061015, 69.22991645355216], [24.354733073138846, 69.23116273356595]]}, "properties": {"source": "2934375", "target": "468020"}}, {"type": "Feature", "geometry": {"type": "LineString", "coordinates": [[24.350524462968053, 69.23264194105121], [24.352052235188808, 69.23058389580368]]}, "properties": {"source": "13445037", "target": "18524417"}}, {"type": "Feature", "geometry": {"type": "LineString", "coordinates": [[24.350524462968053, 69.23264194105121], [24.348981313060705, 69.23210438211964]]}, "properties": {"source": "13445037", "target": "18471896"}}, {"type": "Feature", "geometry": {"type": "LineString", "coordinates": [[24.347324647056723, 69.23205335945073], [24.34929968391606, 69.2318989049524]]}, "properties": {"source": "1317661", "target": "2879557"}}, {"type": "Feature", "geometry": {"type": "LineString", "coordinates": [[24.347324647056723, 69.23205335945073], [24.34976852339213, 69.23110426645513]]}, "properties": {"source": "1317661", "target": "1036346"}}, {"type": "Feature", "geometry": {"type": "LineString", "coordinates": [[24.352137218001133, 69.23146486153348], [24.351655131956846, 69.23102109225516]]}, "properties": {"source": "1774863", "target": "27558832"}}, {"type": "Feature", "geometry": {"type": "LineString", "coordinates": [[24.352137218001133, 69.23146486153348], [24.347591997959142, 69.23176443023522]]}, "properties": {"source": "1774863", "target": "16162463"}}, {"type": "Feature", "geometry": {"type": "LineString", "coordinates": [[24.35298107227686, 69.2311569892922], [24.353493590641847, 69.23091298136879]]}, "properties": {"source": "645658", "target": "5615349"}}, {"type": "Feature", "geometry": {"type": "LineString", "coordinates": [[24.35298107227686, 69.2311569892922], [24.348612472768536, 69.23256503488733]]}, "properties": {"source": "645658", "target": "6531747"}}, {"type": "Feature", "geometry": {"type": "LineString", "coordinates": [[24.34908939188685, 69.23009445047134], [24.350037454003598, 69.23123924110931]]}, "properties": {"source": "10802697", "target": "12210960"}}, {"type": "Feature", "geometry": {"type": "LineString", "coordinates": [[24.34908939188685, 69.23009445047134], [24.351626188754352, 69.2301623349878]]}, "properties": {"source": "10802697", "target": "7391417"}}, {"type": "Feature", "geometry": {"type": "LineString", "coordinates": [[24.353481132806735, 69.22980093322803], [24.352162702827513, 69.2305931171316]]}, "properties": {"source": "16040788", "target": "18302776"}}, {"type": "Feature", "geometry": {"type": "LineString", "coordinates": [[24.35389870916765, 69.2324193004759], [24.354353404600545, 69.23165286519819]]}, "properties": {"source": "737402", "target": "1013609"}}, {"type": "Feature", "geometry": {"type": "LineString", "coordinates": [[24.354272173457076, 69.23243365718935], [24.349574711427834, 69.23189853633491]]}, "properties": {"source": "463350", "target": "17316562"}}, {"type": "Feature", "geometry": {"type": "LineString", "coordinates": [[24.350524462968053, 69.23264194105121], [24.35459193589216, 69.23262893882384]]}, "properties": {"source": "13445037", "target": "18733249"}}, {"type": "Feature", "geometry": {"type": "LineString", "coordinates": [[24.350524462968053, 69.23264194105121], [24.350162432492056, 69.23163773566864]]}, "properties": {"source": "13445037", "target": "17983253"}}, {"type": "Feature", "geometry": {"type": "LineString", "coordinates": [[24.348523913111535, 69.23028242642431], [24.352052235188808, 69.23058389580368]]}, "properties": {"source": "21898561", "target": "18524417"}}, {"type": "Feature", "geometry": {"type": "LineString", "coordinates": [[24.348523913111535, 69.23028242642431], [24.34862052073774, 69.2319865005826]]}, "properties": {"source": "21898561", "target": "18053822"}}, {"type": "Feature", "geometry": {"type": "LineString", "coordinates": [[24.348523913111535, 69.23028242642431], [24.349412498152816, 69.23017262492556]]}, "properties": {"source": "21898561", "target": "13538435"}}, {"type": "Feature", "geometry": {"type": "LineString", "coordinates": [[24.350037454003598, 69.23123924110931], [24.34976852339213, 69.23110426645513]]}, "properties": {"source": "12210960", "target": "1036346"}}, {"type": "Feature", "geometry": {"type": "LineString", "coordinates": [[24.350037454003598, 69.23123924110931], [24.351626188754352, 69.2301623349878]]}, "properties": {"source": "12210960", "target": "7391417"}}, {"type": "Feature", "geometry": {"type": "LineString", "coordinates": [[24.349574711427834, 69.23189853633491], [24.354733073138846, 69.23116273356595]]}, "properties": {"source": "17316562", "target": "468020"}}, {"type": "Feature", "geometry": {"type": "LineString", "coordinates": [[24.349574711427834, 69.23189853633491], [24.35013142568974, 69.22981518275131]]}, "properties": {"source": "17316562", "target": "18051653"}}, {"type": "Feature", "geometry": {"type": "LineString", "coordinates": [[24.34964514794703, 69.23236667042167], [24.354733073138846, 69.23116273356595]]}, "properties": {"source": "1433422", "target": "468020"}}, {"type": "Feature", "geometry": {"type": "LineString", "coordinates": [[24.34964514794703, 69.23236667042167], [24.349644588007322, 69.23265391031438]]}, "properties": {"source": "1433422", "target": "8510859"}}, {"type": "Feature", "geometry": {"type": "LineString", "coordinates": [[24.34964514794703, 69.23236667042167], [24.350544752351396, 69.2312282590448]]}, "properties": {"source": "1433422", "target": "1550796"}}, {"type": "Feature", "geometry": {"type": "LineString", "coordinates": [[24.34964514794703, 69.23236667042167], [24.35013142568974, 69.22981518275131]]}, "properties": {"source": "1433422", "target": "18051653"}}, {"type": "Feature", "geometry": {"type": "LineString", "coordinates": [[24.348981313060705, 69.23210438211964], [24.352052235188808, 69.23058389580368]]}, "properties": {"source": "18471896", "target": "18524417"}}, {"type": "Feature", "geometry": {"type": "LineString", "coordinates": [[24.348981313060705, 69.23210438211964], [24.35459193589216, 69.23262893882384]]}, "properties": {"source": "18471896", "target": "18733249"}}, {"type": "Feature", "geometry": {"type": "LineString", "coordinates": [[24.348981313060705, 69.23210438211964], [24.350162432492056, 69.23163773566864]]}, "properties": {"source": "18471896", "target": "17983253"}}, {"type": "Feature", "geometry": {"type": "LineString", "coordinates": [[24.348981313060705, 69.23210438211964], [24.35031910320498, 69.23271630215822]]}, "properties": {"source": "18471896", "target": "12498492"}}, {"type": "Feature", "geometry": {"type": "LineString", "coordinates": [[24.34862052073774, 69.2319865005826], [24.352052235188808, 69.23058389580368]]}, "properties": {"source": "18053822", "target": "18524417"}}, {"type": "Feature", "geometry": {"type": "LineString", "coordinates": [[24.34862052073774, 69.2319865005826], [24.349412498152816, 69.23017262492556]]}, "properties": {"source": "18053822", "target": "13538435"}}, {"type": "Feature", "geometry": {"type": "LineString", "coordinates": [[24.34862052073774, 69.2319865005826], [24.349014069669806, 69.23241928599239]]}, "properties": {"source": "18053822", "target": "25096172"}}, {"type": "Feature", "geometry": {"type": "LineString", "coordinates": [[24.34862052073774, 69.2319865005826], [24.353481132806735, 69.22980093322803]]}, "properties": {"source": "18053822", "target": "16040788"}}, {"type": "Feature", "geometry": {"type": "LineString", "coordinates": [[24.353493590641847, 69.23091298136879], [24.3506267472317, 69.23169613486073]]}, "properties": {"source": "5615349", "target": "14571182"}}, {"type": "Feature", "geometry": {"type": "LineString", "coordinates": [[24.353493590641847, 69.23091298136879], [24.349644588007322, 69.23265391031438]]}, "properties": {"source": "5615349", "target": "8510859"}}, {"type": "Feature", "geometry": {"type": "LineString", "coordinates": [[24.353493590641847, 69.23091298136879], [24.350544752351396, 69.2312282590448]]}, "properties": {"source": "5615349", "target": "1550796"}}, {"type": "Feature", "geometry": {"type": "LineString", "coordinates": [[24.353493590641847, 69.23091298136879], [24.35445637973922, 69.23015705172122]]}, "properties": {"source": "5615349", "target": "1729947"}}, {"type": "Feature", "geometry": {"type": "LineString", "coordinates": [[24.353493590641847, 69.23091298136879], [24.35013142568974, 69.22981518275131]]}, "properties": {"source": "5615349", "target": "18051653"}}, {"type": "Feature", "geometry": {"type": "LineString", "coordinates": [[24.353493590641847, 69.23091298136879], [24.348612472768536, 69.23256503488733]]}, "properties": {"source": "5615349", "target": "6531747"}}, {"type": "Feature", "geometry": {"type": "LineString", "coordinates": [[24.353493590641847, 69.23091298136879], [24.349574711427834, 69.23189853633491]]}, "properties": {"source": "5615349", "target": "17316562"}}, {"type": "Feature", "geometry": {"type": "LineString", "coordinates": [[24.353493590641847, 69.23091298136879], [24.34964514794703, 69.23236667042167]]}, "properties": {"source": "5615349", "target": "1433422"}}, {"type": "Feature", "geometry": {"type": "LineString", "coordinates": [[24.353493590641847, 69.23091298136879], [24.348844478264965, 69.23000159388576]]}, "properties": {"source": "5615349", "target": "111895"}}, {"type": "Feature", "geometry": {"type": "LineString", "coordinates": [[24.353493590641847, 69.23091298136879], [24.354162007794173, 69.23213949958688]]}, "properties": {"source": "5615349", "target": "744524"}}, {"type": "Feature", "geometry": {"type": "LineString", "coordinates": [[24.352052235188808, 69.23058389580368], [24.349014069669806, 69.23241928599239]]}, "properties": {"source": "18524417", "target": "25096172"}}, {"type": "Feature", "geometry": {"type": "LineString", "coordinates": [[24.352052235188808, 69.23058389580368], [24.35459193589216, 69.23262893882384]]}, "properties": {"source": "18524417", "target": "18733249"}}, {"type": "Feature", "geometry": {"type": "LineString", "coordinates": [[24.352052235188808, 69.23058389580368], [24.347996705905416, 69.23181197084881]]}, "properties": {"source": "18524417", "target": "15751159"}}, {"type": "Feature", "geometry": {"type": "LineString", "coordinates": [[24.352052235188808, 69.23058389580368], [24.351905237228863, 69.23237337432874]]}, "properties": {"source": "18524417", "target": "15792274"}}, {"type": "Feature", "geometry": {"type": "LineString", "coordinates": [[24.352052235188808, 69.23058389580368], [24.35031910320498, 69.23271630215822]]}, "properties": {"source": "18524417", "target": "12498492"}}, {"type": "Feature", "geometry": {"type": "LineString", "coordinates": [[24.349644588007322, 69.23265391031438], [24.354733073138846, 69.23116273356595]]}, "properties": {"source": "8510859", "target": "468020"}}, {"type": "Feature", "geometry": {"type": "LineString", "coordinates": [[24.354733073138846, 69.23116273356595], [24.348844478264965, 69.23000159388576]]}, "properties": {"source": "468020", "target": "111895"}}, {"type": "Feature", "geometry": {"type": "LineString", "coordinates": [[24.354733073138846, 69.23116273356595], [24.354162007794173, 69.23213949958688]]}, "properties": {"source": "468020", "target": "744524"}}, {"type": "Feature", "geometry": {"type": "LineString", "coordinates": [[24.3506267472317, 69.23169613486073], [24.354733073138846, 69.23116273356595]]}, "properties": {"source": "14571182", "target": "468020"}}, {"type": "Feature", "geometry": {"type": "LineString", "coordinates": [[24.3506267472317, 69.23169613486073], [24.352052235188808, 69.23058389580368]]}, "properties": {"source": "14571182", "target": "18524417"}}, {"type": "Feature", "geometry": {"type": "LineString", "coordinates": [[24.3506267472317, 69.23169613486073], [24.349644588007322, 69.23265391031438]]}, "properties": {"source": "14571182", "target": "8510859"}}, {"type": "Feature", "geometry": {"type": "LineString", "coordinates": [[24.3506267472317, 69.23169613486073], [24.350544752351396, 69.2312282590448]]}, "properties": {"source": "14571182", "target": "1550796"}}, {"type": "Feature", "geometry": {"type": "LineString", "coordinates": [[24.3506267472317, 69.23169613486073], [24.35013142568974, 69.22981518275131]]}, "properties": {"source": "14571182", "target": "18051653"}}, {"type": "Feature", "geometry": {"type": "LineString", "coordinates": [[24.3506267472317, 69.23169613486073], [24.350037454003598, 69.23123924110931]]}, "properties": {"source": "14571182", "target": "12210960"}}, {"type": "Feature", "geometry": {"type": "LineString", "coordinates": [[24.3506267472317, 69.23169613486073], [24.34964514794703, 69.23236667042167]]}, "properties": {"source": "14571182", "target": "1433422"}}, {"type": "Feature", "geometry": {"type": "LineString", "coordinates": [[24.3506267472317, 69.23169613486073], [24.348981313060705, 69.23210438211964]]}, "properties": {"source": "14571182", "target": "18471896"}}, {"type": "Feature", "geometry": {"type": "LineString", "coordinates": [[24.3506267472317, 69.23169613486073], [24.35459193589216, 69.23262893882384]]}, "properties": {"source": "14571182", "target": "18733249"}}, {"type": "Feature", "geometry": {"type": "LineString", "coordinates": [[24.3506267472317, 69.23169613486073], [24.348844478264965, 69.23000159388576]]}, "properties": {"source": "14571182", "target": "111895"}}, {"type": "Feature", "geometry": {"type": "LineString", "coordinates": [[24.3506267472317, 69.23169613486073], [24.354353404600545, 69.23165286519819]]}, "properties": {"source": "14571182", "target": "1013609"}}, {"type": "Feature", "geometry": {"type": "LineString", "coordinates": [[24.3506267472317, 69.23169613486073], [24.34929968391606, 69.2318989049524]]}, "properties": {"source": "14571182", "target": "2879557"}}, {"type": "Feature", "geometry": {"type": "LineString", "coordinates": [[24.3506267472317, 69.23169613486073], [24.34976852339213, 69.23110426645513]]}, "properties": {"source": "14571182", "target": "1036346"}}, {"type": "Feature", "geometry": {"type": "LineString", "coordinates": [[24.353493590641847, 69.23091298136879], [24.354733073138846, 69.23116273356595]]}, "properties": {"source": "5615349", "target": "468020"}}, {"type": "Feature", "geometry": {"type": "LineString", "coordinates": [[24.35013142568974, 69.22981518275131], [24.348844478264965, 69.23000159388576]]}, "properties": {"source": "18051653", "target": "111895"}}, {"type": "Feature", "geometry": {"type": "LineString", "coordinates": [[24.3502924984671, 69.23071749115823], [24.354733073138846, 69.23116273356595]]}, "properties": {"source": "1457436", "target": "468020"}}, {"type": "Feature", "geometry": {"type": "LineString", "coordinates": [[24.3502924984671, 69.23071749115823], [24.351655131956846, 69.23102109225516]]}, "properties": {"source": "1457436", "target": "27558832"}}, {"type": "Feature", "geometry": {"type": "LineString", "coordinates": [[24.3502924984671, 69.23071749115823], [24.347591997959142, 69.23176443023522]]}, "properties": {"source": "1457436", "target": "16162463"}}, {"type": "Feature", "geometry": {"type": "LineString", "coordinates": [[24.3502924984671, 69.23071749115823], [24.354122048061015, 69.22991645355216]]}, "properties": {"source": "1457436", "target": "2934375"}}, {"type": "Feature", "geometry": {"type": "LineString", "coordinates": [[24.3502924984671, 69.23071749115823], [24.354018079953306, 69.22988852345759]]}, "properties": {"source": "1457436", "target": "31352119"}}, {"type": "Feature", "geometry": {"type": "LineString", "coordinates": [[24.3502924984671, 69.23071749115823], [24.352137218001133, 69.23146486153348]]}, "properties": {"source": "1457436", "target": "1774863"}}, {"type": "Feature", "geometry": {"type": "LineString", "coordinates": [[24.348612472768536, 69.23256503488733], [24.354733073138846, 69.23116273356595]]}, "properties": {"source": "6531747", "target": "468020"}}, {"type": "Feature", "geometry": {"type": "LineString", "coordinates": [[24.348612472768536, 69.23256503488733], [24.349644588007322, 69.23265391031438]]}, "properties": {"source": "6531747", "target": "8510859"}}, {"type": "Feature", "geometry": {"type": "LineString", "coordinates": [[24.348612472768536, 69.23256503488733], [24.350544752351396, 69.2312282590448]]}, "properties": {"source": "6531747", "target": "1550796"}}, {"type": "Feature", "geometry": {"type": "LineString", "coordinates": [[24.348612472768536, 69.23256503488733], [24.354162007794173, 69.23213949958688]]}, "properties": {"source": "6531747", "target": "744524"}}, {"type": "Feature", "geometry": {"type": "LineString", "coordinates": [[24.351655131956846, 69.23102109225516], [24.354733073138846, 69.23116273356595]]}, "properties": {"source": "27558832", "target": "468020"}}, {"type": "Feature", "geometry": {"type": "LineString", "coordinates": [[24.351655131956846, 69.23102109225516], [24.347591997959142, 69.23176443023522]]}, "properties": {"source": "27558832", "target": "16162463"}}, {"type": "Feature", "geometry": {"type": "LineString", "coordinates": [[24.351655131956846, 69.23102109225516], [24.354122048061015, 69.22991645355216]]}, "properties": {"source": "27558832", "target": "2934375"}}, {"type": "Feature", "geometry": {"type": "LineString", "coordinates": [[24.347591997959142, 69.23176443023522], [24.354733073138846, 69.23116273356595]]}, "properties": {"source": "16162463", "target": "468020"}}, {"type": "Feature", "geometry": {"type": "LineString", "coordinates": [[24.347591997959142, 69.23176443023522], [24.354122048061015, 69.22991645355216]]}, "properties": {"source": "16162463", "target": "2934375"}}, {"type": "Feature", "geometry": {"type": "LineString", "coordinates": [[24.349644588007322, 69.23265391031438], [24.350544752351396, 69.2312282590448]]}, "properties": {"source": "8510859", "target": "1550796"}}, {"type": "Feature", "geometry": {"type": "LineString", "coordinates": [[24.349644588007322, 69.23265391031438], [24.349574711427834, 69.23189853633491]]}, "properties": {"source": "8510859", "target": "17316562"}}, {"type": "Feature", "geometry": {"type": "LineString", "coordinates": [[24.349644588007322, 69.23265391031438], [24.348844478264965, 69.23000159388576]]}, "properties": {"source": "8510859", "target": "111895"}}, {"type": "Feature", "geometry": {"type": "LineString", "coordinates": [[24.349644588007322, 69.23265391031438], [24.354162007794173, 69.23213949958688]]}, "properties": {"source": "8510859", "target": "744524"}}, {"type": "Feature", "geometry": {"type": "LineString", "coordinates": [[24.350544752351396, 69.2312282590448], [24.354733073138846, 69.23116273356595]]}, "properties": {"source": "1550796", "target": "468020"}}, {"type": "Feature", "geometry": {"type": "LineString", "coordinates": [[24.350544752351396, 69.2312282590448], [24.35013142568974, 69.22981518275131]]}, "properties": {"source": "1550796", "target": "18051653"}}, {"type": "Feature", "geometry": {"type": "LineString", "coordinates": [[24.350544752351396, 69.2312282590448], [24.349574711427834, 69.23189853633491]]}, "properties": {"source": "1550796", "target": "17316562"}}, {"type": "Feature", "geometry": {"type": "LineString", "coordinates": [[24.350544752351396, 69.2312282590448], [24.348844478264965, 69.23000159388576]]}, "properties": {"source": "1550796", "target": "111895"}}, {"type": "Feature", "geometry": {"type": "LineString", "coordinates": [[24.35445637973922, 69.23015705172122], [24.354733073138846, 69.23116273356595]]}, "properties": {"source": "1729947", "target": "468020"}}, {"type": "Feature", "geometry": {"type": "LineString", "coordinates": [[24.35445637973922, 69.23015705172122], [24.349644588007322, 69.23265391031438]]}, "properties": {"source": "1729947", "target": "8510859"}}, {"type": "Feature", "geometry": {"type": "LineString", "coordinates": [[24.35445637973922, 69.23015705172122], [24.350544752351396, 69.2312282590448]]}, "properties": {"source": "1729947", "target": "1550796"}}, {"type": "Feature", "geometry": {"type": "LineString", "coordinates": [[24.35445637973922, 69.23015705172122], [24.35013142568974, 69.22981518275131]]}, "properties": {"source": "1729947", "target": "18051653"}}, {"type": "Feature", "geometry": {"type": "LineString", "coordinates": [[24.35445637973922, 69.23015705172122], [24.348612472768536, 69.23256503488733]]}, "properties": {"source": "1729947", "target": "6531747"}}, {"type": "Feature", "geometry": {"type": "LineString", "coordinates": [[24.35445637973922, 69.23015705172122], [24.349574711427834, 69.23189853633491]]}, "properties": {"source": "1729947", "target": "17316562"}}, {"type": "Feature", "geometry": {"type": "LineString", "coordinates": [[24.35445637973922, 69.23015705172122], [24.354162007794173, 69.23213949958688]]}, "properties": {"source": "1729947", "target": "744524"}}, {"type": "Feature", "geometry": {"type": "LineString", "coordinates": [[24.35013142568974, 69.22981518275131], [24.354733073138846, 69.23116273356595]]}, "properties": {"source": "18051653", "target": "468020"}}]}