{"type": "FeatureCollection", "features": [{"type": "Feature", "geometry": {"type": "LineString", "coordinates": [[151.10096596526216, 69.22995233503664], [151.101431168499, 69.22974286311936]]}, "properties": {"source": "16008880", "target": "15981906"}}, {"type": "Feature", "geometry": {"type": "LineString", "coordinates": [[151.10096596526216, 69.22995233503664], [151.10102488848975, 69.22971484237016]]}, "properties": {"source": "16008880", "target": "15981887"}}, {"type": "Feature", "geometry": {"type": "LineString", "coordinates": [[151.10096596526216, 69.22995233503664], [151.10148587613907, 69.22987016701666]]}, "properties": {"source": "16008880", "target": "15981918"}}, {"type": "Feature", "geometry": {"type": "LineString", "coordinates": [[151.101431168499, 69.22974286311936], [151.10102488848975, 69.22971484237016]]}, "properties": {"source": "15981906", "target": "15981887"}}, {"type": "Feature", "geometry": {"type": "LineString", "coordinates": [[151.101431168499, 69.22974286311936], [151.10148587613907, 69.22987016701666]]}, "properties": {"source": "15981906", "target": "15981918"}}, {"type": "Feature", "geometry": {"type": "LineString", "coordinates": [[151.10102488848975, 69.22971484237016], [151.10148587613907, 69.22987016701666]]}, "properties": {"source": "15981887", "target": "15981918"}}]}