{"type": "FeatureCollection", "features": [{"type": "Feature", "geometry": {"type": "LineString", "coordinates": [[116.35049101389268, 69.04031017149646], [116.35489852048124, 69.04070528684053]]}, "properties": {"source": "13154952", "target": "5354"}}, {"type": "Feature", "geometry": {"type": "LineString", "coordinates": [[116.35049101389268, 69.04031017149646], [116.35106383110912, 69.04007441070243]]}, "properties": {"source": "13154952", "target": "5349"}}, {"type": "Feature", "geometry": {"type": "LineString", "coordinates": [[116.35049101389268, 69.04031017149646], [116.3537133824529, 69.03998758928182]]}, "properties": {"source": "13154952", "target": "5348"}}, {"type": "Feature", "geometry": {"type": "LineString", "coordinates": [[116.35049101389268, 69.04031017149646], [116.3510871989543, 69.03985733755138]]}, "properties": {"source": "13154952", "target": "3613997"}}, {"type": "Feature", "geometry": {"type": "LineString", "coordinates": [[116.35049101389268, 69.04031017149646], [116.35432059284551, 69.03736326842773]]}, "properties": {"source": "13154952", "target": "5360"}}, {"type": "Feature", "geometry": {"type": "LineString", "coordinates": [[116.35049101389268, 69.04031017149646], [116.34794477364954, 69.03926500741017]]}, "properties": {"source": "13154952", "target": "5347"}}, {"type": "Feature", "geometry": {"type": "LineString", "coordinates": [[116.35049101389268, 69.04031017149646], [116.34581003024374, 69.03932774756439]]}, "properties": {"source": "13154952", "target": "6398972"}}, {"type": "Feature", "geometry": {"type": "LineString", "coordinates": [[116.35049101389268, 69.04031017149646], [116.34570372298691, 69.03972410453437]]}, "properties": {"source": "13154952", "target": "13573236"}}, {"type": "Feature", "geometry": {"type": "LineString", "coordinates": [[116.35482755676435, 69.03936622459864], [116.34371748546431, 69.04084320229069]]}, "properties": {"source": "11600163", "target": "5355"}}, {"type": "Feature", "geometry": {"type": "LineString", "coordinates": [[116.35482755676435, 69.03936622459864], [116.3537133824529, 69.03998758928182]]}, "properties": {"source": "11600163", "target": "5348"}}, {"type": "Feature", "geometry": {"type": "LineString", "coordinates": [[116.35482755676435, 69.03936622459864], [116.35631524441806, 69.03889468178573]]}, "properties": {"source": "11600163", "target": "5351"}}, {"type": "Feature", "geometry": {"type": "LineString", "coordinates": [[116.35482755676435, 69.03936622459864], [116.3510871989543, 69.03985733755138]]}, "properties": {"source": "11600163", "target": "3613997"}}, {"type": "Feature", "geometry": {"type": "LineString", "coordinates": [[116.35482755676435, 69.03936622459864], [116.35207912119108, 69.04170415865659]]}, "properties": {"source": "11600163", "target": "1248179"}}, {"type": "Feature", "geometry": {"type": "LineString", "coordinates": [[116.35482755676435, 69.03936622459864], [116.34570372298691, 69.03972410453437]]}, "properties": {"source": "11600163", "target": "13573236"}}, {"type": "Feature", "geometry": {"type": "LineString", "coordinates": [[116.35153500654593, 69.04142652755982], [116.35344467208944, 69.03821203564772]]}, "properties": {"source": "5345", "target": "5350"}}, {"type": "Feature", "geometry": {"type": "LineString", "coordinates": [[116.35153500654593, 69.04142652755982], [116.35489852048124, 69.04070528684053]]}, "properties": {"source": "5345", "target": "5354"}}, {"type": "Feature", "geometry": {"type": "LineString", "coordinates": [[116.35207912119108, 69.04170415865659], [116.35631524441806, 69.03889468178573]]}, "properties": {"source": "1248179", "target": "5351"}}, {"type": "Feature", "geometry": {"type": "LineString", "coordinates": [[116.35207912119108, 69.04170415865659], [116.3510871989543, 69.03985733755138]]}, "properties": {"source": "1248179", "target": "3613997"}}, {"type": "Feature", "geometry": {"type": "LineString", "coordinates": [[116.35207912119108, 69.04170415865659], [116.34417110302053, 69.04050376757576]]}, "properties": {"source": "1248179", "target": "5346"}}, {"type": "Feature", "geometry": {"type": "LineString", "coordinates": [[116.34288142468853, 69.04169752539164], [116.34417110302053, 69.04050376757576]]}, "properties": {"source": "16101084", "target": "5346"}}, {"type": "Feature", "geometry": {"type": "LineString", "coordinates": [[116.34288142468853, 69.04169752539164], [116.34794477364954, 69.03926500741017]]}, "properties": {"source": "16101084", "target": "5347"}}, {"type": "Feature", "geometry": {"type": "LineString", "coordinates": [[116.34288142468853, 69.04169752539164], [116.34886384892445, 69.0374639944871]]}, "properties": {"source": "16101084", "target": "20707959"}}, {"type": "Feature", "geometry": {"type": "LineString", "coordinates": [[116.34288142468853, 69.04169752539164], [116.34974349991057, 69.04024385216704]]}, "properties": {"source": "16101084", "target": "29433165"}}, {"type": "Feature", "geometry": {"type": "LineString", "coordinates": [[116.34288142468853, 69.04169752539164], [116.35434362955675, 69.03829240503913]]}, "properties": {"source": "16101084", "target": "17288661"}}, {"type": "Feature", "geometry": {"type": "LineString", "coordinates": [[116.3505341337949, 69.04088772905465], [116.34688270797409, 69.03770020022569]]}, "properties": {"source": "18014776", "target": "25387351"}}, {"type": "Feature", "geometry": {"type": "LineString", "coordinates": [[116.3505341337949, 69.04088772905465], [116.34886384892445, 69.0374639944871]]}, "properties": {"source": "18014776", "target": "20707959"}}, {"type": "Feature", "geometry": {"type": "LineString", "coordinates": [[116.3505341337949, 69.04088772905465], [116.34974349991057, 69.04024385216704]]}, "properties": {"source": "18014776", "target": "29433165"}}, {"type": "Feature", "geometry": {"type": "LineString", "coordinates": [[116.3505341337949, 69.04088772905465], [116.35618444571207, 69.0393530000934]]}, "properties": {"source": "18014776", "target": "11737268"}}, {"type": "Feature", "geometry": {"type": "LineString", "coordinates": [[116.34663536317692, 69.03816476956052], [116.34417110302053, 69.04050376757576]]}, "properties": {"source": "34201164", "target": "5346"}}, {"type": "Feature", "geometry": {"type": "LineString", "coordinates": [[116.34632951738575, 69.0410823693257], [116.34439479298214, 69.03788990696165]]}, "properties": {"source": "361465", "target": "526943"}}, {"type": "Feature", "geometry": {"type": "LineString", "coordinates": [[116.34632951738575, 69.0410823693257], [116.35301618311917, 69.03918666939762]]}, "properties": {"source": "361465", "target": "1514487"}}, {"type": "Feature", "geometry": {"type": "LineString", "coordinates": [[116.34632951738575, 69.0410823693257], [116.3547244605844, 69.03900538187389]]}, "properties": {"source": "361465", "target": "2473539"}}, {"type": "Feature", "geometry": {"type": "LineString", "coordinates": [[116.35489852048124, 69.04070528684053], [116.34663536317692, 69.03816476956052]]}, "properties": {"source": "5354", "target": "34201164"}}, {"type": "Feature", "geometry": {"type": "LineString", "coordinates": [[116.35159580496929, 69.03850606437624], [116.35344467208944, 69.03821203564772]]}, "properties": {"source": "5356", "target": "5350"}}, {"type": "Feature", "geometry": {"type": "LineString", "coordinates": [[116.35159580496929, 69.03850606437624], [116.35489852048124, 69.04070528684053]]}, "properties": {"source": "5356", "target": "5354"}}, {"type": "Feature", "geometry": {"type": "LineString", "coordinates": [[116.35159580496929, 69.03850606437624], [116.35106383110912, 69.04007441070243]]}, "properties": {"source": "5356", "target": "5349"}}, {"type": "Feature", "geometry": {"type": "LineString", "coordinates": [[116.35159580496929, 69.03850606437624], [116.35631524441806, 69.03889468178573]]}, "properties": {"source": "5356", "target": "5351"}}, {"type": "Feature", "geometry": {"type": "LineString", "coordinates": [[116.35159580496929, 69.03850606437624], [116.34417110302053, 69.04050376757576]]}, "properties": {"source": "5356", "target": "5346"}}, {"type": "Feature", "geometry": {"type": "LineString", "coordinates": [[116.35159580496929, 69.03850606437624], [116.34794477364954, 69.03926500741017]]}, "properties": {"source": "5356", "target": "5347"}}, {"type": "Feature", "geometry": {"type": "LineString", "coordinates": [[116.35159580496929, 69.03850606437624], [116.34974349991057, 69.04024385216704]]}, "properties": {"source": "5356", "target": "29433165"}}, {"type": "Feature", "geometry": {"type": "LineString", "coordinates": [[116.34714546684415, 69.0373507313241], [116.3454722838672, 69.04099033633705]]}, "properties": {"source": "5358", "target": "32499"}}, {"type": "Feature", "geometry": {"type": "LineString", "coordinates": [[116.34714546684415, 69.0373507313241], [116.34886384892445, 69.0374639944871]]}, "properties": {"source": "5358", "target": "20707959"}}, {"type": "Feature", "geometry": {"type": "LineString", "coordinates": [[116.34714546684415, 69.0373507313241], [116.35663736525163, 69.03975869410002]]}, "properties": {"source": "5358", "target": "24192"}}, {"type": "Feature", "geometry": {"type": "LineString", "coordinates": [[116.34714546684415, 69.0373507313241], [116.35534894846569, 69.03906094926398]]}, "properties": {"source": "5358", "target": "5357"}}, {"type": "Feature", "geometry": {"type": "LineString", "coordinates": [[116.34714546684415, 69.0373507313241], [116.35434362955675, 69.03829240503913]]}, "properties": {"source": "5358", "target": "17288661"}}, {"type": "Feature", "geometry": {"type": "LineString", "coordinates": [[116.34714546684415, 69.0373507313241], [116.34389314979961, 69.04141500765184]]}, "properties": {"source": "5358", "target": "32542"}}, {"type": "Feature", "geometry": {"type": "LineString", "coordinates": [[116.34714546684415, 69.0373507313241], [116.3486832200536, 69.04150841249663]]}, "properties": {"source": "5358", "target": "25498995"}}, {"type": "Feature", "geometry": {"type": "LineString", "coordinates": [[116.34714546684415, 69.0373507313241], [116.35525895533874, 69.0383858523602]]}, "properties": {"source": "5358", "target": "20655772"}}, {"type": "Feature", "geometry": {"type": "LineString", "coordinates": [[116.34794477364954, 69.03926500741017], [116.34974349991057, 69.04024385216704]]}, "properties": {"source": "5347", "target": "29433165"}}, {"type": "Feature", "geometry": {"type": "LineString", "coordinates": [[116.34794477364954, 69.03926500741017], [116.35534894846569, 69.03906094926398]]}, "properties": {"source": "5347", "target": "5357"}}, {"type": "Feature", "geometry": {"type": "LineString", "coordinates": [[116.34688270797409, 69.03770020022569], [116.35344467208944, 69.03821203564772]]}, "properties": {"source": "25387351", "target": "5350"}}, {"type": "Feature", "geometry": {"type": "LineString", "coordinates": [[116.34688270797409, 69.03770020022569], [116.35489852048124, 69.04070528684053]]}, "properties": {"source": "25387351", "target": "5354"}}, {"type": "Feature", "geometry": {"type": "LineString", "coordinates": [[116.34688270797409, 69.03770020022569], [116.35106383110912, 69.04007441070243]]}, "properties": {"source": "25387351", "target": "5349"}}, {"type": "Feature", "geometry": {"type": "LineString", "coordinates": [[116.34688270797409, 69.03770020022569], [116.35631524441806, 69.03889468178573]]}, "properties": {"source": "25387351", "target": "5351"}}, {"type": "Feature", "geometry": {"type": "LineString", "coordinates": [[116.34688270797409, 69.03770020022569], [116.3454722838672, 69.04099033633705]]}, "properties": {"source": "25387351", "target": "32499"}}, {"type": "Feature", "geometry": {"type": "LineString", "coordinates": [[116.34688270797409, 69.03770020022569], [116.34886384892445, 69.0374639944871]]}, "properties": {"source": "25387351", "target": "20707959"}}, {"type": "Feature", "geometry": {"type": "LineString", "coordinates": [[116.35344467208944, 69.03821203564772], [116.35106383110912, 69.04007441070243]]}, "properties": {"source": "5350", "target": "5349"}}, {"type": "Feature", "geometry": {"type": "LineString", "coordinates": [[116.35344467208944, 69.03821203564772], [116.34974349991057, 69.04024385216704]]}, "properties": {"source": "5350", "target": "29433165"}}, {"type": "Feature", "geometry": {"type": "LineString", "coordinates": [[116.35489852048124, 69.04070528684053], [116.35344467208944, 69.03821203564772]]}, "properties": {"source": "5354", "target": "5350"}}, {"type": "Feature", "geometry": {"type": "LineString", "coordinates": [[116.35489852048124, 69.04070528684053], [116.35106383110912, 69.04007441070243]]}, "properties": {"source": "5354", "target": "5349"}}, {"type": "Feature", "geometry": {"type": "LineString", "coordinates": [[116.35489852048124, 69.04070528684053], [116.34417110302053, 69.04050376757576]]}, "properties": {"source": "5354", "target": "5346"}}, {"type": "Feature", "geometry": {"type": "LineString", "coordinates": [[116.35489852048124, 69.04070528684053], [116.3454722838672, 69.04099033633705]]}, "properties": {"source": "5354", "target": "32499"}}, {"type": "Feature", "geometry": {"type": "LineString", "coordinates": [[116.35489852048124, 69.04070528684053], [116.34794477364954, 69.03926500741017]]}, "properties": {"source": "5354", "target": "5347"}}, {"type": "Feature", "geometry": {"type": "LineString", "coordinates": [[116.35489852048124, 69.04070528684053], [116.35534894846569, 69.03906094926398]]}, "properties": {"source": "5354", "target": "5357"}}, {"type": "Feature", "geometry": {"type": "LineString", "coordinates": [[116.34738120332446, 69.03985070930423], [116.34794477364954, 69.03926500741017]]}, "properties": {"source": "7933437", "target": "5347"}}, {"type": "Feature", "geometry": {"type": "LineString", "coordinates": [[116.34738120332446, 69.03985070930423], [116.34688270797409, 69.03770020022569]]}, "properties": {"source": "7933437", "target": "25387351"}}, {"type": "Feature", "geometry": {"type": "LineString", "coordinates": [[116.34738120332446, 69.03985070930423], [116.34581003024374, 69.03932774756439]]}, "properties": {"source": "7933437", "target": "6398972"}}, {"type": "Feature", "geometry": {"type": "LineString", "coordinates": [[116.34738120332446, 69.03985070930423], [116.34886384892445, 69.0374639944871]]}, "properties": {"source": "7933437", "target": "20707959"}}, {"type": "Feature", "geometry": {"type": "LineString", "coordinates": [[116.34738120332446, 69.03985070930423], [116.35542432212384, 69.04022162444414]]}, "properties": {"source": "7933437", "target": "29354916"}}, {"type": "Feature", "geometry": {"type": "LineString", "coordinates": [[116.34738120332446, 69.03985070930423], [116.35207912119108, 69.04170415865659]]}, "properties": {"source": "7933437", "target": "1248179"}}, {"type": "Feature", "geometry": {"type": "LineString", "coordinates": [[116.34738120332446, 69.03985070930423], [116.34288142468853, 69.04169752539164]]}, "properties": {"source": "7933437", "target": "16101084"}}, {"type": "Feature", "geometry": {"type": "LineString", "coordinates": [[116.34738120332446, 69.03985070930423], [116.35694181336999, 69.0419948301008]]}, "properties": {"source": "7933437", "target": "31705936"}}, {"type": "Feature", "geometry": {"type": "LineString", "coordinates": [[116.35117817454784, 69.03730206766744], [116.34794477364954, 69.03926500741017]]}, "properties": {"source": "5352", "target": "5347"}}, {"type": "Feature", "geometry": {"type": "LineString", "coordinates": [[116.35117817454784, 69.03730206766744], [116.34581003024374, 69.03932774756439]]}, "properties": {"source": "5352", "target": "6398972"}}, {"type": "Feature", "geometry": {"type": "LineString", "coordinates": [[116.35117817454784, 69.03730206766744], [116.34974349991057, 69.04024385216704]]}, "properties": {"source": "5352", "target": "29433165"}}, {"type": "Feature", "geometry": {"type": "LineString", "coordinates": [[116.35117817454784, 69.03730206766744], [116.35207912119108, 69.04170415865659]]}, "properties": {"source": "5352", "target": "1248179"}}, {"type": "Feature", "geometry": {"type": "LineString", "coordinates": [[116.35117817454784, 69.03730206766744], [116.35694181336999, 69.0419948301008]]}, "properties": {"source": "5352", "target": "31705936"}}, {"type": "Feature", "geometry": {"type": "LineString", "coordinates": [[116.35117817454784, 69.03730206766744], [116.35534894846569, 69.03906094926398]]}, "properties": {"source": "5352", "target": "5357"}}, {"type": "Feature", "geometry": {"type": "LineString", "coordinates": [[116.35117817454784, 69.03730206766744], [116.34367944629099, 69.03907149299482]]}, "properties": {"source": "5352", "target": "35038"}}, {"type": "Feature", "geometry": {"type": "LineString", "coordinates": [[116.35117817454784, 69.03730206766744], [116.34439479298214, 69.03788990696165]]}, "properties": {"source": "5352", "target": "526943"}}, {"type": "Feature", "geometry": {"type": "LineString", "coordinates": [[116.3454722838672, 69.04099033633705], [116.34429402399286, 69.03862310622421]]}, "properties": {"source": "32499", "target": "28644528"}}, {"type": "Feature", "geometry": {"type": "LineString", "coordinates": [[116.35423123368952, 69.03863813998188], [116.35344467208944, 69.03821203564772]]}, "properties": {"source": "34121119", "target": "5350"}}, {"type": "Feature", "geometry": {"type": "LineString", "coordinates": [[116.35423123368952, 69.03863813998188], [116.35106383110912, 69.04007441070243]]}, "properties": {"source": "34121119", "target": "5349"}}, {"type": "Feature", "geometry": {"type": "LineString", "coordinates": [[116.35423123368952, 69.03863813998188], [116.3537133824529, 69.03998758928182]]}, "properties": {"source": "34121119", "target": "5348"}}, {"type": "Feature", "geometry": {"type": "LineString", "coordinates": [[116.35423123368952, 69.03863813998188], [116.34714546684415, 69.0373507313241]]}, "properties": {"source": "34121119", "target": "5358"}}, {"type": "Feature", "geometry": {"type": "LineString", "coordinates": [[116.35423123368952, 69.03863813998188], [116.34688270797409, 69.03770020022569]]}, "properties": {"source": "34121119", "target": "25387351"}}, {"type": "Feature", "geometry": {"type": "LineString", "coordinates": [[116.35423123368952, 69.03863813998188], [116.34886384892445, 69.0374639944871]]}, "properties": {"source": "34121119", "target": "20707959"}}, {"type": "Feature", "geometry": {"type": "LineString", "coordinates": [[116.35423123368952, 69.03863813998188], [116.35542432212384, 69.04022162444414]]}, "properties": {"source": "34121119", "target": "29354916"}}, {"type": "Feature", "geometry": {"type": "LineString", "coordinates": [[116.34581003024374, 69.03932774756439], [116.35432059284551, 69.03736326842773]]}, "properties": {"source": "6398972", "target": "5360"}}, {"type": "Feature", "geometry": {"type": "LineString", "coordinates": [[116.34581003024374, 69.03932774756439], [116.34794477364954, 69.03926500741017]]}, "properties": {"source": "6398972", "target": "5347"}}, {"type": "Feature", "geometry": {"type": "LineString", "coordinates": [[116.34581003024374, 69.03932774756439], [116.34974349991057, 69.04024385216704]]}, "properties": {"source": "6398972", "target": "29433165"}}, {"type": "Feature", "geometry": {"type": "LineString", "coordinates": [[116.34581003024374, 69.03932774756439], [116.35534894846569, 69.03906094926398]]}, "properties": {"source": "6398972", "target": "5357"}}, {"type": "Feature", "geometry": {"type": "LineString", "coordinates": [[116.34581003024374, 69.03932774756439], [116.34439479298214, 69.03788990696165]]}, "properties": {"source": "6398972", "target": "526943"}}, {"type": "Feature", "geometry": {"type": "LineString", "coordinates": [[116.34886384892445, 69.0374639944871], [116.35106383110912, 69.04007441070243]]}, "properties": {"source": "20707959", "target": "5349"}}, {"type": "Feature", "geometry": {"type": "LineString", "coordinates": [[116.34886384892445, 69.0374639944871], [116.3454722838672, 69.04099033633705]]}, "properties": {"source": "20707959", "target": "32499"}}, {"type": "Feature", "geometry": {"type": "LineString", "coordinates": [[116.34886384892445, 69.0374639944871], [116.35542432212384, 69.04022162444414]]}, "properties": {"source": "20707959", "target": "29354916"}}, {"type": "Feature", "geometry": {"type": "LineString", "coordinates": [[116.34781482964144, 69.03827103902591], [116.35618444571207, 69.0393530000934]]}, "properties": {"source": "142759", "target": "11737268"}}, {"type": "Feature", "geometry": {"type": "LineString", "coordinates": [[116.34781482964144, 69.03827103902591], [116.35301618311917, 69.03918666939762]]}, "properties": {"source": "142759", "target": "1514487"}}, {"type": "Feature", "geometry": {"type": "LineString", "coordinates": [[116.34781482964144, 69.03827103902591], [116.34632951738575, 69.0410823693257]]}, "properties": {"source": "142759", "target": "361465"}}, {"type": "Feature", "geometry": {"type": "LineString", "coordinates": [[116.34781482964144, 69.03827103902591], [116.3547244605844, 69.03900538187389]]}, "properties": {"source": "142759", "target": "2473539"}}, {"type": "Feature", "geometry": {"type": "LineString", "coordinates": [[116.34781482964144, 69.03827103902591], [116.35572892533463, 69.0394236033959]]}, "properties": {"source": "142759", "target": "12451933"}}, {"type": "Feature", "geometry": {"type": "LineString", "coordinates": [[116.34781482964144, 69.03827103902591], [116.34547088503075, 69.0389216219084]]}, "properties": {"source": "142759", "target": "993066"}}, {"type": "Feature", "geometry": {"type": "LineString", "coordinates": [[116.34781482964144, 69.03827103902591], [116.35585238779117, 69.03781628107683]]}, "properties": {"source": "142759", "target": "12794834"}}, {"type": "Feature", "geometry": {"type": "LineString", "coordinates": [[116.35049101389268, 69.04031017149646], [116.35344467208944, 69.03821203564772]]}, "properties": {"source": "13154952", "target": "5350"}}, {"type": "Feature", "geometry": {"type": "LineString", "coordinates": [[116.35117817454784, 69.03730206766744], [116.34564748060285, 69.0397611063689]]}, "properties": {"source": "5352", "target": "1205297"}}, {"type": "Feature", "geometry": {"type": "LineString", "coordinates": [[116.35117817454784, 69.03730206766744], [116.35153500654593, 69.04142652755982]]}, "properties": {"source": "5352", "target": "5345"}}, {"type": "Feature", "geometry": {"type": "LineString", "coordinates": [[116.35117817454784, 69.03730206766744], [116.3477356164326, 69.03982299302191]]}, "properties": {"source": "5352", "target": "1110"}}, {"type": "Feature", "geometry": {"type": "LineString", "coordinates": [[116.35117817454784, 69.03730206766744], [116.3551319459902, 69.04001117464338]]}, "properties": {"source": "5352", "target": "452235"}}, {"type": "Feature", "geometry": {"type": "LineString", "coordinates": [[116.35117817454784, 69.03730206766744], [116.34429402399286, 69.03862310622421]]}, "properties": {"source": "5352", "target": "28644528"}}, {"type": "Feature", "geometry": {"type": "LineString", "coordinates": [[116.35117817454784, 69.03730206766744], [116.34915175404768, 69.0385818476721]]}, "properties": {"source": "5352", "target": "13627945"}}, {"type": "Feature", "geometry": {"type": "LineString", "coordinates": [[116.35117817454784, 69.03730206766744], [116.34663536317692, 69.03816476956052]]}, "properties": {"source": "5352", "target": "34201164"}}, {"type": "Feature", "geometry": {"type": "LineString", "coordinates": [[116.34738120332446, 69.03985070930423], [116.35344467208944, 69.03821203564772]]}, "properties": {"source": "7933437", "target": "5350"}}, {"type": "Feature", "geometry": {"type": "LineString", "coordinates": [[116.3537133824529, 69.03998758928182], [116.3551319459902, 69.04001117464338]]}, "properties": {"source": "5348", "target": "452235"}}, {"type": "Feature", "geometry": {"type": "LineString", "coordinates": [[116.35631524441806, 69.03889468178573], [116.35344467208944, 69.03821203564772]]}, "properties": {"source": "5351", "target": "5350"}}, {"type": "Feature", "geometry": {"type": "LineString", "coordinates": [[116.35631524441806, 69.03889468178573], [116.35489852048124, 69.04070528684053]]}, "properties": {"source": "5351", "target": "5354"}}, {"type": "Feature", "geometry": {"type": "LineString", "coordinates": [[116.35631524441806, 69.03889468178573], [116.35106383110912, 69.04007441070243]]}, "properties": {"source": "5351", "target": "5349"}}, {"type": "Feature", "geometry": {"type": "LineString", "coordinates": [[116.35631524441806, 69.03889468178573], [116.34417110302053, 69.04050376757576]]}, "properties": {"source": "5351", "target": "5346"}}, {"type": "Feature", "geometry": {"type": "LineString", "coordinates": [[116.35631524441806, 69.03889468178573], [116.3454722838672, 69.04099033633705]]}, "properties": {"source": "5351", "target": "32499"}}, {"type": "Feature", "geometry": {"type": "LineString", "coordinates": [[116.35631524441806, 69.03889468178573], [116.34794477364954, 69.03926500741017]]}, "properties": {"source": "5351", "target": "5347"}}, {"type": "Feature", "geometry": {"type": "LineString", "coordinates": [[116.35631524441806, 69.03889468178573], [116.35534894846569, 69.03906094926398]]}, "properties": {"source": "5351", "target": "5357"}}, {"type": "Feature", "geometry": {"type": "LineString", "coordinates": [[116.35117817454784, 69.03730206766744], [116.35631524441806, 69.03889468178573]]}, "properties": {"source": "5352", "target": "5351"}}, {"type": "Feature", "geometry": {"type": "LineString", "coordinates": [[116.35117817454784, 69.03730206766744], [116.3510871989543, 69.03985733755138]]}, "properties": {"source": "5352", "target": "3613997"}}, {"type": "Feature", "geometry": {"type": "LineString", "coordinates": [[116.35117817454784, 69.03730206766744], [116.34417110302053, 69.04050376757576]]}, "properties": {"source": "5352", "target": "5346"}}, {"type": "Feature", "geometry": {"type": "LineString", "coordinates": [[116.35117817454784, 69.03730206766744], [116.34714546684415, 69.0373507313241]]}, "properties": {"source": "5352", "target": "5358"}}, {"type": "Feature", "geometry": {"type": "LineString", "coordinates": [[116.35117817454784, 69.03730206766744], [116.35432059284551, 69.03736326842773]]}, "properties": {"source": "5352", "target": "5360"}}, {"type": "Feature", "geometry": {"type": "LineString", "coordinates": [[116.35159580496929, 69.03850606437624], [116.35534894846569, 69.03906094926398]]}, "properties": {"source": "5356", "target": "5357"}}, {"type": "Feature", "geometry": {"type": "LineString", "coordinates": [[116.35159580496929, 69.03850606437624], [116.3551319459902, 69.04001117464338]]}, "properties": {"source": "5356", "target": "452235"}}, {"type": "Feature", "geometry": {"type": "LineString", "coordinates": [[116.35159580496929, 69.03850606437624], [116.34663536317692, 69.03816476956052]]}, "properties": {"source": "5356", "target": "34201164"}}, {"type": "Feature", "geometry": {"type": "LineString", "coordinates": [[116.3510871989543, 69.03985733755138], [116.34417110302053, 69.04050376757576]]}, "properties": {"source": "3613997", "target": "5346"}}, {"type": "Feature", "geometry": {"type": "LineString", "coordinates": [[116.3510871989543, 69.03985733755138], [116.34688270797409, 69.03770020022569]]}, "properties": {"source": "3613997", "target": "25387351"}}, {"type": "Feature", "geometry": {"type": "LineString", "coordinates": [[116.3510871989543, 69.03985733755138], [116.34974349991057, 69.04024385216704]]}, "properties": {"source": "3613997", "target": "29433165"}}, {"type": "Feature", "geometry": {"type": "LineString", "coordinates": [[116.3510871989543, 69.03985733755138], [116.34570372298691, 69.03972410453437]]}, "properties": {"source": "3613997", "target": "13573236"}}, {"type": "Feature", "geometry": {"type": "LineString", "coordinates": [[116.3510871989543, 69.03985733755138], [116.34367944629099, 69.03907149299482]]}, "properties": {"source": "3613997", "target": "35038"}}, {"type": "Feature", "geometry": {"type": "LineString", "coordinates": [[116.3510871989543, 69.03985733755138], [116.35434362955675, 69.03829240503913]]}, "properties": {"source": "3613997", "target": "17288661"}}, {"type": "Feature", "geometry": {"type": "LineString", "coordinates": [[116.3510871989543, 69.03985733755138], [116.3477356164326, 69.03982299302191]]}, "properties": {"source": "3613997", "target": "1110"}}, {"type": "Feature", "geometry": {"type": "LineString", "coordinates": [[116.3510871989543, 69.03985733755138], [116.34429402399286, 69.03862310622421]]}, "properties": {"source": "3613997", "target": "28644528"}}, {"type": "Feature", "geometry": {"type": "LineString", "coordinates": [[116.35631524441806, 69.03889468178573], [116.3551319459902, 69.04001117464338]]}, "properties": {"source": "5351", "target": "452235"}}, {"type": "Feature", "geometry": {"type": "LineString", "coordinates": [[116.35631524441806, 69.03889468178573], [116.3486832200536, 69.04150841249663]]}, "properties": {"source": "5351", "target": "25498995"}}, {"type": "Feature", "geometry": {"type": "LineString", "coordinates": [[116.3510871989543, 69.03985733755138], [116.35344467208944, 69.03821203564772]]}, "properties": {"source": "3613997", "target": "5350"}}, {"type": "Feature", "geometry": {"type": "LineString", "coordinates": [[116.3510871989543, 69.03985733755138], [116.35489852048124, 69.04070528684053]]}, "properties": {"source": "3613997", "target": "5354"}}, {"type": "Feature", "geometry": {"type": "LineString", "coordinates": [[116.3510871989543, 69.03985733755138], [116.35106383110912, 69.04007441070243]]}, "properties": {"source": "3613997", "target": "5349"}}, {"type": "Feature", "geometry": {"type": "LineString", "coordinates": [[116.3510871989543, 69.03985733755138], [116.34371748546431, 69.04084320229069]]}, "properties": {"source": "3613997", "target": "5355"}}, {"type": "Feature", "geometry": {"type": "LineString", "coordinates": [[116.3510871989543, 69.03985733755138], [116.35631524441806, 69.03889468178573]]}, "properties": {"source": "3613997", "target": "5351"}}, {"type": "Feature", "geometry": {"type": "LineString", "coordinates": [[116.34886384892445, 69.0374639944871], [116.35663736525163, 69.03975869410002]]}, "properties": {"source": "20707959", "target": "24192"}}, {"type": "Feature", "geometry": {"type": "LineString", "coordinates": [[116.35542432212384, 69.04022162444414], [116.35344467208944, 69.03821203564772]]}, "properties": {"source": "29354916", "target": "5350"}}, {"type": "Feature", "geometry": {"type": "LineString", "coordinates": [[116.35542432212384, 69.04022162444414], [116.35106383110912, 69.04007441070243]]}, "properties": {"source": "29354916", "target": "5349"}}, {"type": "Feature", "geometry": {"type": "LineString", "coordinates": [[116.35207912119108, 69.04170415865659], [116.35344467208944, 69.03821203564772]]}, "properties": {"source": "1248179", "target": "5350"}}, {"type": "Feature", "geometry": {"type": "LineString", "coordinates": [[116.35207912119108, 69.04170415865659], [116.35489852048124, 69.04070528684053]]}, "properties": {"source": "1248179", "target": "5354"}}, {"type": "Feature", "geometry": {"type": "LineString", "coordinates": [[116.35207912119108, 69.04170415865659], [116.34371748546431, 69.04084320229069]]}, "properties": {"source": "1248179", "target": "5355"}}, {"type": "Feature", "geometry": {"type": "LineString", "coordinates": [[116.35207912119108, 69.04170415865659], [116.3537133824529, 69.03998758928182]]}, "properties": {"source": "1248179", "target": "5348"}}, {"type": "Feature", "geometry": {"type": "LineString", "coordinates": [[116.3510871989543, 69.03985733755138], [116.35159580496929, 69.03850606437624]]}, "properties": {"source": "3613997", "target": "5356"}}, {"type": "Feature", "geometry": {"type": "LineString", "coordinates": [[116.35207912119108, 69.04170415865659], [116.35159580496929, 69.03850606437624]]}, "properties": {"source": "1248179", "target": "5356"}}, {"type": "Feature", "geometry": {"type": "LineString", "coordinates": [[116.34371748546431, 69.04084320229069], [116.35631524441806, 69.03889468178573]]}, "properties": {"source": "5355", "target": "5351"}}, {"type": "Feature", "geometry": {"type": "LineString", "coordinates": [[116.34371748546431, 69.04084320229069], [116.34417110302053, 69.04050376757576]]}, "properties": {"source": "5355", "target": "5346"}}, {"type": "Feature", "geometry": {"type": "LineString", "coordinates": [[116.34371748546431, 69.04084320229069], [116.3454722838672, 69.04099033633705]]}, "properties": {"source": "5355", "target": "32499"}}, {"type": "Feature", "geometry": {"type": "LineString", "coordinates": [[116.34371748546431, 69.04084320229069], [116.34886384892445, 69.0374639944871]]}, "properties": {"source": "5355", "target": "20707959"}}, {"type": "Feature", "geometry": {"type": "LineString", "coordinates": [[116.34371748546431, 69.04084320229069], [116.35542432212384, 69.04022162444414]]}, "properties": {"source": "5355", "target": "29354916"}}, {"type": "Feature", "geometry": {"type": "LineString", "coordinates": [[116.34371748546431, 69.04084320229069], [116.35663736525163, 69.03975869410002]]}, "properties": {"source": "5355", "target": "24192"}}, {"type": "Feature", "geometry": {"type": "LineString", "coordinates": [[116.34371748546431, 69.04084320229069], [116.35534894846569, 69.03906094926398]]}, "properties": {"source": "5355", "target": "5357"}}, {"type": "Feature", "geometry": {"type": "LineString", "coordinates": [[116.34371748546431, 69.04084320229069], [116.3551319459902, 69.04001117464338]]}, "properties": {"source": "5355", "target": "452235"}}, {"type": "Feature", "geometry": {"type": "LineString", "coordinates": [[116.34738120332446, 69.03985070930423], [116.35489852048124, 69.04070528684053]]}, "properties": {"source": "7933437", "target": "5354"}}, {"type": "Feature", "geometry": {"type": "LineString", "coordinates": [[116.34738120332446, 69.03985070930423], [116.35011473393183, 69.03797193256827]]}, "properties": {"source": "7933437", "target": "5359"}}, {"type": "Feature", "geometry": {"type": "LineString", "coordinates": [[116.34738120332446, 69.03985070930423], [116.35106383110912, 69.04007441070243]]}, "properties": {"source": "7933437", "target": "5349"}}, {"type": "Feature", "geometry": {"type": "LineString", "coordinates": [[116.34738120332446, 69.03985070930423], [116.34371748546431, 69.04084320229069]]}, "properties": {"source": "7933437", "target": "5355"}}, {"type": "Feature", "geometry": {"type": "LineString", "coordinates": [[116.34738120332446, 69.03985070930423], [116.35631524441806, 69.03889468178573]]}, "properties": {"source": "7933437", "target": "5351"}}, {"type": "Feature", "geometry": {"type": "LineString", "coordinates": [[116.34738120332446, 69.03985070930423], [116.3510871989543, 69.03985733755138]]}, "properties": {"source": "7933437", "target": "3613997"}}, {"type": "Feature", "geometry": {"type": "LineString", "coordinates": [[116.34738120332446, 69.03985070930423], [116.35432059284551, 69.03736326842773]]}, "properties": {"source": "7933437", "target": "5360"}}, {"type": "Feature", "geometry": {"type": "LineString", "coordinates": [[116.34738120332446, 69.03985070930423], [116.35159580496929, 69.03850606437624]]}, "properties": {"source": "7933437", "target": "5356"}}, {"type": "Feature", "geometry": {"type": "LineString", "coordinates": [[116.35011473393183, 69.03797193256827], [116.35542432212384, 69.04022162444414]]}, "properties": {"source": "5359", "target": "29354916"}}, {"type": "Feature", "geometry": {"type": "LineString", "coordinates": [[116.35011473393183, 69.03797193256827], [116.34570372298691, 69.03972410453437]]}, "properties": {"source": "5359", "target": "13573236"}}, {"type": "Feature", "geometry": {"type": "LineString", "coordinates": [[116.35011473393183, 69.03797193256827], [116.35663736525163, 69.03975869410002]]}, "properties": {"source": "5359", "target": "24192"}}, {"type": "Feature", "geometry": {"type": "LineString", "coordinates": [[116.35011473393183, 69.03797193256827], [116.35534894846569, 69.03906094926398]]}, "properties": {"source": "5359", "target": "5357"}}, {"type": "Feature", "geometry": {"type": "LineString", "coordinates": [[116.35011473393183, 69.03797193256827], [116.35434362955675, 69.03829240503913]]}, "properties": {"source": "5359", "target": "17288661"}}, {"type": "Feature", "geometry": {"type": "LineString", "coordinates": [[116.35011473393183, 69.03797193256827], [116.3551319459902, 69.04001117464338]]}, "properties": {"source": "5359", "target": "452235"}}, {"type": "Feature", "geometry": {"type": "LineString", "coordinates": [[116.35011473393183, 69.03797193256827], [116.34389314979961, 69.04141500765184]]}, "properties": {"source": "5359", "target": "32542"}}, {"type": "Feature", "geometry": {"type": "LineString", "coordinates": [[116.35011473393183, 69.03797193256827], [116.34429402399286, 69.03862310622421]]}, "properties": {"source": "5359", "target": "28644528"}}, {"type": "Feature", "geometry": {"type": "LineString", "coordinates": [[116.35011473393183, 69.03797193256827], [116.35375788783449, 69.04016680921595]]}, "properties": {"source": "5359", "target": "425029"}}, {"type": "Feature", "geometry": {"type": "LineString", "coordinates": [[116.35011473393183, 69.03797193256827], [116.3486832200536, 69.04150841249663]]}, "properties": {"source": "5359", "target": "25498995"}}, {"type": "Feature", "geometry": {"type": "LineString", "coordinates": [[116.35011473393183, 69.03797193256827], [116.35525895533874, 69.0383858523602]]}, "properties": {"source": "5359", "target": "20655772"}}, {"type": "Feature", "geometry": {"type": "LineString", "coordinates": [[116.35011473393183, 69.03797193256827], [116.35575812084443, 69.03868423075082]]}, "properties": {"source": "5359", "target": "18284178"}}, {"type": "Feature", "geometry": {"type": "LineString", "coordinates": [[116.34371748546431, 69.04084320229069], [116.35344467208944, 69.03821203564772]]}, "properties": {"source": "5355", "target": "5350"}}, {"type": "Feature", "geometry": {"type": "LineString", "coordinates": [[116.34371748546431, 69.04084320229069], [116.35489852048124, 69.04070528684053]]}, "properties": {"source": "5355", "target": "5354"}}, {"type": "Feature", "geometry": {"type": "LineString", "coordinates": [[116.34371748546431, 69.04084320229069], [116.35106383110912, 69.04007441070243]]}, "properties": {"source": "5355", "target": "5349"}}, {"type": "Feature", "geometry": {"type": "LineString", "coordinates": [[116.34371748546431, 69.04084320229069], [116.35159580496929, 69.03850606437624]]}, "properties": {"source": "5355", "target": "5356"}}, {"type": "Feature", "geometry": {"type": "LineString", "coordinates": [[116.35694181336999, 69.0419948301008], [116.3510871989543, 69.03985733755138]]}, "properties": {"source": "31705936", "target": "3613997"}}, {"type": "Feature", "geometry": {"type": "LineString", "coordinates": [[116.35694181336999, 69.0419948301008], [116.34417110302053, 69.04050376757576]]}, "properties": {"source": "31705936", "target": "5346"}}, {"type": "Feature", "geometry": {"type": "LineString", "coordinates": [[116.35694181336999, 69.0419948301008], [116.35542432212384, 69.04022162444414]]}, "properties": {"source": "31705936", "target": "29354916"}}, {"type": "Feature", "geometry": {"type": "LineString", "coordinates": [[116.35694181336999, 69.0419948301008], [116.34974349991057, 69.04024385216704]]}, "properties": {"source": "31705936", "target": "29433165"}}, {"type": "Feature", "geometry": {"type": "LineString", "coordinates": [[116.35694181336999, 69.0419948301008], [116.34429402399286, 69.03862310622421]]}, "properties": {"source": "31705936", "target": "28644528"}}, {"type": "Feature", "geometry": {"type": "LineString", "coordinates": [[116.34570372298691, 69.03972410453437], [116.35344467208944, 69.03821203564772]]}, "properties": {"source": "13573236", "target": "5350"}}, {"type": "Feature", "geometry": {"type": "LineString", "coordinates": [[116.34570372298691, 69.03972410453437], [116.35106383110912, 69.04007441070243]]}, "properties": {"source": "13573236", "target": "5349"}}, {"type": "Feature", "geometry": {"type": "LineString", "coordinates": [[116.34570372298691, 69.03972410453437], [116.34417110302053, 69.04050376757576]]}, "properties": {"source": "13573236", "target": "5346"}}, {"type": "Feature", "geometry": {"type": "LineString", "coordinates": [[116.34570372298691, 69.03972410453437], [116.34886384892445, 69.0374639944871]]}, "properties": {"source": "13573236", "target": "20707959"}}, {"type": "Feature", "geometry": {"type": "LineString", "coordinates": [[116.34570372298691, 69.03972410453437], [116.35663736525163, 69.03975869410002]]}, "properties": {"source": "13573236", "target": "24192"}}, {"type": "Feature", "geometry": {"type": "LineString", "coordinates": [[116.34570372298691, 69.03972410453437], [116.35434362955675, 69.03829240503913]]}, "properties": {"source": "13573236", "target": "17288661"}}, {"type": "Feature", "geometry": {"type": "LineString", "coordinates": [[116.34570372298691, 69.03972410453437], [116.35618444571207, 69.0393530000934]]}, "properties": {"source": "13573236", "target": "11737268"}}, {"type": "Feature", "geometry": {"type": "LineString", "coordinates": [[116.35663736525163, 69.03975869410002], [116.35344467208944, 69.03821203564772]]}, "properties": {"source": "24192", "target": "5350"}}, {"type": "Feature", "geometry": {"type": "LineString", "coordinates": [[116.35663736525163, 69.03975869410002], [116.35489852048124, 69.04070528684053]]}, "properties": {"source": "24192", "target": "5354"}}, {"type": "Feature", "geometry": {"type": "LineString", "coordinates": [[116.35663736525163, 69.03975869410002], [116.35106383110912, 69.04007441070243]]}, "properties": {"source": "24192", "target": "5349"}}, {"type": "Feature", "geometry": {"type": "LineString", "coordinates": [[116.35663736525163, 69.03975869410002], [116.35631524441806, 69.03889468178573]]}, "properties": {"source": "24192", "target": "5351"}}, {"type": "Feature", "geometry": {"type": "LineString", "coordinates": [[116.35301618311917, 69.03918666939762], [116.35572892533463, 69.0394236033959]]}, "properties": {"source": "1514487", "target": "12451933"}}, {"type": "Feature", "geometry": {"type": "LineString", "coordinates": [[116.34915175404768, 69.0385818476721], [116.35489852048124, 69.04070528684053]]}, "properties": {"source": "13627945", "target": "5354"}}, {"type": "Feature", "geometry": {"type": "LineString", "coordinates": [[116.34915175404768, 69.0385818476721], [116.3510871989543, 69.03985733755138]]}, "properties": {"source": "13627945", "target": "3613997"}}, {"type": "Feature", "geometry": {"type": "LineString", "coordinates": [[116.34929078470753, 69.04086145929807], [116.35542432212384, 69.04022162444414]]}, "properties": {"source": "23281792", "target": "29354916"}}, {"type": "Feature", "geometry": {"type": "LineString", "coordinates": [[116.34929078470753, 69.04086145929807], [116.34974349991057, 69.04024385216704]]}, "properties": {"source": "23281792", "target": "29433165"}}, {"type": "Feature", "geometry": {"type": "LineString", "coordinates": [[116.34929078470753, 69.04086145929807], [116.35618444571207, 69.0393530000934]]}, "properties": {"source": "23281792", "target": "11737268"}}, {"type": "Feature", "geometry": {"type": "LineString", "coordinates": [[116.35117817454784, 69.03730206766744], [116.35344467208944, 69.03821203564772]]}, "properties": {"source": "5352", "target": "5350"}}, {"type": "Feature", "geometry": {"type": "LineString", "coordinates": [[116.35117817454784, 69.03730206766744], [116.35489852048124, 69.04070528684053]]}, "properties": {"source": "5352", "target": "5354"}}, {"type": "Feature", "geometry": {"type": "LineString", "coordinates": [[116.35117817454784, 69.03730206766744], [116.34738120332446, 69.03985070930423]]}, "properties": {"source": "5352", "target": "7933437"}}, {"type": "Feature", "geometry": {"type": "LineString", "coordinates": [[116.35117817454784, 69.03730206766744], [116.35011473393183, 69.03797193256827]]}, "properties": {"source": "5352", "target": "5359"}}, {"type": "Feature", "geometry": {"type": "LineString", "coordinates": [[116.35117817454784, 69.03730206766744], [116.35106383110912, 69.04007441070243]]}, "properties": {"source": "5352", "target": "5349"}}, {"type": "Feature", "geometry": {"type": "LineString", "coordinates": [[116.35117817454784, 69.03730206766744], [116.34371748546431, 69.04084320229069]]}, "properties": {"source": "5352", "target": "5355"}}, {"type": "Feature", "geometry": {"type": "LineString", "coordinates": [[116.35117817454784, 69.03730206766744], [116.3537133824529, 69.03998758928182]]}, "properties": {"source": "5352", "target": "5348"}}, {"type": "Feature", "geometry": {"type": "LineString", "coordinates": [[116.35301618311917, 69.03918666939762], [116.34474974171951, 69.04115552501653]]}, "properties": {"source": "1514487", "target": "32549"}}, {"type": "Feature", "geometry": {"type": "LineString", "coordinates": [[116.34915175404768, 69.0385818476721], [116.35159580496929, 69.03850606437624]]}, "properties": {"source": "13627945", "target": "5356"}}, {"type": "Feature", "geometry": {"type": "LineString", "coordinates": [[116.35117817454784, 69.03730206766744], [116.35159580496929, 69.03850606437624]]}, "properties": {"source": "5352", "target": "5356"}}, {"type": "Feature", "geometry": {"type": "LineString", "coordinates": [[116.35432059284551, 69.03736326842773], [116.35344467208944, 69.03821203564772]]}, "properties": {"source": "5360", "target": "5350"}}, {"type": "Feature", "geometry": {"type": "LineString", "coordinates": [[116.35432059284551, 69.03736326842773], [116.35489852048124, 69.04070528684053]]}, "properties": {"source": "5360", "target": "5354"}}, {"type": "Feature", "geometry": {"type": "LineString", "coordinates": [[116.35432059284551, 69.03736326842773], [116.35106383110912, 69.04007441070243]]}, "properties": {"source": "5360", "target": "5349"}}, {"type": "Feature", "geometry": {"type": "LineString", "coordinates": [[116.35432059284551, 69.03736326842773], [116.34371748546431, 69.04084320229069]]}, "properties": {"source": "5360", "target": "5355"}}, {"type": "Feature", "geometry": {"type": "LineString", "coordinates": [[116.35432059284551, 69.03736326842773], [116.35631524441806, 69.03889468178573]]}, "properties": {"source": "5360", "target": "5351"}}, {"type": "Feature", "geometry": {"type": "LineString", "coordinates": [[116.35432059284551, 69.03736326842773], [116.34417110302053, 69.04050376757576]]}, "properties": {"source": "5360", "target": "5346"}}, {"type": "Feature", "geometry": {"type": "LineString", "coordinates": [[116.35432059284551, 69.03736326842773], [116.34714546684415, 69.0373507313241]]}, "properties": {"source": "5360", "target": "5358"}}, {"type": "Feature", "geometry": {"type": "LineString", "coordinates": [[116.35432059284551, 69.03736326842773], [116.34794477364954, 69.03926500741017]]}, "properties": {"source": "5360", "target": "5347"}}, {"type": "Feature", "geometry": {"type": "LineString", "coordinates": [[116.35432059284551, 69.03736326842773], [116.35534894846569, 69.03906094926398]]}, "properties": {"source": "5360", "target": "5357"}}, {"type": "Feature", "geometry": {"type": "LineString", "coordinates": [[116.35432059284551, 69.03736326842773], [116.3551319459902, 69.04001117464338]]}, "properties": {"source": "5360", "target": "452235"}}, {"type": "Feature", "geometry": {"type": "LineString", "coordinates": [[116.3454722838672, 69.04099033633705], [116.35344467208944, 69.03821203564772]]}, "properties": {"source": "32499", "target": "5350"}}, {"type": "Feature", "geometry": {"type": "LineString", "coordinates": [[116.3454722838672, 69.04099033633705], [116.35106383110912, 69.04007441070243]]}, "properties": {"source": "32499", "target": "5349"}}, {"type": "Feature", "geometry": {"type": "LineString", "coordinates": [[116.3454722838672, 69.04099033633705], [116.34417110302053, 69.04050376757576]]}, "properties": {"source": "32499", "target": "5346"}}, {"type": "Feature", "geometry": {"type": "LineString", "coordinates": [[116.3454722838672, 69.04099033633705], [116.35542432212384, 69.04022162444414]]}, "properties": {"source": "32499", "target": "29354916"}}, {"type": "Feature", "geometry": {"type": "LineString", "coordinates": [[116.3454722838672, 69.04099033633705], [116.34389314979961, 69.04141500765184]]}, "properties": {"source": "32499", "target": "32542"}}, {"type": "Feature", "geometry": {"type": "LineString", "coordinates": [[116.35432059284551, 69.03736326842773], [116.35159580496929, 69.03850606437624]]}, "properties": {"source": "5360", "target": "5356"}}, {"type": "Feature", "geometry": {"type": "LineString", "coordinates": [[116.35434362955675, 69.03829240503913], [116.35106383110912, 69.04007441070243]]}, "properties": {"source": "17288661", "target": "5349"}}, {"type": "Feature", "geometry": {"type": "LineString", "coordinates": [[116.35434362955675, 69.03829240503913], [116.3454722838672, 69.04099033633705]]}, "properties": {"source": "17288661", "target": "32499"}}, {"type": "Feature", "geometry": {"type": "LineString", "coordinates": [[116.35434362955675, 69.03829240503913], [116.34886384892445, 69.0374639944871]]}, "properties": {"source": "17288661", "target": "20707959"}}, {"type": "Feature", "geometry": {"type": "LineString", "coordinates": [[116.35434362955675, 69.03829240503913], [116.35542432212384, 69.04022162444414]]}, "properties": {"source": "17288661", "target": "29354916"}}, {"type": "Feature", "geometry": {"type": "LineString", "coordinates": [[116.35434362955675, 69.03829240503913], [116.35663736525163, 69.03975869410002]]}, "properties": {"source": "17288661", "target": "24192"}}, {"type": "Feature", "geometry": {"type": "LineString", "coordinates": [[116.35434362955675, 69.03829240503913], [116.34389314979961, 69.04141500765184]]}, "properties": {"source": "17288661", "target": "32542"}}, {"type": "Feature", "geometry": {"type": "LineString", "coordinates": [[116.34439479298214, 69.03788990696165], [116.35489852048124, 69.04070528684053]]}, "properties": {"source": "526943", "target": "5354"}}, {"type": "Feature", "geometry": {"type": "LineString", "coordinates": [[116.34688270797409, 69.03770020022569], [116.35542432212384, 69.04022162444414]]}, "properties": {"source": "25387351", "target": "29354916"}}, {"type": "Feature", "geometry": {"type": "LineString", "coordinates": [[116.34688270797409, 69.03770020022569], [116.34570372298691, 69.03972410453437]]}, "properties": {"source": "25387351", "target": "13573236"}}, {"type": "Feature", "geometry": {"type": "LineString", "coordinates": [[116.34688270797409, 69.03770020022569], [116.35434362955675, 69.03829240503913]]}, "properties": {"source": "25387351", "target": "17288661"}}, {"type": "Feature", "geometry": {"type": "LineString", "coordinates": [[116.34581003024374, 69.03932774756439], [116.35489852048124, 69.04070528684053]]}, "properties": {"source": "6398972", "target": "5354"}}, {"type": "Feature", "geometry": {"type": "LineString", "coordinates": [[116.34581003024374, 69.03932774756439], [116.34371748546431, 69.04084320229069]]}, "properties": {"source": "6398972", "target": "5355"}}, {"type": "Feature", "geometry": {"type": "LineString", "coordinates": [[116.34581003024374, 69.03932774756439], [116.35631524441806, 69.03889468178573]]}, "properties": {"source": "6398972", "target": "5351"}}, {"type": "Feature", "geometry": {"type": "LineString", "coordinates": [[116.34439479298214, 69.03788990696165], [116.35159580496929, 69.03850606437624]]}, "properties": {"source": "526943", "target": "5356"}}, {"type": "Feature", "geometry": {"type": "LineString", "coordinates": [[116.34688270797409, 69.03770020022569], [116.34929078470753, 69.04086145929807]]}, "properties": {"source": "25387351", "target": "23281792"}}, {"type": "Feature", "geometry": {"type": "LineString", "coordinates": [[116.34581003024374, 69.03932774756439], [116.35159580496929, 69.03850606437624]]}, "properties": {"source": "6398972", "target": "5356"}}, {"type": "Feature", "geometry": {"type": "LineString", "coordinates": [[116.34417110302053, 69.04050376757576], [116.35344467208944, 69.03821203564772]]}, "properties": {"source": "5346", "target": "5350"}}, {"type": "Feature", "geometry": {"type": "LineString", "coordinates": [[116.34417110302053, 69.04050376757576], [116.35106383110912, 69.04007441070243]]}, "properties": {"source": "5346", "target": "5349"}}, {"type": "Feature", "geometry": {"type": "LineString", "coordinates": [[116.34714546684415, 69.0373507313241], [116.35344467208944, 69.03821203564772]]}, "properties": {"source": "5358", "target": "5350"}}, {"type": "Feature", "geometry": {"type": "LineString", "coordinates": [[116.34714546684415, 69.0373507313241], [116.35489852048124, 69.04070528684053]]}, "properties": {"source": "5358", "target": "5354"}}, {"type": "Feature", "geometry": {"type": "LineString", "coordinates": [[116.34714546684415, 69.0373507313241], [116.35106383110912, 69.04007441070243]]}, "properties": {"source": "5358", "target": "5349"}}, {"type": "Feature", "geometry": {"type": "LineString", "coordinates": [[116.34714546684415, 69.0373507313241], [116.34371748546431, 69.04084320229069]]}, "properties": {"source": "5358", "target": "5355"}}, {"type": "Feature", "geometry": {"type": "LineString", "coordinates": [[116.34714546684415, 69.0373507313241], [116.35631524441806, 69.03889468178573]]}, "properties": {"source": "5358", "target": "5351"}}, {"type": "Feature", "geometry": {"type": "LineString", "coordinates": [[116.35423123368952, 69.03863813998188], [116.34974349991057, 69.04024385216704]]}, "properties": {"source": "34121119", "target": "29433165"}}, {"type": "Feature", "geometry": {"type": "LineString", "coordinates": [[116.35423123368952, 69.03863813998188], [116.35694181336999, 69.0419948301008]]}, "properties": {"source": "34121119", "target": "31705936"}}, {"type": "Feature", "geometry": {"type": "LineString", "coordinates": [[116.35423123368952, 69.03863813998188], [116.34508159794456, 69.0402635898945]]}, "properties": {"source": "34121119", "target": "26109389"}}, {"type": "Feature", "geometry": {"type": "LineString", "coordinates": [[116.35423123368952, 69.03863813998188], [116.34663536317692, 69.03816476956052]]}, "properties": {"source": "34121119", "target": "34201164"}}, {"type": "Feature", "geometry": {"type": "LineString", "coordinates": [[116.35423123368952, 69.03863813998188], [116.34803908372578, 69.03898086118409]]}, "properties": {"source": "34121119", "target": "27972951"}}, {"type": "Feature", "geometry": {"type": "LineString", "coordinates": [[116.34794477364954, 69.03926500741017], [116.35344467208944, 69.03821203564772]]}, "properties": {"source": "5347", "target": "5350"}}, {"type": "Feature", "geometry": {"type": "LineString", "coordinates": [[116.34714546684415, 69.0373507313241], [116.35159580496929, 69.03850606437624]]}, "properties": {"source": "5358", "target": "5356"}}, {"type": "Feature", "geometry": {"type": "LineString", "coordinates": [[116.35423123368952, 69.03863813998188], [116.34929078470753, 69.04086145929807]]}, "properties": {"source": "34121119", "target": "23281792"}}, {"type": "Feature", "geometry": {"type": "LineString", "coordinates": [[116.35423123368952, 69.03863813998188], [116.35500519905827, 69.04154702915196]]}, "properties": {"source": "34121119", "target": "33563034"}}, {"type": "Feature", "geometry": {"type": "LineString", "coordinates": [[116.3477356164326, 69.03982299302191], [116.35344467208944, 69.03821203564772]]}, "properties": {"source": "1110", "target": "5350"}}, {"type": "Feature", "geometry": {"type": "LineString", "coordinates": [[116.3477356164326, 69.03982299302191], [116.35489852048124, 69.04070528684053]]}, "properties": {"source": "1110", "target": "5354"}}, {"type": "Feature", "geometry": {"type": "LineString", "coordinates": [[116.3477356164326, 69.03982299302191], [116.35106383110912, 69.04007441070243]]}, "properties": {"source": "1110", "target": "5349"}}, {"type": "Feature", "geometry": {"type": "LineString", "coordinates": [[116.3477356164326, 69.03982299302191], [116.34371748546431, 69.04084320229069]]}, "properties": {"source": "1110", "target": "5355"}}, {"type": "Feature", "geometry": {"type": "LineString", "coordinates": [[116.3477356164326, 69.03982299302191], [116.35631524441806, 69.03889468178573]]}, "properties": {"source": "1110", "target": "5351"}}, {"type": "Feature", "geometry": {"type": "LineString", "coordinates": [[116.3477356164326, 69.03982299302191], [116.34417110302053, 69.04050376757576]]}, "properties": {"source": "1110", "target": "5346"}}, {"type": "Feature", "geometry": {"type": "LineString", "coordinates": [[116.3551319459902, 69.04001117464338], [116.35344467208944, 69.03821203564772]]}, "properties": {"source": "452235", "target": "5350"}}, {"type": "Feature", "geometry": {"type": "LineString", "coordinates": [[116.3551319459902, 69.04001117464338], [116.35106383110912, 69.04007441070243]]}, "properties": {"source": "452235", "target": "5349"}}, {"type": "Feature", "geometry": {"type": "LineString", "coordinates": [[116.3551319459902, 69.04001117464338], [116.34417110302053, 69.04050376757576]]}, "properties": {"source": "452235", "target": "5346"}}, {"type": "Feature", "geometry": {"type": "LineString", "coordinates": [[116.34389314979961, 69.04141500765184], [116.35106383110912, 69.04007441070243]]}, "properties": {"source": "32542", "target": "5349"}}, {"type": "Feature", "geometry": {"type": "LineString", "coordinates": [[116.34337219792059, 69.04064095061801], [116.34581003024374, 69.03932774756439]]}, "properties": {"source": "7824997", "target": "6398972"}}, {"type": "Feature", "geometry": {"type": "LineString", "coordinates": [[116.34337219792059, 69.04064095061801], [116.34288142468853, 69.04169752539164]]}, "properties": {"source": "7824997", "target": "16101084"}}, {"type": "Feature", "geometry": {"type": "LineString", "coordinates": [[116.34337219792059, 69.04064095061801], [116.35534894846569, 69.03906094926398]]}, "properties": {"source": "7824997", "target": "5357"}}, {"type": "Feature", "geometry": {"type": "LineString", "coordinates": [[116.34337219792059, 69.04064095061801], [116.35618444571207, 69.0393530000934]]}, "properties": {"source": "7824997", "target": "11737268"}}, {"type": "Feature", "geometry": {"type": "LineString", "coordinates": [[116.34337219792059, 69.04064095061801], [116.34508159794456, 69.0402635898945]]}, "properties": {"source": "7824997", "target": "26109389"}}, {"type": "Feature", "geometry": {"type": "LineString", "coordinates": [[116.3477356164326, 69.03982299302191], [116.35159580496929, 69.03850606437624]]}, "properties": {"source": "1110", "target": "5356"}}, {"type": "Feature", "geometry": {"type": "LineString", "coordinates": [[116.35153500654593, 69.04142652755982], [116.35106383110912, 69.04007441070243]]}, "properties": {"source": "5345", "target": "5349"}}, {"type": "Feature", "geometry": {"type": "LineString", "coordinates": [[116.35153500654593, 69.04142652755982], [116.34371748546431, 69.04084320229069]]}, "properties": {"source": "5345", "target": "5355"}}, {"type": "Feature", "geometry": {"type": "LineString", "coordinates": [[116.35153500654593, 69.04142652755982], [116.3537133824529, 69.03998758928182]]}, "properties": {"source": "5345", "target": "5348"}}, {"type": "Feature", "geometry": {"type": "LineString", "coordinates": [[116.35153500654593, 69.04142652755982], [116.35631524441806, 69.03889468178573]]}, "properties": {"source": "5345", "target": "5351"}}, {"type": "Feature", "geometry": {"type": "LineString", "coordinates": [[116.35153500654593, 69.04142652755982], [116.34417110302053, 69.04050376757576]]}, "properties": {"source": "5345", "target": "5346"}}, {"type": "Feature", "geometry": {"type": "LineString", "coordinates": [[116.35153500654593, 69.04142652755982], [116.35432059284551, 69.03736326842773]]}, "properties": {"source": "5345", "target": "5360"}}, {"type": "Feature", "geometry": {"type": "LineString", "coordinates": [[116.35153500654593, 69.04142652755982], [116.34915175404768, 69.0385818476721]]}, "properties": {"source": "5345", "target": "13627945"}}, {"type": "Feature", "geometry": {"type": "LineString", "coordinates": [[116.34337219792059, 69.04064095061801], [116.35087493235432, 69.03825209646544]]}, "properties": {"source": "7824997", "target": "1318007"}}, {"type": "Feature", "geometry": {"type": "LineString", "coordinates": [[116.34429402399286, 69.03862310622421], [116.35344467208944, 69.03821203564772]]}, "properties": {"source": "28644528", "target": "5350"}}, {"type": "Feature", "geometry": {"type": "LineString", "coordinates": [[116.34429402399286, 69.03862310622421], [116.34417110302053, 69.04050376757576]]}, "properties": {"source": "28644528", "target": "5346"}}, {"type": "Feature", "geometry": {"type": "LineString", "coordinates": [[116.34429402399286, 69.03862310622421], [116.35542432212384, 69.04022162444414]]}, "properties": {"source": "28644528", "target": "29354916"}}, {"type": "Feature", "geometry": {"type": "LineString", "coordinates": [[116.34429402399286, 69.03862310622421], [116.34974349991057, 69.04024385216704]]}, "properties": {"source": "28644528", "target": "29433165"}}, {"type": "Feature", "geometry": {"type": "LineString", "coordinates": [[116.35301618311917, 69.03918666939762], [116.34439479298214, 69.03788990696165]]}, "properties": {"source": "1514487", "target": "526943"}}, {"type": "Feature", "geometry": {"type": "LineString", "coordinates": [[116.35301618311917, 69.03918666939762], [116.3547244605844, 69.03900538187389]]}, "properties": {"source": "1514487", "target": "2473539"}}, {"type": "Feature", "geometry": {"type": "LineString", "coordinates": [[116.35153500654593, 69.04142652755982], [116.35159580496929, 69.03850606437624]]}, "properties": {"source": "5345", "target": "5356"}}, {"type": "Feature", "geometry": {"type": "LineString", "coordinates": [[116.34337219792059, 69.04064095061801], [116.34929078470753, 69.04086145929807]]}, "properties": {"source": "7824997", "target": "23281792"}}, {"type": "Feature", "geometry": {"type": "LineString", "coordinates": [[116.34564748060285, 69.0397611063689], [116.35432059284551, 69.03736326842773]]}, "properties": {"source": "1205297", "target": "5360"}}, {"type": "Feature", "geometry": {"type": "LineString", "coordinates": [[116.34564748060285, 69.0397611063689], [116.34794477364954, 69.03926500741017]]}, "properties": {"source": "1205297", "target": "5347"}}, {"type": "Feature", "geometry": {"type": "LineString", "coordinates": [[116.34564748060285, 69.0397611063689], [116.34581003024374, 69.03932774756439]]}, "properties": {"source": "1205297", "target": "6398972"}}, {"type": "Feature", "geometry": {"type": "LineString", "coordinates": [[116.34564748060285, 69.0397611063689], [116.35207912119108, 69.04170415865659]]}, "properties": {"source": "1205297", "target": "1248179"}}, {"type": "Feature", "geometry": {"type": "LineString", "coordinates": [[116.34564748060285, 69.0397611063689], [116.35049101389268, 69.04031017149646]]}, "properties": {"source": "1205297", "target": "13154952"}}, {"type": "Feature", "geometry": {"type": "LineString", "coordinates": [[116.35482755676435, 69.03936622459864], [116.35344467208944, 69.03821203564772]]}, "properties": {"source": "11600163", "target": "5350"}}, {"type": "Feature", "geometry": {"type": "LineString", "coordinates": [[116.35482755676435, 69.03936622459864], [116.35489852048124, 69.04070528684053]]}, "properties": {"source": "11600163", "target": "5354"}}, {"type": "Feature", "geometry": {"type": "LineString", "coordinates": [[116.34371748546431, 69.04084320229069], [116.34389314979961, 69.04141500765184]]}, "properties": {"source": "5355", "target": "32542"}}, {"type": "Feature", "geometry": {"type": "LineString", "coordinates": [[116.3537133824529, 69.03998758928182], [116.35344467208944, 69.03821203564772]]}, "properties": {"source": "5348", "target": "5350"}}, {"type": "Feature", "geometry": {"type": "LineString", "coordinates": [[116.3537133824529, 69.03998758928182], [116.35489852048124, 69.04070528684053]]}, "properties": {"source": "5348", "target": "5354"}}, {"type": "Feature", "geometry": {"type": "LineString", "coordinates": [[116.3537133824529, 69.03998758928182], [116.35106383110912, 69.04007441070243]]}, "properties": {"source": "5348", "target": "5349"}}, {"type": "Feature", "geometry": {"type": "LineString", "coordinates": [[116.3537133824529, 69.03998758928182], [116.34371748546431, 69.04084320229069]]}, "properties": {"source": "5348", "target": "5355"}}, {"type": "Feature", "geometry": {"type": "LineString", "coordinates": [[116.3537133824529, 69.03998758928182], [116.35631524441806, 69.03889468178573]]}, "properties": {"source": "5348", "target": "5351"}}, {"type": "Feature", "geometry": {"type": "LineString", "coordinates": [[116.3537133824529, 69.03998758928182], [116.3510871989543, 69.03985733755138]]}, "properties": {"source": "5348", "target": "3613997"}}, {"type": "Feature", "geometry": {"type": "LineString", "coordinates": [[116.35482755676435, 69.03936622459864], [116.35159580496929, 69.03850606437624]]}, "properties": {"source": "11600163", "target": "5356"}}, {"type": "Feature", "geometry": {"type": "LineString", "coordinates": [[116.3537133824529, 69.03998758928182], [116.35159580496929, 69.03850606437624]]}, "properties": {"source": "5348", "target": "5356"}}, {"type": "Feature", "geometry": {"type": "LineString", "coordinates": [[116.3537133824529, 69.03998758928182], [116.34417110302053, 69.04050376757576]]}, "properties": {"source": "5348", "target": "5346"}}, {"type": "Feature", "geometry": {"type": "LineString", "coordinates": [[116.3537133824529, 69.03998758928182], [116.34714546684415, 69.0373507313241]]}, "properties": {"source": "5348", "target": "5358"}}, {"type": "Feature", "geometry": {"type": "LineString", "coordinates": [[116.3537133824529, 69.03998758928182], [116.35432059284551, 69.03736326842773]]}, "properties": {"source": "5348", "target": "5360"}}, {"type": "Feature", "geometry": {"type": "LineString", "coordinates": [[116.3537133824529, 69.03998758928182], [116.3454722838672, 69.04099033633705]]}, "properties": {"source": "5348", "target": "32499"}}, {"type": "Feature", "geometry": {"type": "LineString", "coordinates": [[116.3537133824529, 69.03998758928182], [116.34794477364954, 69.03926500741017]]}, "properties": {"source": "5348", "target": "5347"}}, {"type": "Feature", "geometry": {"type": "LineString", "coordinates": [[116.3537133824529, 69.03998758928182], [116.35663736525163, 69.03975869410002]]}, "properties": {"source": "5348", "target": "24192"}}, {"type": "Feature", "geometry": {"type": "LineString", "coordinates": [[116.3537133824529, 69.03998758928182], [116.34367944629099, 69.03907149299482]]}, "properties": {"source": "5348", "target": "35038"}}, {"type": "Feature", "geometry": {"type": "LineString", "coordinates": [[116.3537133824529, 69.03998758928182], [116.3477356164326, 69.03982299302191]]}, "properties": {"source": "5348", "target": "1110"}}, {"type": "Feature", "geometry": {"type": "LineString", "coordinates": [[116.34738120332446, 69.03985070930423], [116.34570372298691, 69.03972410453437]]}, "properties": {"source": "7933437", "target": "13573236"}}, {"type": "Feature", "geometry": {"type": "LineString", "coordinates": [[116.34738120332446, 69.03985070930423], [116.35534894846569, 69.03906094926398]]}, "properties": {"source": "7933437", "target": "5357"}}, {"type": "Feature", "geometry": {"type": "LineString", "coordinates": [[116.34738120332446, 69.03985070930423], [116.35049101389268, 69.04031017149646]]}, "properties": {"source": "7933437", "target": "13154952"}}, {"type": "Feature", "geometry": {"type": "LineString", "coordinates": [[116.34738120332446, 69.03985070930423], [116.35482755676435, 69.03936622459864]]}, "properties": {"source": "7933437", "target": "11600163"}}, {"type": "Feature", "geometry": {"type": "LineString", "coordinates": [[116.34738120332446, 69.03985070930423], [116.35618444571207, 69.0393530000934]]}, "properties": {"source": "7933437", "target": "11737268"}}, {"type": "Feature", "geometry": {"type": "LineString", "coordinates": [[116.34738120332446, 69.03985070930423], [116.35389399023035, 69.04126748295954]]}, "properties": {"source": "7933437", "target": "10720733"}}, {"type": "Feature", "geometry": {"type": "LineString", "coordinates": [[116.34738120332446, 69.03985070930423], [116.34508159794456, 69.0402635898945]]}, "properties": {"source": "7933437", "target": "26109389"}}, {"type": "Feature", "geometry": {"type": "LineString", "coordinates": [[116.34738120332446, 69.03985070930423], [116.34337219792059, 69.04064095061801]]}, "properties": {"source": "7933437", "target": "7824997"}}, {"type": "Feature", "geometry": {"type": "LineString", "coordinates": [[116.35618444571207, 69.0393530000934], [116.35344467208944, 69.03821203564772]]}, "properties": {"source": "11737268", "target": "5350"}}, {"type": "Feature", "geometry": {"type": "LineString", "coordinates": [[116.35618444571207, 69.0393530000934], [116.34974349991057, 69.04024385216704]]}, "properties": {"source": "11737268", "target": "29433165"}}, {"type": "Feature", "geometry": {"type": "LineString", "coordinates": [[116.35389399023035, 69.04126748295954], [116.35207912119108, 69.04170415865659]]}, "properties": {"source": "10720733", "target": "1248179"}}, {"type": "Feature", "geometry": {"type": "LineString", "coordinates": [[116.35389399023035, 69.04126748295954], [116.34288142468853, 69.04169752539164]]}, "properties": {"source": "10720733", "target": "16101084"}}, {"type": "Feature", "geometry": {"type": "LineString", "coordinates": [[116.35389399023035, 69.04126748295954], [116.35049101389268, 69.04031017149646]]}, "properties": {"source": "10720733", "target": "13154952"}}, {"type": "Feature", "geometry": {"type": "LineString", "coordinates": [[116.35389399023035, 69.04126748295954], [116.34564748060285, 69.0397611063689]]}, "properties": {"source": "10720733", "target": "1205297"}}, {"type": "Feature", "geometry": {"type": "LineString", "coordinates": [[116.35389399023035, 69.04126748295954], [116.35482755676435, 69.03936622459864]]}, "properties": {"source": "10720733", "target": "11600163"}}, {"type": "Feature", "geometry": {"type": "LineString", "coordinates": [[116.35389399023035, 69.04126748295954], [116.35618444571207, 69.0393530000934]]}, "properties": {"source": "10720733", "target": "11737268"}}, {"type": "Feature", "geometry": {"type": "LineString", "coordinates": [[116.35389399023035, 69.04126748295954], [116.34508159794456, 69.0402635898945]]}, "properties": {"source": "10720733", "target": "26109389"}}, {"type": "Feature", "geometry": {"type": "LineString", "coordinates": [[116.35389399023035, 69.04126748295954], [116.34337219792059, 69.04064095061801]]}, "properties": {"source": "10720733", "target": "7824997"}}, {"type": "Feature", "geometry": {"type": "LineString", "coordinates": [[116.34508159794456, 69.0402635898945], [116.35542432212384, 69.04022162444414]]}, "properties": {"source": "26109389", "target": "29354916"}}, {"type": "Feature", "geometry": {"type": "LineString", "coordinates": [[116.34508159794456, 69.0402635898945], [116.34974349991057, 69.04024385216704]]}, "properties": {"source": "26109389", "target": "29433165"}}, {"type": "Feature", "geometry": {"type": "LineString", "coordinates": [[116.34508159794456, 69.0402635898945], [116.35694181336999, 69.0419948301008]]}, "properties": {"source": "26109389", "target": "31705936"}}, {"type": "Feature", "geometry": {"type": "LineString", "coordinates": [[116.34508159794456, 69.0402635898945], [116.35618444571207, 69.0393530000934]]}, "properties": {"source": "26109389", "target": "11737268"}}, {"type": "Feature", "geometry": {"type": "LineString", "coordinates": [[116.35389399023035, 69.04126748295954], [116.34929078470753, 69.04086145929807]]}, "properties": {"source": "10720733", "target": "23281792"}}, {"type": "Feature", "geometry": {"type": "LineString", "coordinates": [[116.34508159794456, 69.0402635898945], [116.34929078470753, 69.04086145929807]]}, "properties": {"source": "26109389", "target": "23281792"}}, {"type": "Feature", "geometry": {"type": "LineString", "coordinates": [[116.35663736525163, 69.03975869410002], [116.3454722838672, 69.04099033633705]]}, "properties": {"source": "24192", "target": "32499"}}, {"type": "Feature", "geometry": {"type": "LineString", "coordinates": [[116.35663736525163, 69.03975869410002], [116.34389314979961, 69.04141500765184]]}, "properties": {"source": "24192", "target": "32542"}}, {"type": "Feature", "geometry": {"type": "LineString", "coordinates": [[116.35534894846569, 69.03906094926398], [116.35344467208944, 69.03821203564772]]}, "properties": {"source": "5357", "target": "5350"}}, {"type": "Feature", "geometry": {"type": "LineString", "coordinates": [[116.34781482964144, 69.03827103902591], [116.35489852048124, 69.04070528684053]]}, "properties": {"source": "142759", "target": "5354"}}, {"type": "Feature", "geometry": {"type": "LineString", "coordinates": [[116.34781482964144, 69.03827103902591], [116.3537133824529, 69.03998758928182]]}, "properties": {"source": "142759", "target": "5348"}}, {"type": "Feature", "geometry": {"type": "LineString", "coordinates": [[116.34781482964144, 69.03827103902591], [116.3510871989543, 69.03985733755138]]}, "properties": {"source": "142759", "target": "3613997"}}, {"type": "Feature", "geometry": {"type": "LineString", "coordinates": [[116.34781482964144, 69.03827103902591], [116.34367944629099, 69.03907149299482]]}, "properties": {"source": "142759", "target": "35038"}}, {"type": "Feature", "geometry": {"type": "LineString", "coordinates": [[116.34781482964144, 69.03827103902591], [116.34439479298214, 69.03788990696165]]}, "properties": {"source": "142759", "target": "526943"}}, {"type": "Feature", "geometry": {"type": "LineString", "coordinates": [[116.34439479298214, 69.03788990696165], [116.34417110302053, 69.04050376757576]]}, "properties": {"source": "526943", "target": "5346"}}, {"type": "Feature", "geometry": {"type": "LineString", "coordinates": [[116.34439479298214, 69.03788990696165], [116.34794477364954, 69.03926500741017]]}, "properties": {"source": "526943", "target": "5347"}}, {"type": "Feature", "geometry": {"type": "LineString", "coordinates": [[116.34439479298214, 69.03788990696165], [116.34547088503075, 69.0389216219084]]}, "properties": {"source": "526943", "target": "993066"}}, {"type": "Feature", "geometry": {"type": "LineString", "coordinates": [[116.34564748060285, 69.0397611063689], [116.35344467208944, 69.03821203564772]]}, "properties": {"source": "1205297", "target": "5350"}}, {"type": "Feature", "geometry": {"type": "LineString", "coordinates": [[116.34564748060285, 69.0397611063689], [116.35489852048124, 69.04070528684053]]}, "properties": {"source": "1205297", "target": "5354"}}, {"type": "Feature", "geometry": {"type": "LineString", "coordinates": [[116.34564748060285, 69.0397611063689], [116.3537133824529, 69.03998758928182]]}, "properties": {"source": "1205297", "target": "5348"}}, {"type": "Feature", "geometry": {"type": "LineString", "coordinates": [[116.34439479298214, 69.03788990696165], [116.34474974171951, 69.04115552501653]]}, "properties": {"source": "526943", "target": "32549"}}, {"type": "Feature", "geometry": {"type": "LineString", "coordinates": [[116.34564748060285, 69.0397611063689], [116.35159580496929, 69.03850606437624]]}, "properties": {"source": "1205297", "target": "5356"}}, {"type": "Feature", "geometry": {"type": "LineString", "coordinates": [[116.34667146738803, 69.03803385434702], [116.34714546684415, 69.0373507313241]]}, "properties": {"source": "28415685", "target": "5358"}}, {"type": "Feature", "geometry": {"type": "LineString", "coordinates": [[116.34667146738803, 69.03803385434702], [116.35432059284551, 69.03736326842773]]}, "properties": {"source": "28415685", "target": "5360"}}, {"type": "Feature", "geometry": {"type": "LineString", "coordinates": [[116.34667146738803, 69.03803385434702], [116.34389314979961, 69.04141500765184]]}, "properties": {"source": "28415685", "target": "32542"}}, {"type": "Feature", "geometry": {"type": "LineString", "coordinates": [[116.35375788783449, 69.04016680921595], [116.35106383110912, 69.04007441070243]]}, "properties": {"source": "425029", "target": "5349"}}, {"type": "Feature", "geometry": {"type": "LineString", "coordinates": [[116.35375788783449, 69.04016680921595], [116.34714546684415, 69.0373507313241]]}, "properties": {"source": "425029", "target": "5358"}}, {"type": "Feature", "geometry": {"type": "LineString", "coordinates": [[116.35375788783449, 69.04016680921595], [116.34915175404768, 69.0385818476721]]}, "properties": {"source": "425029", "target": "13627945"}}, {"type": "Feature", "geometry": {"type": "LineString", "coordinates": [[116.34367944629099, 69.03907149299482], [116.35344467208944, 69.03821203564772]]}, "properties": {"source": "35038", "target": "5350"}}, {"type": "Feature", "geometry": {"type": "LineString", "coordinates": [[116.34367944629099, 69.03907149299482], [116.35489852048124, 69.04070528684053]]}, "properties": {"source": "35038", "target": "5354"}}, {"type": "Feature", "geometry": {"type": "LineString", "coordinates": [[116.34367944629099, 69.03907149299482], [116.34371748546431, 69.04084320229069]]}, "properties": {"source": "35038", "target": "5355"}}, {"type": "Feature", "geometry": {"type": "LineString", "coordinates": [[116.34367944629099, 69.03907149299482], [116.34417110302053, 69.04050376757576]]}, "properties": {"source": "35038", "target": "5346"}}, {"type": "Feature", "geometry": {"type": "LineString", "coordinates": [[116.34367944629099, 69.03907149299482], [116.34794477364954, 69.03926500741017]]}, "properties": {"source": "35038", "target": "5347"}}, {"type": "Feature", "geometry": {"type": "LineString", "coordinates": [[116.34367944629099, 69.03907149299482], [116.34439479298214, 69.03788990696165]]}, "properties": {"source": "35038", "target": "526943"}}, {"type": "Feature", "geometry": {"type": "LineString", "coordinates": [[116.34367944629099, 69.03907149299482], [116.35301618311917, 69.03918666939762]]}, "properties": {"source": "35038", "target": "1514487"}}, {"type": "Feature", "geometry": {"type": "LineString", "coordinates": [[116.34632951738575, 69.0410823693257], [116.34474974171951, 69.04115552501653]]}, "properties": {"source": "361465", "target": "32549"}}, {"type": "Feature", "geometry": {"type": "LineString", "coordinates": [[116.34667146738803, 69.03803385434702], [116.35159580496929, 69.03850606437624]]}, "properties": {"source": "28415685", "target": "5356"}}, {"type": "Feature", "geometry": {"type": "LineString", "coordinates": [[116.34367944629099, 69.03907149299482], [116.35159580496929, 69.03850606437624]]}, "properties": {"source": "35038", "target": "5356"}}, {"type": "Feature", "geometry": {"type": "LineString", "coordinates": [[116.34738120332446, 69.03985070930423], [116.3505341337949, 69.04088772905465]]}, "properties": {"source": "7933437", "target": "18014776"}}, {"type": "Feature", "geometry": {"type": "LineString", "coordinates": [[116.34738120332446, 69.03985070930423], [116.34576716920833, 69.041904039466]]}, "properties": {"source": "7933437", "target": "7042871"}}, {"type": "Feature", "geometry": {"type": "LineString", "coordinates": [[116.35011473393183, 69.03797193256827], [116.35344467208944, 69.03821203564772]]}, "properties": {"source": "5359", "target": "5350"}}, {"type": "Feature", "geometry": {"type": "LineString", "coordinates": [[116.35011473393183, 69.03797193256827], [116.35489852048124, 69.04070528684053]]}, "properties": {"source": "5359", "target": "5354"}}, {"type": "Feature", "geometry": {"type": "LineString", "coordinates": [[116.35011473393183, 69.03797193256827], [116.35106383110912, 69.04007441070243]]}, "properties": {"source": "5359", "target": "5349"}}, {"type": "Feature", "geometry": {"type": "LineString", "coordinates": [[116.35011473393183, 69.03797193256827], [116.34371748546431, 69.04084320229069]]}, "properties": {"source": "5359", "target": "5355"}}, {"type": "Feature", "geometry": {"type": "LineString", "coordinates": [[116.35011473393183, 69.03797193256827], [116.3537133824529, 69.03998758928182]]}, "properties": {"source": "5359", "target": "5348"}}, {"type": "Feature", "geometry": {"type": "LineString", "coordinates": [[116.35011473393183, 69.03797193256827], [116.35631524441806, 69.03889468178573]]}, "properties": {"source": "5359", "target": "5351"}}, {"type": "Feature", "geometry": {"type": "LineString", "coordinates": [[116.35011473393183, 69.03797193256827], [116.34417110302053, 69.04050376757576]]}, "properties": {"source": "5359", "target": "5346"}}, {"type": "Feature", "geometry": {"type": "LineString", "coordinates": [[116.35011473393183, 69.03797193256827], [116.34714546684415, 69.0373507313241]]}, "properties": {"source": "5359", "target": "5358"}}, {"type": "Feature", "geometry": {"type": "LineString", "coordinates": [[116.35011473393183, 69.03797193256827], [116.35432059284551, 69.03736326842773]]}, "properties": {"source": "5359", "target": "5360"}}, {"type": "Feature", "geometry": {"type": "LineString", "coordinates": [[116.35011473393183, 69.03797193256827], [116.3454722838672, 69.04099033633705]]}, "properties": {"source": "5359", "target": "32499"}}, {"type": "Feature", "geometry": {"type": "LineString", "coordinates": [[116.35011473393183, 69.03797193256827], [116.35423123368952, 69.03863813998188]]}, "properties": {"source": "5359", "target": "34121119"}}, {"type": "Feature", "geometry": {"type": "LineString", "coordinates": [[116.35011473393183, 69.03797193256827], [116.34688270797409, 69.03770020022569]]}, "properties": {"source": "5359", "target": "25387351"}}, {"type": "Feature", "geometry": {"type": "LineString", "coordinates": [[116.35011473393183, 69.03797193256827], [116.34886384892445, 69.0374639944871]]}, "properties": {"source": "5359", "target": "20707959"}}, {"type": "Feature", "geometry": {"type": "LineString", "coordinates": [[116.35011473393183, 69.03797193256827], [116.35159580496929, 69.03850606437624]]}, "properties": {"source": "5359", "target": "5356"}}, {"type": "Feature", "geometry": {"type": "LineString", "coordinates": [[116.3486832200536, 69.04150841249663], [116.3454722838672, 69.04099033633705]]}, "properties": {"source": "25498995", "target": "32499"}}, {"type": "Feature", "geometry": {"type": "LineString", "coordinates": [[116.34751634455176, 69.03719072652902], [116.35423123368952, 69.03863813998188]]}, "properties": {"source": "29236280", "target": "34121119"}}, {"type": "Feature", "geometry": {"type": "LineString", "coordinates": [[116.34751634455176, 69.03719072652902], [116.34663536317692, 69.03816476956052]]}, "properties": {"source": "29236280", "target": "34201164"}}, {"type": "Feature", "geometry": {"type": "LineString", "coordinates": [[116.34751634455176, 69.03719072652902], [116.3569536078142, 69.04163573456697]]}, "properties": {"source": "29236280", "target": "30002987"}}, {"type": "Feature", "geometry": {"type": "LineString", "coordinates": [[116.35525895533874, 69.0383858523602], [116.34389314979961, 69.04141500765184]]}, "properties": {"source": "20655772", "target": "32542"}}, {"type": "Feature", "geometry": {"type": "LineString", "coordinates": [[116.35575812084443, 69.03868423075082], [116.34389314979961, 69.04141500765184]]}, "properties": {"source": "18284178", "target": "32542"}}, {"type": "Feature", "geometry": {"type": "LineString", "coordinates": [[116.34641790687448, 69.03907547901741], [116.35694181336999, 69.0419948301008]]}, "properties": {"source": "31285011", "target": "31705936"}}, {"type": "Feature", "geometry": {"type": "LineString", "coordinates": [[116.35271611491538, 69.03871110762461], [116.34714546684415, 69.0373507313241]]}, "properties": {"source": "34207343", "target": "5358"}}, {"type": "Feature", "geometry": {"type": "LineString", "coordinates": [[116.34288142468853, 69.04169752539164], [116.35618444571207, 69.0393530000934]]}, "properties": {"source": "16101084", "target": "11737268"}}, {"type": "Feature", "geometry": {"type": "LineString", "coordinates": [[116.34288142468853, 69.04169752539164], [116.34508159794456, 69.0402635898945]]}, "properties": {"source": "16101084", "target": "26109389"}}, {"type": "Feature", "geometry": {"type": "LineString", "coordinates": [[116.34288142468853, 69.04169752539164], [116.3505341337949, 69.04088772905465]]}, "properties": {"source": "16101084", "target": "18014776"}}, {"type": "Feature", "geometry": {"type": "LineString", "coordinates": [[116.34288142468853, 69.04169752539164], [116.35087493235432, 69.03825209646544]]}, "properties": {"source": "16101084", "target": "1318007"}}, {"type": "Feature", "geometry": {"type": "LineString", "coordinates": [[116.35694181336999, 69.0419948301008], [116.35344467208944, 69.03821203564772]]}, "properties": {"source": "31705936", "target": "5350"}}, {"type": "Feature", "geometry": {"type": "LineString", "coordinates": [[116.35694181336999, 69.0419948301008], [116.35489852048124, 69.04070528684053]]}, "properties": {"source": "31705936", "target": "5354"}}, {"type": "Feature", "geometry": {"type": "LineString", "coordinates": [[116.34288142468853, 69.04169752539164], [116.34929078470753, 69.04086145929807]]}, "properties": {"source": "16101084", "target": "23281792"}}, {"type": "Feature", "geometry": {"type": "LineString", "coordinates": [[116.35694181336999, 69.0419948301008], [116.35159580496929, 69.03850606437624]]}, "properties": {"source": "31705936", "target": "5356"}}]}