{"type": "FeatureCollection", "features": [{"type": "Feature", "geometry": {"type": "LineString", "coordinates": [[33.364777365776746, 69.23099474309498], [33.36819366524213, 69.23213123044226]]}, "properties": {"source": "4260", "target": "6224826"}}, {"type": "Feature", "geometry": {"type": "LineString", "coordinates": [[33.364777365776746, 69.23099474309498], [33.36548829238362, 69.23245947943576]]}, "properties": {"source": "4260", "target": "4264"}}, {"type": "Feature", "geometry": {"type": "LineString", "coordinates": [[33.364777365776746, 69.23099474309498], [33.362892276699256, 69.23057247743537]]}, "properties": {"source": "4260", "target": "248429"}}, {"type": "Feature", "geometry": {"type": "LineString", "coordinates": [[33.367858104686974, 69.22992991632998], [33.36491666468061, 69.23224415525459]]}, "properties": {"source": "269795", "target": "4271"}}, {"type": "Feature", "geometry": {"type": "LineString", "coordinates": [[33.367858104686974, 69.22992991632998], [33.36688197588194, 69.23104639737474]]}, "properties": {"source": "269795", "target": "30510"}}, {"type": "Feature", "geometry": {"type": "LineString", "coordinates": [[33.367858104686974, 69.22992991632998], [33.36544608154708, 69.23225956519431]]}, "properties": {"source": "269795", "target": "16579"}}, {"type": "Feature", "geometry": {"type": "LineString", "coordinates": [[33.367858104686974, 69.22992991632998], [33.36950052434875, 69.23208143673185]]}, "properties": {"source": "269795", "target": "285092"}}, {"type": "Feature", "geometry": {"type": "LineString", "coordinates": [[33.36580600710576, 69.23089845021451], [33.367858104686974, 69.22992991632998]]}, "properties": {"source": "42710", "target": "269795"}}, {"type": "Feature", "geometry": {"type": "LineString", "coordinates": [[33.36580600710576, 69.23089845021451], [33.36697503730011, 69.23111388470872]]}, "properties": {"source": "42710", "target": "42701"}}, {"type": "Feature", "geometry": {"type": "LineString", "coordinates": [[33.36580600710576, 69.23089845021451], [33.36632745067132, 69.23031643939561]]}, "properties": {"source": "42710", "target": "42698"}}, {"type": "Feature", "geometry": {"type": "LineString", "coordinates": [[33.36580600710576, 69.23089845021451], [33.36347481701563, 69.23124904018252]]}, "properties": {"source": "42710", "target": "52778"}}, {"type": "Feature", "geometry": {"type": "LineString", "coordinates": [[33.36580600710576, 69.23089845021451], [33.364731008898815, 69.22996017805434]]}, "properties": {"source": "42710", "target": "7476913"}}, {"type": "Feature", "geometry": {"type": "LineString", "coordinates": [[33.36697503730011, 69.23111388470872], [33.36491666468061, 69.23224415525459]]}, "properties": {"source": "42701", "target": "4271"}}, {"type": "Feature", "geometry": {"type": "LineString", "coordinates": [[33.36697503730011, 69.23111388470872], [33.367858104686974, 69.22992991632998]]}, "properties": {"source": "42701", "target": "269795"}}, {"type": "Feature", "geometry": {"type": "LineString", "coordinates": [[33.36697503730011, 69.23111388470872], [33.36632745067132, 69.23031643939561]]}, "properties": {"source": "42701", "target": "42698"}}, {"type": "Feature", "geometry": {"type": "LineString", "coordinates": [[33.36697503730011, 69.23111388470872], [33.36347481701563, 69.23124904018252]]}, "properties": {"source": "42701", "target": "52778"}}, {"type": "Feature", "geometry": {"type": "LineString", "coordinates": [[33.36697503730011, 69.23111388470872], [33.36549134670446, 69.2308085593296]]}, "properties": {"source": "42701", "target": "296793"}}, {"type": "Feature", "geometry": {"type": "LineString", "coordinates": [[33.36697503730011, 69.23111388470872], [33.36688197588194, 69.23104639737474]]}, "properties": {"source": "42701", "target": "30510"}}, {"type": "Feature", "geometry": {"type": "LineString", "coordinates": [[33.36697503730011, 69.23111388470872], [33.36544608154708, 69.23225956519431]]}, "properties": {"source": "42701", "target": "16579"}}, {"type": "Feature", "geometry": {"type": "LineString", "coordinates": [[33.36697503730011, 69.23111388470872], [33.364731008898815, 69.22996017805434]]}, "properties": {"source": "42701", "target": "7476913"}}, {"type": "Feature", "geometry": {"type": "LineString", "coordinates": [[33.36632745067132, 69.23031643939561], [33.367858104686974, 69.22992991632998]]}, "properties": {"source": "42698", "target": "269795"}}, {"type": "Feature", "geometry": {"type": "LineString", "coordinates": [[33.36632745067132, 69.23031643939561], [33.36347481701563, 69.23124904018252]]}, "properties": {"source": "42698", "target": "52778"}}, {"type": "Feature", "geometry": {"type": "LineString", "coordinates": [[33.36632745067132, 69.23031643939561], [33.36549134670446, 69.2308085593296]]}, "properties": {"source": "42698", "target": "296793"}}, {"type": "Feature", "geometry": {"type": "LineString", "coordinates": [[33.36632745067132, 69.23031643939561], [33.36688197588194, 69.23104639737474]]}, "properties": {"source": "42698", "target": "30510"}}, {"type": "Feature", "geometry": {"type": "LineString", "coordinates": [[33.36632745067132, 69.23031643939561], [33.36544608154708, 69.23225956519431]]}, "properties": {"source": "42698", "target": "16579"}}, {"type": "Feature", "geometry": {"type": "LineString", "coordinates": [[33.36632745067132, 69.23031643939561], [33.364731008898815, 69.22996017805434]]}, "properties": {"source": "42698", "target": "7476913"}}, {"type": "Feature", "geometry": {"type": "LineString", "coordinates": [[33.36347481701563, 69.23124904018252], [33.367858104686974, 69.22992991632998]]}, "properties": {"source": "52778", "target": "269795"}}, {"type": "Feature", "geometry": {"type": "LineString", "coordinates": [[33.36347481701563, 69.23124904018252], [33.36549134670446, 69.2308085593296]]}, "properties": {"source": "52778", "target": "296793"}}, {"type": "Feature", "geometry": {"type": "LineString", "coordinates": [[33.36347481701563, 69.23124904018252], [33.36688197588194, 69.23104639737474]]}, "properties": {"source": "52778", "target": "30510"}}, {"type": "Feature", "geometry": {"type": "LineString", "coordinates": [[33.36347481701563, 69.23124904018252], [33.36544608154708, 69.23225956519431]]}, "properties": {"source": "52778", "target": "16579"}}, {"type": "Feature", "geometry": {"type": "LineString", "coordinates": [[33.36347481701563, 69.23124904018252], [33.364731008898815, 69.22996017805434]]}, "properties": {"source": "52778", "target": "7476913"}}, {"type": "Feature", "geometry": {"type": "LineString", "coordinates": [[33.36549134670446, 69.2308085593296], [33.367858104686974, 69.22992991632998]]}, "properties": {"source": "296793", "target": "269795"}}, {"type": "Feature", "geometry": {"type": "LineString", "coordinates": [[33.36549134670446, 69.2308085593296], [33.36688197588194, 69.23104639737474]]}, "properties": {"source": "296793", "target": "30510"}}, {"type": "Feature", "geometry": {"type": "LineString", "coordinates": [[33.36549134670446, 69.2308085593296], [33.36544608154708, 69.23225956519431]]}, "properties": {"source": "296793", "target": "16579"}}, {"type": "Feature", "geometry": {"type": "LineString", "coordinates": [[33.36549134670446, 69.2308085593296], [33.364731008898815, 69.22996017805434]]}, "properties": {"source": "296793", "target": "7476913"}}, {"type": "Feature", "geometry": {"type": "LineString", "coordinates": [[33.362892276699256, 69.23057247743537], [33.36470144503269, 69.23196464070935]]}, "properties": {"source": "248429", "target": "4268"}}, {"type": "Feature", "geometry": {"type": "LineString", "coordinates": [[33.362892276699256, 69.23057247743537], [33.36978600052561, 69.23143681504905]]}, "properties": {"source": "248429", "target": "6501050"}}, {"type": "Feature", "geometry": {"type": "LineString", "coordinates": [[33.362892276699256, 69.23057247743537], [33.3701892841525, 69.23121261745149]]}, "properties": {"source": "248429", "target": "15729936"}}, {"type": "Feature", "geometry": {"type": "LineString", "coordinates": [[33.36874710142072, 69.23122709631028], [33.362892276699256, 69.23057247743537]]}, "properties": {"source": "38272", "target": "248429"}}, {"type": "Feature", "geometry": {"type": "LineString", "coordinates": [[33.36874710142072, 69.23122709631028], [33.36656411948198, 69.23002038430636]]}, "properties": {"source": "38272", "target": "10073"}}, {"type": "Feature", "geometry": {"type": "LineString", "coordinates": [[33.36874710142072, 69.23122709631028], [33.367979084742814, 69.23168313586217]]}, "properties": {"source": "38272", "target": "13544149"}}, {"type": "Feature", "geometry": {"type": "LineString", "coordinates": [[33.364777365776746, 69.23099474309498], [33.36470144503269, 69.23196464070935]]}, "properties": {"source": "4260", "target": "4268"}}, {"type": "Feature", "geometry": {"type": "LineString", "coordinates": [[33.364777365776746, 69.23099474309498], [33.36491666468061, 69.23224415525459]]}, "properties": {"source": "4260", "target": "4271"}}, {"type": "Feature", "geometry": {"type": "LineString", "coordinates": [[33.36474725659596, 69.2324677304446], [33.36470144503269, 69.23196464070935]]}, "properties": {"source": "23249264", "target": "4268"}}, {"type": "Feature", "geometry": {"type": "LineString", "coordinates": [[33.36474725659596, 69.2324677304446], [33.36491666468061, 69.23224415525459]]}, "properties": {"source": "23249264", "target": "4271"}}, {"type": "Feature", "geometry": {"type": "LineString", "coordinates": [[33.36474725659596, 69.2324677304446], [33.36819366524213, 69.23213123044226]]}, "properties": {"source": "23249264", "target": "6224826"}}, {"type": "Feature", "geometry": {"type": "LineString", "coordinates": [[33.36474725659596, 69.2324677304446], [33.36548829238362, 69.23245947943576]]}, "properties": {"source": "23249264", "target": "4264"}}, {"type": "Feature", "geometry": {"type": "LineString", "coordinates": [[33.36474725659596, 69.2324677304446], [33.36950052434875, 69.23208143673185]]}, "properties": {"source": "23249264", "target": "285092"}}, {"type": "Feature", "geometry": {"type": "LineString", "coordinates": [[33.36373846698285, 69.23184289825554], [33.36470144503269, 69.23196464070935]]}, "properties": {"source": "17707873", "target": "4268"}}, {"type": "Feature", "geometry": {"type": "LineString", "coordinates": [[33.36373846698285, 69.23184289825554], [33.36491666468061, 69.23224415525459]]}, "properties": {"source": "17707873", "target": "4271"}}, {"type": "Feature", "geometry": {"type": "LineString", "coordinates": [[33.36373846698285, 69.23184289825554], [33.362892276699256, 69.23057247743537]]}, "properties": {"source": "17707873", "target": "248429"}}, {"type": "Feature", "geometry": {"type": "LineString", "coordinates": [[33.36373846698285, 69.23184289825554], [33.36950052434875, 69.23208143673185]]}, "properties": {"source": "17707873", "target": "285092"}}, {"type": "Feature", "geometry": {"type": "LineString", "coordinates": [[33.36176722298018, 69.23140547797703], [33.36311248279034, 69.23042992492324]]}, "properties": {"source": "9271896", "target": "5444895"}}, {"type": "Feature", "geometry": {"type": "LineString", "coordinates": [[33.36176722298018, 69.23140547797703], [33.36926069283453, 69.23106830418726]]}, "properties": {"source": "9271896", "target": "7040058"}}, {"type": "Feature", "geometry": {"type": "LineString", "coordinates": [[33.36758350571478, 69.2321149610759], [33.364731008898815, 69.22996017805434]]}, "properties": {"source": "42718", "target": "7476913"}}, {"type": "Feature", "geometry": {"type": "LineString", "coordinates": [[33.36544608154708, 69.23225956519431], [33.36688197588194, 69.23104639737474]]}, "properties": {"source": "16579", "target": "30510"}}, {"type": "Feature", "geometry": {"type": "LineString", "coordinates": [[33.36656411948198, 69.23002038430636], [33.36470144503269, 69.23196464070935]]}, "properties": {"source": "10073", "target": "4268"}}, {"type": "Feature", "geometry": {"type": "LineString", "coordinates": [[33.36656411948198, 69.23002038430636], [33.36491666468061, 69.23224415525459]]}, "properties": {"source": "10073", "target": "4271"}}, {"type": "Feature", "geometry": {"type": "LineString", "coordinates": [[33.36656411948198, 69.23002038430636], [33.36819366524213, 69.23213123044226]]}, "properties": {"source": "10073", "target": "6224826"}}, {"type": "Feature", "geometry": {"type": "LineString", "coordinates": [[33.36820784743091, 69.23247162563518], [33.3701892841525, 69.23121261745149]]}, "properties": {"source": "411527", "target": "15729936"}}, {"type": "Feature", "geometry": {"type": "LineString", "coordinates": [[33.36819366524213, 69.23213123044226], [33.36491666468061, 69.23224415525459]]}, "properties": {"source": "6224826", "target": "4271"}}, {"type": "Feature", "geometry": {"type": "LineString", "coordinates": [[33.36819366524213, 69.23213123044226], [33.36548829238362, 69.23245947943576]]}, "properties": {"source": "6224826", "target": "4264"}}, {"type": "Feature", "geometry": {"type": "LineString", "coordinates": [[33.36819366524213, 69.23213123044226], [33.36950052434875, 69.23208143673185]]}, "properties": {"source": "6224826", "target": "285092"}}, {"type": "Feature", "geometry": {"type": "LineString", "coordinates": [[33.36548829238362, 69.23245947943576], [33.36950052434875, 69.23208143673185]]}, "properties": {"source": "4264", "target": "285092"}}, {"type": "Feature", "geometry": {"type": "LineString", "coordinates": [[33.36548829238362, 69.23245947943576], [33.362797722432504, 69.23131868938839]]}, "properties": {"source": "4264", "target": "4262"}}, {"type": "Feature", "geometry": {"type": "LineString", "coordinates": [[33.36664649640886, 69.23106214253079], [33.36470144503269, 69.23196464070935]]}, "properties": {"source": "4261", "target": "4268"}}, {"type": "Feature", "geometry": {"type": "LineString", "coordinates": [[33.36664649640886, 69.23106214253079], [33.36491666468061, 69.23224415525459]]}, "properties": {"source": "4261", "target": "4271"}}, {"type": "Feature", "geometry": {"type": "LineString", "coordinates": [[33.36664649640886, 69.23106214253079], [33.36820784743091, 69.23247162563518]]}, "properties": {"source": "4261", "target": "411527"}}, {"type": "Feature", "geometry": {"type": "LineString", "coordinates": [[33.36664649640886, 69.23106214253079], [33.36819366524213, 69.23213123044226]]}, "properties": {"source": "4261", "target": "6224826"}}, {"type": "Feature", "geometry": {"type": "LineString", "coordinates": [[33.36664649640886, 69.23106214253079], [33.36548829238362, 69.23245947943576]]}, "properties": {"source": "4261", "target": "4264"}}, {"type": "Feature", "geometry": {"type": "LineString", "coordinates": [[33.36580600710576, 69.23089845021451], [33.36549134670446, 69.2308085593296]]}, "properties": {"source": "42710", "target": "296793"}}, {"type": "Feature", "geometry": {"type": "LineString", "coordinates": [[33.36580600710576, 69.23089845021451], [33.36688197588194, 69.23104639737474]]}, "properties": {"source": "42710", "target": "30510"}}, {"type": "Feature", "geometry": {"type": "LineString", "coordinates": [[33.36580600710576, 69.23089845021451], [33.368888720715034, 69.23006136728173]]}, "properties": {"source": "42710", "target": "30512"}}, {"type": "Feature", "geometry": {"type": "LineString", "coordinates": [[33.36580600710576, 69.23089845021451], [33.36758350571478, 69.2321149610759]]}, "properties": {"source": "42710", "target": "42718"}}, {"type": "Feature", "geometry": {"type": "LineString", "coordinates": [[33.36580600710576, 69.23089845021451], [33.36544608154708, 69.23225956519431]]}, "properties": {"source": "42710", "target": "16579"}}, {"type": "Feature", "geometry": {"type": "LineString", "coordinates": [[33.36311248279034, 69.23042992492324], [33.36819366524213, 69.23213123044226]]}, "properties": {"source": "5444895", "target": "6224826"}}, {"type": "Feature", "geometry": {"type": "LineString", "coordinates": [[33.36410511428781, 69.2301606843794], [33.36470144503269, 69.23196464070935]]}, "properties": {"source": "4266", "target": "4268"}}, {"type": "Feature", "geometry": {"type": "LineString", "coordinates": [[33.36410511428781, 69.2301606843794], [33.36819366524213, 69.23213123044226]]}, "properties": {"source": "4266", "target": "6224826"}}, {"type": "Feature", "geometry": {"type": "LineString", "coordinates": [[33.36410511428781, 69.2301606843794], [33.36548829238362, 69.23245947943576]]}, "properties": {"source": "4266", "target": "4264"}}, {"type": "Feature", "geometry": {"type": "LineString", "coordinates": [[33.36831280115641, 69.23230714067742], [33.36176722298018, 69.23140547797703]]}, "properties": {"source": "92488", "target": "9271896"}}, {"type": "Feature", "geometry": {"type": "LineString", "coordinates": [[33.36831280115641, 69.23230714067742], [33.36311248279034, 69.23042992492324]]}, "properties": {"source": "92488", "target": "5444895"}}, {"type": "Feature", "geometry": {"type": "LineString", "coordinates": [[33.362648862283464, 69.23225032356288], [33.36491666468061, 69.23224415525459]]}, "properties": {"source": "22749994", "target": "4271"}}, {"type": "Feature", "geometry": {"type": "LineString", "coordinates": [[33.362648862283464, 69.23225032356288], [33.36950052434875, 69.23208143673185]]}, "properties": {"source": "22749994", "target": "285092"}}, {"type": "Feature", "geometry": {"type": "LineString", "coordinates": [[33.36214362468334, 69.23035812871612], [33.362797722432504, 69.23131868938839]]}, "properties": {"source": "248420", "target": "4262"}}, {"type": "Feature", "geometry": {"type": "LineString", "coordinates": [[33.36861324577447, 69.23015241572637], [33.36176722298018, 69.23140547797703]]}, "properties": {"source": "8239497", "target": "9271896"}}, {"type": "Feature", "geometry": {"type": "LineString", "coordinates": [[33.368814199997246, 69.22996727549122], [33.3701892841525, 69.23121261745149]]}, "properties": {"source": "12527834", "target": "15729936"}}, {"type": "Feature", "geometry": {"type": "LineString", "coordinates": [[33.364731008898815, 69.22996017805434], [33.36688197588194, 69.23104639737474]]}, "properties": {"source": "7476913", "target": "30510"}}, {"type": "Feature", "geometry": {"type": "LineString", "coordinates": [[33.367979084742814, 69.23168313586217], [33.36470144503269, 69.23196464070935]]}, "properties": {"source": "13544149", "target": "4268"}}, {"type": "Feature", "geometry": {"type": "LineString", "coordinates": [[33.367979084742814, 69.23168313586217], [33.364777365776746, 69.23099474309498]]}, "properties": {"source": "13544149", "target": "4260"}}, {"type": "Feature", "geometry": {"type": "LineString", "coordinates": [[33.367979084742814, 69.23168313586217], [33.362892276699256, 69.23057247743537]]}, "properties": {"source": "13544149", "target": "248429"}}, {"type": "Feature", "geometry": {"type": "LineString", "coordinates": [[33.367979084742814, 69.23168313586217], [33.3701892841525, 69.23121261745149]]}, "properties": {"source": "13544149", "target": "15729936"}}, {"type": "Feature", "geometry": {"type": "LineString", "coordinates": [[33.36664649640886, 69.23106214253079], [33.36656411948198, 69.23002038430636]]}, "properties": {"source": "4261", "target": "10073"}}, {"type": "Feature", "geometry": {"type": "LineString", "coordinates": [[33.36664649640886, 69.23106214253079], [33.36373846698285, 69.23184289825554]]}, "properties": {"source": "4261", "target": "17707873"}}, {"type": "Feature", "geometry": {"type": "LineString", "coordinates": [[33.36705446436466, 69.23142980998568], [33.36470144503269, 69.23196464070935]]}, "properties": {"source": "4259", "target": "4268"}}, {"type": "Feature", "geometry": {"type": "LineString", "coordinates": [[33.36705446436466, 69.23142980998568], [33.36491666468061, 69.23224415525459]]}, "properties": {"source": "4259", "target": "4271"}}, {"type": "Feature", "geometry": {"type": "LineString", "coordinates": [[33.36705446436466, 69.23142980998568], [33.36820784743091, 69.23247162563518]]}, "properties": {"source": "4259", "target": "411527"}}, {"type": "Feature", "geometry": {"type": "LineString", "coordinates": [[33.36705446436466, 69.23142980998568], [33.36819366524213, 69.23213123044226]]}, "properties": {"source": "4259", "target": "6224826"}}, {"type": "Feature", "geometry": {"type": "LineString", "coordinates": [[33.36705446436466, 69.23142980998568], [33.36548829238362, 69.23245947943576]]}, "properties": {"source": "4259", "target": "4264"}}, {"type": "Feature", "geometry": {"type": "LineString", "coordinates": [[33.36705446436466, 69.23142980998568], [33.365400291355456, 69.23071526345296]]}, "properties": {"source": "4259", "target": "4457297"}}, {"type": "Feature", "geometry": {"type": "LineString", "coordinates": [[33.36705446436466, 69.23142980998568], [33.36874710142072, 69.23122709631028]]}, "properties": {"source": "4259", "target": "38272"}}, {"type": "Feature", "geometry": {"type": "LineString", "coordinates": [[33.36705446436466, 69.23142980998568], [33.364777365776746, 69.23099474309498]]}, "properties": {"source": "4259", "target": "4260"}}, {"type": "Feature", "geometry": {"type": "LineString", "coordinates": [[33.36705446436466, 69.23142980998568], [33.362892276699256, 69.23057247743537]]}, "properties": {"source": "4259", "target": "248429"}}, {"type": "Feature", "geometry": {"type": "LineString", "coordinates": [[33.36705446436466, 69.23142980998568], [33.367979084742814, 69.23168313586217]]}, "properties": {"source": "4259", "target": "13544149"}}, {"type": "Feature", "geometry": {"type": "LineString", "coordinates": [[33.36705446436466, 69.23142980998568], [33.36978600052561, 69.23143681504905]]}, "properties": {"source": "4259", "target": "6501050"}}, {"type": "Feature", "geometry": {"type": "LineString", "coordinates": [[33.365400291355456, 69.23071526345296], [33.36470144503269, 69.23196464070935]]}, "properties": {"source": "4457297", "target": "4268"}}, {"type": "Feature", "geometry": {"type": "LineString", "coordinates": [[33.365400291355456, 69.23071526345296], [33.36819366524213, 69.23213123044226]]}, "properties": {"source": "4457297", "target": "6224826"}}, {"type": "Feature", "geometry": {"type": "LineString", "coordinates": [[33.365400291355456, 69.23071526345296], [33.36548829238362, 69.23245947943576]]}, "properties": {"source": "4457297", "target": "4264"}}, {"type": "Feature", "geometry": {"type": "LineString", "coordinates": [[33.368888720715034, 69.23006136728173], [33.36688197588194, 69.23104639737474]]}, "properties": {"source": "30512", "target": "30510"}}, {"type": "Feature", "geometry": {"type": "LineString", "coordinates": [[33.368888720715034, 69.23006136728173], [33.36758350571478, 69.2321149610759]]}, "properties": {"source": "30512", "target": "42718"}}, {"type": "Feature", "geometry": {"type": "LineString", "coordinates": [[33.368888720715034, 69.23006136728173], [33.36544608154708, 69.23225956519431]]}, "properties": {"source": "30512", "target": "16579"}}, {"type": "Feature", "geometry": {"type": "LineString", "coordinates": [[33.368888720715034, 69.23006136728173], [33.364731008898815, 69.22996017805434]]}, "properties": {"source": "30512", "target": "7476913"}}, {"type": "Feature", "geometry": {"type": "LineString", "coordinates": [[33.36758350571478, 69.2321149610759], [33.367858104686974, 69.22992991632998]]}, "properties": {"source": "42718", "target": "269795"}}, {"type": "Feature", "geometry": {"type": "LineString", "coordinates": [[33.36758350571478, 69.2321149610759], [33.36697503730011, 69.23111388470872]]}, "properties": {"source": "42718", "target": "42701"}}, {"type": "Feature", "geometry": {"type": "LineString", "coordinates": [[33.36758350571478, 69.2321149610759], [33.36632745067132, 69.23031643939561]]}, "properties": {"source": "42718", "target": "42698"}}, {"type": "Feature", "geometry": {"type": "LineString", "coordinates": [[33.36758350571478, 69.2321149610759], [33.36347481701563, 69.23124904018252]]}, "properties": {"source": "42718", "target": "52778"}}, {"type": "Feature", "geometry": {"type": "LineString", "coordinates": [[33.36758350571478, 69.2321149610759], [33.36549134670446, 69.2308085593296]]}, "properties": {"source": "42718", "target": "296793"}}, {"type": "Feature", "geometry": {"type": "LineString", "coordinates": [[33.36758350571478, 69.2321149610759], [33.36688197588194, 69.23104639737474]]}, "properties": {"source": "42718", "target": "30510"}}, {"type": "Feature", "geometry": {"type": "LineString", "coordinates": [[33.36758350571478, 69.2321149610759], [33.36544608154708, 69.23225956519431]]}, "properties": {"source": "42718", "target": "16579"}}, {"type": "Feature", "geometry": {"type": "LineString", "coordinates": [[33.36664649640886, 69.23106214253079], [33.36705446436466, 69.23142980998568]]}, "properties": {"source": "4261", "target": "4259"}}, {"type": "Feature", "geometry": {"type": "LineString", "coordinates": [[33.36664649640886, 69.23106214253079], [33.365400291355456, 69.23071526345296]]}, "properties": {"source": "4261", "target": "4457297"}}, {"type": "Feature", "geometry": {"type": "LineString", "coordinates": [[33.36664649640886, 69.23106214253079], [33.36874710142072, 69.23122709631028]]}, "properties": {"source": "4261", "target": "38272"}}, {"type": "Feature", "geometry": {"type": "LineString", "coordinates": [[33.36664649640886, 69.23106214253079], [33.364777365776746, 69.23099474309498]]}, "properties": {"source": "4261", "target": "4260"}}, {"type": "Feature", "geometry": {"type": "LineString", "coordinates": [[33.36664649640886, 69.23106214253079], [33.362892276699256, 69.23057247743537]]}, "properties": {"source": "4261", "target": "248429"}}, {"type": "Feature", "geometry": {"type": "LineString", "coordinates": [[33.365400291355456, 69.23071526345296], [33.36874710142072, 69.23122709631028]]}, "properties": {"source": "4457297", "target": "38272"}}, {"type": "Feature", "geometry": {"type": "LineString", "coordinates": [[33.365400291355456, 69.23071526345296], [33.364777365776746, 69.23099474309498]]}, "properties": {"source": "4457297", "target": "4260"}}, {"type": "Feature", "geometry": {"type": "LineString", "coordinates": [[33.365400291355456, 69.23071526345296], [33.362892276699256, 69.23057247743537]]}, "properties": {"source": "4457297", "target": "248429"}}, {"type": "Feature", "geometry": {"type": "LineString", "coordinates": [[33.365400291355456, 69.23071526345296], [33.367979084742814, 69.23168313586217]]}, "properties": {"source": "4457297", "target": "13544149"}}, {"type": "Feature", "geometry": {"type": "LineString", "coordinates": [[33.365400291355456, 69.23071526345296], [33.36978600052561, 69.23143681504905]]}, "properties": {"source": "4457297", "target": "6501050"}}, {"type": "Feature", "geometry": {"type": "LineString", "coordinates": [[33.365400291355456, 69.23071526345296], [33.36311248279034, 69.23042992492324]]}, "properties": {"source": "4457297", "target": "5444895"}}, {"type": "Feature", "geometry": {"type": "LineString", "coordinates": [[33.36874710142072, 69.23122709631028], [33.36470144503269, 69.23196464070935]]}, "properties": {"source": "38272", "target": "4268"}}, {"type": "Feature", "geometry": {"type": "LineString", "coordinates": [[33.36874710142072, 69.23122709631028], [33.36491666468061, 69.23224415525459]]}, "properties": {"source": "38272", "target": "4271"}}, {"type": "Feature", "geometry": {"type": "LineString", "coordinates": [[33.36874710142072, 69.23122709631028], [33.36819366524213, 69.23213123044226]]}, "properties": {"source": "38272", "target": "6224826"}}, {"type": "Feature", "geometry": {"type": "LineString", "coordinates": [[33.36874710142072, 69.23122709631028], [33.36548829238362, 69.23245947943576]]}, "properties": {"source": "38272", "target": "4264"}}, {"type": "Feature", "geometry": {"type": "LineString", "coordinates": [[33.36874710142072, 69.23122709631028], [33.364777365776746, 69.23099474309498]]}, "properties": {"source": "38272", "target": "4260"}}, {"type": "Feature", "geometry": {"type": "LineString", "coordinates": [[33.36470144503269, 69.23196464070935], [33.36491666468061, 69.23224415525459]]}, "properties": {"source": "4268", "target": "4271"}}, {"type": "Feature", "geometry": {"type": "LineString", "coordinates": [[33.36470144503269, 69.23196464070935], [33.36819366524213, 69.23213123044226]]}, "properties": {"source": "4268", "target": "6224826"}}, {"type": "Feature", "geometry": {"type": "LineString", "coordinates": [[33.36470144503269, 69.23196464070935], [33.36548829238362, 69.23245947943576]]}, "properties": {"source": "4268", "target": "4264"}}, {"type": "Feature", "geometry": {"type": "LineString", "coordinates": [[33.36470144503269, 69.23196464070935], [33.36950052434875, 69.23208143673185]]}, "properties": {"source": "4268", "target": "285092"}}, {"type": "Feature", "geometry": {"type": "LineString", "coordinates": [[33.36470144503269, 69.23196464070935], [33.36978600052561, 69.23143681504905]]}, "properties": {"source": "4268", "target": "6501050"}}, {"type": "Feature", "geometry": {"type": "LineString", "coordinates": [[33.36656411948198, 69.23002038430636], [33.36548829238362, 69.23245947943576]]}, "properties": {"source": "10073", "target": "4264"}}, {"type": "Feature", "geometry": {"type": "LineString", "coordinates": [[33.36656411948198, 69.23002038430636], [33.364777365776746, 69.23099474309498]]}, "properties": {"source": "10073", "target": "4260"}}, {"type": "Feature", "geometry": {"type": "LineString", "coordinates": [[33.36656411948198, 69.23002038430636], [33.36950052434875, 69.23208143673185]]}, "properties": {"source": "10073", "target": "285092"}}, {"type": "Feature", "geometry": {"type": "LineString", "coordinates": [[33.36278812337153, 69.22992611738414], [33.367858104686974, 69.22992991632998]]}, "properties": {"source": "17262161", "target": "269795"}}, {"type": "Feature", "geometry": {"type": "LineString", "coordinates": [[33.36278812337153, 69.22992611738414], [33.36580600710576, 69.23089845021451]]}, "properties": {"source": "17262161", "target": "42710"}}, {"type": "Feature", "geometry": {"type": "LineString", "coordinates": [[33.36278812337153, 69.22992611738414], [33.36632745067132, 69.23031643939561]]}, "properties": {"source": "17262161", "target": "42698"}}, {"type": "Feature", "geometry": {"type": "LineString", "coordinates": [[33.36278812337153, 69.22992611738414], [33.36347481701563, 69.23124904018252]]}, "properties": {"source": "17262161", "target": "52778"}}, {"type": "Feature", "geometry": {"type": "LineString", "coordinates": [[33.36278812337153, 69.22992611738414], [33.36549134670446, 69.2308085593296]]}, "properties": {"source": "17262161", "target": "296793"}}, {"type": "Feature", "geometry": {"type": "LineString", "coordinates": [[33.36278812337153, 69.22992611738414], [33.36688197588194, 69.23104639737474]]}, "properties": {"source": "17262161", "target": "30510"}}, {"type": "Feature", "geometry": {"type": "LineString", "coordinates": [[33.36278812337153, 69.22992611738414], [33.36544608154708, 69.23225956519431]]}, "properties": {"source": "17262161", "target": "16579"}}, {"type": "Feature", "geometry": {"type": "LineString", "coordinates": [[33.36278812337153, 69.22992611738414], [33.36520991052868, 69.23004997411527]]}, "properties": {"source": "17262161", "target": "17230446"}}, {"type": "Feature", "geometry": {"type": "LineString", "coordinates": [[33.368888720715034, 69.23006136728173], [33.367858104686974, 69.22992991632998]]}, "properties": {"source": "30512", "target": "269795"}}, {"type": "Feature", "geometry": {"type": "LineString", "coordinates": [[33.368888720715034, 69.23006136728173], [33.36697503730011, 69.23111388470872]]}, "properties": {"source": "30512", "target": "42701"}}, {"type": "Feature", "geometry": {"type": "LineString", "coordinates": [[33.368888720715034, 69.23006136728173], [33.36632745067132, 69.23031643939561]]}, "properties": {"source": "30512", "target": "42698"}}, {"type": "Feature", "geometry": {"type": "LineString", "coordinates": [[33.368888720715034, 69.23006136728173], [33.36347481701563, 69.23124904018252]]}, "properties": {"source": "30512", "target": "52778"}}, {"type": "Feature", "geometry": {"type": "LineString", "coordinates": [[33.368888720715034, 69.23006136728173], [33.36549134670446, 69.2308085593296]]}, "properties": {"source": "30512", "target": "296793"}}, {"type": "Feature", "geometry": {"type": "LineString", "coordinates": [[33.36470144503269, 69.23196464070935], [33.3701892841525, 69.23121261745149]]}, "properties": {"source": "4268", "target": "15729936"}}, {"type": "Feature", "geometry": {"type": "LineString", "coordinates": [[33.36470144503269, 69.23196464070935], [33.362797722432504, 69.23131868938839]]}, "properties": {"source": "4268", "target": "4262"}}, {"type": "Feature", "geometry": {"type": "LineString", "coordinates": [[33.36491666468061, 69.23224415525459], [33.36548829238362, 69.23245947943576]]}, "properties": {"source": "4271", "target": "4264"}}, {"type": "Feature", "geometry": {"type": "LineString", "coordinates": [[33.36491666468061, 69.23224415525459], [33.36950052434875, 69.23208143673185]]}, "properties": {"source": "4271", "target": "285092"}}, {"type": "Feature", "geometry": {"type": "LineString", "coordinates": [[33.36491666468061, 69.23224415525459], [33.362797722432504, 69.23131868938839]]}, "properties": {"source": "4271", "target": "4262"}}, {"type": "Feature", "geometry": {"type": "LineString", "coordinates": [[33.36820784743091, 69.23247162563518], [33.36470144503269, 69.23196464070935]]}, "properties": {"source": "411527", "target": "4268"}}, {"type": "Feature", "geometry": {"type": "LineString", "coordinates": [[33.36820784743091, 69.23247162563518], [33.36491666468061, 69.23224415525459]]}, "properties": {"source": "411527", "target": "4271"}}, {"type": "Feature", "geometry": {"type": "LineString", "coordinates": [[33.36820784743091, 69.23247162563518], [33.36819366524213, 69.23213123044226]]}, "properties": {"source": "411527", "target": "6224826"}}, {"type": "Feature", "geometry": {"type": "LineString", "coordinates": [[33.36820784743091, 69.23247162563518], [33.36548829238362, 69.23245947943576]]}, "properties": {"source": "411527", "target": "4264"}}, {"type": "Feature", "geometry": {"type": "LineString", "coordinates": [[33.36820784743091, 69.23247162563518], [33.365400291355456, 69.23071526345296]]}, "properties": {"source": "411527", "target": "4457297"}}, {"type": "Feature", "geometry": {"type": "LineString", "coordinates": [[33.36820784743091, 69.23247162563518], [33.36874710142072, 69.23122709631028]]}, "properties": {"source": "411527", "target": "38272"}}, {"type": "Feature", "geometry": {"type": "LineString", "coordinates": [[33.36820784743091, 69.23247162563518], [33.364777365776746, 69.23099474309498]]}, "properties": {"source": "411527", "target": "4260"}}, {"type": "Feature", "geometry": {"type": "LineString", "coordinates": [[33.36820784743091, 69.23247162563518], [33.362892276699256, 69.23057247743537]]}, "properties": {"source": "411527", "target": "248429"}}, {"type": "Feature", "geometry": {"type": "LineString", "coordinates": [[33.36820784743091, 69.23247162563518], [33.36950052434875, 69.23208143673185]]}, "properties": {"source": "411527", "target": "285092"}}, {"type": "Feature", "geometry": {"type": "LineString", "coordinates": [[33.36820784743091, 69.23247162563518], [33.36656411948198, 69.23002038430636]]}, "properties": {"source": "411527", "target": "10073"}}, {"type": "Feature", "geometry": {"type": "LineString", "coordinates": [[33.36820784743091, 69.23247162563518], [33.36978600052561, 69.23143681504905]]}, "properties": {"source": "411527", "target": "6501050"}}]}