{"type": "FeatureCollection", "features": [{"type": "Feature", "geometry": {"type": "LineString", "coordinates": [[12.191667127796393, 69.23027336525499], [12.187681333700255, 69.23094593981318]]}, "properties": {"source": "376957", "target": "625993"}}, {"type": "Feature", "geometry": {"type": "LineString", "coordinates": [[12.191667127796393, 69.23027336525499], [12.187562590249172, 69.22984437807898]]}, "properties": {"source": "376957", "target": "78785"}}, {"type": "Feature", "geometry": {"type": "LineString", "coordinates": [[12.191667127796393, 69.23027336525499], [12.18815126413108, 69.230389700183]]}, "properties": {"source": "376957", "target": "659642"}}, {"type": "Feature", "geometry": {"type": "LineString", "coordinates": [[12.191667127796393, 69.23027336525499], [12.191914696273955, 69.23179524323541]]}, "properties": {"source": "376957", "target": "32838"}}, {"type": "Feature", "geometry": {"type": "LineString", "coordinates": [[12.191439772032453, 69.22978837651141], [12.187562590249172, 69.22984437807898]]}, "properties": {"source": "6545668", "target": "78785"}}, {"type": "Feature", "geometry": {"type": "LineString", "coordinates": [[12.191439772032453, 69.22978837651141], [12.18815126413108, 69.230389700183]]}, "properties": {"source": "6545668", "target": "659642"}}, {"type": "Feature", "geometry": {"type": "LineString", "coordinates": [[12.191439772032453, 69.22978837651141], [12.187453253121305, 69.2316344855056]]}, "properties": {"source": "6545668", "target": "6545669"}}, {"type": "Feature", "geometry": {"type": "LineString", "coordinates": [[12.187453253121305, 69.2316344855056], [12.187562590249172, 69.22984437807898]]}, "properties": {"source": "6545669", "target": "78785"}}, {"type": "Feature", "geometry": {"type": "LineString", "coordinates": [[12.18833129577277, 69.23102328662077], [12.191627312198307, 69.23014205284016]]}, "properties": {"source": "78737", "target": "719181"}}, {"type": "Feature", "geometry": {"type": "LineString", "coordinates": [[12.18833129577277, 69.23102328662077], [12.194921599992682, 69.22979084282522]]}, "properties": {"source": "78737", "target": "32835"}}, {"type": "Feature", "geometry": {"type": "LineString", "coordinates": [[12.18833129577277, 69.23102328662077], [12.18770626316416, 69.2305045959574]]}, "properties": {"source": "78737", "target": "32825"}}, {"type": "Feature", "geometry": {"type": "LineString", "coordinates": [[12.19363978895771, 69.23089788316935], [12.187562590249172, 69.22984437807898]]}, "properties": {"source": "611637", "target": "78785"}}, {"type": "Feature", "geometry": {"type": "LineString", "coordinates": [[12.19363978895771, 69.23089788316935], [12.18815126413108, 69.230389700183]]}, "properties": {"source": "611637", "target": "659642"}}, {"type": "Feature", "geometry": {"type": "LineString", "coordinates": [[12.19363978895771, 69.23089788316935], [12.18833129577277, 69.23102328662077]]}, "properties": {"source": "611637", "target": "78737"}}, {"type": "Feature", "geometry": {"type": "LineString", "coordinates": [[12.19363978895771, 69.23089788316935], [12.189033759643735, 69.23169638277204]]}, "properties": {"source": "611637", "target": "376984"}}, {"type": "Feature", "geometry": {"type": "LineString", "coordinates": [[12.19363978895771, 69.23089788316935], [12.191627312198307, 69.23014205284016]]}, "properties": {"source": "611637", "target": "719181"}}, {"type": "Feature", "geometry": {"type": "LineString", "coordinates": [[12.19363978895771, 69.23089788316935], [12.193910691312311, 69.23206647321109]]}, "properties": {"source": "611637", "target": "6061634"}}, {"type": "Feature", "geometry": {"type": "LineString", "coordinates": [[12.19363978895771, 69.23089788316935], [12.195046780811623, 69.23051211588134]]}, "properties": {"source": "611637", "target": "376974"}}, {"type": "Feature", "geometry": {"type": "LineString", "coordinates": [[12.19363978895771, 69.23089788316935], [12.192581200493464, 69.23059403645107]]}, "properties": {"source": "611637", "target": "560027"}}, {"type": "Feature", "geometry": {"type": "LineString", "coordinates": [[12.19363978895771, 69.23089788316935], [12.190045478044397, 69.23119221751847]]}, "properties": {"source": "611637", "target": "1711371"}}, {"type": "Feature", "geometry": {"type": "LineString", "coordinates": [[12.19007444592009, 69.23039747461468], [12.19471143980681, 69.23213930298172]]}, "properties": {"source": "6271800", "target": "337109"}}, {"type": "Feature", "geometry": {"type": "LineString", "coordinates": [[12.19007444592009, 69.23039747461468], [12.193910691312311, 69.23206647321109]]}, "properties": {"source": "6271800", "target": "6061634"}}, {"type": "Feature", "geometry": {"type": "LineString", "coordinates": [[12.19007444592009, 69.23039747461468], [12.189455424663748, 69.2321355680883]]}, "properties": {"source": "6271800", "target": "1540877"}}, {"type": "Feature", "geometry": {"type": "LineString", "coordinates": [[12.19007444592009, 69.23039747461468], [12.194921599992682, 69.22979084282522]]}, "properties": {"source": "6271800", "target": "32835"}}, {"type": "Feature", "geometry": {"type": "LineString", "coordinates": [[12.188604046425382, 69.23067103137643], [12.187562590249172, 69.22984437807898]]}, "properties": {"source": "560031", "target": "78785"}}, {"type": "Feature", "geometry": {"type": "LineString", "coordinates": [[12.188604046425382, 69.23067103137643], [12.18815126413108, 69.230389700183]]}, "properties": {"source": "560031", "target": "659642"}}, {"type": "Feature", "geometry": {"type": "LineString", "coordinates": [[12.188604046425382, 69.23067103137643], [12.191914696273955, 69.23179524323541]]}, "properties": {"source": "560031", "target": "32838"}}, {"type": "Feature", "geometry": {"type": "LineString", "coordinates": [[12.188604046425382, 69.23067103137643], [12.188076445648278, 69.23170552977408]]}, "properties": {"source": "560031", "target": "32850"}}, {"type": "Feature", "geometry": {"type": "LineString", "coordinates": [[12.188604046425382, 69.23067103137643], [12.19471143980681, 69.23213930298172]]}, "properties": {"source": "560031", "target": "337109"}}, {"type": "Feature", "geometry": {"type": "LineString", "coordinates": [[12.188604046425382, 69.23067103137643], [12.18849664306839, 69.23262345151849]]}, "properties": {"source": "560031", "target": "158247"}}, {"type": "Feature", "geometry": {"type": "LineString", "coordinates": [[12.188604046425382, 69.23067103137643], [12.195182397760874, 69.23261981626669]]}, "properties": {"source": "560031", "target": "32849"}}, {"type": "Feature", "geometry": {"type": "LineString", "coordinates": [[12.188604046425382, 69.23067103137643], [12.193910691312311, 69.23206647321109]]}, "properties": {"source": "560031", "target": "6061634"}}, {"type": "Feature", "geometry": {"type": "LineString", "coordinates": [[12.188604046425382, 69.23067103137643], [12.189455424663748, 69.2321355680883]]}, "properties": {"source": "560031", "target": "1540877"}}, {"type": "Feature", "geometry": {"type": "LineString", "coordinates": [[12.188604046425382, 69.23067103137643], [12.195046780811623, 69.23051211588134]]}, "properties": {"source": "560031", "target": "376974"}}, {"type": "Feature", "geometry": {"type": "LineString", "coordinates": [[12.188604046425382, 69.23067103137643], [12.192581200493464, 69.23059403645107]]}, "properties": {"source": "560031", "target": "560027"}}, {"type": "Feature", "geometry": {"type": "LineString", "coordinates": [[12.191667127796393, 69.23027336525499], [12.18724915603778, 69.23148633292024]]}, "properties": {"source": "376957", "target": "78784"}}, {"type": "Feature", "geometry": {"type": "LineString", "coordinates": [[12.188616834545229, 69.23087247798625], [12.189847364224619, 69.2317187457017]]}, "properties": {"source": "267071", "target": "32824"}}, {"type": "Feature", "geometry": {"type": "LineString", "coordinates": [[12.188616834545229, 69.23087247798625], [12.18849664306839, 69.23262345151849]]}, "properties": {"source": "267071", "target": "158247"}}, {"type": "Feature", "geometry": {"type": "LineString", "coordinates": [[12.188616834545229, 69.23087247798625], [12.191517735748846, 69.2300588474298]]}, "properties": {"source": "267071", "target": "237699"}}, {"type": "Feature", "geometry": {"type": "LineString", "coordinates": [[12.188616834545229, 69.23087247798625], [12.195182397760874, 69.23261981626669]]}, "properties": {"source": "267071", "target": "32849"}}, {"type": "Feature", "geometry": {"type": "LineString", "coordinates": [[12.187681333700255, 69.23094593981318], [12.19007444592009, 69.23039747461468]]}, "properties": {"source": "625993", "target": "6271800"}}, {"type": "Feature", "geometry": {"type": "LineString", "coordinates": [[12.187681333700255, 69.23094593981318], [12.195182397760874, 69.23261981626669]]}, "properties": {"source": "625993", "target": "32849"}}, {"type": "Feature", "geometry": {"type": "LineString", "coordinates": [[12.187681333700255, 69.23094593981318], [12.191627312198307, 69.23014205284016]]}, "properties": {"source": "625993", "target": "719181"}}, {"type": "Feature", "geometry": {"type": "LineString", "coordinates": [[12.187681333700255, 69.23094593981318], [12.193910691312311, 69.23206647321109]]}, "properties": {"source": "625993", "target": "6061634"}}, {"type": "Feature", "geometry": {"type": "LineString", "coordinates": [[12.187681333700255, 69.23094593981318], [12.186871309834572, 69.23105389071537]]}, "properties": {"source": "625993", "target": "32831"}}, {"type": "Feature", "geometry": {"type": "LineString", "coordinates": [[12.187681333700255, 69.23094593981318], [12.189455424663748, 69.2321355680883]]}, "properties": {"source": "625993", "target": "1540877"}}, {"type": "Feature", "geometry": {"type": "LineString", "coordinates": [[12.187681333700255, 69.23094593981318], [12.195046780811623, 69.23051211588134]]}, "properties": {"source": "625993", "target": "376974"}}, {"type": "Feature", "geometry": {"type": "LineString", "coordinates": [[12.187681333700255, 69.23094593981318], [12.195124099462419, 69.23247145500935]]}, "properties": {"source": "625993", "target": "6265685"}}, {"type": "Feature", "geometry": {"type": "LineString", "coordinates": [[12.187681333700255, 69.23094593981318], [12.192581200493464, 69.23059403645107]]}, "properties": {"source": "625993", "target": "560027"}}, {"type": "Feature", "geometry": {"type": "LineString", "coordinates": [[12.187681333700255, 69.23094593981318], [12.194921599992682, 69.22979084282522]]}, "properties": {"source": "625993", "target": "32835"}}, {"type": "Feature", "geometry": {"type": "LineString", "coordinates": [[12.187681333700255, 69.23094593981318], [12.18770626316416, 69.2305045959574]]}, "properties": {"source": "625993", "target": "32825"}}, {"type": "Feature", "geometry": {"type": "LineString", "coordinates": [[12.187562590249172, 69.22984437807898], [12.18815126413108, 69.230389700183]]}, "properties": {"source": "78785", "target": "659642"}}, {"type": "Feature", "geometry": {"type": "LineString", "coordinates": [[12.190330403586586, 69.23195060126133], [12.186871309834572, 69.23105389071537]]}, "properties": {"source": "1219103", "target": "32831"}}, {"type": "Feature", "geometry": {"type": "LineString", "coordinates": [[12.189747209114756, 69.23255729073415], [12.18815126413108, 69.230389700183]]}, "properties": {"source": "1872416", "target": "659642"}}, {"type": "Feature", "geometry": {"type": "LineString", "coordinates": [[12.189747209114756, 69.23255729073415], [12.191914696273955, 69.23179524323541]]}, "properties": {"source": "1872416", "target": "32838"}}, {"type": "Feature", "geometry": {"type": "LineString", "coordinates": [[12.189747209114756, 69.23255729073415], [12.194793530340917, 69.23057632655511]]}, "properties": {"source": "1872416", "target": "2107163"}}, {"type": "Feature", "geometry": {"type": "LineString", "coordinates": [[12.189747209114756, 69.23255729073415], [12.186265000824193, 69.23088871210385]]}, "properties": {"source": "1872416", "target": "32827"}}, {"type": "Feature", "geometry": {"type": "LineString", "coordinates": [[12.189747209114756, 69.23255729073415], [12.186871309834572, 69.23105389071537]]}, "properties": {"source": "1872416", "target": "32831"}}, {"type": "Feature", "geometry": {"type": "LineString", "coordinates": [[12.189747209114756, 69.23255729073415], [12.190330403586586, 69.23195060126133]]}, "properties": {"source": "1872416", "target": "1219103"}}, {"type": "Feature", "geometry": {"type": "LineString", "coordinates": [[12.190045478044397, 69.23119221751847], [12.187562590249172, 69.22984437807898]]}, "properties": {"source": "1711371", "target": "78785"}}, {"type": "Feature", "geometry": {"type": "LineString", "coordinates": [[12.190045478044397, 69.23119221751847], [12.18833129577277, 69.23102328662077]]}, "properties": {"source": "1711371", "target": "78737"}}, {"type": "Feature", "geometry": {"type": "LineString", "coordinates": [[12.190045478044397, 69.23119221751847], [12.188838472833169, 69.23062320367222]]}, "properties": {"source": "1711371", "target": "1970383"}}, {"type": "Feature", "geometry": {"type": "LineString", "coordinates": [[12.188838472833169, 69.23062320367222], [12.187562590249172, 69.22984437807898]]}, "properties": {"source": "1970383", "target": "78785"}}, {"type": "Feature", "geometry": {"type": "LineString", "coordinates": [[12.18770626316416, 69.2305045959574], [12.188076445648278, 69.23170552977408]]}, "properties": {"source": "32825", "target": "32850"}}, {"type": "Feature", "geometry": {"type": "LineString", "coordinates": [[12.18770626316416, 69.2305045959574], [12.194921599992682, 69.22979084282522]]}, "properties": {"source": "32825", "target": "32835"}}, {"type": "Feature", "geometry": {"type": "LineString", "coordinates": [[12.187632107252654, 69.23218489532607], [12.191914696273955, 69.23179524323541]]}, "properties": {"source": "2955342", "target": "32838"}}, {"type": "Feature", "geometry": {"type": "LineString", "coordinates": [[12.187632107252654, 69.23218489532607], [12.188076445648278, 69.23170552977408]]}, "properties": {"source": "2955342", "target": "32850"}}, {"type": "Feature", "geometry": {"type": "LineString", "coordinates": [[12.191439772032453, 69.22978837651141], [12.18724915603778, 69.23148633292024]]}, "properties": {"source": "6545668", "target": "78784"}}, {"type": "Feature", "geometry": {"type": "LineString", "coordinates": [[12.187562590249172, 69.22984437807898], [12.194793530340917, 69.23057632655511]]}, "properties": {"source": "78785", "target": "2107163"}}, {"type": "Feature", "geometry": {"type": "LineString", "coordinates": [[12.191914696273955, 69.23179524323541], [12.18815126413108, 69.230389700183]]}, "properties": {"source": "32838", "target": "659642"}}, {"type": "Feature", "geometry": {"type": "LineString", "coordinates": [[12.191914696273955, 69.23179524323541], [12.194793530340917, 69.23057632655511]]}, "properties": {"source": "32838", "target": "2107163"}}, {"type": "Feature", "geometry": {"type": "LineString", "coordinates": [[12.191914696273955, 69.23179524323541], [12.19471143980681, 69.23213930298172]]}, "properties": {"source": "32838", "target": "337109"}}, {"type": "Feature", "geometry": {"type": "LineString", "coordinates": [[12.191914696273955, 69.23179524323541], [12.18849664306839, 69.23262345151849]]}, "properties": {"source": "32838", "target": "158247"}}, {"type": "Feature", "geometry": {"type": "LineString", "coordinates": [[12.191914696273955, 69.23179524323541], [12.194921599992682, 69.22979084282522]]}, "properties": {"source": "32838", "target": "32835"}}, {"type": "Feature", "geometry": {"type": "LineString", "coordinates": [[12.191030579391054, 69.23005443443645], [12.18724915603778, 69.23148633292024]]}, "properties": {"source": "32832", "target": "78784"}}, {"type": "Feature", "geometry": {"type": "LineString", "coordinates": [[12.191030579391054, 69.23005443443645], [12.187562590249172, 69.22984437807898]]}, "properties": {"source": "32832", "target": "78785"}}, {"type": "Feature", "geometry": {"type": "LineString", "coordinates": [[12.191030579391054, 69.23005443443645], [12.18815126413108, 69.230389700183]]}, "properties": {"source": "32832", "target": "659642"}}, {"type": "Feature", "geometry": {"type": "LineString", "coordinates": [[12.191030579391054, 69.23005443443645], [12.191914696273955, 69.23179524323541]]}, "properties": {"source": "32832", "target": "32838"}}, {"type": "Feature", "geometry": {"type": "LineString", "coordinates": [[12.191030579391054, 69.23005443443645], [12.18833129577277, 69.23102328662077]]}, "properties": {"source": "32832", "target": "78737"}}, {"type": "Feature", "geometry": {"type": "LineString", "coordinates": [[12.191030579391054, 69.23005443443645], [12.188076445648278, 69.23170552977408]]}, "properties": {"source": "32832", "target": "32850"}}, {"type": "Feature", "geometry": {"type": "LineString", "coordinates": [[12.191030579391054, 69.23005443443645], [12.194793530340917, 69.23057632655511]]}, "properties": {"source": "32832", "target": "2107163"}}, {"type": "Feature", "geometry": {"type": "LineString", "coordinates": [[12.191030579391054, 69.23005443443645], [12.188616834545229, 69.23087247798625]]}, "properties": {"source": "32832", "target": "267071"}}, {"type": "Feature", "geometry": {"type": "LineString", "coordinates": [[12.191030579391054, 69.23005443443645], [12.189847364224619, 69.2317187457017]]}, "properties": {"source": "32832", "target": "32824"}}, {"type": "Feature", "geometry": {"type": "LineString", "coordinates": [[12.191030579391054, 69.23005443443645], [12.18849664306839, 69.23262345151849]]}, "properties": {"source": "32832", "target": "158247"}}, {"type": "Feature", "geometry": {"type": "LineString", "coordinates": [[12.187681333700255, 69.23094593981318], [12.189033759643735, 69.23169638277204]]}, "properties": {"source": "625993", "target": "376984"}}, {"type": "Feature", "geometry": {"type": "LineString", "coordinates": [[12.187681333700255, 69.23094593981318], [12.189847364224619, 69.2317187457017]]}, "properties": {"source": "625993", "target": "32824"}}, {"type": "Feature", "geometry": {"type": "LineString", "coordinates": [[12.187681333700255, 69.23094593981318], [12.18849664306839, 69.23262345151849]]}, "properties": {"source": "625993", "target": "158247"}}, {"type": "Feature", "geometry": {"type": "LineString", "coordinates": [[12.187681333700255, 69.23094593981318], [12.191517735748846, 69.2300588474298]]}, "properties": {"source": "625993", "target": "237699"}}, {"type": "Feature", "geometry": {"type": "LineString", "coordinates": [[12.186265000824193, 69.23088871210385], [12.18724915603778, 69.23148633292024]]}, "properties": {"source": "32827", "target": "78784"}}, {"type": "Feature", "geometry": {"type": "LineString", "coordinates": [[12.186265000824193, 69.23088871210385], [12.187562590249172, 69.22984437807898]]}, "properties": {"source": "32827", "target": "78785"}}, {"type": "Feature", "geometry": {"type": "LineString", "coordinates": [[12.186265000824193, 69.23088871210385], [12.191914696273955, 69.23179524323541]]}, "properties": {"source": "32827", "target": "32838"}}, {"type": "Feature", "geometry": {"type": "LineString", "coordinates": [[12.186265000824193, 69.23088871210385], [12.191030579391054, 69.23005443443645]]}, "properties": {"source": "32827", "target": "32832"}}, {"type": "Feature", "geometry": {"type": "LineString", "coordinates": [[12.186265000824193, 69.23088871210385], [12.188616834545229, 69.23087247798625]]}, "properties": {"source": "32827", "target": "267071"}}, {"type": "Feature", "geometry": {"type": "LineString", "coordinates": [[12.186265000824193, 69.23088871210385], [12.189847364224619, 69.2317187457017]]}, "properties": {"source": "32827", "target": "32824"}}, {"type": "Feature", "geometry": {"type": "LineString", "coordinates": [[12.186265000824193, 69.23088871210385], [12.19471143980681, 69.23213930298172]]}, "properties": {"source": "32827", "target": "337109"}}, {"type": "Feature", "geometry": {"type": "LineString", "coordinates": [[12.186265000824193, 69.23088871210385], [12.18849664306839, 69.23262345151849]]}, "properties": {"source": "32827", "target": "158247"}}, {"type": "Feature", "geometry": {"type": "LineString", "coordinates": [[12.186265000824193, 69.23088871210385], [12.191517735748846, 69.2300588474298]]}, "properties": {"source": "32827", "target": "237699"}}, {"type": "Feature", "geometry": {"type": "LineString", "coordinates": [[12.186265000824193, 69.23088871210385], [12.195182397760874, 69.23261981626669]]}, "properties": {"source": "32827", "target": "32849"}}, {"type": "Feature", "geometry": {"type": "LineString", "coordinates": [[12.188616834545229, 69.23087247798625], [12.187562590249172, 69.22984437807898]]}, "properties": {"source": "267071", "target": "78785"}}, {"type": "Feature", "geometry": {"type": "LineString", "coordinates": [[12.188616834545229, 69.23087247798625], [12.188604046425382, 69.23067103137643]]}, "properties": {"source": "267071", "target": "560031"}}, {"type": "Feature", "geometry": {"type": "LineString", "coordinates": [[12.191030579391054, 69.23005443443645], [12.191517735748846, 69.2300588474298]]}, "properties": {"source": "32832", "target": "237699"}}, {"type": "Feature", "geometry": {"type": "LineString", "coordinates": [[12.191030579391054, 69.23005443443645], [12.195182397760874, 69.23261981626669]]}, "properties": {"source": "32832", "target": "32849"}}, {"type": "Feature", "geometry": {"type": "LineString", "coordinates": [[12.191030579391054, 69.23005443443645], [12.193910691312311, 69.23206647321109]]}, "properties": {"source": "32832", "target": "6061634"}}, {"type": "Feature", "geometry": {"type": "LineString", "coordinates": [[12.191030579391054, 69.23005443443645], [12.187632107252654, 69.23218489532607]]}, "properties": {"source": "32832", "target": "2955342"}}, {"type": "Feature", "geometry": {"type": "LineString", "coordinates": [[12.187783571125806, 69.23193318383], [12.18724915603778, 69.23148633292024]]}, "properties": {"source": "54480", "target": "78784"}}, {"type": "Feature", "geometry": {"type": "LineString", "coordinates": [[12.187783571125806, 69.23193318383], [12.187681333700255, 69.23094593981318]]}, "properties": {"source": "54480", "target": "625993"}}, {"type": "Feature", "geometry": {"type": "LineString", "coordinates": [[12.187783571125806, 69.23193318383], [12.187562590249172, 69.22984437807898]]}, "properties": {"source": "54480", "target": "78785"}}, {"type": "Feature", "geometry": {"type": "LineString", "coordinates": [[12.187783571125806, 69.23193318383], [12.188604046425382, 69.23067103137643]]}, "properties": {"source": "54480", "target": "560031"}}, {"type": "Feature", "geometry": {"type": "LineString", "coordinates": [[12.187783571125806, 69.23193318383], [12.18833129577277, 69.23102328662077]]}, "properties": {"source": "54480", "target": "78737"}}, {"type": "Feature", "geometry": {"type": "LineString", "coordinates": [[12.187783571125806, 69.23193318383], [12.195046780811623, 69.23051211588134]]}, "properties": {"source": "54480", "target": "376974"}}, {"type": "Feature", "geometry": {"type": "LineString", "coordinates": [[12.187783571125806, 69.23193318383], [12.195124099462419, 69.23247145500935]]}, "properties": {"source": "54480", "target": "6265685"}}, {"type": "Feature", "geometry": {"type": "LineString", "coordinates": [[12.190330403586586, 69.23195060126133], [12.18724915603778, 69.23148633292024]]}, "properties": {"source": "1219103", "target": "78784"}}, {"type": "Feature", "geometry": {"type": "LineString", "coordinates": [[12.190330403586586, 69.23195060126133], [12.186265000824193, 69.23088871210385]]}, "properties": {"source": "1219103", "target": "32827"}}, {"type": "Feature", "geometry": {"type": "LineString", "coordinates": [[12.190330403586586, 69.23195060126133], [12.188616834545229, 69.23087247798625]]}, "properties": {"source": "1219103", "target": "267071"}}, {"type": "Feature", "geometry": {"type": "LineString", "coordinates": [[12.190330403586586, 69.23195060126133], [12.18849664306839, 69.23262345151849]]}, "properties": {"source": "1219103", "target": "158247"}}, {"type": "Feature", "geometry": {"type": "LineString", "coordinates": [[12.190330403586586, 69.23195060126133], [12.191517735748846, 69.2300588474298]]}, "properties": {"source": "1219103", "target": "237699"}}, {"type": "Feature", "geometry": {"type": "LineString", "coordinates": [[12.19363978895771, 69.23089788316935], [12.188838472833169, 69.23062320367222]]}, "properties": {"source": "611637", "target": "1970383"}}, {"type": "Feature", "geometry": {"type": "LineString", "coordinates": [[12.188076445648278, 69.23170552977408], [12.18815126413108, 69.230389700183]]}, "properties": {"source": "32850", "target": "659642"}}, {"type": "Feature", "geometry": {"type": "LineString", "coordinates": [[12.188076445648278, 69.23170552977408], [12.194921599992682, 69.22979084282522]]}, "properties": {"source": "32850", "target": "32835"}}, {"type": "Feature", "geometry": {"type": "LineString", "coordinates": [[12.194793530340917, 69.23057632655511], [12.18815126413108, 69.230389700183]]}, "properties": {"source": "2107163", "target": "659642"}}, {"type": "Feature", "geometry": {"type": "LineString", "coordinates": [[12.18849664306839, 69.23262345151849], [12.187562590249172, 69.22984437807898]]}, "properties": {"source": "158247", "target": "78785"}}, {"type": "Feature", "geometry": {"type": "LineString", "coordinates": [[12.18849664306839, 69.23262345151849], [12.194793530340917, 69.23057632655511]]}, "properties": {"source": "158247", "target": "2107163"}}, {"type": "Feature", "geometry": {"type": "LineString", "coordinates": [[12.191517735748846, 69.2300588474298], [12.18724915603778, 69.23148633292024]]}, "properties": {"source": "237699", "target": "78784"}}, {"type": "Feature", "geometry": {"type": "LineString", "coordinates": [[12.191517735748846, 69.2300588474298], [12.188604046425382, 69.23067103137643]]}, "properties": {"source": "237699", "target": "560031"}}, {"type": "Feature", "geometry": {"type": "LineString", "coordinates": [[12.191517735748846, 69.2300588474298], [12.188076445648278, 69.23170552977408]]}, "properties": {"source": "237699", "target": "32850"}}, {"type": "Feature", "geometry": {"type": "LineString", "coordinates": [[12.191517735748846, 69.2300588474298], [12.18849664306839, 69.23262345151849]]}, "properties": {"source": "237699", "target": "158247"}}, {"type": "Feature", "geometry": {"type": "LineString", "coordinates": [[12.191517735748846, 69.2300588474298], [12.195182397760874, 69.23261981626669]]}, "properties": {"source": "237699", "target": "32849"}}, {"type": "Feature", "geometry": {"type": "LineString", "coordinates": [[12.191517735748846, 69.2300588474298], [12.195046780811623, 69.23051211588134]]}, "properties": {"source": "237699", "target": "376974"}}, {"type": "Feature", "geometry": {"type": "LineString", "coordinates": [[12.19007444592009, 69.23039747461468], [12.187562590249172, 69.22984437807898]]}, "properties": {"source": "6271800", "target": "78785"}}, {"type": "Feature", "geometry": {"type": "LineString", "coordinates": [[12.19007444592009, 69.23039747461468], [12.18815126413108, 69.230389700183]]}, "properties": {"source": "6271800", "target": "659642"}}, {"type": "Feature", "geometry": {"type": "LineString", "coordinates": [[12.19007444592009, 69.23039747461468], [12.191914696273955, 69.23179524323541]]}, "properties": {"source": "6271800", "target": "32838"}}, {"type": "Feature", "geometry": {"type": "LineString", "coordinates": [[12.19007444592009, 69.23039747461468], [12.19363978895771, 69.23089788316935]]}, "properties": {"source": "6271800", "target": "611637"}}, {"type": "Feature", "geometry": {"type": "LineString", "coordinates": [[12.187453253121305, 69.2316344855056], [12.18815126413108, 69.230389700183]]}, "properties": {"source": "6545669", "target": "659642"}}, {"type": "Feature", "geometry": {"type": "LineString", "coordinates": [[12.193812138106807, 69.23206101416284], [12.18833129577277, 69.23102328662077]]}, "properties": {"source": "5719205", "target": "78737"}}, {"type": "Feature", "geometry": {"type": "LineString", "coordinates": [[12.193812138106807, 69.23206101416284], [12.195124099462419, 69.23247145500935]]}, "properties": {"source": "5719205", "target": "6265685"}}, {"type": "Feature", "geometry": {"type": "LineString", "coordinates": [[12.192107201680273, 69.23080276410556], [12.18724915603778, 69.23148633292024]]}, "properties": {"source": "766869", "target": "78784"}}, {"type": "Feature", "geometry": {"type": "LineString", "coordinates": [[12.190447826101462, 69.23168408672967], [12.18833129577277, 69.23102328662077]]}, "properties": {"source": "32851", "target": "78737"}}, {"type": "Feature", "geometry": {"type": "LineString", "coordinates": [[12.190447826101462, 69.23168408672967], [12.19363978895771, 69.23089788316935]]}, "properties": {"source": "32851", "target": "611637"}}, {"type": "Feature", "geometry": {"type": "LineString", "coordinates": [[12.190447826101462, 69.23168408672967], [12.189033759643735, 69.23169638277204]]}, "properties": {"source": "32851", "target": "376984"}}, {"type": "Feature", "geometry": {"type": "LineString", "coordinates": [[12.190447826101462, 69.23168408672967], [12.191627312198307, 69.23014205284016]]}, "properties": {"source": "32851", "target": "719181"}}, {"type": "Feature", "geometry": {"type": "LineString", "coordinates": [[12.190447826101462, 69.23168408672967], [12.190045478044397, 69.23119221751847]]}, "properties": {"source": "32851", "target": "1711371"}}, {"type": "Feature", "geometry": {"type": "LineString", "coordinates": [[12.190447826101462, 69.23168408672967], [12.188838472833169, 69.23062320367222]]}, "properties": {"source": "32851", "target": "1970383"}}, {"type": "Feature", "geometry": {"type": "LineString", "coordinates": [[12.186871309834572, 69.23105389071537], [12.18724915603778, 69.23148633292024]]}, "properties": {"source": "32831", "target": "78784"}}, {"type": "Feature", "geometry": {"type": "LineString", "coordinates": [[12.186871309834572, 69.23105389071537], [12.187562590249172, 69.22984437807898]]}, "properties": {"source": "32831", "target": "78785"}}, {"type": "Feature", "geometry": {"type": "LineString", "coordinates": [[12.186871309834572, 69.23105389071537], [12.191914696273955, 69.23179524323541]]}, "properties": {"source": "32831", "target": "32838"}}, {"type": "Feature", "geometry": {"type": "LineString", "coordinates": [[12.186871309834572, 69.23105389071537], [12.191030579391054, 69.23005443443645]]}, "properties": {"source": "32831", "target": "32832"}}, {"type": "Feature", "geometry": {"type": "LineString", "coordinates": [[12.186871309834572, 69.23105389071537], [12.186265000824193, 69.23088871210385]]}, "properties": {"source": "32831", "target": "32827"}}, {"type": "Feature", "geometry": {"type": "LineString", "coordinates": [[12.186871309834572, 69.23105389071537], [12.188616834545229, 69.23087247798625]]}, "properties": {"source": "32831", "target": "267071"}}, {"type": "Feature", "geometry": {"type": "LineString", "coordinates": [[12.190447826101462, 69.23168408672967], [12.18724915603778, 69.23148633292024]]}, "properties": {"source": "32851", "target": "78784"}}, {"type": "Feature", "geometry": {"type": "LineString", "coordinates": [[12.190447826101462, 69.23168408672967], [12.187681333700255, 69.23094593981318]]}, "properties": {"source": "32851", "target": "625993"}}, {"type": "Feature", "geometry": {"type": "LineString", "coordinates": [[12.190447826101462, 69.23168408672967], [12.187562590249172, 69.22984437807898]]}, "properties": {"source": "32851", "target": "78785"}}, {"type": "Feature", "geometry": {"type": "LineString", "coordinates": [[12.190447826101462, 69.23168408672967], [12.18815126413108, 69.230389700183]]}, "properties": {"source": "32851", "target": "659642"}}, {"type": "Feature", "geometry": {"type": "LineString", "coordinates": [[12.188616834545229, 69.23087247798625], [12.188838472833169, 69.23062320367222]]}, "properties": {"source": "267071", "target": "1970383"}}, {"type": "Feature", "geometry": {"type": "LineString", "coordinates": [[12.189033759643735, 69.23169638277204], [12.187562590249172, 69.22984437807898]]}, "properties": {"source": "376984", "target": "78785"}}, {"type": "Feature", "geometry": {"type": "LineString", "coordinates": [[12.189033759643735, 69.23169638277204], [12.18815126413108, 69.230389700183]]}, "properties": {"source": "376984", "target": "659642"}}, {"type": "Feature", "geometry": {"type": "LineString", "coordinates": [[12.189033759643735, 69.23169638277204], [12.188076445648278, 69.23170552977408]]}, "properties": {"source": "376984", "target": "32850"}}, {"type": "Feature", "geometry": {"type": "LineString", "coordinates": [[12.189033759643735, 69.23169638277204], [12.189847364224619, 69.2317187457017]]}, "properties": {"source": "376984", "target": "32824"}}, {"type": "Feature", "geometry": {"type": "LineString", "coordinates": [[12.189033759643735, 69.23169638277204], [12.19471143980681, 69.23213930298172]]}, "properties": {"source": "376984", "target": "337109"}}, {"type": "Feature", "geometry": {"type": "LineString", "coordinates": [[12.189033759643735, 69.23169638277204], [12.191627312198307, 69.23014205284016]]}, "properties": {"source": "376984", "target": "719181"}}, {"type": "Feature", "geometry": {"type": "LineString", "coordinates": [[12.189847364224619, 69.2317187457017], [12.187562590249172, 69.22984437807898]]}, "properties": {"source": "32824", "target": "78785"}}, {"type": "Feature", "geometry": {"type": "LineString", "coordinates": [[12.189847364224619, 69.2317187457017], [12.18815126413108, 69.230389700183]]}, "properties": {"source": "32824", "target": "659642"}}, {"type": "Feature", "geometry": {"type": "LineString", "coordinates": [[12.189847364224619, 69.2317187457017], [12.191914696273955, 69.23179524323541]]}, "properties": {"source": "32824", "target": "32838"}}, {"type": "Feature", "geometry": {"type": "LineString", "coordinates": [[12.189847364224619, 69.2317187457017], [12.194793530340917, 69.23057632655511]]}, "properties": {"source": "32824", "target": "2107163"}}, {"type": "Feature", "geometry": {"type": "LineString", "coordinates": [[12.189847364224619, 69.2317187457017], [12.19471143980681, 69.23213930298172]]}, "properties": {"source": "32824", "target": "337109"}}, {"type": "Feature", "geometry": {"type": "LineString", "coordinates": [[12.195046780811623, 69.23051211588134], [12.18815126413108, 69.230389700183]]}, "properties": {"source": "376974", "target": "659642"}}, {"type": "Feature", "geometry": {"type": "LineString", "coordinates": [[12.195046780811623, 69.23051211588134], [12.189033759643735, 69.23169638277204]]}, "properties": {"source": "376974", "target": "376984"}}, {"type": "Feature", "geometry": {"type": "LineString", "coordinates": [[12.195046780811623, 69.23051211588134], [12.192581200493464, 69.23059403645107]]}, "properties": {"source": "376974", "target": "560027"}}, {"type": "Feature", "geometry": {"type": "LineString", "coordinates": [[12.195046780811623, 69.23051211588134], [12.187632107252654, 69.23218489532607]]}, "properties": {"source": "376974", "target": "2955342"}}, {"type": "Feature", "geometry": {"type": "LineString", "coordinates": [[12.195124099462419, 69.23247145500935], [12.18724915603778, 69.23148633292024]]}, "properties": {"source": "6265685", "target": "78784"}}, {"type": "Feature", "geometry": {"type": "LineString", "coordinates": [[12.195124099462419, 69.23247145500935], [12.191914696273955, 69.23179524323541]]}, "properties": {"source": "6265685", "target": "32838"}}, {"type": "Feature", "geometry": {"type": "LineString", "coordinates": [[12.195124099462419, 69.23247145500935], [12.19007444592009, 69.23039747461468]]}, "properties": {"source": "6265685", "target": "6271800"}}, {"type": "Feature", "geometry": {"type": "LineString", "coordinates": [[12.195124099462419, 69.23247145500935], [12.193910691312311, 69.23206647321109]]}, "properties": {"source": "6265685", "target": "6061634"}}, {"type": "Feature", "geometry": {"type": "LineString", "coordinates": [[12.195124099462419, 69.23247145500935], [12.195046780811623, 69.23051211588134]]}, "properties": {"source": "6265685", "target": "376974"}}, {"type": "Feature", "geometry": {"type": "LineString", "coordinates": [[12.195124099462419, 69.23247145500935], [12.192581200493464, 69.23059403645107]]}, "properties": {"source": "6265685", "target": "560027"}}, {"type": "Feature", "geometry": {"type": "LineString", "coordinates": [[12.194477037934405, 69.23015819462546], [12.18724915603778, 69.23148633292024]]}, "properties": {"source": "78735", "target": "78784"}}, {"type": "Feature", "geometry": {"type": "LineString", "coordinates": [[12.194477037934405, 69.23015819462546], [12.187562590249172, 69.22984437807898]]}, "properties": {"source": "78735", "target": "78785"}}, {"type": "Feature", "geometry": {"type": "LineString", "coordinates": [[12.194477037934405, 69.23015819462546], [12.188604046425382, 69.23067103137643]]}, "properties": {"source": "78735", "target": "560031"}}, {"type": "Feature", "geometry": {"type": "LineString", "coordinates": [[12.194477037934405, 69.23015819462546], [12.18833129577277, 69.23102328662077]]}, "properties": {"source": "78735", "target": "78737"}}, {"type": "Feature", "geometry": {"type": "LineString", "coordinates": [[12.194477037934405, 69.23015819462546], [12.189033759643735, 69.23169638277204]]}, "properties": {"source": "78735", "target": "376984"}}, {"type": "Feature", "geometry": {"type": "LineString", "coordinates": [[12.194477037934405, 69.23015819462546], [12.19471143980681, 69.23213930298172]]}, "properties": {"source": "78735", "target": "337109"}}, {"type": "Feature", "geometry": {"type": "LineString", "coordinates": [[12.186871309834572, 69.23105389071537], [12.191517735748846, 69.2300588474298]]}, "properties": {"source": "32831", "target": "237699"}}, {"type": "Feature", "geometry": {"type": "LineString", "coordinates": [[12.186871309834572, 69.23105389071537], [12.195182397760874, 69.23261981626669]]}, "properties": {"source": "32831", "target": "32849"}}, {"type": "Feature", "geometry": {"type": "LineString", "coordinates": [[12.189455424663748, 69.2321355680883], [12.187562590249172, 69.22984437807898]]}, "properties": {"source": "1540877", "target": "78785"}}, {"type": "Feature", "geometry": {"type": "LineString", "coordinates": [[12.189455424663748, 69.2321355680883], [12.18815126413108, 69.230389700183]]}, "properties": {"source": "1540877", "target": "659642"}}, {"type": "Feature", "geometry": {"type": "LineString", "coordinates": [[12.19007444592009, 69.23039747461468], [12.193396574268832, 69.23158953849875]]}, "properties": {"source": "6271800", "target": "9926594"}}, {"type": "Feature", "geometry": {"type": "LineString", "coordinates": [[12.195182397760874, 69.23261981626669], [12.18815126413108, 69.230389700183]]}, "properties": {"source": "32849", "target": "659642"}}, {"type": "Feature", "geometry": {"type": "LineString", "coordinates": [[12.195182397760874, 69.23261981626669], [12.191914696273955, 69.23179524323541]]}, "properties": {"source": "32849", "target": "32838"}}, {"type": "Feature", "geometry": {"type": "LineString", "coordinates": [[12.195182397760874, 69.23261981626669], [12.188076445648278, 69.23170552977408]]}, "properties": {"source": "32849", "target": "32850"}}, {"type": "Feature", "geometry": {"type": "LineString", "coordinates": [[12.195182397760874, 69.23261981626669], [12.191627312198307, 69.23014205284016]]}, "properties": {"source": "32849", "target": "719181"}}, {"type": "Feature", "geometry": {"type": "LineString", "coordinates": [[12.191627312198307, 69.23014205284016], [12.187562590249172, 69.22984437807898]]}, "properties": {"source": "719181", "target": "78785"}}, {"type": "Feature", "geometry": {"type": "LineString", "coordinates": [[12.191627312198307, 69.23014205284016], [12.18815126413108, 69.230389700183]]}, "properties": {"source": "719181", "target": "659642"}}, {"type": "Feature", "geometry": {"type": "LineString", "coordinates": [[12.191627312198307, 69.23014205284016], [12.192581200493464, 69.23059403645107]]}, "properties": {"source": "719181", "target": "560027"}}, {"type": "Feature", "geometry": {"type": "LineString", "coordinates": [[12.193910691312311, 69.23206647321109], [12.187562590249172, 69.22984437807898]]}, "properties": {"source": "6061634", "target": "78785"}}, {"type": "Feature", "geometry": {"type": "LineString", "coordinates": [[12.193910691312311, 69.23206647321109], [12.18815126413108, 69.230389700183]]}, "properties": {"source": "6061634", "target": "659642"}}, {"type": "Feature", "geometry": {"type": "LineString", "coordinates": [[12.193910691312311, 69.23206647321109], [12.191914696273955, 69.23179524323541]]}, "properties": {"source": "6061634", "target": "32838"}}, {"type": "Feature", "geometry": {"type": "LineString", "coordinates": [[12.193910691312311, 69.23206647321109], [12.194793530340917, 69.23057632655511]]}, "properties": {"source": "6061634", "target": "2107163"}}, {"type": "Feature", "geometry": {"type": "LineString", "coordinates": [[12.189847364224619, 69.2317187457017], [12.187632107252654, 69.23218489532607]]}, "properties": {"source": "32824", "target": "2955342"}}, {"type": "Feature", "geometry": {"type": "LineString", "coordinates": [[12.19471143980681, 69.23213930298172], [12.187562590249172, 69.22984437807898]]}, "properties": {"source": "337109", "target": "78785"}}, {"type": "Feature", "geometry": {"type": "LineString", "coordinates": [[12.19471143980681, 69.23213930298172], [12.18815126413108, 69.230389700183]]}, "properties": {"source": "337109", "target": "659642"}}, {"type": "Feature", "geometry": {"type": "LineString", "coordinates": [[12.19471143980681, 69.23213930298172], [12.188076445648278, 69.23170552977408]]}, "properties": {"source": "337109", "target": "32850"}}, {"type": "Feature", "geometry": {"type": "LineString", "coordinates": [[12.189455424663748, 69.2321355680883], [12.191914696273955, 69.23179524323541]]}, "properties": {"source": "1540877", "target": "32838"}}, {"type": "Feature", "geometry": {"type": "LineString", "coordinates": [[12.189455424663748, 69.2321355680883], [12.194793530340917, 69.23057632655511]]}, "properties": {"source": "1540877", "target": "2107163"}}, {"type": "Feature", "geometry": {"type": "LineString", "coordinates": [[12.189455424663748, 69.2321355680883], [12.18849664306839, 69.23262345151849]]}, "properties": {"source": "1540877", "target": "158247"}}, {"type": "Feature", "geometry": {"type": "LineString", "coordinates": [[12.189210185619231, 69.23179669650193], [12.18815126413108, 69.230389700183]]}, "properties": {"source": "1477299", "target": "659642"}}, {"type": "Feature", "geometry": {"type": "LineString", "coordinates": [[12.189210185619231, 69.23179669650193], [12.18833129577277, 69.23102328662077]]}, "properties": {"source": "1477299", "target": "78737"}}, {"type": "Feature", "geometry": {"type": "LineString", "coordinates": [[12.189210185619231, 69.23179669650193], [12.188076445648278, 69.23170552977408]]}, "properties": {"source": "1477299", "target": "32850"}}, {"type": "Feature", "geometry": {"type": "LineString", "coordinates": [[12.189210185619231, 69.23179669650193], [12.194793530340917, 69.23057632655511]]}, "properties": {"source": "1477299", "target": "2107163"}}, {"type": "Feature", "geometry": {"type": "LineString", "coordinates": [[12.189210185619231, 69.23179669650193], [12.19471143980681, 69.23213930298172]]}, "properties": {"source": "1477299", "target": "337109"}}, {"type": "Feature", "geometry": {"type": "LineString", "coordinates": [[12.189210185619231, 69.23179669650193], [12.18849664306839, 69.23262345151849]]}, "properties": {"source": "1477299", "target": "158247"}}, {"type": "Feature", "geometry": {"type": "LineString", "coordinates": [[12.189210185619231, 69.23179669650193], [12.189455424663748, 69.2321355680883]]}, "properties": {"source": "1477299", "target": "1540877"}}, {"type": "Feature", "geometry": {"type": "LineString", "coordinates": [[12.189210185619231, 69.23179669650193], [12.194921599992682, 69.22979084282522]]}, "properties": {"source": "1477299", "target": "32835"}}, {"type": "Feature", "geometry": {"type": "LineString", "coordinates": [[12.189210185619231, 69.23179669650193], [12.18770626316416, 69.2305045959574]]}, "properties": {"source": "1477299", "target": "32825"}}, {"type": "Feature", "geometry": {"type": "LineString", "coordinates": [[12.18724915603778, 69.23148633292024], [12.189455424663748, 69.2321355680883]]}, "properties": {"source": "78784", "target": "1540877"}}, {"type": "Feature", "geometry": {"type": "LineString", "coordinates": [[12.18724915603778, 69.23148633292024], [12.192581200493464, 69.23059403645107]]}, "properties": {"source": "78784", "target": "560027"}}, {"type": "Feature", "geometry": {"type": "LineString", "coordinates": [[12.18724915603778, 69.23148633292024], [12.190045478044397, 69.23119221751847]]}, "properties": {"source": "78784", "target": "1711371"}}, {"type": "Feature", "geometry": {"type": "LineString", "coordinates": [[12.18724915603778, 69.23148633292024], [12.188838472833169, 69.23062320367222]]}, "properties": {"source": "78784", "target": "1970383"}}, {"type": "Feature", "geometry": {"type": "LineString", "coordinates": [[12.191667127796393, 69.23027336525499], [12.191030579391054, 69.23005443443645]]}, "properties": {"source": "376957", "target": "32832"}}, {"type": "Feature", "geometry": {"type": "LineString", "coordinates": [[12.191667127796393, 69.23027336525499], [12.188604046425382, 69.23067103137643]]}, "properties": {"source": "376957", "target": "560031"}}, {"type": "Feature", "geometry": {"type": "LineString", "coordinates": [[12.191667127796393, 69.23027336525499], [12.188076445648278, 69.23170552977408]]}, "properties": {"source": "376957", "target": "32850"}}, {"type": "Feature", "geometry": {"type": "LineString", "coordinates": [[12.191667127796393, 69.23027336525499], [12.194793530340917, 69.23057632655511]]}, "properties": {"source": "376957", "target": "2107163"}}, {"type": "Feature", "geometry": {"type": "LineString", "coordinates": [[12.191667127796393, 69.23027336525499], [12.188616834545229, 69.23087247798625]]}, "properties": {"source": "376957", "target": "267071"}}, {"type": "Feature", "geometry": {"type": "LineString", "coordinates": [[12.191667127796393, 69.23027336525499], [12.189033759643735, 69.23169638277204]]}, "properties": {"source": "376957", "target": "376984"}}, {"type": "Feature", "geometry": {"type": "LineString", "coordinates": [[12.191667127796393, 69.23027336525499], [12.189847364224619, 69.2317187457017]]}, "properties": {"source": "376957", "target": "32824"}}, {"type": "Feature", "geometry": {"type": "LineString", "coordinates": [[12.191667127796393, 69.23027336525499], [12.19471143980681, 69.23213930298172]]}, "properties": {"source": "376957", "target": "337109"}}, {"type": "Feature", "geometry": {"type": "LineString", "coordinates": [[12.191667127796393, 69.23027336525499], [12.191627312198307, 69.23014205284016]]}, "properties": {"source": "376957", "target": "719181"}}, {"type": "Feature", "geometry": {"type": "LineString", "coordinates": [[12.191667127796393, 69.23027336525499], [12.193910691312311, 69.23206647321109]]}, "properties": {"source": "376957", "target": "6061634"}}, {"type": "Feature", "geometry": {"type": "LineString", "coordinates": [[12.191667127796393, 69.23027336525499], [12.190447826101462, 69.23168408672967]]}, "properties": {"source": "376957", "target": "32851"}}, {"type": "Feature", "geometry": {"type": "LineString", "coordinates": [[12.191667127796393, 69.23027336525499], [12.189455424663748, 69.2321355680883]]}, "properties": {"source": "376957", "target": "1540877"}}, {"type": "Feature", "geometry": {"type": "LineString", "coordinates": [[12.18833129577277, 69.23102328662077], [12.187562590249172, 69.22984437807898]]}, "properties": {"source": "78737", "target": "78785"}}, {"type": "Feature", "geometry": {"type": "LineString", "coordinates": [[12.18833129577277, 69.23102328662077], [12.18815126413108, 69.230389700183]]}, "properties": {"source": "78737", "target": "659642"}}, {"type": "Feature", "geometry": {"type": "LineString", "coordinates": [[12.18833129577277, 69.23102328662077], [12.188076445648278, 69.23170552977408]]}, "properties": {"source": "78737", "target": "32850"}}, {"type": "Feature", "geometry": {"type": "LineString", "coordinates": [[12.18833129577277, 69.23102328662077], [12.189033759643735, 69.23169638277204]]}, "properties": {"source": "78737", "target": "376984"}}, {"type": "Feature", "geometry": {"type": "LineString", "coordinates": [[12.18724915603778, 69.23148633292024], [12.187453253121305, 69.2316344855056]]}, "properties": {"source": "78784", "target": "6545669"}}, {"type": "Feature", "geometry": {"type": "LineString", "coordinates": [[12.18724915603778, 69.23148633292024], [12.193396574268832, 69.23158953849875]]}, "properties": {"source": "78784", "target": "9926594"}}, {"type": "Feature", "geometry": {"type": "LineString", "coordinates": [[12.187681333700255, 69.23094593981318], [12.18724915603778, 69.23148633292024]]}, "properties": {"source": "625993", "target": "78784"}}, {"type": "Feature", "geometry": {"type": "LineString", "coordinates": [[12.187681333700255, 69.23094593981318], [12.187562590249172, 69.22984437807898]]}, "properties": {"source": "625993", "target": "78785"}}, {"type": "Feature", "geometry": {"type": "LineString", "coordinates": [[12.187681333700255, 69.23094593981318], [12.18815126413108, 69.230389700183]]}, "properties": {"source": "625993", "target": "659642"}}, {"type": "Feature", "geometry": {"type": "LineString", "coordinates": [[12.187681333700255, 69.23094593981318], [12.191914696273955, 69.23179524323541]]}, "properties": {"source": "625993", "target": "32838"}}, {"type": "Feature", "geometry": {"type": "LineString", "coordinates": [[12.187681333700255, 69.23094593981318], [12.191030579391054, 69.23005443443645]]}, "properties": {"source": "625993", "target": "32832"}}, {"type": "Feature", "geometry": {"type": "LineString", "coordinates": [[12.187681333700255, 69.23094593981318], [12.188604046425382, 69.23067103137643]]}, "properties": {"source": "625993", "target": "560031"}}, {"type": "Feature", "geometry": {"type": "LineString", "coordinates": [[12.187681333700255, 69.23094593981318], [12.19363978895771, 69.23089788316935]]}, "properties": {"source": "625993", "target": "611637"}}, {"type": "Feature", "geometry": {"type": "LineString", "coordinates": [[12.187681333700255, 69.23094593981318], [12.188076445648278, 69.23170552977408]]}, "properties": {"source": "625993", "target": "32850"}}, {"type": "Feature", "geometry": {"type": "LineString", "coordinates": [[12.187681333700255, 69.23094593981318], [12.194793530340917, 69.23057632655511]]}, "properties": {"source": "625993", "target": "2107163"}}, {"type": "Feature", "geometry": {"type": "LineString", "coordinates": [[12.187681333700255, 69.23094593981318], [12.188616834545229, 69.23087247798625]]}, "properties": {"source": "625993", "target": "267071"}}, {"type": "Feature", "geometry": {"type": "LineString", "coordinates": [[12.194477037934405, 69.23015819462546], [12.191627312198307, 69.23014205284016]]}, "properties": {"source": "78735", "target": "719181"}}, {"type": "Feature", "geometry": {"type": "LineString", "coordinates": [[12.194477037934405, 69.23015819462546], [12.189210185619231, 69.23179669650193]]}, "properties": {"source": "78735", "target": "1477299"}}, {"type": "Feature", "geometry": {"type": "LineString", "coordinates": [[12.192581200493464, 69.23059403645107], [12.18815126413108, 69.230389700183]]}, "properties": {"source": "560027", "target": "659642"}}, {"type": "Feature", "geometry": {"type": "LineString", "coordinates": [[12.194921599992682, 69.22979084282522], [12.194793530340917, 69.23057632655511]]}, "properties": {"source": "32835", "target": "2107163"}}, {"type": "Feature", "geometry": {"type": "LineString", "coordinates": [[12.18724915603778, 69.23148633292024], [12.187562590249172, 69.22984437807898]]}, "properties": {"source": "78784", "target": "78785"}}, {"type": "Feature", "geometry": {"type": "LineString", "coordinates": [[12.18724915603778, 69.23148633292024], [12.191914696273955, 69.23179524323541]]}, "properties": {"source": "78784", "target": "32838"}}, {"type": "Feature", "geometry": {"type": "LineString", "coordinates": [[12.18724915603778, 69.23148633292024], [12.188604046425382, 69.23067103137643]]}, "properties": {"source": "78784", "target": "560031"}}, {"type": "Feature", "geometry": {"type": "LineString", "coordinates": [[12.18724915603778, 69.23148633292024], [12.19363978895771, 69.23089788316935]]}, "properties": {"source": "78784", "target": "611637"}}, {"type": "Feature", "geometry": {"type": "LineString", "coordinates": [[12.18724915603778, 69.23148633292024], [12.194793530340917, 69.23057632655511]]}, "properties": {"source": "78784", "target": "2107163"}}, {"type": "Feature", "geometry": {"type": "LineString", "coordinates": [[12.18724915603778, 69.23148633292024], [12.189847364224619, 69.2317187457017]]}, "properties": {"source": "78784", "target": "32824"}}, {"type": "Feature", "geometry": {"type": "LineString", "coordinates": [[12.18724915603778, 69.23148633292024], [12.19471143980681, 69.23213930298172]]}, "properties": {"source": "78784", "target": "337109"}}, {"type": "Feature", "geometry": {"type": "LineString", "coordinates": [[12.18724915603778, 69.23148633292024], [12.18849664306839, 69.23262345151849]]}, "properties": {"source": "78784", "target": "158247"}}, {"type": "Feature", "geometry": {"type": "LineString", "coordinates": [[12.18724915603778, 69.23148633292024], [12.19007444592009, 69.23039747461468]]}, "properties": {"source": "78784", "target": "6271800"}}, {"type": "Feature", "geometry": {"type": "LineString", "coordinates": [[12.18724915603778, 69.23148633292024], [12.195182397760874, 69.23261981626669]]}, "properties": {"source": "78784", "target": "32849"}}, {"type": "Feature", "geometry": {"type": "LineString", "coordinates": [[12.18724915603778, 69.23148633292024], [12.191627312198307, 69.23014205284016]]}, "properties": {"source": "78784", "target": "719181"}}, {"type": "Feature", "geometry": {"type": "LineString", "coordinates": [[12.18724915603778, 69.23148633292024], [12.193910691312311, 69.23206647321109]]}, "properties": {"source": "78784", "target": "6061634"}}]}