{"type": "FeatureCollection", "features": [{"type": "Feature", "geometry": {"type": "LineString", "coordinates": [[136.36400882941808, 68.22499331104737], [136.35780177232397, 68.22238258045917]]}, "properties": {"source": "25244935", "target": "2362925"}}, {"type": "Feature", "geometry": {"type": "LineString", "coordinates": [[136.3467687255112, 68.22362842828261], [136.34484395893764, 68.22641117112619]]}, "properties": {"source": "13217625", "target": "19428250"}}, {"type": "Feature", "geometry": {"type": "LineString", "coordinates": [[136.3467687255112, 68.22362842828261], [136.36798058170035, 68.23085935943863]]}, "properties": {"source": "13217625", "target": "13529449"}}, {"type": "Feature", "geometry": {"type": "LineString", "coordinates": [[136.3467687255112, 68.22362842828261], [136.35896031180664, 68.22715776848227]]}, "properties": {"source": "13217625", "target": "12032871"}}, {"type": "Feature", "geometry": {"type": "LineString", "coordinates": [[136.36301348089034, 68.22785478375772], [136.3517532888722, 68.22670435167134]]}, "properties": {"source": "13838471", "target": "12451190"}}, {"type": "Feature", "geometry": {"type": "LineString", "coordinates": [[136.36301348089034, 68.22785478375772], [136.3507744298659, 68.2263293539684]]}, "properties": {"source": "13838471", "target": "14417848"}}, {"type": "Feature", "geometry": {"type": "LineString", "coordinates": [[136.34423904791845, 68.22755709974453], [136.36637627116193, 68.23112264218676]]}, "properties": {"source": "10471110", "target": "34741403"}}, {"type": "Feature", "geometry": {"type": "LineString", "coordinates": [[136.35117510412033, 68.22530126385976], [136.3433089046145, 68.2310239820251]]}, "properties": {"source": "2764367", "target": "13147900"}}, {"type": "Feature", "geometry": {"type": "LineString", "coordinates": [[136.3485493153974, 68.2227395245574], [136.35335926732387, 68.23085273204455]]}, "properties": {"source": "34520144", "target": "30137628"}}, {"type": "Feature", "geometry": {"type": "LineString", "coordinates": [[136.3485493153974, 68.2227395245574], [136.35770793948035, 68.23099109248349]]}, "properties": {"source": "34520144", "target": "25247924"}}, {"type": "Feature", "geometry": {"type": "LineString", "coordinates": [[136.3485493153974, 68.2227395245574], [136.35595444287753, 68.22826676119317]]}, "properties": {"source": "34520144", "target": "35228021"}}, {"type": "Feature", "geometry": {"type": "LineString", "coordinates": [[136.3485493153974, 68.2227395245574], [136.35074731429927, 68.2309837550415]]}, "properties": {"source": "34520144", "target": "35216892"}}, {"type": "Feature", "geometry": {"type": "LineString", "coordinates": [[136.3485493153974, 68.2227395245574], [136.35841424889622, 68.22823823931452]]}, "properties": {"source": "34520144", "target": "1706623"}}, {"type": "Feature", "geometry": {"type": "LineString", "coordinates": [[136.3485493153974, 68.2227395245574], [136.36580373066613, 68.229462110886]]}, "properties": {"source": "34520144", "target": "2833659"}}, {"type": "Feature", "geometry": {"type": "LineString", "coordinates": [[136.34270728154547, 68.22561023067504], [136.3664406613904, 68.22470496164038]]}, "properties": {"source": "29538891", "target": "30184677"}}, {"type": "Feature", "geometry": {"type": "LineString", "coordinates": [[136.35453258948365, 68.22701275513975], [136.35693186035604, 68.22521026375765]]}, "properties": {"source": "102995", "target": "439161"}}, {"type": "Feature", "geometry": {"type": "LineString", "coordinates": [[136.3614476771926, 68.22767321061474], [136.36028335247482, 68.22945319605307]]}, "properties": {"source": "17081977", "target": "17802390"}}, {"type": "Feature", "geometry": {"type": "LineString", "coordinates": [[136.3614476771926, 68.22767321061474], [136.35863046929268, 68.22393637029325]]}, "properties": {"source": "17081977", "target": "17120677"}}, {"type": "Feature", "geometry": {"type": "LineString", "coordinates": [[136.3614476771926, 68.22767321061474], [136.36182080084347, 68.22434494813271]]}, "properties": {"source": "17081977", "target": "18741148"}}, {"type": "Feature", "geometry": {"type": "LineString", "coordinates": [[136.35088347357765, 68.22595711558813], [136.35440220205402, 68.22590681961657]]}, "properties": {"source": "28129816", "target": "32943804"}}, {"type": "Feature", "geometry": {"type": "LineString", "coordinates": [[136.35088347357765, 68.22595711558813], [136.34453658414458, 68.22934091893956]]}, "properties": {"source": "28129816", "target": "6602246"}}, {"type": "Feature", "geometry": {"type": "LineString", "coordinates": [[136.3694303585391, 68.23025194893967], [136.35478670124832, 68.22969508562946]]}, "properties": {"source": "12338677", "target": "13598684"}}, {"type": "Feature", "geometry": {"type": "LineString", "coordinates": [[136.3549370487039, 68.22501767181663], [136.35693186035604, 68.22521026375765]]}, "properties": {"source": "21465744", "target": "439161"}}, {"type": "Feature", "geometry": {"type": "LineString", "coordinates": [[136.34644290877628, 68.22270348683324], [136.36246859982248, 68.23032529825835]]}, "properties": {"source": "27153434", "target": "23122512"}}, {"type": "Feature", "geometry": {"type": "LineString", "coordinates": [[136.34644290877628, 68.22270348683324], [136.36059615047628, 68.22854257081357]]}, "properties": {"source": "27153434", "target": "28438850"}}, {"type": "Feature", "geometry": {"type": "LineString", "coordinates": [[136.34644290877628, 68.22270348683324], [136.3694303585391, 68.23025194893967]]}, "properties": {"source": "27153434", "target": "12338677"}}, {"type": "Feature", "geometry": {"type": "LineString", "coordinates": [[136.34644290877628, 68.22270348683324], [136.34320978763083, 68.22684943986215]]}, "properties": {"source": "27153434", "target": "12970237"}}, {"type": "Feature", "geometry": {"type": "LineString", "coordinates": [[136.35335926732387, 68.23085273204455], [136.34226841383696, 68.2243592044774]]}, "properties": {"source": "30137628", "target": "33118710"}}, {"type": "Feature", "geometry": {"type": "LineString", "coordinates": [[136.36895778241802, 68.22344446495555], [136.34644290877628, 68.22270348683324]]}, "properties": {"source": "28691570", "target": "27153434"}}, {"type": "Feature", "geometry": {"type": "LineString", "coordinates": [[136.36895778241802, 68.22344446495555], [136.35335926732387, 68.23085273204455]]}, "properties": {"source": "28691570", "target": "30137628"}}, {"type": "Feature", "geometry": {"type": "LineString", "coordinates": [[136.36059615047628, 68.22854257081357], [136.35335926732387, 68.23085273204455]]}, "properties": {"source": "28438850", "target": "30137628"}}, {"type": "Feature", "geometry": {"type": "LineString", "coordinates": [[136.34530278925894, 68.22368162464898], [136.3492557076333, 68.22817751311032]]}, "properties": {"source": "23129723", "target": "24488108"}}, {"type": "Feature", "geometry": {"type": "LineString", "coordinates": [[136.34530278925894, 68.22368162464898], [136.34484395893764, 68.22641117112619]]}, "properties": {"source": "23129723", "target": "19428250"}}, {"type": "Feature", "geometry": {"type": "LineString", "coordinates": [[136.34530278925894, 68.22368162464898], [136.36843484405108, 68.23086887244429]]}, "properties": {"source": "23129723", "target": "27250427"}}, {"type": "Feature", "geometry": {"type": "LineString", "coordinates": [[136.34530278925894, 68.22368162464898], [136.3467687255112, 68.22362842828261]]}, "properties": {"source": "23129723", "target": "13217625"}}, {"type": "Feature", "geometry": {"type": "LineString", "coordinates": [[136.34530278925894, 68.22368162464898], [136.36798058170035, 68.23085935943863]]}, "properties": {"source": "23129723", "target": "13529449"}}, {"type": "Feature", "geometry": {"type": "LineString", "coordinates": [[136.34530278925894, 68.22368162464898], [136.35738897428382, 68.22882464116722]]}, "properties": {"source": "23129723", "target": "26192899"}}, {"type": "Feature", "geometry": {"type": "LineString", "coordinates": [[136.36525012943133, 68.22244743232736], [136.35088347357765, 68.22595711558813]]}, "properties": {"source": "17731992", "target": "28129816"}}, {"type": "Feature", "geometry": {"type": "LineString", "coordinates": [[136.36525012943133, 68.22244743232736], [136.34231303764489, 68.22307316312964]]}, "properties": {"source": "17731992", "target": "16140197"}}, {"type": "Feature", "geometry": {"type": "LineString", "coordinates": [[136.3501440408836, 68.22684695433531], [136.34644290877628, 68.22270348683324]]}, "properties": {"source": "22182117", "target": "27153434"}}, {"type": "Feature", "geometry": {"type": "LineString", "coordinates": [[136.3501440408836, 68.22684695433531], [136.3429557936122, 68.2247292662687]]}, "properties": {"source": "22182117", "target": "22070242"}}, {"type": "Feature", "geometry": {"type": "LineString", "coordinates": [[136.36532368211567, 68.22852638848659], [136.3429557936122, 68.2247292662687]]}, "properties": {"source": "18455741", "target": "22070242"}}, {"type": "Feature", "geometry": {"type": "LineString", "coordinates": [[136.36532368211567, 68.22852638848659], [136.3517532888722, 68.22670435167134]]}, "properties": {"source": "18455741", "target": "12451190"}}, {"type": "Feature", "geometry": {"type": "LineString", "coordinates": [[136.36532368211567, 68.22852638848659], [136.3424664926336, 68.22684441412201]]}, "properties": {"source": "18455741", "target": "29982103"}}, {"type": "Feature", "geometry": {"type": "LineString", "coordinates": [[136.36532368211567, 68.22852638848659], [136.34819519389794, 68.22374042977975]]}, "properties": {"source": "18455741", "target": "1657891"}}, {"type": "Feature", "geometry": {"type": "LineString", "coordinates": [[136.36532368211567, 68.22852638848659], [136.36301348089034, 68.22785478375772]]}, "properties": {"source": "18455741", "target": "13838471"}}, {"type": "Feature", "geometry": {"type": "LineString", "coordinates": [[136.34885643484415, 68.22629188178522], [136.3429557936122, 68.2247292662687]]}, "properties": {"source": "28879", "target": "22070242"}}, {"type": "Feature", "geometry": {"type": "LineString", "coordinates": [[136.34885643484415, 68.22629188178522], [136.36039101992327, 68.22664872317569]]}, "properties": {"source": "28879", "target": "27108779"}}, {"type": "Feature", "geometry": {"type": "LineString", "coordinates": [[136.34885643484415, 68.22629188178522], [136.34320978763083, 68.22684943986215]]}, "properties": {"source": "28879", "target": "12970237"}}, {"type": "Feature", "geometry": {"type": "LineString", "coordinates": [[136.35796388475757, 68.22632245862386], [136.35478670124832, 68.22969508562946]]}, "properties": {"source": "10565980", "target": "13598684"}}, {"type": "Feature", "geometry": {"type": "LineString", "coordinates": [[136.35796388475757, 68.22632245862386], [136.3694303585391, 68.23025194893967]]}, "properties": {"source": "10565980", "target": "12338677"}}, {"type": "Feature", "geometry": {"type": "LineString", "coordinates": [[136.36580373066613, 68.229462110886], [136.35335926732387, 68.23085273204455]]}, "properties": {"source": "2833659", "target": "30137628"}}, {"type": "Feature", "geometry": {"type": "LineString", "coordinates": [[136.36580373066613, 68.229462110886], [136.35595444287753, 68.22826676119317]]}, "properties": {"source": "2833659", "target": "35228021"}}, {"type": "Feature", "geometry": {"type": "LineString", "coordinates": [[136.36580373066613, 68.229462110886], [136.35074731429927, 68.2309837550415]]}, "properties": {"source": "2833659", "target": "35216892"}}, {"type": "Feature", "geometry": {"type": "LineString", "coordinates": [[136.36039101992327, 68.22664872317569], [136.34644290877628, 68.22270348683324]]}, "properties": {"source": "27108779", "target": "27153434"}}, {"type": "Feature", "geometry": {"type": "LineString", "coordinates": [[136.36389740487755, 68.22936781505942], [136.35485107851446, 68.22428993536869]]}, "properties": {"source": "1217490", "target": "8046442"}}, {"type": "Feature", "geometry": {"type": "LineString", "coordinates": [[136.34311192518692, 68.22800995515112], [136.35074731429927, 68.2309837550415]]}, "properties": {"source": "7070495", "target": "35216892"}}, {"type": "Feature", "geometry": {"type": "LineString", "coordinates": [[136.35780177232397, 68.22238258045917], [136.3617615442654, 68.22704258751239]]}, "properties": {"source": "2362925", "target": "25247896"}}, {"type": "Feature", "geometry": {"type": "LineString", "coordinates": [[136.34453658414458, 68.22934091893956], [136.36429843999628, 68.22655196450751]]}, "properties": {"source": "6602246", "target": "6306718"}}, {"type": "Feature", "geometry": {"type": "LineString", "coordinates": [[136.34971148475614, 68.22707629016688], [136.36525012943133, 68.22244743232736]]}, "properties": {"source": "13422465", "target": "17731992"}}, {"type": "Feature", "geometry": {"type": "LineString", "coordinates": [[136.34971148475614, 68.22707629016688], [136.35088347357765, 68.22595711558813]]}, "properties": {"source": "13422465", "target": "28129816"}}, {"type": "Feature", "geometry": {"type": "LineString", "coordinates": [[136.34971148475614, 68.22707629016688], [136.34453658414458, 68.22934091893956]]}, "properties": {"source": "13422465", "target": "6602246"}}, {"type": "Feature", "geometry": {"type": "LineString", "coordinates": [[136.3554743690779, 68.22329874755258], [136.3694303585391, 68.23025194893967]]}, "properties": {"source": "31180994", "target": "12338677"}}, {"type": "Feature", "geometry": {"type": "LineString", "coordinates": [[136.3554743690779, 68.22329874755258], [136.36840549546338, 68.22572798065761]]}, "properties": {"source": "31180994", "target": "31187079"}}, {"type": "Feature", "geometry": {"type": "LineString", "coordinates": [[136.3554743690779, 68.22329874755258], [136.3664406613904, 68.22470496164038]]}, "properties": {"source": "31180994", "target": "30184677"}}, {"type": "Feature", "geometry": {"type": "LineString", "coordinates": [[136.3554743690779, 68.22329874755258], [136.36862964769495, 68.23059795092075]]}, "properties": {"source": "31180994", "target": "23568891"}}, {"type": "Feature", "geometry": {"type": "LineString", "coordinates": [[136.34644290877628, 68.22270348683324], [136.35335926732387, 68.23085273204455]]}, "properties": {"source": "27153434", "target": "30137628"}}, {"type": "Feature", "geometry": {"type": "LineString", "coordinates": [[136.34644290877628, 68.22270348683324], [136.34472542535553, 68.22309217056247]]}, "properties": {"source": "27153434", "target": "30311096"}}, {"type": "Feature", "geometry": {"type": "LineString", "coordinates": [[136.34644290877628, 68.22270348683324], [136.35478670124832, 68.22969508562946]]}, "properties": {"source": "27153434", "target": "13598684"}}, {"type": "Feature", "geometry": {"type": "LineString", "coordinates": [[136.34644290877628, 68.22270348683324], [136.3492557076333, 68.22817751311032]]}, "properties": {"source": "27153434", "target": "24488108"}}, {"type": "Feature", "geometry": {"type": "LineString", "coordinates": [[136.34644290877628, 68.22270348683324], [136.35068007210413, 68.22875465818927]]}, "properties": {"source": "27153434", "target": "29537763"}}, {"type": "Feature", "geometry": {"type": "LineString", "coordinates": [[136.36525012943133, 68.22244743232736], [136.3669498191215, 68.23035629270927]]}, "properties": {"source": "17731992", "target": "20457346"}}, {"type": "Feature", "geometry": {"type": "LineString", "coordinates": [[136.36525012943133, 68.22244743232736], [136.36028290420887, 68.22686058042257]]}, "properties": {"source": "17731992", "target": "21488719"}}, {"type": "Feature", "geometry": {"type": "LineString", "coordinates": [[136.35895570614468, 68.22559014734409], [136.3492557076333, 68.22817751311032]]}, "properties": {"source": "22735991", "target": "24488108"}}, {"type": "Feature", "geometry": {"type": "LineString", "coordinates": [[136.35895570614468, 68.22559014734409], [136.36246859982248, 68.23032529825835]]}, "properties": {"source": "22735991", "target": "23122512"}}, {"type": "Feature", "geometry": {"type": "LineString", "coordinates": [[136.35895570614468, 68.22559014734409], [136.34484395893764, 68.22641117112619]]}, "properties": {"source": "22735991", "target": "19428250"}}, {"type": "Feature", "geometry": {"type": "LineString", "coordinates": [[136.35895570614468, 68.22559014734409], [136.34966254536636, 68.2285503749367]]}, "properties": {"source": "22735991", "target": "22736003"}}, {"type": "Feature", "geometry": {"type": "LineString", "coordinates": [[136.34270728154547, 68.22561023067504], [136.36840549546338, 68.22572798065761]]}, "properties": {"source": "29538891", "target": "31187079"}}, {"type": "Feature", "geometry": {"type": "LineString", "coordinates": [[136.3554743690779, 68.22329874755258], [136.35335926732387, 68.23085273204455]]}, "properties": {"source": "31180994", "target": "30137628"}}, {"type": "Feature", "geometry": {"type": "LineString", "coordinates": [[136.3554743690779, 68.22329874755258], [136.36895778241802, 68.22344446495555]]}, "properties": {"source": "31180994", "target": "28691570"}}, {"type": "Feature", "geometry": {"type": "LineString", "coordinates": [[136.3554743690779, 68.22329874755258], [136.35374062208285, 68.22263512264831]]}, "properties": {"source": "31180994", "target": "35708881"}}, {"type": "Feature", "geometry": {"type": "LineString", "coordinates": [[136.3554743690779, 68.22329874755258], [136.34472542535553, 68.22309217056247]]}, "properties": {"source": "31180994", "target": "30311096"}}, {"type": "Feature", "geometry": {"type": "LineString", "coordinates": [[136.3554743690779, 68.22329874755258], [136.34347150852204, 68.22336833646338]]}, "properties": {"source": "31180994", "target": "33118713"}}, {"type": "Feature", "geometry": {"type": "LineString", "coordinates": [[136.3554743690779, 68.22329874755258], [136.34226841383696, 68.2243592044774]]}, "properties": {"source": "31180994", "target": "33118710"}}, {"type": "Feature", "geometry": {"type": "LineString", "coordinates": [[136.3554743690779, 68.22329874755258], [136.3653471714582, 68.22443313014688]]}, "properties": {"source": "31180994", "target": "13321847"}}, {"type": "Feature", "geometry": {"type": "LineString", "coordinates": [[136.3554743690779, 68.22329874755258], [136.35478670124832, 68.22969508562946]]}, "properties": {"source": "31180994", "target": "13598684"}}, {"type": "Feature", "geometry": {"type": "LineString", "coordinates": [[136.3554743690779, 68.22329874755258], [136.35068007210413, 68.22875465818927]]}, "properties": {"source": "31180994", "target": "29537763"}}, {"type": "Feature", "geometry": {"type": "LineString", "coordinates": [[136.36309640096698, 68.23037000400558], [136.34599843790687, 68.23144437509157]]}, "properties": {"source": "20428262", "target": "6725552"}}, {"type": "Feature", "geometry": {"type": "LineString", "coordinates": [[136.36309640096698, 68.23037000400558], [136.36766958108421, 68.23073618970761]]}, "properties": {"source": "20428262", "target": "2599558"}}, {"type": "Feature", "geometry": {"type": "LineString", "coordinates": [[136.36309640096698, 68.23037000400558], [136.35594987435138, 68.22950413263257]]}, "properties": {"source": "20428262", "target": "1718630"}}, {"type": "Feature", "geometry": {"type": "LineString", "coordinates": [[136.35605321800836, 68.2293477917716], [136.34231303764489, 68.22307316312964]]}, "properties": {"source": "15827624", "target": "16140197"}}, {"type": "Feature", "geometry": {"type": "LineString", "coordinates": [[136.35605321800836, 68.2293477917716], [136.36535383326157, 68.23147366719749]]}, "properties": {"source": "15827624", "target": "14670929"}}, {"type": "Feature", "geometry": {"type": "LineString", "coordinates": [[136.3561059771896, 68.2254205716037], [136.34644290877628, 68.22270348683324]]}, "properties": {"source": "29907861", "target": "27153434"}}, {"type": "Feature", "geometry": {"type": "LineString", "coordinates": [[136.3561059771896, 68.2254205716037], [136.35335926732387, 68.23085273204455]]}, "properties": {"source": "29907861", "target": "30137628"}}, {"type": "Feature", "geometry": {"type": "LineString", "coordinates": [[136.3561059771896, 68.2254205716037], [136.34472542535553, 68.22309217056247]]}, "properties": {"source": "29907861", "target": "30311096"}}, {"type": "Feature", "geometry": {"type": "LineString", "coordinates": [[136.35084341228065, 68.22529411100908], [136.34644290877628, 68.22270348683324]]}, "properties": {"source": "1988604", "target": "27153434"}}, {"type": "Feature", "geometry": {"type": "LineString", "coordinates": [[136.35084341228065, 68.22529411100908], [136.3614476771926, 68.22767321061474]]}, "properties": {"source": "1988604", "target": "17081977"}}, {"type": "Feature", "geometry": {"type": "LineString", "coordinates": [[136.35084341228065, 68.22529411100908], [136.36028335247482, 68.22945319605307]]}, "properties": {"source": "1988604", "target": "17802390"}}, {"type": "Feature", "geometry": {"type": "LineString", "coordinates": [[136.35084341228065, 68.22529411100908], [136.36898436201568, 68.22774839040548]]}, "properties": {"source": "1988604", "target": "17999147"}}, {"type": "Feature", "geometry": {"type": "LineString", "coordinates": [[136.35084341228065, 68.22529411100908], [136.35863046929268, 68.22393637029325]]}, "properties": {"source": "1988604", "target": "17120677"}}, {"type": "Feature", "geometry": {"type": "LineString", "coordinates": [[136.35084341228065, 68.22529411100908], [136.36182080084347, 68.22434494813271]]}, "properties": {"source": "1988604", "target": "18741148"}}, {"type": "Feature", "geometry": {"type": "LineString", "coordinates": [[136.36246859982248, 68.23032529825835], [136.34966254536636, 68.2285503749367]]}, "properties": {"source": "23122512", "target": "22736003"}}, {"type": "Feature", "geometry": {"type": "LineString", "coordinates": [[136.34484395893764, 68.22641117112619], [136.34966254536636, 68.2285503749367]]}, "properties": {"source": "19428250", "target": "22736003"}}, {"type": "Feature", "geometry": {"type": "LineString", "coordinates": [[136.3429557936122, 68.2247292662687], [136.36039101992327, 68.22664872317569]]}, "properties": {"source": "22070242", "target": "27108779"}}, {"type": "Feature", "geometry": {"type": "LineString", "coordinates": [[136.3429557936122, 68.2247292662687], [136.34320978763083, 68.22684943986215]]}, "properties": {"source": "22070242", "target": "12970237"}}, {"type": "Feature", "geometry": {"type": "LineString", "coordinates": [[136.34252518090966, 68.22981469898085], [136.34644290877628, 68.22270348683324]]}, "properties": {"source": "26074132", "target": "27153434"}}, {"type": "Feature", "geometry": {"type": "LineString", "coordinates": [[136.34252518090966, 68.22981469898085], [136.35335926732387, 68.23085273204455]]}, "properties": {"source": "26074132", "target": "30137628"}}, {"type": "Feature", "geometry": {"type": "LineString", "coordinates": [[136.34252518090966, 68.22981469898085], [136.36895778241802, 68.22344446495555]]}, "properties": {"source": "26074132", "target": "28691570"}}, {"type": "Feature", "geometry": {"type": "LineString", "coordinates": [[136.34252518090966, 68.22981469898085], [136.3653471714582, 68.22443313014688]]}, "properties": {"source": "26074132", "target": "13321847"}}, {"type": "Feature", "geometry": {"type": "LineString", "coordinates": [[136.34252518090966, 68.22981469898085], [136.35478670124832, 68.22969508562946]]}, "properties": {"source": "26074132", "target": "13598684"}}, {"type": "Feature", "geometry": {"type": "LineString", "coordinates": [[136.34252518090966, 68.22981469898085], [136.3492557076333, 68.22817751311032]]}, "properties": {"source": "26074132", "target": "24488108"}}, {"type": "Feature", "geometry": {"type": "LineString", "coordinates": [[136.34252518090966, 68.22981469898085], [136.35068007210413, 68.22875465818927]]}, "properties": {"source": "26074132", "target": "29537763"}}, {"type": "Feature", "geometry": {"type": "LineString", "coordinates": [[136.34252518090966, 68.22981469898085], [136.3561059771896, 68.2254205716037]]}, "properties": {"source": "26074132", "target": "29907861"}}, {"type": "Feature", "geometry": {"type": "LineString", "coordinates": [[136.34252518090966, 68.22981469898085], [136.36246859982248, 68.23032529825835]]}, "properties": {"source": "26074132", "target": "23122512"}}, {"type": "Feature", "geometry": {"type": "LineString", "coordinates": [[136.34252518090966, 68.22981469898085], [136.36059615047628, 68.22854257081357]]}, "properties": {"source": "26074132", "target": "28438850"}}, {"type": "Feature", "geometry": {"type": "LineString", "coordinates": [[136.34252518090966, 68.22981469898085], [136.36919828482843, 68.22695807553495]]}, "properties": {"source": "26074132", "target": "25497900"}}, {"type": "Feature", "geometry": {"type": "LineString", "coordinates": [[136.34252518090966, 68.22981469898085], [136.3617077420143, 68.2298713788453]]}, "properties": {"source": "26074132", "target": "25362009"}}, {"type": "Feature", "geometry": {"type": "LineString", "coordinates": [[136.3517532888722, 68.22670435167134], [136.3429557936122, 68.2247292662687]]}, "properties": {"source": "12451190", "target": "22070242"}}, {"type": "Feature", "geometry": {"type": "LineString", "coordinates": [[136.3517532888722, 68.22670435167134], [136.3495102669567, 68.22979545864445]]}, "properties": {"source": "12451190", "target": "34672872"}}, {"type": "Feature", "geometry": {"type": "LineString", "coordinates": [[136.36843484405108, 68.23086887244429], [136.35895570614468, 68.22559014734409]]}, "properties": {"source": "27250427", "target": "22735991"}}, {"type": "Feature", "geometry": {"type": "LineString", "coordinates": [[136.36843484405108, 68.23086887244429], [136.34966254536636, 68.2285503749367]]}, "properties": {"source": "27250427", "target": "22736003"}}, {"type": "Feature", "geometry": {"type": "LineString", "coordinates": [[136.36898436201568, 68.22774839040548], [136.3614476771926, 68.22767321061474]]}, "properties": {"source": "17999147", "target": "17081977"}}, {"type": "Feature", "geometry": {"type": "LineString", "coordinates": [[136.36898436201568, 68.22774839040548], [136.36028335247482, 68.22945319605307]]}, "properties": {"source": "17999147", "target": "17802390"}}, {"type": "Feature", "geometry": {"type": "LineString", "coordinates": [[136.36898436201568, 68.22774839040548], [136.35863046929268, 68.22393637029325]]}, "properties": {"source": "17999147", "target": "17120677"}}, {"type": "Feature", "geometry": {"type": "LineString", "coordinates": [[136.36898436201568, 68.22774839040548], [136.36182080084347, 68.22434494813271]]}, "properties": {"source": "17999147", "target": "18741148"}}, {"type": "Feature", "geometry": {"type": "LineString", "coordinates": [[136.36919828482843, 68.22695807553495], [136.34644290877628, 68.22270348683324]]}, "properties": {"source": "25497900", "target": "27153434"}}, {"type": "Feature", "geometry": {"type": "LineString", "coordinates": [[136.36919828482843, 68.22695807553495], [136.3492557076333, 68.22817751311032]]}, "properties": {"source": "25497900", "target": "24488108"}}, {"type": "Feature", "geometry": {"type": "LineString", "coordinates": [[136.36919828482843, 68.22695807553495], [136.36246859982248, 68.23032529825835]]}, "properties": {"source": "25497900", "target": "23122512"}}, {"type": "Feature", "geometry": {"type": "LineString", "coordinates": [[136.3454471457261, 68.23083941709572], [136.35440220205402, 68.22590681961657]]}, "properties": {"source": "29936134", "target": "32943804"}}, {"type": "Feature", "geometry": {"type": "LineString", "coordinates": [[136.3454471457261, 68.23083941709572], [136.3475236674554, 68.22297582682279]]}, "properties": {"source": "29936134", "target": "29635568"}}, {"type": "Feature", "geometry": {"type": "LineString", "coordinates": [[136.3454471457261, 68.23083941709572], [136.3522250147662, 68.22783405658947]]}, "properties": {"source": "29936134", "target": "374029"}}, {"type": "Feature", "geometry": {"type": "LineString", "coordinates": [[136.35485107851446, 68.22428993536869], [136.35883994661646, 68.23115578360387]]}, "properties": {"source": "8046442", "target": "9042870"}}, {"type": "Feature", "geometry": {"type": "LineString", "coordinates": [[136.35485107851446, 68.22428993536869], [136.35541428856692, 68.22428874869908]]}, "properties": {"source": "8046442", "target": "984100"}}, {"type": "Feature", "geometry": {"type": "LineString", "coordinates": [[136.35841424889622, 68.22823823931452], [136.35335926732387, 68.23085273204455]]}, "properties": {"source": "1706623", "target": "30137628"}}, {"type": "Feature", "geometry": {"type": "LineString", "coordinates": [[136.35841424889622, 68.22823823931452], [136.35074731429927, 68.2309837550415]]}, "properties": {"source": "1706623", "target": "35216892"}}, {"type": "Feature", "geometry": {"type": "LineString", "coordinates": [[136.35595444287753, 68.22826676119317], [136.35335926732387, 68.23085273204455]]}, "properties": {"source": "35228021", "target": "30137628"}}, {"type": "Feature", "geometry": {"type": "LineString", "coordinates": [[136.35595444287753, 68.22826676119317], [136.35074731429927, 68.2309837550415]]}, "properties": {"source": "35228021", "target": "35216892"}}, {"type": "Feature", "geometry": {"type": "LineString", "coordinates": [[136.35595444287753, 68.22826676119317], [136.35841424889622, 68.22823823931452]]}, "properties": {"source": "35228021", "target": "1706623"}}, {"type": "Feature", "geometry": {"type": "LineString", "coordinates": [[136.35068007210413, 68.22875465818927], [136.35335926732387, 68.23085273204455]]}, "properties": {"source": "29537763", "target": "30137628"}}, {"type": "Feature", "geometry": {"type": "LineString", "coordinates": [[136.35068007210413, 68.22875465818927], [136.35440220205402, 68.22590681961657]]}, "properties": {"source": "29537763", "target": "32943804"}}, {"type": "Feature", "geometry": {"type": "LineString", "coordinates": [[136.35914969962795, 68.22430429812454], [136.34226841383696, 68.2243592044774]]}, "properties": {"source": "35829219", "target": "33118710"}}, {"type": "Feature", "geometry": {"type": "LineString", "coordinates": [[136.35074731429927, 68.2309837550415], [136.35335926732387, 68.23085273204455]]}, "properties": {"source": "35216892", "target": "30137628"}}, {"type": "Feature", "geometry": {"type": "LineString", "coordinates": [[136.3635767184369, 68.22524233116752], [136.35335926732387, 68.23085273204455]]}, "properties": {"source": "34093981", "target": "30137628"}}, {"type": "Feature", "geometry": {"type": "LineString", "coordinates": [[136.3635767184369, 68.22524233116752], [136.35374062208285, 68.22263512264831]]}, "properties": {"source": "34093981", "target": "35708881"}}, {"type": "Feature", "geometry": {"type": "LineString", "coordinates": [[136.3635767184369, 68.22524233116752], [136.34347150852204, 68.22336833646338]]}, "properties": {"source": "34093981", "target": "33118713"}}, {"type": "Feature", "geometry": {"type": "LineString", "coordinates": [[136.3635767184369, 68.22524233116752], [136.34226841383696, 68.2243592044774]]}, "properties": {"source": "34093981", "target": "33118710"}}, {"type": "Feature", "geometry": {"type": "LineString", "coordinates": [[136.3635767184369, 68.22524233116752], [136.3485493153974, 68.2227395245574]]}, "properties": {"source": "34093981", "target": "34520144"}}, {"type": "Feature", "geometry": {"type": "LineString", "coordinates": [[136.3635767184369, 68.22524233116752], [136.35595444287753, 68.22826676119317]]}, "properties": {"source": "34093981", "target": "35228021"}}, {"type": "Feature", "geometry": {"type": "LineString", "coordinates": [[136.3635767184369, 68.22524233116752], [136.35914969962795, 68.22430429812454]]}, "properties": {"source": "34093981", "target": "35829219"}}, {"type": "Feature", "geometry": {"type": "LineString", "coordinates": [[136.3485493153974, 68.2227395245574], [136.34311192518692, 68.22800995515112]]}, "properties": {"source": "34520144", "target": "7070495"}}, {"type": "Feature", "geometry": {"type": "LineString", "coordinates": [[136.35595444287753, 68.22826676119317], [136.34311192518692, 68.22800995515112]]}, "properties": {"source": "35228021", "target": "7070495"}}, {"type": "Feature", "geometry": {"type": "LineString", "coordinates": [[136.3554743690779, 68.22329874755258], [136.35914969962795, 68.22430429812454]]}, "properties": {"source": "31180994", "target": "35829219"}}, {"type": "Feature", "geometry": {"type": "LineString", "coordinates": [[136.3554743690779, 68.22329874755258], [136.36898251072137, 68.22882037284018]]}, "properties": {"source": "31180994", "target": "32499576"}}, {"type": "Feature", "geometry": {"type": "LineString", "coordinates": [[136.3554743690779, 68.22329874755258], [136.35386967641227, 68.22523419508451]]}, "properties": {"source": "31180994", "target": "34434581"}}, {"type": "Feature", "geometry": {"type": "LineString", "coordinates": [[136.3554743690779, 68.22329874755258], [136.3561059771896, 68.2254205716037]]}, "properties": {"source": "31180994", "target": "29907861"}}, {"type": "Feature", "geometry": {"type": "LineString", "coordinates": [[136.3554743690779, 68.22329874755258], [136.36059615047628, 68.22854257081357]]}, "properties": {"source": "31180994", "target": "28438850"}}, {"type": "Feature", "geometry": {"type": "LineString", "coordinates": [[136.3554743690779, 68.22329874755258], [136.34270728154547, 68.22561023067504]]}, "properties": {"source": "31180994", "target": "29538891"}}, {"type": "Feature", "geometry": {"type": "LineString", "coordinates": [[136.34472542535553, 68.22309217056247], [136.3664406613904, 68.22470496164038]]}, "properties": {"source": "30311096", "target": "30184677"}}, {"type": "Feature", "geometry": {"type": "LineString", "coordinates": [[136.34347150852204, 68.22336833646338], [136.35335926732387, 68.23085273204455]]}, "properties": {"source": "33118713", "target": "30137628"}}, {"type": "Feature", "geometry": {"type": "LineString", "coordinates": [[136.34347150852204, 68.22336833646338], [136.34472542535553, 68.22309217056247]]}, "properties": {"source": "33118713", "target": "30311096"}}, {"type": "Feature", "geometry": {"type": "LineString", "coordinates": [[136.34347150852204, 68.22336833646338], [136.34226841383696, 68.2243592044774]]}, "properties": {"source": "33118713", "target": "33118710"}}, {"type": "Feature", "geometry": {"type": "LineString", "coordinates": [[136.34347150852204, 68.22336833646338], [136.35478670124832, 68.22969508562946]]}, "properties": {"source": "33118713", "target": "13598684"}}, {"type": "Feature", "geometry": {"type": "LineString", "coordinates": [[136.34347150852204, 68.22336833646338], [136.35914969962795, 68.22430429812454]]}, "properties": {"source": "33118713", "target": "35829219"}}, {"type": "Feature", "geometry": {"type": "LineString", "coordinates": [[136.34347150852204, 68.22336833646338], [136.36898251072137, 68.22882037284018]]}, "properties": {"source": "33118713", "target": "32499576"}}, {"type": "Feature", "geometry": {"type": "LineString", "coordinates": [[136.3554743690779, 68.22329874755258], [136.34658028087938, 68.22468335891392]]}, "properties": {"source": "31180994", "target": "30740640"}}, {"type": "Feature", "geometry": {"type": "LineString", "coordinates": [[136.34472542535553, 68.22309217056247], [136.34658028087938, 68.22468335891392]]}, "properties": {"source": "30311096", "target": "30740640"}}, {"type": "Feature", "geometry": {"type": "LineString", "coordinates": [[136.34347150852204, 68.22336833646338], [136.34658028087938, 68.22468335891392]]}, "properties": {"source": "33118713", "target": "30740640"}}, {"type": "Feature", "geometry": {"type": "LineString", "coordinates": [[136.34599843790687, 68.23144437509157], [136.36766958108421, 68.23073618970761]]}, "properties": {"source": "6725552", "target": "2599558"}}, {"type": "Feature", "geometry": {"type": "LineString", "coordinates": [[136.35896031180664, 68.22715776848227], [136.36867653242342, 68.22775785680062]]}, "properties": {"source": "12032871", "target": "13623955"}}, {"type": "Feature", "geometry": {"type": "LineString", "coordinates": [[136.352141833661, 68.2249115118455], [136.36898251072137, 68.22882037284018]]}, "properties": {"source": "6008883", "target": "32499576"}}, {"type": "Feature", "geometry": {"type": "LineString", "coordinates": [[136.34510075961725, 68.22557541125394], [136.36389740487755, 68.22936781505942]]}, "properties": {"source": "1768507", "target": "1217490"}}, {"type": "Feature", "geometry": {"type": "LineString", "coordinates": [[136.3597307879054, 68.22287269501143], [136.3592230645138, 68.22984854826348]]}, "properties": {"source": "20861907", "target": "20326569"}}, {"type": "Feature", "geometry": {"type": "LineString", "coordinates": [[136.34466016064482, 68.22254040950071], [136.3475236674554, 68.22297582682279]]}, "properties": {"source": "26565938", "target": "29635568"}}, {"type": "Feature", "geometry": {"type": "LineString", "coordinates": [[136.3480010155589, 68.22410890456302], [136.3614476771926, 68.22767321061474]]}, "properties": {"source": "17169570", "target": "17081977"}}, {"type": "Feature", "geometry": {"type": "LineString", "coordinates": [[136.36137343015582, 68.22384767759942], [136.35693186035604, 68.22521026375765]]}, "properties": {"source": "558672", "target": "439161"}}, {"type": "Feature", "geometry": {"type": "LineString", "coordinates": [[136.36798058170035, 68.23085935943863], [136.34484395893764, 68.22641117112619]]}, "properties": {"source": "13529449", "target": "19428250"}}, {"type": "Feature", "geometry": {"type": "LineString", "coordinates": [[136.35883994661646, 68.23115578360387], [136.35541428856692, 68.22428874869908]]}, "properties": {"source": "9042870", "target": "984100"}}, {"type": "Feature", "geometry": {"type": "LineString", "coordinates": [[136.3642611707155, 68.2256602883337], [136.34453658414458, 68.22934091893956]]}, "properties": {"source": "189494", "target": "6602246"}}, {"type": "Feature", "geometry": {"type": "LineString", "coordinates": [[136.3642611707155, 68.2256602883337], [136.36429843999628, 68.22655196450751]]}, "properties": {"source": "189494", "target": "6306718"}}, {"type": "Feature", "geometry": {"type": "LineString", "coordinates": [[136.34285667579047, 68.22344958513972], [136.34270728154547, 68.22561023067504]]}, "properties": {"source": "27394534", "target": "29538891"}}, {"type": "Feature", "geometry": {"type": "LineString", "coordinates": [[136.35176210045216, 68.22356148631127], [136.3454471457261, 68.23083941709572]]}, "properties": {"source": "336260", "target": "29936134"}}, {"type": "Feature", "geometry": {"type": "LineString", "coordinates": [[136.35176210045216, 68.22356148631127], [136.3522250147662, 68.22783405658947]]}, "properties": {"source": "336260", "target": "374029"}}, {"type": "Feature", "geometry": {"type": "LineString", "coordinates": [[136.36396265492368, 68.22502355070617], [136.36637627116193, 68.23112264218676]]}, "properties": {"source": "13414729", "target": "34741403"}}, {"type": "Feature", "geometry": {"type": "LineString", "coordinates": [[136.3501440408836, 68.22684695433531], [136.34885643484415, 68.22629188178522]]}, "properties": {"source": "22182117", "target": "28879"}}, {"type": "Feature", "geometry": {"type": "LineString", "coordinates": [[136.3501440408836, 68.22684695433531], [136.36039101992327, 68.22664872317569]]}, "properties": {"source": "22182117", "target": "27108779"}}, {"type": "Feature", "geometry": {"type": "LineString", "coordinates": [[136.3501440408836, 68.22684695433531], [136.34320978763083, 68.22684943986215]]}, "properties": {"source": "22182117", "target": "12970237"}}, {"type": "Feature", "geometry": {"type": "LineString", "coordinates": [[136.36569077209424, 68.22552732593402], [136.35605321800836, 68.2293477917716]]}, "properties": {"source": "16143691", "target": "15827624"}}, {"type": "Feature", "geometry": {"type": "LineString", "coordinates": [[136.36569077209424, 68.22552732593402], [136.36525012943133, 68.22244743232736]]}, "properties": {"source": "16143691", "target": "17731992"}}, {"type": "Feature", "geometry": {"type": "LineString", "coordinates": [[136.36569077209424, 68.22552732593402], [136.34931956653224, 68.22324863804943]]}, "properties": {"source": "16143691", "target": "1475172"}}, {"type": "Feature", "geometry": {"type": "LineString", "coordinates": [[136.36569077209424, 68.22552732593402], [136.34231303764489, 68.22307316312964]]}, "properties": {"source": "16143691", "target": "16140197"}}, {"type": "Feature", "geometry": {"type": "LineString", "coordinates": [[136.36569077209424, 68.22552732593402], [136.36535383326157, 68.23147366719749]]}, "properties": {"source": "16143691", "target": "14670929"}}, {"type": "Feature", "geometry": {"type": "LineString", "coordinates": [[136.3662926176263, 68.22738246935856], [136.35485107851446, 68.22428993536869]]}, "properties": {"source": "8183909", "target": "8046442"}}, {"type": "Feature", "geometry": {"type": "LineString", "coordinates": [[136.3662926176263, 68.22738246935856], [136.36389740487755, 68.22936781505942]]}, "properties": {"source": "8183909", "target": "1217490"}}, {"type": "Feature", "geometry": {"type": "LineString", "coordinates": [[136.3662926176263, 68.22738246935856], [136.35883994661646, 68.23115578360387]]}, "properties": {"source": "8183909", "target": "9042870"}}, {"type": "Feature", "geometry": {"type": "LineString", "coordinates": [[136.3662926176263, 68.22738246935856], [136.35541428856692, 68.22428874869908]]}, "properties": {"source": "8183909", "target": "984100"}}, {"type": "Feature", "geometry": {"type": "LineString", "coordinates": [[136.34780359335969, 68.2288830466785], [136.35335926732387, 68.23085273204455]]}, "properties": {"source": "23494043", "target": "30137628"}}, {"type": "Feature", "geometry": {"type": "LineString", "coordinates": [[136.34780359335969, 68.2288830466785], [136.35770793948035, 68.23099109248349]]}, "properties": {"source": "23494043", "target": "25247924"}}, {"type": "Feature", "geometry": {"type": "LineString", "coordinates": [[136.34780359335969, 68.2288830466785], [136.3485493153974, 68.2227395245574]]}, "properties": {"source": "23494043", "target": "34520144"}}, {"type": "Feature", "geometry": {"type": "LineString", "coordinates": [[136.3662926176263, 68.22738246935856], [136.36701516532486, 68.23145744788079]]}, "properties": {"source": "8183909", "target": "12296879"}}, {"type": "Feature", "geometry": {"type": "LineString", "coordinates": [[136.34398184732396, 68.22457394584009], [136.34270728154547, 68.22561023067504]]}, "properties": {"source": "29199559", "target": "29538891"}}, {"type": "Feature", "geometry": {"type": "LineString", "coordinates": [[136.34398184732396, 68.22457394584009], [136.3664406613904, 68.22470496164038]]}, "properties": {"source": "29199559", "target": "30184677"}}, {"type": "Feature", "geometry": {"type": "LineString", "coordinates": [[136.34398184732396, 68.22457394584009], [136.34285667579047, 68.22344958513972]]}, "properties": {"source": "29199559", "target": "27394534"}}, {"type": "Feature", "geometry": {"type": "LineString", "coordinates": [[136.36701516532486, 68.23145744788079], [136.35485107851446, 68.22428993536869]]}, "properties": {"source": "12296879", "target": "8046442"}}, {"type": "Feature", "geometry": {"type": "LineString", "coordinates": [[136.3657411521546, 68.2276217688046], [136.35374062208285, 68.22263512264831]]}, "properties": {"source": "3290132", "target": "35708881"}}, {"type": "Feature", "geometry": {"type": "LineString", "coordinates": [[136.3657411521546, 68.2276217688046], [136.34347150852204, 68.22336833646338]]}, "properties": {"source": "3290132", "target": "33118713"}}, {"type": "Feature", "geometry": {"type": "LineString", "coordinates": [[136.3657411521546, 68.2276217688046], [136.34226841383696, 68.2243592044774]]}, "properties": {"source": "3290132", "target": "33118710"}}, {"type": "Feature", "geometry": {"type": "LineString", "coordinates": [[136.35828925867418, 68.23011066706485], [136.35440220205402, 68.22590681961657]]}, "properties": {"source": "17739943", "target": "32943804"}}, {"type": "Feature", "geometry": {"type": "LineString", "coordinates": [[136.35828925867418, 68.23011066706485], [136.3454471457261, 68.23083941709572]]}, "properties": {"source": "17739943", "target": "29936134"}}, {"type": "Feature", "geometry": {"type": "LineString", "coordinates": [[136.35828925867418, 68.23011066706485], [136.3475236674554, 68.22297582682279]]}, "properties": {"source": "17739943", "target": "29635568"}}, {"type": "Feature", "geometry": {"type": "LineString", "coordinates": [[136.3669498191215, 68.23035629270927], [136.3592230645138, 68.22984854826348]]}, "properties": {"source": "20457346", "target": "20326569"}}, {"type": "Feature", "geometry": {"type": "LineString", "coordinates": [[136.36662152352426, 68.22916522769583], [136.35914969962795, 68.22430429812454]]}, "properties": {"source": "6100324", "target": "35829219"}}, {"type": "Feature", "geometry": {"type": "LineString", "coordinates": [[136.36662152352426, 68.22916522769583], [136.35440220205402, 68.22590681961657]]}, "properties": {"source": "6100324", "target": "32943804"}}, {"type": "Feature", "geometry": {"type": "LineString", "coordinates": [[136.36662152352426, 68.22916522769583], [136.35088347357765, 68.22595711558813]]}, "properties": {"source": "6100324", "target": "28129816"}}, {"type": "Feature", "geometry": {"type": "LineString", "coordinates": [[136.35908236718808, 68.23015070879134], [136.34423904791845, 68.22755709974453]]}, "properties": {"source": "22918857", "target": "10471110"}}, {"type": "Feature", "geometry": {"type": "LineString", "coordinates": [[136.35236027752768, 68.22741530952968], [136.36637627116193, 68.23112264218676]]}, "properties": {"source": "130", "target": "34741403"}}, {"type": "Feature", "geometry": {"type": "LineString", "coordinates": [[136.36028290420887, 68.22686058042257], [136.3669498191215, 68.23035629270927]]}, "properties": {"source": "21488719", "target": "20457346"}}, {"type": "Feature", "geometry": {"type": "LineString", "coordinates": [[136.3617077420143, 68.2298713788453], [136.34644290877628, 68.22270348683324]]}, "properties": {"source": "25362009", "target": "27153434"}}, {"type": "Feature", "geometry": {"type": "LineString", "coordinates": [[136.3612532670324, 68.22675631178612], [136.35770793948035, 68.23099109248349]]}, "properties": {"source": "25035431", "target": "25247924"}}, {"type": "Feature", "geometry": {"type": "LineString", "coordinates": [[136.3612532670324, 68.22675631178612], [136.3617615442654, 68.22704258751239]]}, "properties": {"source": "25035431", "target": "25247896"}}, {"type": "Feature", "geometry": {"type": "LineString", "coordinates": [[136.36240149110915, 68.22227212219448], [136.36028335247482, 68.22945319605307]]}, "properties": {"source": "18178186", "target": "17802390"}}, {"type": "Feature", "geometry": {"type": "LineString", "coordinates": [[136.35775132491563, 68.22722657706933], [136.36028335247482, 68.22945319605307]]}, "properties": {"source": "18486561", "target": "17802390"}}, {"type": "Feature", "geometry": {"type": "LineString", "coordinates": [[136.35775132491563, 68.22722657706933], [136.36240149110915, 68.22227212219448]]}, "properties": {"source": "18486561", "target": "18178186"}}, {"type": "Feature", "geometry": {"type": "LineString", "coordinates": [[136.3492557076333, 68.22817751311032], [136.34966254536636, 68.2285503749367]]}, "properties": {"source": "24488108", "target": "22736003"}}, {"type": "Feature", "geometry": {"type": "LineString", "coordinates": [[136.35117510412033, 68.22530126385976], [136.34644290877628, 68.22270348683324]]}, "properties": {"source": "2764367", "target": "27153434"}}, {"type": "Feature", "geometry": {"type": "LineString", "coordinates": [[136.35117510412033, 68.22530126385976], [136.35084341228065, 68.22529411100908]]}, "properties": {"source": "2764367", "target": "1988604"}}, {"type": "Feature", "geometry": {"type": "LineString", "coordinates": [[136.35117510412033, 68.22530126385976], [136.35030175523747, 68.22895142871812]]}, "properties": {"source": "2764367", "target": "188857"}}, {"type": "Feature", "geometry": {"type": "LineString", "coordinates": [[136.35117510412033, 68.22530126385976], [136.34423904791845, 68.22755709974453]]}, "properties": {"source": "2764367", "target": "10471110"}}, {"type": "Feature", "geometry": {"type": "LineString", "coordinates": [[136.35117510412033, 68.22530126385976], [136.35236027752768, 68.22741530952968]]}, "properties": {"source": "2764367", "target": "130"}}, {"type": "Feature", "geometry": {"type": "LineString", "coordinates": [[136.35117510412033, 68.22530126385976], [136.35908236718808, 68.23015070879134]]}, "properties": {"source": "2764367", "target": "22918857"}}, {"type": "Feature", "geometry": {"type": "LineString", "coordinates": [[136.35117510412033, 68.22530126385976], [136.36396265492368, 68.22502355070617]]}, "properties": {"source": "2764367", "target": "13414729"}}, {"type": "Feature", "geometry": {"type": "LineString", "coordinates": [[136.35117510412033, 68.22530126385976], [136.36637627116193, 68.23112264218676]]}, "properties": {"source": "2764367", "target": "34741403"}}, {"type": "Feature", "geometry": {"type": "LineString", "coordinates": [[136.34780359335969, 68.2288830466785], [136.35595444287753, 68.22826676119317]]}, "properties": {"source": "23494043", "target": "35228021"}}, {"type": "Feature", "geometry": {"type": "LineString", "coordinates": [[136.34780359335969, 68.2288830466785], [136.35074731429927, 68.2309837550415]]}, "properties": {"source": "23494043", "target": "35216892"}}, {"type": "Feature", "geometry": {"type": "LineString", "coordinates": [[136.36076417958628, 68.22767086919501], [136.3495102669567, 68.22979545864445]]}, "properties": {"source": "11931995", "target": "34672872"}}, {"type": "Feature", "geometry": {"type": "LineString", "coordinates": [[136.36076417958628, 68.22767086919501], [136.35605321800836, 68.2293477917716]]}, "properties": {"source": "11931995", "target": "15827624"}}, {"type": "Feature", "geometry": {"type": "LineString", "coordinates": [[136.36076417958628, 68.22767086919501], [136.3542527950604, 68.23046607281415]]}, "properties": {"source": "11931995", "target": "1431345"}}, {"type": "Feature", "geometry": {"type": "LineString", "coordinates": [[136.36076417958628, 68.22767086919501], [136.34585448319757, 68.22919380343498]]}, "properties": {"source": "11931995", "target": "13492718"}}, {"type": "Feature", "geometry": {"type": "LineString", "coordinates": [[136.36076417958628, 68.22767086919501], [136.34586051522234, 68.22760828006253]]}, "properties": {"source": "11931995", "target": "18369665"}}, {"type": "Feature", "geometry": {"type": "LineString", "coordinates": [[136.34931956653224, 68.22324863804943], [136.35605321800836, 68.2293477917716]]}, "properties": {"source": "1475172", "target": "15827624"}}, {"type": "Feature", "geometry": {"type": "LineString", "coordinates": [[136.34931956653224, 68.22324863804943], [136.34231303764489, 68.22307316312964]]}, "properties": {"source": "1475172", "target": "16140197"}}, {"type": "Feature", "geometry": {"type": "LineString", "coordinates": [[136.34931956653224, 68.22324863804943], [136.36535383326157, 68.23147366719749]]}, "properties": {"source": "1475172", "target": "14670929"}}, {"type": "Feature", "geometry": {"type": "LineString", "coordinates": [[136.34931956653224, 68.22324863804943], [136.35430415110932, 68.23056093468017]]}, "properties": {"source": "1475172", "target": "13272492"}}, {"type": "Feature", "geometry": {"type": "LineString", "coordinates": [[136.3542527950604, 68.23046607281415], [136.3495102669567, 68.22979545864445]]}, "properties": {"source": "1431345", "target": "34672872"}}, {"type": "Feature", "geometry": {"type": "LineString", "coordinates": [[136.3542527950604, 68.23046607281415], [136.35605321800836, 68.2293477917716]]}, "properties": {"source": "1431345", "target": "15827624"}}, {"type": "Feature", "geometry": {"type": "LineString", "coordinates": [[136.3542527950604, 68.23046607281415], [136.34585448319757, 68.22919380343498]]}, "properties": {"source": "1431345", "target": "13492718"}}, {"type": "Feature", "geometry": {"type": "LineString", "coordinates": [[136.3542527950604, 68.23046607281415], [136.34586051522234, 68.22760828006253]]}, "properties": {"source": "1431345", "target": "18369665"}}, {"type": "Feature", "geometry": {"type": "LineString", "coordinates": [[136.36843484405108, 68.23086887244429], [136.3492557076333, 68.22817751311032]]}, "properties": {"source": "27250427", "target": "24488108"}}, {"type": "Feature", "geometry": {"type": "LineString", "coordinates": [[136.34347150852204, 68.22336833646338], [136.36840549546338, 68.22572798065761]]}, "properties": {"source": "33118713", "target": "31187079"}}, {"type": "Feature", "geometry": {"type": "LineString", "coordinates": [[136.34226841383696, 68.2243592044774], [136.36840549546338, 68.22572798065761]]}, "properties": {"source": "33118710", "target": "31187079"}}, {"type": "Feature", "geometry": {"type": "LineString", "coordinates": [[136.3429557936122, 68.2247292662687], [136.34644290877628, 68.22270348683324]]}, "properties": {"source": "22070242", "target": "27153434"}}, {"type": "Feature", "geometry": {"type": "LineString", "coordinates": [[136.3429557936122, 68.2247292662687], [136.35693186035604, 68.22521026375765]]}, "properties": {"source": "22070242", "target": "439161"}}, {"type": "Feature", "geometry": {"type": "LineString", "coordinates": [[136.3429557936122, 68.2247292662687], [136.35453258948365, 68.22701275513975]]}, "properties": {"source": "22070242", "target": "102995"}}, {"type": "Feature", "geometry": {"type": "LineString", "coordinates": [[136.36637627116193, 68.23112264218676], [136.3433089046145, 68.2310239820251]]}, "properties": {"source": "34741403", "target": "13147900"}}, {"type": "Feature", "geometry": {"type": "LineString", "coordinates": [[136.35863046929268, 68.22393637029325], [136.36028335247482, 68.22945319605307]]}, "properties": {"source": "17120677", "target": "17802390"}}, {"type": "Feature", "geometry": {"type": "LineString", "coordinates": [[136.35863046929268, 68.22393637029325], [136.36182080084347, 68.22434494813271]]}, "properties": {"source": "17120677", "target": "18741148"}}, {"type": "Feature", "geometry": {"type": "LineString", "coordinates": [[136.34231303764489, 68.22307316312964], [136.36535383326157, 68.23147366719749]]}, "properties": {"source": "16140197", "target": "14670929"}}, {"type": "Feature", "geometry": {"type": "LineString", "coordinates": [[136.35030175523747, 68.22895142871812], [136.34423904791845, 68.22755709974453]]}, "properties": {"source": "188857", "target": "10471110"}}, {"type": "Feature", "geometry": {"type": "LineString", "coordinates": [[136.35030175523747, 68.22895142871812], [136.35236027752768, 68.22741530952968]]}, "properties": {"source": "188857", "target": "130"}}, {"type": "Feature", "geometry": {"type": "LineString", "coordinates": [[136.35030175523747, 68.22895142871812], [136.35908236718808, 68.23015070879134]]}, "properties": {"source": "188857", "target": "22918857"}}, {"type": "Feature", "geometry": {"type": "LineString", "coordinates": [[136.36400882941808, 68.22499331104737], [136.35770793948035, 68.23099109248349]]}, "properties": {"source": "25244935", "target": "25247924"}}, {"type": "Feature", "geometry": {"type": "LineString", "coordinates": [[136.36400882941808, 68.22499331104737], [136.3617615442654, 68.22704258751239]]}, "properties": {"source": "25244935", "target": "25247896"}}, {"type": "Feature", "geometry": {"type": "LineString", "coordinates": [[136.34226841383696, 68.2243592044774], [136.34658028087938, 68.22468335891392]]}, "properties": {"source": "33118710", "target": "30740640"}}, {"type": "Feature", "geometry": {"type": "LineString", "coordinates": [[136.3429557936122, 68.2247292662687], [136.3549370487039, 68.22501767181663]]}, "properties": {"source": "22070242", "target": "21465744"}}, {"type": "Feature", "geometry": {"type": "LineString", "coordinates": [[136.3635767184369, 68.22524233116752], [136.35074731429927, 68.2309837550415]]}, "properties": {"source": "34093981", "target": "35216892"}}, {"type": "Feature", "geometry": {"type": "LineString", "coordinates": [[136.3424664926336, 68.22684441412201], [136.3429557936122, 68.2247292662687]]}, "properties": {"source": "29982103", "target": "22070242"}}, {"type": "Feature", "geometry": {"type": "LineString", "coordinates": [[136.3424664926336, 68.22684441412201], [136.35693186035604, 68.22521026375765]]}, "properties": {"source": "29982103", "target": "439161"}}, {"type": "Feature", "geometry": {"type": "LineString", "coordinates": [[136.3424664926336, 68.22684441412201], [136.35453258948365, 68.22701275513975]]}, "properties": {"source": "29982103", "target": "102995"}}, {"type": "Feature", "geometry": {"type": "LineString", "coordinates": [[136.3424664926336, 68.22684441412201], [136.36137343015582, 68.22384767759942]]}, "properties": {"source": "29982103", "target": "558672"}}, {"type": "Feature", "geometry": {"type": "LineString", "coordinates": [[136.36898251072137, 68.22882037284018], [136.34226841383696, 68.2243592044774]]}, "properties": {"source": "32499576", "target": "33118710"}}, {"type": "Feature", "geometry": {"type": "LineString", "coordinates": [[136.36898251072137, 68.22882037284018], [136.35440220205402, 68.22590681961657]]}, "properties": {"source": "32499576", "target": "32943804"}}, {"type": "Feature", "geometry": {"type": "LineString", "coordinates": [[136.36898251072137, 68.22882037284018], [136.35088347357765, 68.22595711558813]]}, "properties": {"source": "32499576", "target": "28129816"}}, {"type": "Feature", "geometry": {"type": "LineString", "coordinates": [[136.35440220205402, 68.22590681961657], [136.3475236674554, 68.22297582682279]]}, "properties": {"source": "32943804", "target": "29635568"}}, {"type": "Feature", "geometry": {"type": "LineString", "coordinates": [[136.36696061811296, 68.2242162587776], [136.3492557076333, 68.22817751311032]]}, "properties": {"source": "22736324", "target": "24488108"}}, {"type": "Feature", "geometry": {"type": "LineString", "coordinates": [[136.36696061811296, 68.2242162587776], [136.36246859982248, 68.23032529825835]]}, "properties": {"source": "22736324", "target": "23122512"}}, {"type": "Feature", "geometry": {"type": "LineString", "coordinates": [[136.36696061811296, 68.2242162587776], [136.34484395893764, 68.22641117112619]]}, "properties": {"source": "22736324", "target": "19428250"}}, {"type": "Feature", "geometry": {"type": "LineString", "coordinates": [[136.36696061811296, 68.2242162587776], [136.35895570614468, 68.22559014734409]]}, "properties": {"source": "22736324", "target": "22735991"}}, {"type": "Feature", "geometry": {"type": "LineString", "coordinates": [[136.36696061811296, 68.2242162587776], [136.34966254536636, 68.2285503749367]]}, "properties": {"source": "22736324", "target": "22736003"}}, {"type": "Feature", "geometry": {"type": "LineString", "coordinates": [[136.36696061811296, 68.2242162587776], [136.36843484405108, 68.23086887244429]]}, "properties": {"source": "22736324", "target": "27250427"}}, {"type": "Feature", "geometry": {"type": "LineString", "coordinates": [[136.3424664926336, 68.22684441412201], [136.3549370487039, 68.22501767181663]]}, "properties": {"source": "29982103", "target": "21465744"}}, {"type": "Feature", "geometry": {"type": "LineString", "coordinates": [[136.34898995524435, 68.22305160534657], [136.35335926732387, 68.23085273204455]]}, "properties": {"source": "31180962", "target": "30137628"}}, {"type": "Feature", "geometry": {"type": "LineString", "coordinates": [[136.34898995524435, 68.22305160534657], [136.36895778241802, 68.22344446495555]]}, "properties": {"source": "31180962", "target": "28691570"}}, {"type": "Feature", "geometry": {"type": "LineString", "coordinates": [[136.34898995524435, 68.22305160534657], [136.35374062208285, 68.22263512264831]]}, "properties": {"source": "31180962", "target": "35708881"}}, {"type": "Feature", "geometry": {"type": "LineString", "coordinates": [[136.34898995524435, 68.22305160534657], [136.34472542535553, 68.22309217056247]]}, "properties": {"source": "31180962", "target": "30311096"}}, {"type": "Feature", "geometry": {"type": "LineString", "coordinates": [[136.34898995524435, 68.22305160534657], [136.34347150852204, 68.22336833646338]]}, "properties": {"source": "31180962", "target": "33118713"}}, {"type": "Feature", "geometry": {"type": "LineString", "coordinates": [[136.34898995524435, 68.22305160534657], [136.34226841383696, 68.2243592044774]]}, "properties": {"source": "31180962", "target": "33118710"}}, {"type": "Feature", "geometry": {"type": "LineString", "coordinates": [[136.34898995524435, 68.22305160534657], [136.35068007210413, 68.22875465818927]]}, "properties": {"source": "31180962", "target": "29537763"}}, {"type": "Feature", "geometry": {"type": "LineString", "coordinates": [[136.34898995524435, 68.22305160534657], [136.35914969962795, 68.22430429812454]]}, "properties": {"source": "31180962", "target": "35829219"}}, {"type": "Feature", "geometry": {"type": "LineString", "coordinates": [[136.34898995524435, 68.22305160534657], [136.35386967641227, 68.22523419508451]]}, "properties": {"source": "31180962", "target": "34434581"}}, {"type": "Feature", "geometry": {"type": "LineString", "coordinates": [[136.34898995524435, 68.22305160534657], [136.3561059771896, 68.2254205716037]]}, "properties": {"source": "31180962", "target": "29907861"}}, {"type": "Feature", "geometry": {"type": "LineString", "coordinates": [[136.34898995524435, 68.22305160534657], [136.36059615047628, 68.22854257081357]]}, "properties": {"source": "31180962", "target": "28438850"}}, {"type": "Feature", "geometry": {"type": "LineString", "coordinates": [[136.34898995524435, 68.22305160534657], [136.34270728154547, 68.22561023067504]]}, "properties": {"source": "31180962", "target": "29538891"}}, {"type": "Feature", "geometry": {"type": "LineString", "coordinates": [[136.34898995524435, 68.22305160534657], [136.3664406613904, 68.22470496164038]]}, "properties": {"source": "31180962", "target": "30184677"}}, {"type": "Feature", "geometry": {"type": "LineString", "coordinates": [[136.34898995524435, 68.22305160534657], [136.36862964769495, 68.23059795092075]]}, "properties": {"source": "31180962", "target": "23568891"}}, {"type": "Feature", "geometry": {"type": "LineString", "coordinates": [[136.35374062208285, 68.22263512264831], [136.35335926732387, 68.23085273204455]]}, "properties": {"source": "35708881", "target": "30137628"}}, {"type": "Feature", "geometry": {"type": "LineString", "coordinates": [[136.34898995524435, 68.22305160534657], [136.34658028087938, 68.22468335891392]]}, "properties": {"source": "31180962", "target": "30740640"}}, {"type": "Feature", "geometry": {"type": "LineString", "coordinates": [[136.35374062208285, 68.22263512264831], [136.34472542535553, 68.22309217056247]]}, "properties": {"source": "35708881", "target": "30311096"}}, {"type": "Feature", "geometry": {"type": "LineString", "coordinates": [[136.35374062208285, 68.22263512264831], [136.34347150852204, 68.22336833646338]]}, "properties": {"source": "35708881", "target": "33118713"}}, {"type": "Feature", "geometry": {"type": "LineString", "coordinates": [[136.35374062208285, 68.22263512264831], [136.34226841383696, 68.2243592044774]]}, "properties": {"source": "35708881", "target": "33118710"}}, {"type": "Feature", "geometry": {"type": "LineString", "coordinates": [[136.35374062208285, 68.22263512264831], [136.35478670124832, 68.22969508562946]]}, "properties": {"source": "35708881", "target": "13598684"}}, {"type": "Feature", "geometry": {"type": "LineString", "coordinates": [[136.35374062208285, 68.22263512264831], [136.35068007210413, 68.22875465818927]]}, "properties": {"source": "35708881", "target": "29537763"}}, {"type": "Feature", "geometry": {"type": "LineString", "coordinates": [[136.35374062208285, 68.22263512264831], [136.35914969962795, 68.22430429812454]]}, "properties": {"source": "35708881", "target": "35829219"}}, {"type": "Feature", "geometry": {"type": "LineString", "coordinates": [[136.35374062208285, 68.22263512264831], [136.36898251072137, 68.22882037284018]]}, "properties": {"source": "35708881", "target": "32499576"}}, {"type": "Feature", "geometry": {"type": "LineString", "coordinates": [[136.35374062208285, 68.22263512264831], [136.35440220205402, 68.22590681961657]]}, "properties": {"source": "35708881", "target": "32943804"}}, {"type": "Feature", "geometry": {"type": "LineString", "coordinates": [[136.35374062208285, 68.22263512264831], [136.36840549546338, 68.22572798065761]]}, "properties": {"source": "35708881", "target": "31187079"}}, {"type": "Feature", "geometry": {"type": "LineString", "coordinates": [[136.34472542535553, 68.22309217056247], [136.35335926732387, 68.23085273204455]]}, "properties": {"source": "30311096", "target": "30137628"}}, {"type": "Feature", "geometry": {"type": "LineString", "coordinates": [[136.34472542535553, 68.22309217056247], [136.34226841383696, 68.2243592044774]]}, "properties": {"source": "30311096", "target": "33118710"}}, {"type": "Feature", "geometry": {"type": "LineString", "coordinates": [[136.34472542535553, 68.22309217056247], [136.35478670124832, 68.22969508562946]]}, "properties": {"source": "30311096", "target": "13598684"}}, {"type": "Feature", "geometry": {"type": "LineString", "coordinates": [[136.34472542535553, 68.22309217056247], [136.35068007210413, 68.22875465818927]]}, "properties": {"source": "30311096", "target": "29537763"}}, {"type": "Feature", "geometry": {"type": "LineString", "coordinates": [[136.34472542535553, 68.22309217056247], [136.35914969962795, 68.22430429812454]]}, "properties": {"source": "30311096", "target": "35829219"}}, {"type": "Feature", "geometry": {"type": "LineString", "coordinates": [[136.34472542535553, 68.22309217056247], [136.36059615047628, 68.22854257081357]]}, "properties": {"source": "30311096", "target": "28438850"}}, {"type": "Feature", "geometry": {"type": "LineString", "coordinates": [[136.35374062208285, 68.22263512264831], [136.34658028087938, 68.22468335891392]]}, "properties": {"source": "35708881", "target": "30740640"}}, {"type": "Feature", "geometry": {"type": "LineString", "coordinates": [[136.3653471714582, 68.22443313014688], [136.34472542535553, 68.22309217056247]]}, "properties": {"source": "13321847", "target": "30311096"}}, {"type": "Feature", "geometry": {"type": "LineString", "coordinates": [[136.3653471714582, 68.22443313014688], [136.34347150852204, 68.22336833646338]]}, "properties": {"source": "13321847", "target": "33118713"}}, {"type": "Feature", "geometry": {"type": "LineString", "coordinates": [[136.3653471714582, 68.22443313014688], [136.34226841383696, 68.2243592044774]]}, "properties": {"source": "13321847", "target": "33118710"}}, {"type": "Feature", "geometry": {"type": "LineString", "coordinates": [[136.3653471714582, 68.22443313014688], [136.35478670124832, 68.22969508562946]]}, "properties": {"source": "13321847", "target": "13598684"}}, {"type": "Feature", "geometry": {"type": "LineString", "coordinates": [[136.3653471714582, 68.22443313014688], [136.3694303585391, 68.23025194893967]]}, "properties": {"source": "13321847", "target": "12338677"}}, {"type": "Feature", "geometry": {"type": "LineString", "coordinates": [[136.3653471714582, 68.22443313014688], [136.35796388475757, 68.22632245862386]]}, "properties": {"source": "13321847", "target": "10565980"}}, {"type": "Feature", "geometry": {"type": "LineString", "coordinates": [[136.3495102669567, 68.22979545864445], [136.3429557936122, 68.2247292662687]]}, "properties": {"source": "34672872", "target": "22070242"}}, {"type": "Feature", "geometry": {"type": "LineString", "coordinates": [[136.3495102669567, 68.22979545864445], [136.3424664926336, 68.22684441412201]]}, "properties": {"source": "34672872", "target": "29982103"}}, {"type": "Feature", "geometry": {"type": "LineString", "coordinates": [[136.3495102669567, 68.22979545864445], [136.35605321800836, 68.2293477917716]]}, "properties": {"source": "34672872", "target": "15827624"}}, {"type": "Feature", "geometry": {"type": "LineString", "coordinates": [[136.3495102669567, 68.22979545864445], [136.35693186035604, 68.22521026375765]]}, "properties": {"source": "34672872", "target": "439161"}}, {"type": "Feature", "geometry": {"type": "LineString", "coordinates": [[136.3495102669567, 68.22979545864445], [136.35453258948365, 68.22701275513975]]}, "properties": {"source": "34672872", "target": "102995"}}, {"type": "Feature", "geometry": {"type": "LineString", "coordinates": [[136.3495102669567, 68.22979545864445], [136.36137343015582, 68.22384767759942]]}, "properties": {"source": "34672872", "target": "558672"}}, {"type": "Feature", "geometry": {"type": "LineString", "coordinates": [[136.3495102669567, 68.22979545864445], [136.34585448319757, 68.22919380343498]]}, "properties": {"source": "34672872", "target": "13492718"}}, {"type": "Feature", "geometry": {"type": "LineString", "coordinates": [[136.35478670124832, 68.22969508562946], [136.34226841383696, 68.2243592044774]]}, "properties": {"source": "13598684", "target": "33118710"}}, {"type": "Feature", "geometry": {"type": "LineString", "coordinates": [[136.3492557076333, 68.22817751311032], [136.34484395893764, 68.22641117112619]]}, "properties": {"source": "24488108", "target": "19428250"}}, {"type": "Feature", "geometry": {"type": "LineString", "coordinates": [[136.3495102669567, 68.22979545864445], [136.3549370487039, 68.22501767181663]]}, "properties": {"source": "34672872", "target": "21465744"}}, {"type": "Feature", "geometry": {"type": "LineString", "coordinates": [[136.36895778241802, 68.22344446495555], [136.34472542535553, 68.22309217056247]]}, "properties": {"source": "28691570", "target": "30311096"}}, {"type": "Feature", "geometry": {"type": "LineString", "coordinates": [[136.36895778241802, 68.22344446495555], [136.3653471714582, 68.22443313014688]]}, "properties": {"source": "28691570", "target": "13321847"}}, {"type": "Feature", "geometry": {"type": "LineString", "coordinates": [[136.36895778241802, 68.22344446495555], [136.35478670124832, 68.22969508562946]]}, "properties": {"source": "28691570", "target": "13598684"}}, {"type": "Feature", "geometry": {"type": "LineString", "coordinates": [[136.36895778241802, 68.22344446495555], [136.3492557076333, 68.22817751311032]]}, "properties": {"source": "28691570", "target": "24488108"}}, {"type": "Feature", "geometry": {"type": "LineString", "coordinates": [[136.36895778241802, 68.22344446495555], [136.35068007210413, 68.22875465818927]]}, "properties": {"source": "28691570", "target": "29537763"}}, {"type": "Feature", "geometry": {"type": "LineString", "coordinates": [[136.36895778241802, 68.22344446495555], [136.36898251072137, 68.22882037284018]]}, "properties": {"source": "28691570", "target": "32499576"}}, {"type": "Feature", "geometry": {"type": "LineString", "coordinates": [[136.36895778241802, 68.22344446495555], [136.3561059771896, 68.2254205716037]]}, "properties": {"source": "28691570", "target": "29907861"}}, {"type": "Feature", "geometry": {"type": "LineString", "coordinates": [[136.36895778241802, 68.22344446495555], [136.36246859982248, 68.23032529825835]]}, "properties": {"source": "28691570", "target": "23122512"}}, {"type": "Feature", "geometry": {"type": "LineString", "coordinates": [[136.36895778241802, 68.22344446495555], [136.36059615047628, 68.22854257081357]]}, "properties": {"source": "28691570", "target": "28438850"}}, {"type": "Feature", "geometry": {"type": "LineString", "coordinates": [[136.36895778241802, 68.22344446495555], [136.3694303585391, 68.23025194893967]]}, "properties": {"source": "28691570", "target": "12338677"}}, {"type": "Feature", "geometry": {"type": "LineString", "coordinates": [[136.36895778241802, 68.22344446495555], [136.36840549546338, 68.22572798065761]]}, "properties": {"source": "28691570", "target": "31187079"}}, {"type": "Feature", "geometry": {"type": "LineString", "coordinates": [[136.36895778241802, 68.22344446495555], [136.36919828482843, 68.22695807553495]]}, "properties": {"source": "28691570", "target": "25497900"}}, {"type": "Feature", "geometry": {"type": "LineString", "coordinates": [[136.36895778241802, 68.22344446495555], [136.35796388475757, 68.22632245862386]]}, "properties": {"source": "28691570", "target": "10565980"}}, {"type": "Feature", "geometry": {"type": "LineString", "coordinates": [[136.34898995524435, 68.22305160534657], [136.3554743690779, 68.22329874755258]]}, "properties": {"source": "31180962", "target": "31180994"}}, {"type": "Feature", "geometry": {"type": "LineString", "coordinates": [[136.34898995524435, 68.22305160534657], [136.34644290877628, 68.22270348683324]]}, "properties": {"source": "31180962", "target": "27153434"}}, {"type": "Feature", "geometry": {"type": "LineString", "coordinates": [[136.36895778241802, 68.22344446495555], [136.34658028087938, 68.22468335891392]]}, "properties": {"source": "28691570", "target": "30740640"}}, {"type": "Feature", "geometry": {"type": "LineString", "coordinates": [[136.36696061811296, 68.2242162587776], [136.3628195002181, 68.22841548863042]]}, "properties": {"source": "22736324", "target": "22400777"}}, {"type": "Feature", "geometry": {"type": "LineString", "coordinates": [[136.35386967641227, 68.22523419508451], [136.35374062208285, 68.22263512264831]]}, "properties": {"source": "34434581", "target": "35708881"}}, {"type": "Feature", "geometry": {"type": "LineString", "coordinates": [[136.35386967641227, 68.22523419508451], [136.34472542535553, 68.22309217056247]]}, "properties": {"source": "34434581", "target": "30311096"}}, {"type": "Feature", "geometry": {"type": "LineString", "coordinates": [[136.35386967641227, 68.22523419508451], [136.34347150852204, 68.22336833646338]]}, "properties": {"source": "34434581", "target": "33118713"}}, {"type": "Feature", "geometry": {"type": "LineString", "coordinates": [[136.35386967641227, 68.22523419508451], [136.34226841383696, 68.2243592044774]]}, "properties": {"source": "34434581", "target": "33118710"}}, {"type": "Feature", "geometry": {"type": "LineString", "coordinates": [[136.35386967641227, 68.22523419508451], [136.35914969962795, 68.22430429812454]]}, "properties": {"source": "34434581", "target": "35829219"}}, {"type": "Feature", "geometry": {"type": "LineString", "coordinates": [[136.34819519389794, 68.22374042977975], [136.3429557936122, 68.2247292662687]]}, "properties": {"source": "1657891", "target": "22070242"}}, {"type": "Feature", "geometry": {"type": "LineString", "coordinates": [[136.34819519389794, 68.22374042977975], [136.3517532888722, 68.22670435167134]]}, "properties": {"source": "1657891", "target": "12451190"}}, {"type": "Feature", "geometry": {"type": "LineString", "coordinates": [[136.34819519389794, 68.22374042977975], [136.35453258948365, 68.22701275513975]]}, "properties": {"source": "1657891", "target": "102995"}}, {"type": "Feature", "geometry": {"type": "LineString", "coordinates": [[136.34819519389794, 68.22374042977975], [136.36301348089034, 68.22785478375772]]}, "properties": {"source": "1657891", "target": "13838471"}}, {"type": "Feature", "geometry": {"type": "LineString", "coordinates": [[136.34819519389794, 68.22374042977975], [136.3507744298659, 68.2263293539684]]}, "properties": {"source": "1657891", "target": "14417848"}}, {"type": "Feature", "geometry": {"type": "LineString", "coordinates": [[136.36309640096698, 68.23037000400558], [136.35770793948035, 68.23099109248349]]}, "properties": {"source": "20428262", "target": "25247924"}}, {"type": "Feature", "geometry": {"type": "LineString", "coordinates": [[136.36309640096698, 68.23037000400558], [136.3617615442654, 68.22704258751239]]}, "properties": {"source": "20428262", "target": "25247896"}}, {"type": "Feature", "geometry": {"type": "LineString", "coordinates": [[136.36309640096698, 68.23037000400558], [136.36400882941808, 68.22499331104737]]}, "properties": {"source": "20428262", "target": "25244935"}}, {"type": "Feature", "geometry": {"type": "LineString", "coordinates": [[136.36309640096698, 68.23037000400558], [136.35780177232397, 68.22238258045917]]}, "properties": {"source": "20428262", "target": "2362925"}}, {"type": "Feature", "geometry": {"type": "LineString", "coordinates": [[136.34819519389794, 68.22374042977975], [136.3549370487039, 68.22501767181663]]}, "properties": {"source": "1657891", "target": "21465744"}}, {"type": "Feature", "geometry": {"type": "LineString", "coordinates": [[136.3517532888722, 68.22670435167134], [136.3424664926336, 68.22684441412201]]}, "properties": {"source": "12451190", "target": "29982103"}}, {"type": "Feature", "geometry": {"type": "LineString", "coordinates": [[136.3517532888722, 68.22670435167134], [136.35693186035604, 68.22521026375765]]}, "properties": {"source": "12451190", "target": "439161"}}, {"type": "Feature", "geometry": {"type": "LineString", "coordinates": [[136.3517532888722, 68.22670435167134], [136.35453258948365, 68.22701275513975]]}, "properties": {"source": "12451190", "target": "102995"}}, {"type": "Feature", "geometry": {"type": "LineString", "coordinates": [[136.3517532888722, 68.22670435167134], [136.36389740487755, 68.22936781505942]]}, "properties": {"source": "12451190", "target": "1217490"}}, {"type": "Feature", "geometry": {"type": "LineString", "coordinates": [[136.3517532888722, 68.22670435167134], [136.3507744298659, 68.2263293539684]]}, "properties": {"source": "12451190", "target": "14417848"}}, {"type": "Feature", "geometry": {"type": "LineString", "coordinates": [[136.35770793948035, 68.23099109248349], [136.35335926732387, 68.23085273204455]]}, "properties": {"source": "25247924", "target": "30137628"}}, {"type": "Feature", "geometry": {"type": "LineString", "coordinates": [[136.35770793948035, 68.23099109248349], [136.35595444287753, 68.22826676119317]]}, "properties": {"source": "25247924", "target": "35228021"}}, {"type": "Feature", "geometry": {"type": "LineString", "coordinates": [[136.35770793948035, 68.23099109248349], [136.35074731429927, 68.2309837550415]]}, "properties": {"source": "25247924", "target": "35216892"}}, {"type": "Feature", "geometry": {"type": "LineString", "coordinates": [[136.35770793948035, 68.23099109248349], [136.35841424889622, 68.22823823931452]]}, "properties": {"source": "25247924", "target": "1706623"}}, {"type": "Feature", "geometry": {"type": "LineString", "coordinates": [[136.35770793948035, 68.23099109248349], [136.3617615442654, 68.22704258751239]]}, "properties": {"source": "25247924", "target": "25247896"}}, {"type": "Feature", "geometry": {"type": "LineString", "coordinates": [[136.35770793948035, 68.23099109248349], [136.35780177232397, 68.22238258045917]]}, "properties": {"source": "25247924", "target": "2362925"}}, {"type": "Feature", "geometry": {"type": "LineString", "coordinates": [[136.3653471714582, 68.22443313014688], [136.34644290877628, 68.22270348683324]]}, "properties": {"source": "13321847", "target": "27153434"}}, {"type": "Feature", "geometry": {"type": "LineString", "coordinates": [[136.3653471714582, 68.22443313014688], [136.35374062208285, 68.22263512264831]]}, "properties": {"source": "13321847", "target": "35708881"}}, {"type": "Feature", "geometry": {"type": "LineString", "coordinates": [[136.3517532888722, 68.22670435167134], [136.3549370487039, 68.22501767181663]]}, "properties": {"source": "12451190", "target": "21465744"}}, {"type": "Feature", "geometry": {"type": "LineString", "coordinates": [[136.3517532888722, 68.22670435167134], [136.36701516532486, 68.23145744788079]]}, "properties": {"source": "12451190", "target": "12296879"}}, {"type": "Feature", "geometry": {"type": "LineString", "coordinates": [[136.35770793948035, 68.23099109248349], [136.34311192518692, 68.22800995515112]]}, "properties": {"source": "25247924", "target": "7070495"}}]}