{"type": "FeatureCollection", "features": [{"type": "Feature", "geometry": {"type": "LineString", "coordinates": [[137.22969977059466, 69.22982022555559], [137.23188942008994, 69.22991307139074]]}, "properties": {"source": "35382589", "target": "35660495"}}, {"type": "Feature", "geometry": {"type": "LineString", "coordinates": [[137.23145456685376, 69.22997274037121], [137.23069358385203, 69.23072249783104]]}, "properties": {"source": "20661457", "target": "35382182"}}, {"type": "Feature", "geometry": {"type": "LineString", "coordinates": [[137.23145456685376, 69.22997274037121], [137.23052580337963, 69.23070329779816]]}, "properties": {"source": "20661457", "target": "35382114"}}, {"type": "Feature", "geometry": {"type": "LineString", "coordinates": [[137.23145456685376, 69.22997274037121], [137.23113097057194, 69.22977157145462]]}, "properties": {"source": "20661457", "target": "35382086"}}, {"type": "Feature", "geometry": {"type": "LineString", "coordinates": [[137.23145456685376, 69.22997274037121], [137.23075646273247, 69.23008900754735]]}, "properties": {"source": "20661457", "target": "35382153"}}, {"type": "Feature", "geometry": {"type": "LineString", "coordinates": [[137.23145456685376, 69.22997274037121], [137.23012884356825, 69.23037664957658]]}, "properties": {"source": "20661457", "target": "33979593"}}, {"type": "Feature", "geometry": {"type": "LineString", "coordinates": [[137.23145456685376, 69.22997274037121], [137.23108657624232, 69.23022202897681]]}, "properties": {"source": "20661457", "target": "35382244"}}, {"type": "Feature", "geometry": {"type": "LineString", "coordinates": [[137.23145456685376, 69.22997274037121], [137.23026184300375, 69.23012129040623]]}, "properties": {"source": "20661457", "target": "30172862"}}, {"type": "Feature", "geometry": {"type": "LineString", "coordinates": [[137.23145456685376, 69.22997274037121], [137.23248332740377, 69.23058787624458]]}, "properties": {"source": "20661457", "target": "35382546"}}, {"type": "Feature", "geometry": {"type": "LineString", "coordinates": [[137.23145456685376, 69.22997274037121], [137.23240866534763, 69.23014276035082]]}, "properties": {"source": "20661457", "target": "35382840"}}, {"type": "Feature", "geometry": {"type": "LineString", "coordinates": [[137.23145456685376, 69.22997274037121], [137.22969977059466, 69.22982022555559]]}, "properties": {"source": "20661457", "target": "35382589"}}, {"type": "Feature", "geometry": {"type": "LineString", "coordinates": [[137.23145456685376, 69.22997274037121], [137.23074563144195, 69.22996524231067]]}, "properties": {"source": "20661457", "target": "15086974"}}, {"type": "Feature", "geometry": {"type": "LineString", "coordinates": [[137.23208487266123, 69.22981625373879], [137.23052580337963, 69.23070329779816]]}, "properties": {"source": "25776666", "target": "35382114"}}, {"type": "Feature", "geometry": {"type": "LineString", "coordinates": [[137.23208487266123, 69.22981625373879], [137.23113097057194, 69.22977157145462]]}, "properties": {"source": "25776666", "target": "35382086"}}, {"type": "Feature", "geometry": {"type": "LineString", "coordinates": [[137.23052580337963, 69.23070329779816], [137.22986892099777, 69.2299101138037]]}, "properties": {"source": "35382114", "target": "3488673"}}, {"type": "Feature", "geometry": {"type": "LineString", "coordinates": [[137.23052580337963, 69.23070329779816], [137.23188942008994, 69.22991307139074]]}, "properties": {"source": "35382114", "target": "35660495"}}, {"type": "Feature", "geometry": {"type": "LineString", "coordinates": [[137.23052580337963, 69.23070329779816], [137.23074563144195, 69.22996524231067]]}, "properties": {"source": "35382114", "target": "15086974"}}, {"type": "Feature", "geometry": {"type": "LineString", "coordinates": [[137.23113097057194, 69.22977157145462], [137.23075646273247, 69.23008900754735]]}, "properties": {"source": "35382086", "target": "35382153"}}, {"type": "Feature", "geometry": {"type": "LineString", "coordinates": [[137.23113097057194, 69.22977157145462], [137.23012884356825, 69.23037664957658]]}, "properties": {"source": "35382086", "target": "33979593"}}, {"type": "Feature", "geometry": {"type": "LineString", "coordinates": [[137.23113097057194, 69.22977157145462], [137.23248332740377, 69.23058787624458]]}, "properties": {"source": "35382086", "target": "35382546"}}, {"type": "Feature", "geometry": {"type": "LineString", "coordinates": [[137.23113097057194, 69.22977157145462], [137.23240866534763, 69.23014276035082]]}, "properties": {"source": "35382086", "target": "35382840"}}, {"type": "Feature", "geometry": {"type": "LineString", "coordinates": [[137.23113097057194, 69.22977157145462], [137.22969977059466, 69.22982022555559]]}, "properties": {"source": "35382086", "target": "35382589"}}, {"type": "Feature", "geometry": {"type": "LineString", "coordinates": [[137.23113097057194, 69.22977157145462], [137.22986892099777, 69.2299101138037]]}, "properties": {"source": "35382086", "target": "3488673"}}, {"type": "Feature", "geometry": {"type": "LineString", "coordinates": [[137.23113097057194, 69.22977157145462], [137.23188942008994, 69.22991307139074]]}, "properties": {"source": "35382086", "target": "35660495"}}, {"type": "Feature", "geometry": {"type": "LineString", "coordinates": [[137.23113097057194, 69.22977157145462], [137.23074563144195, 69.22996524231067]]}, "properties": {"source": "35382086", "target": "15086974"}}, {"type": "Feature", "geometry": {"type": "LineString", "coordinates": [[137.23075646273247, 69.23008900754735], [137.23012884356825, 69.23037664957658]]}, "properties": {"source": "35382153", "target": "33979593"}}, {"type": "Feature", "geometry": {"type": "LineString", "coordinates": [[137.23075646273247, 69.23008900754735], [137.23188942008994, 69.22991307139074]]}, "properties": {"source": "35382153", "target": "35660495"}}, {"type": "Feature", "geometry": {"type": "LineString", "coordinates": [[137.23075646273247, 69.23008900754735], [137.23074563144195, 69.22996524231067]]}, "properties": {"source": "35382153", "target": "15086974"}}, {"type": "Feature", "geometry": {"type": "LineString", "coordinates": [[137.22969977059466, 69.22982022555559], [137.23075646273247, 69.23008900754735]]}, "properties": {"source": "35382589", "target": "35382153"}}, {"type": "Feature", "geometry": {"type": "LineString", "coordinates": [[137.22969977059466, 69.22982022555559], [137.23012884356825, 69.23037664957658]]}, "properties": {"source": "35382589", "target": "33979593"}}, {"type": "Feature", "geometry": {"type": "LineString", "coordinates": [[137.23026184300375, 69.23012129040623], [137.23248332740377, 69.23058787624458]]}, "properties": {"source": "30172862", "target": "35382546"}}, {"type": "Feature", "geometry": {"type": "LineString", "coordinates": [[137.23026184300375, 69.23012129040623], [137.23240866534763, 69.23014276035082]]}, "properties": {"source": "30172862", "target": "35382840"}}, {"type": "Feature", "geometry": {"type": "LineString", "coordinates": [[137.23026184300375, 69.23012129040623], [137.22969977059466, 69.22982022555559]]}, "properties": {"source": "30172862", "target": "35382589"}}, {"type": "Feature", "geometry": {"type": "LineString", "coordinates": [[137.23026184300375, 69.23012129040623], [137.23188942008994, 69.22991307139074]]}, "properties": {"source": "30172862", "target": "35660495"}}, {"type": "Feature", "geometry": {"type": "LineString", "coordinates": [[137.23026184300375, 69.23012129040623], [137.23074563144195, 69.22996524231067]]}, "properties": {"source": "30172862", "target": "15086974"}}, {"type": "Feature", "geometry": {"type": "LineString", "coordinates": [[137.23248332740377, 69.23058787624458], [137.23075646273247, 69.23008900754735]]}, "properties": {"source": "35382546", "target": "35382153"}}, {"type": "Feature", "geometry": {"type": "LineString", "coordinates": [[137.23248332740377, 69.23058787624458], [137.23012884356825, 69.23037664957658]]}, "properties": {"source": "35382546", "target": "33979593"}}, {"type": "Feature", "geometry": {"type": "LineString", "coordinates": [[137.23248332740377, 69.23058787624458], [137.23240866534763, 69.23014276035082]]}, "properties": {"source": "35382546", "target": "35382840"}}, {"type": "Feature", "geometry": {"type": "LineString", "coordinates": [[137.23248332740377, 69.23058787624458], [137.22969977059466, 69.22982022555559]]}, "properties": {"source": "35382546", "target": "35382589"}}, {"type": "Feature", "geometry": {"type": "LineString", "coordinates": [[137.23248332740377, 69.23058787624458], [137.23188942008994, 69.22991307139074]]}, "properties": {"source": "35382546", "target": "35660495"}}, {"type": "Feature", "geometry": {"type": "LineString", "coordinates": [[137.23240866534763, 69.23014276035082], [137.23075646273247, 69.23008900754735]]}, "properties": {"source": "35382840", "target": "35382153"}}, {"type": "Feature", "geometry": {"type": "LineString", "coordinates": [[137.23240866534763, 69.23014276035082], [137.23012884356825, 69.23037664957658]]}, "properties": {"source": "35382840", "target": "33979593"}}, {"type": "Feature", "geometry": {"type": "LineString", "coordinates": [[137.23240866534763, 69.23014276035082], [137.22969977059466, 69.22982022555559]]}, "properties": {"source": "35382840", "target": "35382589"}}, {"type": "Feature", "geometry": {"type": "LineString", "coordinates": [[137.23240866534763, 69.23014276035082], [137.23188942008994, 69.22991307139074]]}, "properties": {"source": "35382840", "target": "35660495"}}, {"type": "Feature", "geometry": {"type": "LineString", "coordinates": [[137.23012884356825, 69.23037664957658], [137.23188942008994, 69.22991307139074]]}, "properties": {"source": "33979593", "target": "35660495"}}, {"type": "Feature", "geometry": {"type": "LineString", "coordinates": [[137.23012884356825, 69.23037664957658], [137.23074563144195, 69.22996524231067]]}, "properties": {"source": "33979593", "target": "15086974"}}, {"type": "Feature", "geometry": {"type": "LineString", "coordinates": [[137.23108657624232, 69.23022202897681], [137.23069358385203, 69.23072249783104]]}, "properties": {"source": "35382244", "target": "35382182"}}, {"type": "Feature", "geometry": {"type": "LineString", "coordinates": [[137.23108657624232, 69.23022202897681], [137.23052580337963, 69.23070329779816]]}, "properties": {"source": "35382244", "target": "35382114"}}, {"type": "Feature", "geometry": {"type": "LineString", "coordinates": [[137.23108657624232, 69.23022202897681], [137.23113097057194, 69.22977157145462]]}, "properties": {"source": "35382244", "target": "35382086"}}, {"type": "Feature", "geometry": {"type": "LineString", "coordinates": [[137.23108657624232, 69.23022202897681], [137.23075646273247, 69.23008900754735]]}, "properties": {"source": "35382244", "target": "35382153"}}, {"type": "Feature", "geometry": {"type": "LineString", "coordinates": [[137.23108657624232, 69.23022202897681], [137.23012884356825, 69.23037664957658]]}, "properties": {"source": "35382244", "target": "33979593"}}, {"type": "Feature", "geometry": {"type": "LineString", "coordinates": [[137.23108657624232, 69.23022202897681], [137.23026184300375, 69.23012129040623]]}, "properties": {"source": "35382244", "target": "30172862"}}, {"type": "Feature", "geometry": {"type": "LineString", "coordinates": [[137.23108657624232, 69.23022202897681], [137.23248332740377, 69.23058787624458]]}, "properties": {"source": "35382244", "target": "35382546"}}, {"type": "Feature", "geometry": {"type": "LineString", "coordinates": [[137.23108657624232, 69.23022202897681], [137.23240866534763, 69.23014276035082]]}, "properties": {"source": "35382244", "target": "35382840"}}, {"type": "Feature", "geometry": {"type": "LineString", "coordinates": [[137.23108657624232, 69.23022202897681], [137.22969977059466, 69.22982022555559]]}, "properties": {"source": "35382244", "target": "35382589"}}, {"type": "Feature", "geometry": {"type": "LineString", "coordinates": [[137.23108657624232, 69.23022202897681], [137.23208487266123, 69.22981625373879]]}, "properties": {"source": "35382244", "target": "25776666"}}, {"type": "Feature", "geometry": {"type": "LineString", "coordinates": [[137.23108657624232, 69.23022202897681], [137.22986892099777, 69.2299101138037]]}, "properties": {"source": "35382244", "target": "3488673"}}, {"type": "Feature", "geometry": {"type": "LineString", "coordinates": [[137.23108657624232, 69.23022202897681], [137.23188942008994, 69.22991307139074]]}, "properties": {"source": "35382244", "target": "35660495"}}, {"type": "Feature", "geometry": {"type": "LineString", "coordinates": [[137.23026184300375, 69.23012129040623], [137.23052580337963, 69.23070329779816]]}, "properties": {"source": "30172862", "target": "35382114"}}, {"type": "Feature", "geometry": {"type": "LineString", "coordinates": [[137.23026184300375, 69.23012129040623], [137.23113097057194, 69.22977157145462]]}, "properties": {"source": "30172862", "target": "35382086"}}, {"type": "Feature", "geometry": {"type": "LineString", "coordinates": [[137.23052580337963, 69.23070329779816], [137.23240866534763, 69.23014276035082]]}, "properties": {"source": "35382114", "target": "35382840"}}, {"type": "Feature", "geometry": {"type": "LineString", "coordinates": [[137.23052580337963, 69.23070329779816], [137.22969977059466, 69.22982022555559]]}, "properties": {"source": "35382114", "target": "35382589"}}, {"type": "Feature", "geometry": {"type": "LineString", "coordinates": [[137.23069358385203, 69.23072249783104], [137.23052580337963, 69.23070329779816]]}, "properties": {"source": "35382182", "target": "35382114"}}, {"type": "Feature", "geometry": {"type": "LineString", "coordinates": [[137.23069358385203, 69.23072249783104], [137.23113097057194, 69.22977157145462]]}, "properties": {"source": "35382182", "target": "35382086"}}, {"type": "Feature", "geometry": {"type": "LineString", "coordinates": [[137.23069358385203, 69.23072249783104], [137.23075646273247, 69.23008900754735]]}, "properties": {"source": "35382182", "target": "35382153"}}, {"type": "Feature", "geometry": {"type": "LineString", "coordinates": [[137.23069358385203, 69.23072249783104], [137.23012884356825, 69.23037664957658]]}, "properties": {"source": "35382182", "target": "33979593"}}, {"type": "Feature", "geometry": {"type": "LineString", "coordinates": [[137.23069358385203, 69.23072249783104], [137.23026184300375, 69.23012129040623]]}, "properties": {"source": "35382182", "target": "30172862"}}, {"type": "Feature", "geometry": {"type": "LineString", "coordinates": [[137.23069358385203, 69.23072249783104], [137.23248332740377, 69.23058787624458]]}, "properties": {"source": "35382182", "target": "35382546"}}, {"type": "Feature", "geometry": {"type": "LineString", "coordinates": [[137.23069358385203, 69.23072249783104], [137.23240866534763, 69.23014276035082]]}, "properties": {"source": "35382182", "target": "35382840"}}, {"type": "Feature", "geometry": {"type": "LineString", "coordinates": [[137.23069358385203, 69.23072249783104], [137.22969977059466, 69.22982022555559]]}, "properties": {"source": "35382182", "target": "35382589"}}, {"type": "Feature", "geometry": {"type": "LineString", "coordinates": [[137.23069358385203, 69.23072249783104], [137.23208487266123, 69.22981625373879]]}, "properties": {"source": "35382182", "target": "25776666"}}, {"type": "Feature", "geometry": {"type": "LineString", "coordinates": [[137.23069358385203, 69.23072249783104], [137.22986892099777, 69.2299101138037]]}, "properties": {"source": "35382182", "target": "3488673"}}, {"type": "Feature", "geometry": {"type": "LineString", "coordinates": [[137.23069358385203, 69.23072249783104], [137.23188942008994, 69.22991307139074]]}, "properties": {"source": "35382182", "target": "35660495"}}, {"type": "Feature", "geometry": {"type": "LineString", "coordinates": [[137.23069358385203, 69.23072249783104], [137.23074563144195, 69.22996524231067]]}, "properties": {"source": "35382182", "target": "15086974"}}, {"type": "Feature", "geometry": {"type": "LineString", "coordinates": [[137.23052580337963, 69.23070329779816], [137.23113097057194, 69.22977157145462]]}, "properties": {"source": "35382114", "target": "35382086"}}, {"type": "Feature", "geometry": {"type": "LineString", "coordinates": [[137.23052580337963, 69.23070329779816], [137.23075646273247, 69.23008900754735]]}, "properties": {"source": "35382114", "target": "35382153"}}, {"type": "Feature", "geometry": {"type": "LineString", "coordinates": [[137.23052580337963, 69.23070329779816], [137.23012884356825, 69.23037664957658]]}, "properties": {"source": "35382114", "target": "33979593"}}, {"type": "Feature", "geometry": {"type": "LineString", "coordinates": [[137.23052580337963, 69.23070329779816], [137.23248332740377, 69.23058787624458]]}, "properties": {"source": "35382114", "target": "35382546"}}, {"type": "Feature", "geometry": {"type": "LineString", "coordinates": [[137.23208487266123, 69.22981625373879], [137.23075646273247, 69.23008900754735]]}, "properties": {"source": "25776666", "target": "35382153"}}, {"type": "Feature", "geometry": {"type": "LineString", "coordinates": [[137.23208487266123, 69.22981625373879], [137.23012884356825, 69.23037664957658]]}, "properties": {"source": "25776666", "target": "33979593"}}, {"type": "Feature", "geometry": {"type": "LineString", "coordinates": [[137.23208487266123, 69.22981625373879], [137.23026184300375, 69.23012129040623]]}, "properties": {"source": "25776666", "target": "30172862"}}, {"type": "Feature", "geometry": {"type": "LineString", "coordinates": [[137.23208487266123, 69.22981625373879], [137.23248332740377, 69.23058787624458]]}, "properties": {"source": "25776666", "target": "35382546"}}, {"type": "Feature", "geometry": {"type": "LineString", "coordinates": [[137.23208487266123, 69.22981625373879], [137.23240866534763, 69.23014276035082]]}, "properties": {"source": "25776666", "target": "35382840"}}, {"type": "Feature", "geometry": {"type": "LineString", "coordinates": [[137.23208487266123, 69.22981625373879], [137.22969977059466, 69.22982022555559]]}, "properties": {"source": "25776666", "target": "35382589"}}, {"type": "Feature", "geometry": {"type": "LineString", "coordinates": [[137.23208487266123, 69.22981625373879], [137.23074563144195, 69.22996524231067]]}, "properties": {"source": "25776666", "target": "15086974"}}, {"type": "Feature", "geometry": {"type": "LineString", "coordinates": [[137.22986892099777, 69.2299101138037], [137.23075646273247, 69.23008900754735]]}, "properties": {"source": "3488673", "target": "35382153"}}, {"type": "Feature", "geometry": {"type": "LineString", "coordinates": [[137.22986892099777, 69.2299101138037], [137.23012884356825, 69.23037664957658]]}, "properties": {"source": "3488673", "target": "33979593"}}, {"type": "Feature", "geometry": {"type": "LineString", "coordinates": [[137.22986892099777, 69.2299101138037], [137.23248332740377, 69.23058787624458]]}, "properties": {"source": "3488673", "target": "35382546"}}, {"type": "Feature", "geometry": {"type": "LineString", "coordinates": [[137.22986892099777, 69.2299101138037], [137.23240866534763, 69.23014276035082]]}, "properties": {"source": "3488673", "target": "35382840"}}, {"type": "Feature", "geometry": {"type": "LineString", "coordinates": [[137.22986892099777, 69.2299101138037], [137.22969977059466, 69.22982022555559]]}, "properties": {"source": "3488673", "target": "35382589"}}, {"type": "Feature", "geometry": {"type": "LineString", "coordinates": [[137.22986892099777, 69.2299101138037], [137.23188942008994, 69.22991307139074]]}, "properties": {"source": "3488673", "target": "35660495"}}, {"type": "Feature", "geometry": {"type": "LineString", "coordinates": [[137.22986892099777, 69.2299101138037], [137.23074563144195, 69.22996524231067]]}, "properties": {"source": "3488673", "target": "15086974"}}, {"type": "Feature", "geometry": {"type": "LineString", "coordinates": [[137.23026184300375, 69.23012129040623], [137.23075646273247, 69.23008900754735]]}, "properties": {"source": "30172862", "target": "35382153"}}, {"type": "Feature", "geometry": {"type": "LineString", "coordinates": [[137.23026184300375, 69.23012129040623], [137.23012884356825, 69.23037664957658]]}, "properties": {"source": "30172862", "target": "33979593"}}]}