{"type": "FeatureCollection", "features": [{"type": "Feature", "geometry": {"type": "LineString", "coordinates": [[23.43362801561301, 69.22990597687138], [23.434705363405925, 69.2320848459041]]}, "properties": {"source": "1551208", "target": "1551206"}}, {"type": "Feature", "geometry": {"type": "LineString", "coordinates": [[23.43362801561301, 69.22990597687138], [23.43104650472202, 69.23109892484169]]}, "properties": {"source": "1551208", "target": "1466494"}}, {"type": "Feature", "geometry": {"type": "LineString", "coordinates": [[23.42639814596683, 69.23121244989906], [23.434574277013212, 69.2314782407673]]}, "properties": {"source": "2946884", "target": "3232714"}}, {"type": "Feature", "geometry": {"type": "LineString", "coordinates": [[23.428227326935684, 69.23032889444187], [23.432403031461547, 69.23192199750028]]}, "properties": {"source": "6034029", "target": "3114666"}}, {"type": "Feature", "geometry": {"type": "LineString", "coordinates": [[23.428227326935684, 69.23032889444187], [23.42639814596683, 69.23121244989906]]}, "properties": {"source": "6034029", "target": "2946884"}}, {"type": "Feature", "geometry": {"type": "LineString", "coordinates": [[23.428227326935684, 69.23032889444187], [23.427191478939847, 69.23033098541981]]}, "properties": {"source": "6034029", "target": "995779"}}, {"type": "Feature", "geometry": {"type": "LineString", "coordinates": [[23.428227326935684, 69.23032889444187], [23.43476923454557, 69.23056712006314]]}, "properties": {"source": "6034029", "target": "2859279"}}, {"type": "Feature", "geometry": {"type": "LineString", "coordinates": [[23.428227326935684, 69.23032889444187], [23.426849638495725, 69.2319995442368]]}, "properties": {"source": "6034029", "target": "1165759"}}, {"type": "Feature", "geometry": {"type": "LineString", "coordinates": [[23.428227326935684, 69.23032889444187], [23.430385552400224, 69.23259944287588]]}, "properties": {"source": "6034029", "target": "995775"}}, {"type": "Feature", "geometry": {"type": "LineString", "coordinates": [[23.428227326935684, 69.23032889444187], [23.43326145025273, 69.23165652433647]]}, "properties": {"source": "6034029", "target": "6530458"}}, {"type": "Feature", "geometry": {"type": "LineString", "coordinates": [[23.428227326935684, 69.23032889444187], [23.427372566012934, 69.23085505672859]]}, "properties": {"source": "6034029", "target": "6061468"}}, {"type": "Feature", "geometry": {"type": "LineString", "coordinates": [[23.430118229254845, 69.23256602327507], [23.427990372500204, 69.23043586504409]]}, "properties": {"source": "3194650", "target": "3207566"}}, {"type": "Feature", "geometry": {"type": "LineString", "coordinates": [[23.430118229254845, 69.23256602327507], [23.42639814596683, 69.23121244989906]]}, "properties": {"source": "3194650", "target": "2946884"}}, {"type": "Feature", "geometry": {"type": "LineString", "coordinates": [[23.430118229254845, 69.23256602327507], [23.429815583012584, 69.23063312947994]]}, "properties": {"source": "3194650", "target": "1551207"}}, {"type": "Feature", "geometry": {"type": "LineString", "coordinates": [[23.430118229254845, 69.23256602327507], [23.434705363405925, 69.2320848459041]]}, "properties": {"source": "3194650", "target": "1551206"}}, {"type": "Feature", "geometry": {"type": "LineString", "coordinates": [[23.428325476629738, 69.2308158445615], [23.429815583012584, 69.23063312947994]]}, "properties": {"source": "7685546", "target": "1551207"}}, {"type": "Feature", "geometry": {"type": "LineString", "coordinates": [[23.42731500085435, 69.23041024836044], [23.433875351560772, 69.23161180109355]]}, "properties": {"source": "2282658", "target": "2010356"}}, {"type": "Feature", "geometry": {"type": "LineString", "coordinates": [[23.42731500085435, 69.23041024836044], [23.42806362063078, 69.23200214894496]]}, "properties": {"source": "2282658", "target": "197302"}}, {"type": "Feature", "geometry": {"type": "LineString", "coordinates": [[23.427718697806085, 69.23175113008679], [23.427990372500204, 69.23043586504409]]}, "properties": {"source": "6251310", "target": "3207566"}}, {"type": "Feature", "geometry": {"type": "LineString", "coordinates": [[23.427718697806085, 69.23175113008679], [23.432403031461547, 69.23192199750028]]}, "properties": {"source": "6251310", "target": "3114666"}}, {"type": "Feature", "geometry": {"type": "LineString", "coordinates": [[23.427718697806085, 69.23175113008679], [23.42639814596683, 69.23121244989906]]}, "properties": {"source": "6251310", "target": "2946884"}}, {"type": "Feature", "geometry": {"type": "LineString", "coordinates": [[23.427718697806085, 69.23175113008679], [23.429815583012584, 69.23063312947994]]}, "properties": {"source": "6251310", "target": "1551207"}}, {"type": "Feature", "geometry": {"type": "LineString", "coordinates": [[23.427718697806085, 69.23175113008679], [23.427191478939847, 69.23033098541981]]}, "properties": {"source": "6251310", "target": "995779"}}, {"type": "Feature", "geometry": {"type": "LineString", "coordinates": [[23.427718697806085, 69.23175113008679], [23.42963438381301, 69.23266974721588]]}, "properties": {"source": "6251310", "target": "1551204"}}, {"type": "Feature", "geometry": {"type": "LineString", "coordinates": [[23.427718697806085, 69.23175113008679], [23.434574277013212, 69.2314782407673]]}, "properties": {"source": "6251310", "target": "3232714"}}, {"type": "Feature", "geometry": {"type": "LineString", "coordinates": [[23.42666175947869, 69.23197183403343], [23.427990372500204, 69.23043586504409]]}, "properties": {"source": "1551211", "target": "3207566"}}, {"type": "Feature", "geometry": {"type": "LineString", "coordinates": [[23.42666175947869, 69.23197183403343], [23.427718697806085, 69.23175113008679]]}, "properties": {"source": "1551211", "target": "6251310"}}, {"type": "Feature", "geometry": {"type": "LineString", "coordinates": [[23.42666175947869, 69.23197183403343], [23.432403031461547, 69.23192199750028]]}, "properties": {"source": "1551211", "target": "3114666"}}, {"type": "Feature", "geometry": {"type": "LineString", "coordinates": [[23.42666175947869, 69.23197183403343], [23.43346461323901, 69.23241265347812]]}, "properties": {"source": "1551211", "target": "1714822"}}, {"type": "Feature", "geometry": {"type": "LineString", "coordinates": [[23.42666175947869, 69.23197183403343], [23.429815583012584, 69.23063312947994]]}, "properties": {"source": "1551211", "target": "1551207"}}, {"type": "Feature", "geometry": {"type": "LineString", "coordinates": [[23.42666175947869, 69.23197183403343], [23.42963438381301, 69.23266974721588]]}, "properties": {"source": "1551211", "target": "1551204"}}, {"type": "Feature", "geometry": {"type": "LineString", "coordinates": [[23.43362801561301, 69.22990597687138], [23.42963438381301, 69.23266974721588]]}, "properties": {"source": "1551208", "target": "1551204"}}, {"type": "Feature", "geometry": {"type": "LineString", "coordinates": [[23.428325476629738, 69.2308158445615], [23.434546263695665, 69.23176126810952]]}, "properties": {"source": "7685546", "target": "1551205"}}, {"type": "Feature", "geometry": {"type": "LineString", "coordinates": [[23.428325476629738, 69.2308158445615], [23.427191478939847, 69.23033098541981]]}, "properties": {"source": "7685546", "target": "995779"}}, {"type": "Feature", "geometry": {"type": "LineString", "coordinates": [[23.428325476629738, 69.2308158445615], [23.42963438381301, 69.23266974721588]]}, "properties": {"source": "7685546", "target": "1551204"}}, {"type": "Feature", "geometry": {"type": "LineString", "coordinates": [[23.428325476629738, 69.2308158445615], [23.434705363405925, 69.2320848459041]]}, "properties": {"source": "7685546", "target": "1551206"}}, {"type": "Feature", "geometry": {"type": "LineString", "coordinates": [[23.428325476629738, 69.2308158445615], [23.427903239340537, 69.2305428071385]]}, "properties": {"source": "7685546", "target": "7995891"}}, {"type": "Feature", "geometry": {"type": "LineString", "coordinates": [[23.428325476629738, 69.2308158445615], [23.430385552400224, 69.23259944287588]]}, "properties": {"source": "7685546", "target": "995775"}}, {"type": "Feature", "geometry": {"type": "LineString", "coordinates": [[23.428325476629738, 69.2308158445615], [23.434574277013212, 69.2314782407673]]}, "properties": {"source": "7685546", "target": "3232714"}}, {"type": "Feature", "geometry": {"type": "LineString", "coordinates": [[23.428325476629738, 69.2308158445615], [23.43326145025273, 69.23165652433647]]}, "properties": {"source": "7685546", "target": "6530458"}}, {"type": "Feature", "geometry": {"type": "LineString", "coordinates": [[23.433449045046586, 69.23210135436781], [23.427138885257676, 69.23247313272438]]}, "properties": {"source": "3418598", "target": "4951108"}}, {"type": "Feature", "geometry": {"type": "LineString", "coordinates": [[23.433449045046586, 69.23210135436781], [23.433392169815193, 69.23214338749986]]}, "properties": {"source": "3418598", "target": "4951297"}}, {"type": "Feature", "geometry": {"type": "LineString", "coordinates": [[23.433449045046586, 69.23210135436781], [23.428325476629738, 69.2308158445615]]}, "properties": {"source": "3418598", "target": "7685546"}}, {"type": "Feature", "geometry": {"type": "LineString", "coordinates": [[23.433449045046586, 69.23210135436781], [23.427990372500204, 69.23043586504409]]}, "properties": {"source": "3418598", "target": "3207566"}}, {"type": "Feature", "geometry": {"type": "LineString", "coordinates": [[23.433449045046586, 69.23210135436781], [23.42731500085435, 69.23041024836044]]}, "properties": {"source": "3418598", "target": "2282658"}}, {"type": "Feature", "geometry": {"type": "LineString", "coordinates": [[23.433449045046586, 69.23210135436781], [23.427718697806085, 69.23175113008679]]}, "properties": {"source": "3418598", "target": "6251310"}}, {"type": "Feature", "geometry": {"type": "LineString", "coordinates": [[23.433449045046586, 69.23210135436781], [23.42666175947869, 69.23197183403343]]}, "properties": {"source": "3418598", "target": "1551211"}}, {"type": "Feature", "geometry": {"type": "LineString", "coordinates": [[23.433449045046586, 69.23210135436781], [23.432403031461547, 69.23192199750028]]}, "properties": {"source": "3418598", "target": "3114666"}}, {"type": "Feature", "geometry": {"type": "LineString", "coordinates": [[23.433449045046586, 69.23210135436781], [23.42639814596683, 69.23121244989906]]}, "properties": {"source": "3418598", "target": "2946884"}}, {"type": "Feature", "geometry": {"type": "LineString", "coordinates": [[23.433449045046586, 69.23210135436781], [23.428227326935684, 69.23032889444187]]}, "properties": {"source": "3418598", "target": "6034029"}}, {"type": "Feature", "geometry": {"type": "LineString", "coordinates": [[23.433449045046586, 69.23210135436781], [23.430118229254845, 69.23256602327507]]}, "properties": {"source": "3418598", "target": "3194650"}}, {"type": "Feature", "geometry": {"type": "LineString", "coordinates": [[23.433449045046586, 69.23210135436781], [23.43346461323901, 69.23241265347812]]}, "properties": {"source": "3418598", "target": "1714822"}}, {"type": "Feature", "geometry": {"type": "LineString", "coordinates": [[23.433449045046586, 69.23210135436781], [23.434546263695665, 69.23176126810952]]}, "properties": {"source": "3418598", "target": "1551205"}}, {"type": "Feature", "geometry": {"type": "LineString", "coordinates": [[23.433449045046586, 69.23210135436781], [23.43476923454557, 69.23056712006314]]}, "properties": {"source": "3418598", "target": "2859279"}}, {"type": "Feature", "geometry": {"type": "LineString", "coordinates": [[23.433449045046586, 69.23210135436781], [23.426849638495725, 69.2319995442368]]}, "properties": {"source": "3418598", "target": "1165759"}}, {"type": "Feature", "geometry": {"type": "LineString", "coordinates": [[23.433449045046586, 69.23210135436781], [23.430385552400224, 69.23259944287588]]}, "properties": {"source": "3418598", "target": "995775"}}, {"type": "Feature", "geometry": {"type": "LineString", "coordinates": [[23.433449045046586, 69.23210135436781], [23.429802453228035, 69.23272857498304]]}, "properties": {"source": "3418598", "target": "254103"}}, {"type": "Feature", "geometry": {"type": "LineString", "coordinates": [[23.433449045046586, 69.23210135436781], [23.433875351560772, 69.23161180109355]]}, "properties": {"source": "3418598", "target": "2010356"}}, {"type": "Feature", "geometry": {"type": "LineString", "coordinates": [[23.433449045046586, 69.23210135436781], [23.426243927005828, 69.22997273870462]]}, "properties": {"source": "3418598", "target": "2594251"}}, {"type": "Feature", "geometry": {"type": "LineString", "coordinates": [[23.433449045046586, 69.23210135436781], [23.428731268235737, 69.23070861024331]]}, "properties": {"source": "3418598", "target": "20358914"}}, {"type": "Feature", "geometry": {"type": "LineString", "coordinates": [[23.427990372500204, 69.23043586504409], [23.432403031461547, 69.23192199750028]]}, "properties": {"source": "3207566", "target": "3114666"}}, {"type": "Feature", "geometry": {"type": "LineString", "coordinates": [[23.427990372500204, 69.23043586504409], [23.42639814596683, 69.23121244989906]]}, "properties": {"source": "3207566", "target": "2946884"}}, {"type": "Feature", "geometry": {"type": "LineString", "coordinates": [[23.427990372500204, 69.23043586504409], [23.429815583012584, 69.23063312947994]]}, "properties": {"source": "3207566", "target": "1551207"}}, {"type": "Feature", "geometry": {"type": "LineString", "coordinates": [[23.42666175947869, 69.23197183403343], [23.426849638495725, 69.2319995442368]]}, "properties": {"source": "1551211", "target": "1165759"}}, {"type": "Feature", "geometry": {"type": "LineString", "coordinates": [[23.432403031461547, 69.23192199750028], [23.433875351560772, 69.23161180109355]]}, "properties": {"source": "3114666", "target": "2010356"}}, {"type": "Feature", "geometry": {"type": "LineString", "coordinates": [[23.432403031461547, 69.23192199750028], [23.426243927005828, 69.22997273870462]]}, "properties": {"source": "3114666", "target": "2594251"}}, {"type": "Feature", "geometry": {"type": "LineString", "coordinates": [[23.43362801561301, 69.22990597687138], [23.427138885257676, 69.23247313272438]]}, "properties": {"source": "1551208", "target": "4951108"}}, {"type": "Feature", "geometry": {"type": "LineString", "coordinates": [[23.43362801561301, 69.22990597687138], [23.433392169815193, 69.23214338749986]]}, "properties": {"source": "1551208", "target": "4951297"}}, {"type": "Feature", "geometry": {"type": "LineString", "coordinates": [[23.43362801561301, 69.22990597687138], [23.428325476629738, 69.2308158445615]]}, "properties": {"source": "1551208", "target": "7685546"}}, {"type": "Feature", "geometry": {"type": "LineString", "coordinates": [[23.43362801561301, 69.22990597687138], [23.427990372500204, 69.23043586504409]]}, "properties": {"source": "1551208", "target": "3207566"}}, {"type": "Feature", "geometry": {"type": "LineString", "coordinates": [[23.43362801561301, 69.22990597687138], [23.42731500085435, 69.23041024836044]]}, "properties": {"source": "1551208", "target": "2282658"}}, {"type": "Feature", "geometry": {"type": "LineString", "coordinates": [[23.43362801561301, 69.22990597687138], [23.427718697806085, 69.23175113008679]]}, "properties": {"source": "1551208", "target": "6251310"}}, {"type": "Feature", "geometry": {"type": "LineString", "coordinates": [[23.43362801561301, 69.22990597687138], [23.42666175947869, 69.23197183403343]]}, "properties": {"source": "1551208", "target": "1551211"}}, {"type": "Feature", "geometry": {"type": "LineString", "coordinates": [[23.43362801561301, 69.22990597687138], [23.42639814596683, 69.23121244989906]]}, "properties": {"source": "1551208", "target": "2946884"}}, {"type": "Feature", "geometry": {"type": "LineString", "coordinates": [[23.43362801561301, 69.22990597687138], [23.430118229254845, 69.23256602327507]]}, "properties": {"source": "1551208", "target": "3194650"}}, {"type": "Feature", "geometry": {"type": "LineString", "coordinates": [[23.43362801561301, 69.22990597687138], [23.43346461323901, 69.23241265347812]]}, "properties": {"source": "1551208", "target": "1714822"}}, {"type": "Feature", "geometry": {"type": "LineString", "coordinates": [[23.43362801561301, 69.22990597687138], [23.429815583012584, 69.23063312947994]]}, "properties": {"source": "1551208", "target": "1551207"}}, {"type": "Feature", "geometry": {"type": "LineString", "coordinates": [[23.43362801561301, 69.22990597687138], [23.434546263695665, 69.23176126810952]]}, "properties": {"source": "1551208", "target": "1551205"}}, {"type": "Feature", "geometry": {"type": "LineString", "coordinates": [[23.42731500085435, 69.23041024836044], [23.427372552603032, 69.23076563322172]]}, "properties": {"source": "2282658", "target": "1835829"}}, {"type": "Feature", "geometry": {"type": "LineString", "coordinates": [[23.427990372500204, 69.23043586504409], [23.433875351560772, 69.23161180109355]]}, "properties": {"source": "3207566", "target": "2010356"}}, {"type": "Feature", "geometry": {"type": "LineString", "coordinates": [[23.42731500085435, 69.23041024836044], [23.427138885257676, 69.23247313272438]]}, "properties": {"source": "2282658", "target": "4951108"}}, {"type": "Feature", "geometry": {"type": "LineString", "coordinates": [[23.42731500085435, 69.23041024836044], [23.433392169815193, 69.23214338749986]]}, "properties": {"source": "2282658", "target": "4951297"}}, {"type": "Feature", "geometry": {"type": "LineString", "coordinates": [[23.42731500085435, 69.23041024836044], [23.428325476629738, 69.2308158445615]]}, "properties": {"source": "2282658", "target": "7685546"}}, {"type": "Feature", "geometry": {"type": "LineString", "coordinates": [[23.42731500085435, 69.23041024836044], [23.427990372500204, 69.23043586504409]]}, "properties": {"source": "2282658", "target": "3207566"}}, {"type": "Feature", "geometry": {"type": "LineString", "coordinates": [[23.42731500085435, 69.23041024836044], [23.427718697806085, 69.23175113008679]]}, "properties": {"source": "2282658", "target": "6251310"}}, {"type": "Feature", "geometry": {"type": "LineString", "coordinates": [[23.42731500085435, 69.23041024836044], [23.42666175947869, 69.23197183403343]]}, "properties": {"source": "2282658", "target": "1551211"}}, {"type": "Feature", "geometry": {"type": "LineString", "coordinates": [[23.42731500085435, 69.23041024836044], [23.432403031461547, 69.23192199750028]]}, "properties": {"source": "2282658", "target": "3114666"}}, {"type": "Feature", "geometry": {"type": "LineString", "coordinates": [[23.42731500085435, 69.23041024836044], [23.430118229254845, 69.23256602327507]]}, "properties": {"source": "2282658", "target": "3194650"}}, {"type": "Feature", "geometry": {"type": "LineString", "coordinates": [[23.42731500085435, 69.23041024836044], [23.43346461323901, 69.23241265347812]]}, "properties": {"source": "2282658", "target": "1714822"}}, {"type": "Feature", "geometry": {"type": "LineString", "coordinates": [[23.42731500085435, 69.23041024836044], [23.429815583012584, 69.23063312947994]]}, "properties": {"source": "2282658", "target": "1551207"}}, {"type": "Feature", "geometry": {"type": "LineString", "coordinates": [[23.42731500085435, 69.23041024836044], [23.434546263695665, 69.23176126810952]]}, "properties": {"source": "2282658", "target": "1551205"}}, {"type": "Feature", "geometry": {"type": "LineString", "coordinates": [[23.42731500085435, 69.23041024836044], [23.434705363405925, 69.2320848459041]]}, "properties": {"source": "2282658", "target": "1551206"}}, {"type": "Feature", "geometry": {"type": "LineString", "coordinates": [[23.42731500085435, 69.23041024836044], [23.43476923454557, 69.23056712006314]]}, "properties": {"source": "2282658", "target": "2859279"}}, {"type": "Feature", "geometry": {"type": "LineString", "coordinates": [[23.42731500085435, 69.23041024836044], [23.426849638495725, 69.2319995442368]]}, "properties": {"source": "2282658", "target": "1165759"}}, {"type": "Feature", "geometry": {"type": "LineString", "coordinates": [[23.42666175947869, 69.23197183403343], [23.434705363405925, 69.2320848459041]]}, "properties": {"source": "1551211", "target": "1551206"}}, {"type": "Feature", "geometry": {"type": "LineString", "coordinates": [[23.42963438381301, 69.23266974721588], [23.429815583012584, 69.23063312947994]]}, "properties": {"source": "1551204", "target": "1551207"}}, {"type": "Feature", "geometry": {"type": "LineString", "coordinates": [[23.42963438381301, 69.23266974721588], [23.434574277013212, 69.2314782407673]]}, "properties": {"source": "1551204", "target": "3232714"}}, {"type": "Feature", "geometry": {"type": "LineString", "coordinates": [[23.434705363405925, 69.2320848459041], [23.427990372500204, 69.23043586504409]]}, "properties": {"source": "1551206", "target": "3207566"}}, {"type": "Feature", "geometry": {"type": "LineString", "coordinates": [[23.434705363405925, 69.2320848459041], [23.42639814596683, 69.23121244989906]]}, "properties": {"source": "1551206", "target": "2946884"}}, {"type": "Feature", "geometry": {"type": "LineString", "coordinates": [[23.434705363405925, 69.2320848459041], [23.429815583012584, 69.23063312947994]]}, "properties": {"source": "1551206", "target": "1551207"}}, {"type": "Feature", "geometry": {"type": "LineString", "coordinates": [[23.427903239340537, 69.2305428071385], [23.433392169815193, 69.23214338749986]]}, "properties": {"source": "7995891", "target": "4951297"}}, {"type": "Feature", "geometry": {"type": "LineString", "coordinates": [[23.427903239340537, 69.2305428071385], [23.427990372500204, 69.23043586504409]]}, "properties": {"source": "7995891", "target": "3207566"}}, {"type": "Feature", "geometry": {"type": "LineString", "coordinates": [[23.427903239340537, 69.2305428071385], [23.427718697806085, 69.23175113008679]]}, "properties": {"source": "7995891", "target": "6251310"}}, {"type": "Feature", "geometry": {"type": "LineString", "coordinates": [[23.427903239340537, 69.2305428071385], [23.430118229254845, 69.23256602327507]]}, "properties": {"source": "7995891", "target": "3194650"}}, {"type": "Feature", "geometry": {"type": "LineString", "coordinates": [[23.427903239340537, 69.2305428071385], [23.427191478939847, 69.23033098541981]]}, "properties": {"source": "7995891", "target": "995779"}}, {"type": "Feature", "geometry": {"type": "LineString", "coordinates": [[23.427903239340537, 69.2305428071385], [23.432804797712095, 69.22971671485573]]}, "properties": {"source": "7995891", "target": "7697564"}}, {"type": "Feature", "geometry": {"type": "LineString", "coordinates": [[23.427903239340537, 69.2305428071385], [23.432122011812282, 69.23195394402507]]}, "properties": {"source": "7995891", "target": "9142582"}}, {"type": "Feature", "geometry": {"type": "LineString", "coordinates": [[23.43476923454557, 69.23056712006314], [23.432403031461547, 69.23192199750028]]}, "properties": {"source": "2859279", "target": "3114666"}}, {"type": "Feature", "geometry": {"type": "LineString", "coordinates": [[23.43476923454557, 69.23056712006314], [23.427191478939847, 69.23033098541981]]}, "properties": {"source": "2859279", "target": "995779"}}, {"type": "Feature", "geometry": {"type": "LineString", "coordinates": [[23.43476923454557, 69.23056712006314], [23.426849638495725, 69.2319995442368]]}, "properties": {"source": "2859279", "target": "1165759"}}, {"type": "Feature", "geometry": {"type": "LineString", "coordinates": [[23.427138885257676, 69.23247313272438], [23.43476923454557, 69.23056712006314]]}, "properties": {"source": "4951108", "target": "2859279"}}, {"type": "Feature", "geometry": {"type": "LineString", "coordinates": [[23.426849638495725, 69.2319995442368], [23.432403031461547, 69.23192199750028]]}, "properties": {"source": "1165759", "target": "3114666"}}, {"type": "Feature", "geometry": {"type": "LineString", "coordinates": [[23.432428091048592, 69.2320020355229], [23.427138885257676, 69.23247313272438]]}, "properties": {"source": "5094034", "target": "4951108"}}, {"type": "Feature", "geometry": {"type": "LineString", "coordinates": [[23.432428091048592, 69.2320020355229], [23.433392169815193, 69.23214338749986]]}, "properties": {"source": "5094034", "target": "4951297"}}, {"type": "Feature", "geometry": {"type": "LineString", "coordinates": [[23.432428091048592, 69.2320020355229], [23.428325476629738, 69.2308158445615]]}, "properties": {"source": "5094034", "target": "7685546"}}, {"type": "Feature", "geometry": {"type": "LineString", "coordinates": [[23.432428091048592, 69.2320020355229], [23.427718697806085, 69.23175113008679]]}, "properties": {"source": "5094034", "target": "6251310"}}, {"type": "Feature", "geometry": {"type": "LineString", "coordinates": [[23.432428091048592, 69.2320020355229], [23.427191478939847, 69.23033098541981]]}, "properties": {"source": "5094034", "target": "995779"}}, {"type": "Feature", "geometry": {"type": "LineString", "coordinates": [[23.432428091048592, 69.2320020355229], [23.430385552400224, 69.23259944287588]]}, "properties": {"source": "5094034", "target": "995775"}}, {"type": "Feature", "geometry": {"type": "LineString", "coordinates": [[23.432428091048592, 69.2320020355229], [23.434574277013212, 69.2314782407673]]}, "properties": {"source": "5094034", "target": "3232714"}}, {"type": "Feature", "geometry": {"type": "LineString", "coordinates": [[23.432428091048592, 69.2320020355229], [23.434106348197957, 69.2309725903406]]}, "properties": {"source": "5094034", "target": "254107"}}, {"type": "Feature", "geometry": {"type": "LineString", "coordinates": [[23.427372552603032, 69.23076563322172], [23.432403031461547, 69.23192199750028]]}, "properties": {"source": "1835829", "target": "3114666"}}, {"type": "Feature", "geometry": {"type": "LineString", "coordinates": [[23.427372552603032, 69.23076563322172], [23.426849638495725, 69.2319995442368]]}, "properties": {"source": "1835829", "target": "1165759"}}, {"type": "Feature", "geometry": {"type": "LineString", "coordinates": [[23.427372552603032, 69.23076563322172], [23.429802453228035, 69.23272857498304]]}, "properties": {"source": "1835829", "target": "254103"}}, {"type": "Feature", "geometry": {"type": "LineString", "coordinates": [[23.427372552603032, 69.23076563322172], [23.434106348197957, 69.2309725903406]]}, "properties": {"source": "1835829", "target": "254107"}}, {"type": "Feature", "geometry": {"type": "LineString", "coordinates": [[23.427372552603032, 69.23076563322172], [23.426243927005828, 69.22997273870462]]}, "properties": {"source": "1835829", "target": "2594251"}}, {"type": "Feature", "geometry": {"type": "LineString", "coordinates": [[23.429802453228035, 69.23272857498304], [23.432403031461547, 69.23192199750028]]}, "properties": {"source": "254103", "target": "3114666"}}, {"type": "Feature", "geometry": {"type": "LineString", "coordinates": [[23.42963438381301, 69.23266974721588], [23.42639814596683, 69.23121244989906]]}, "properties": {"source": "1551204", "target": "2946884"}}, {"type": "Feature", "geometry": {"type": "LineString", "coordinates": [[23.429802453228035, 69.23272857498304], [23.426243927005828, 69.22997273870462]]}, "properties": {"source": "254103", "target": "2594251"}}, {"type": "Feature", "geometry": {"type": "LineString", "coordinates": [[23.434627567882586, 69.23248755329351], [23.433392169815193, 69.23214338749986]]}, "properties": {"source": "6033987", "target": "4951297"}}, {"type": "Feature", "geometry": {"type": "LineString", "coordinates": [[23.434627567882586, 69.23248755329351], [23.428227326935684, 69.23032889444187]]}, "properties": {"source": "6033987", "target": "6034029"}}, {"type": "Feature", "geometry": {"type": "LineString", "coordinates": [[23.434627567882586, 69.23248755329351], [23.434106348197957, 69.2309725903406]]}, "properties": {"source": "6033987", "target": "254107"}}, {"type": "Feature", "geometry": {"type": "LineString", "coordinates": [[23.434627567882586, 69.23248755329351], [23.43326145025273, 69.23165652433647]]}, "properties": {"source": "6033987", "target": "6530458"}}, {"type": "Feature", "geometry": {"type": "LineString", "coordinates": [[23.434627567882586, 69.23248755329351], [23.42705831645432, 69.23025887228073]]}, "properties": {"source": "6033987", "target": "3220999"}}, {"type": "Feature", "geometry": {"type": "LineString", "coordinates": [[23.434627567882586, 69.23248755329351], [23.43317051738265, 69.23082142068333]]}, "properties": {"source": "6033987", "target": "3221002"}}, {"type": "Feature", "geometry": {"type": "LineString", "coordinates": [[23.434627567882586, 69.23248755329351], [23.427372566012934, 69.23085505672859]]}, "properties": {"source": "6033987", "target": "6061468"}}, {"type": "Feature", "geometry": {"type": "LineString", "coordinates": [[23.434106348197957, 69.2309725903406], [23.42639814596683, 69.23121244989906]]}, "properties": {"source": "254107", "target": "2946884"}}, {"type": "Feature", "geometry": {"type": "LineString", "coordinates": [[23.434106348197957, 69.2309725903406], [23.429802453228035, 69.23272857498304]]}, "properties": {"source": "254107", "target": "254103"}}, {"type": "Feature", "geometry": {"type": "LineString", "coordinates": [[23.434106348197957, 69.2309725903406], [23.431670302792753, 69.23200366702852]]}, "properties": {"source": "254107", "target": "17270635"}}, {"type": "Feature", "geometry": {"type": "LineString", "coordinates": [[23.434106348197957, 69.2309725903406], [23.426243927005828, 69.22997273870462]]}, "properties": {"source": "254107", "target": "2594251"}}, {"type": "Feature", "geometry": {"type": "LineString", "coordinates": [[23.43326145025273, 69.23165652433647], [23.427191478939847, 69.23033098541981]]}, "properties": {"source": "6530458", "target": "995779"}}, {"type": "Feature", "geometry": {"type": "LineString", "coordinates": [[23.43326145025273, 69.23165652433647], [23.427372566012934, 69.23085505672859]]}, "properties": {"source": "6530458", "target": "6061468"}}, {"type": "Feature", "geometry": {"type": "LineString", "coordinates": [[23.42705831645432, 69.23025887228073], [23.427990372500204, 69.23043586504409]]}, "properties": {"source": "3220999", "target": "3207566"}}, {"type": "Feature", "geometry": {"type": "LineString", "coordinates": [[23.43476923454557, 69.23056712006314], [23.430385552400224, 69.23259944287588]]}, "properties": {"source": "2859279", "target": "995775"}}, {"type": "Feature", "geometry": {"type": "LineString", "coordinates": [[23.430118229254845, 69.23256602327507], [23.434574277013212, 69.2314782407673]]}, "properties": {"source": "3194650", "target": "3232714"}}, {"type": "Feature", "geometry": {"type": "LineString", "coordinates": [[23.430118229254845, 69.23256602327507], [23.431670302792753, 69.23200366702852]]}, "properties": {"source": "3194650", "target": "17270635"}}, {"type": "Feature", "geometry": {"type": "LineString", "coordinates": [[23.43346461323901, 69.23241265347812], [23.427990372500204, 69.23043586504409]]}, "properties": {"source": "1714822", "target": "3207566"}}, {"type": "Feature", "geometry": {"type": "LineString", "coordinates": [[23.43346461323901, 69.23241265347812], [23.427718697806085, 69.23175113008679]]}, "properties": {"source": "1714822", "target": "6251310"}}, {"type": "Feature", "geometry": {"type": "LineString", "coordinates": [[23.43346461323901, 69.23241265347812], [23.42639814596683, 69.23121244989906]]}, "properties": {"source": "1714822", "target": "2946884"}}, {"type": "Feature", "geometry": {"type": "LineString", "coordinates": [[23.43346461323901, 69.23241265347812], [23.429815583012584, 69.23063312947994]]}, "properties": {"source": "1714822", "target": "1551207"}}, {"type": "Feature", "geometry": {"type": "LineString", "coordinates": [[23.43346461323901, 69.23241265347812], [23.42963438381301, 69.23266974721588]]}, "properties": {"source": "1714822", "target": "1551204"}}, {"type": "Feature", "geometry": {"type": "LineString", "coordinates": [[23.43346461323901, 69.23241265347812], [23.434574277013212, 69.2314782407673]]}, "properties": {"source": "1714822", "target": "3232714"}}, {"type": "Feature", "geometry": {"type": "LineString", "coordinates": [[23.434546263695665, 69.23176126810952], [23.433392169815193, 69.23214338749986]]}, "properties": {"source": "1551205", "target": "4951297"}}, {"type": "Feature", "geometry": {"type": "LineString", "coordinates": [[23.434546263695665, 69.23176126810952], [23.427990372500204, 69.23043586504409]]}, "properties": {"source": "1551205", "target": "3207566"}}, {"type": "Feature", "geometry": {"type": "LineString", "coordinates": [[23.434546263695665, 69.23176126810952], [23.42666175947869, 69.23197183403343]]}, "properties": {"source": "1551205", "target": "1551211"}}, {"type": "Feature", "geometry": {"type": "LineString", "coordinates": [[23.434546263695665, 69.23176126810952], [23.432403031461547, 69.23192199750028]]}, "properties": {"source": "1551205", "target": "3114666"}}, {"type": "Feature", "geometry": {"type": "LineString", "coordinates": [[23.434546263695665, 69.23176126810952], [23.429815583012584, 69.23063312947994]]}, "properties": {"source": "1551205", "target": "1551207"}}, {"type": "Feature", "geometry": {"type": "LineString", "coordinates": [[23.434546263695665, 69.23176126810952], [23.42963438381301, 69.23266974721588]]}, "properties": {"source": "1551205", "target": "1551204"}}, {"type": "Feature", "geometry": {"type": "LineString", "coordinates": [[23.434546263695665, 69.23176126810952], [23.426849638495725, 69.2319995442368]]}, "properties": {"source": "1551205", "target": "1165759"}}, {"type": "Feature", "geometry": {"type": "LineString", "coordinates": [[23.427191478939847, 69.23033098541981], [23.430385552400224, 69.23259944287588]]}, "properties": {"source": "995779", "target": "995775"}}, {"type": "Feature", "geometry": {"type": "LineString", "coordinates": [[23.42705831645432, 69.23025887228073], [23.430385552400224, 69.23259944287588]]}, "properties": {"source": "3220999", "target": "995775"}}, {"type": "Feature", "geometry": {"type": "LineString", "coordinates": [[23.431670302792753, 69.23200366702852], [23.427990372500204, 69.23043586504409]]}, "properties": {"source": "17270635", "target": "3207566"}}, {"type": "Feature", "geometry": {"type": "LineString", "coordinates": [[23.431670302792753, 69.23200366702852], [23.42639814596683, 69.23121244989906]]}, "properties": {"source": "17270635", "target": "2946884"}}, {"type": "Feature", "geometry": {"type": "LineString", "coordinates": [[23.434864093670654, 69.23114716717512], [23.428227326935684, 69.23032889444187]]}, "properties": {"source": "995776", "target": "6034029"}}, {"type": "Feature", "geometry": {"type": "LineString", "coordinates": [[23.434864093670654, 69.23114716717512], [23.427191478939847, 69.23033098541981]]}, "properties": {"source": "995776", "target": "995779"}}, {"type": "Feature", "geometry": {"type": "LineString", "coordinates": [[23.434864093670654, 69.23114716717512], [23.43476923454557, 69.23056712006314]]}, "properties": {"source": "995776", "target": "2859279"}}, {"type": "Feature", "geometry": {"type": "LineString", "coordinates": [[23.434864093670654, 69.23114716717512], [23.430385552400224, 69.23259944287588]]}, "properties": {"source": "995776", "target": "995775"}}, {"type": "Feature", "geometry": {"type": "LineString", "coordinates": [[23.43104650472202, 69.23109892484169], [23.427718697806085, 69.23175113008679]]}, "properties": {"source": "1466494", "target": "6251310"}}, {"type": "Feature", "geometry": {"type": "LineString", "coordinates": [[23.43104650472202, 69.23109892484169], [23.42963438381301, 69.23266974721588]]}, "properties": {"source": "1466494", "target": "1551204"}}, {"type": "Feature", "geometry": {"type": "LineString", "coordinates": [[23.43104650472202, 69.23109892484169], [23.43317051738265, 69.23082142068333]]}, "properties": {"source": "1466494", "target": "3221002"}}, {"type": "Feature", "geometry": {"type": "LineString", "coordinates": [[23.43317051738265, 69.23082142068333], [23.427191478939847, 69.23033098541981]]}, "properties": {"source": "3221002", "target": "995779"}}, {"type": "Feature", "geometry": {"type": "LineString", "coordinates": [[23.43317051738265, 69.23082142068333], [23.42705831645432, 69.23025887228073]]}, "properties": {"source": "3221002", "target": "3220999"}}, {"type": "Feature", "geometry": {"type": "LineString", "coordinates": [[23.42806362063078, 69.23200214894496], [23.42705831645432, 69.23025887228073]]}, "properties": {"source": "197302", "target": "3220999"}}, {"type": "Feature", "geometry": {"type": "LineString", "coordinates": [[23.432804797712095, 69.22971671485573], [23.427372566012934, 69.23085505672859]]}, "properties": {"source": "7697564", "target": "6061468"}}, {"type": "Feature", "geometry": {"type": "LineString", "coordinates": [[23.434067246728915, 69.23213903764474], [23.42666175947869, 69.23197183403343]]}, "properties": {"source": "12088331", "target": "1551211"}}, {"type": "Feature", "geometry": {"type": "LineString", "coordinates": [[23.429802453228035, 69.23272857498304], [23.431670302792753, 69.23200366702852]]}, "properties": {"source": "254103", "target": "17270635"}}, {"type": "Feature", "geometry": {"type": "LineString", "coordinates": [[23.427138885257676, 69.23247313272438], [23.428325476629738, 69.2308158445615]]}, "properties": {"source": "4951108", "target": "7685546"}}, {"type": "Feature", "geometry": {"type": "LineString", "coordinates": [[23.427138885257676, 69.23247313272438], [23.427990372500204, 69.23043586504409]]}, "properties": {"source": "4951108", "target": "3207566"}}, {"type": "Feature", "geometry": {"type": "LineString", "coordinates": [[23.427138885257676, 69.23247313272438], [23.427718697806085, 69.23175113008679]]}, "properties": {"source": "4951108", "target": "6251310"}}, {"type": "Feature", "geometry": {"type": "LineString", "coordinates": [[23.427138885257676, 69.23247313272438], [23.42666175947869, 69.23197183403343]]}, "properties": {"source": "4951108", "target": "1551211"}}, {"type": "Feature", "geometry": {"type": "LineString", "coordinates": [[23.427138885257676, 69.23247313272438], [23.432403031461547, 69.23192199750028]]}, "properties": {"source": "4951108", "target": "3114666"}}, {"type": "Feature", "geometry": {"type": "LineString", "coordinates": [[23.427138885257676, 69.23247313272438], [23.42639814596683, 69.23121244989906]]}, "properties": {"source": "4951108", "target": "2946884"}}, {"type": "Feature", "geometry": {"type": "LineString", "coordinates": [[23.427138885257676, 69.23247313272438], [23.428227326935684, 69.23032889444187]]}, "properties": {"source": "4951108", "target": "6034029"}}, {"type": "Feature", "geometry": {"type": "LineString", "coordinates": [[23.427138885257676, 69.23247313272438], [23.430118229254845, 69.23256602327507]]}, "properties": {"source": "4951108", "target": "3194650"}}, {"type": "Feature", "geometry": {"type": "LineString", "coordinates": [[23.427138885257676, 69.23247313272438], [23.43346461323901, 69.23241265347812]]}, "properties": {"source": "4951108", "target": "1714822"}}, {"type": "Feature", "geometry": {"type": "LineString", "coordinates": [[23.427138885257676, 69.23247313272438], [23.429815583012584, 69.23063312947994]]}, "properties": {"source": "4951108", "target": "1551207"}}, {"type": "Feature", "geometry": {"type": "LineString", "coordinates": [[23.427138885257676, 69.23247313272438], [23.434546263695665, 69.23176126810952]]}, "properties": {"source": "4951108", "target": "1551205"}}, {"type": "Feature", "geometry": {"type": "LineString", "coordinates": [[23.427138885257676, 69.23247313272438], [23.427191478939847, 69.23033098541981]]}, "properties": {"source": "4951108", "target": "995779"}}, {"type": "Feature", "geometry": {"type": "LineString", "coordinates": [[23.427138885257676, 69.23247313272438], [23.42963438381301, 69.23266974721588]]}, "properties": {"source": "4951108", "target": "1551204"}}, {"type": "Feature", "geometry": {"type": "LineString", "coordinates": [[23.427138885257676, 69.23247313272438], [23.434705363405925, 69.2320848459041]]}, "properties": {"source": "4951108", "target": "1551206"}}, {"type": "Feature", "geometry": {"type": "LineString", "coordinates": [[23.427138885257676, 69.23247313272438], [23.427903239340537, 69.2305428071385]]}, "properties": {"source": "4951108", "target": "7995891"}}, {"type": "Feature", "geometry": {"type": "LineString", "coordinates": [[23.427990372500204, 69.23043586504409], [23.430385552400224, 69.23259944287588]]}, "properties": {"source": "3207566", "target": "995775"}}, {"type": "Feature", "geometry": {"type": "LineString", "coordinates": [[23.427138885257676, 69.23247313272438], [23.426849638495725, 69.2319995442368]]}, "properties": {"source": "4951108", "target": "1165759"}}, {"type": "Feature", "geometry": {"type": "LineString", "coordinates": [[23.427138885257676, 69.23247313272438], [23.427372552603032, 69.23076563322172]]}, "properties": {"source": "4951108", "target": "1835829"}}, {"type": "Feature", "geometry": {"type": "LineString", "coordinates": [[23.427138885257676, 69.23247313272438], [23.429802453228035, 69.23272857498304]]}, "properties": {"source": "4951108", "target": "254103"}}, {"type": "Feature", "geometry": {"type": "LineString", "coordinates": [[23.427138885257676, 69.23247313272438], [23.434574277013212, 69.2314782407673]]}, "properties": {"source": "4951108", "target": "3232714"}}, {"type": "Feature", "geometry": {"type": "LineString", "coordinates": [[23.427138885257676, 69.23247313272438], [23.43326145025273, 69.23165652433647]]}, "properties": {"source": "4951108", "target": "6530458"}}, {"type": "Feature", "geometry": {"type": "LineString", "coordinates": [[23.427138885257676, 69.23247313272438], [23.42705831645432, 69.23025887228073]]}, "properties": {"source": "4951108", "target": "3220999"}}, {"type": "Feature", "geometry": {"type": "LineString", "coordinates": [[23.427138885257676, 69.23247313272438], [23.433875351560772, 69.23161180109355]]}, "properties": {"source": "4951108", "target": "2010356"}}, {"type": "Feature", "geometry": {"type": "LineString", "coordinates": [[23.433392169815193, 69.23214338749986], [23.427990372500204, 69.23043586504409]]}, "properties": {"source": "4951297", "target": "3207566"}}, {"type": "Feature", "geometry": {"type": "LineString", "coordinates": [[23.433392169815193, 69.23214338749986], [23.427718697806085, 69.23175113008679]]}, "properties": {"source": "4951297", "target": "6251310"}}, {"type": "Feature", "geometry": {"type": "LineString", "coordinates": [[23.433392169815193, 69.23214338749986], [23.42666175947869, 69.23197183403343]]}, "properties": {"source": "4951297", "target": "1551211"}}, {"type": "Feature", "geometry": {"type": "LineString", "coordinates": [[23.433392169815193, 69.23214338749986], [23.432403031461547, 69.23192199750028]]}, "properties": {"source": "4951297", "target": "3114666"}}, {"type": "Feature", "geometry": {"type": "LineString", "coordinates": [[23.433392169815193, 69.23214338749986], [23.42639814596683, 69.23121244989906]]}, "properties": {"source": "4951297", "target": "2946884"}}, {"type": "Feature", "geometry": {"type": "LineString", "coordinates": [[23.433392169815193, 69.23214338749986], [23.428227326935684, 69.23032889444187]]}, "properties": {"source": "4951297", "target": "6034029"}}, {"type": "Feature", "geometry": {"type": "LineString", "coordinates": [[23.433392169815193, 69.23214338749986], [23.430118229254845, 69.23256602327507]]}, "properties": {"source": "4951297", "target": "3194650"}}, {"type": "Feature", "geometry": {"type": "LineString", "coordinates": [[23.433392169815193, 69.23214338749986], [23.43346461323901, 69.23241265347812]]}, "properties": {"source": "4951297", "target": "1714822"}}, {"type": "Feature", "geometry": {"type": "LineString", "coordinates": [[23.433392169815193, 69.23214338749986], [23.429815583012584, 69.23063312947994]]}, "properties": {"source": "4951297", "target": "1551207"}}, {"type": "Feature", "geometry": {"type": "LineString", "coordinates": [[23.433392169815193, 69.23214338749986], [23.427191478939847, 69.23033098541981]]}, "properties": {"source": "4951297", "target": "995779"}}, {"type": "Feature", "geometry": {"type": "LineString", "coordinates": [[23.433392169815193, 69.23214338749986], [23.434705363405925, 69.2320848459041]]}, "properties": {"source": "4951297", "target": "1551206"}}, {"type": "Feature", "geometry": {"type": "LineString", "coordinates": [[23.433392169815193, 69.23214338749986], [23.427372552603032, 69.23076563322172]]}, "properties": {"source": "4951297", "target": "1835829"}}, {"type": "Feature", "geometry": {"type": "LineString", "coordinates": [[23.433392169815193, 69.23214338749986], [23.429802453228035, 69.23272857498304]]}, "properties": {"source": "4951297", "target": "254103"}}, {"type": "Feature", "geometry": {"type": "LineString", "coordinates": [[23.433392169815193, 69.23214338749986], [23.43326145025273, 69.23165652433647]]}, "properties": {"source": "4951297", "target": "6530458"}}, {"type": "Feature", "geometry": {"type": "LineString", "coordinates": [[23.433392169815193, 69.23214338749986], [23.433875351560772, 69.23161180109355]]}, "properties": {"source": "4951297", "target": "2010356"}}, {"type": "Feature", "geometry": {"type": "LineString", "coordinates": [[23.428325476629738, 69.2308158445615], [23.433392169815193, 69.23214338749986]]}, "properties": {"source": "7685546", "target": "4951297"}}, {"type": "Feature", "geometry": {"type": "LineString", "coordinates": [[23.428325476629738, 69.2308158445615], [23.427990372500204, 69.23043586504409]]}, "properties": {"source": "7685546", "target": "3207566"}}, {"type": "Feature", "geometry": {"type": "LineString", "coordinates": [[23.428325476629738, 69.2308158445615], [23.427718697806085, 69.23175113008679]]}, "properties": {"source": "7685546", "target": "6251310"}}, {"type": "Feature", "geometry": {"type": "LineString", "coordinates": [[23.428325476629738, 69.2308158445615], [23.42666175947869, 69.23197183403343]]}, "properties": {"source": "7685546", "target": "1551211"}}, {"type": "Feature", "geometry": {"type": "LineString", "coordinates": [[23.428325476629738, 69.2308158445615], [23.432403031461547, 69.23192199750028]]}, "properties": {"source": "7685546", "target": "3114666"}}, {"type": "Feature", "geometry": {"type": "LineString", "coordinates": [[23.428325476629738, 69.2308158445615], [23.42639814596683, 69.23121244989906]]}, "properties": {"source": "7685546", "target": "2946884"}}, {"type": "Feature", "geometry": {"type": "LineString", "coordinates": [[23.428325476629738, 69.2308158445615], [23.428227326935684, 69.23032889444187]]}, "properties": {"source": "7685546", "target": "6034029"}}, {"type": "Feature", "geometry": {"type": "LineString", "coordinates": [[23.428325476629738, 69.2308158445615], [23.430118229254845, 69.23256602327507]]}, "properties": {"source": "7685546", "target": "3194650"}}, {"type": "Feature", "geometry": {"type": "LineString", "coordinates": [[23.428325476629738, 69.2308158445615], [23.43346461323901, 69.23241265347812]]}, "properties": {"source": "7685546", "target": "1714822"}}, {"type": "Feature", "geometry": {"type": "LineString", "coordinates": [[23.427138885257676, 69.23247313272438], [23.433392169815193, 69.23214338749986]]}, "properties": {"source": "4951108", "target": "4951297"}}]}