{"type": "FeatureCollection", "features": [{"type": "Feature", "geometry": {"type": "LineString", "coordinates": [[90.02319282163364, 69.23036264761774], [90.02507135579475, 69.23165369079729]]}, "properties": {"source": "18367107", "target": "17671085"}}, {"type": "Feature", "geometry": {"type": "LineString", "coordinates": [[90.02319282163364, 69.23036264761774], [90.02284707606259, 69.23008820004725]]}, "properties": {"source": "18367107", "target": "16037472"}}, {"type": "Feature", "geometry": {"type": "LineString", "coordinates": [[90.02319282163364, 69.23036264761774], [90.02608730809402, 69.23090488854044]]}, "properties": {"source": "18367107", "target": "18245858"}}, {"type": "Feature", "geometry": {"type": "LineString", "coordinates": [[90.02319282163364, 69.23036264761774], [90.02606867520939, 69.23124251119935]]}, "properties": {"source": "18367107", "target": "9409988"}}, {"type": "Feature", "geometry": {"type": "LineString", "coordinates": [[90.02319282163364, 69.23036264761774], [90.0278289175991, 69.23055895247722]]}, "properties": {"source": "18367107", "target": "18248179"}}, {"type": "Feature", "geometry": {"type": "LineString", "coordinates": [[90.02319282163364, 69.23036264761774], [90.02532145388119, 69.23094349099006]]}, "properties": {"source": "18367107", "target": "12135994"}}, {"type": "Feature", "geometry": {"type": "LineString", "coordinates": [[90.02319282163364, 69.23036264761774], [90.02295692201511, 69.22988502592858]]}, "properties": {"source": "18367107", "target": "15722237"}}, {"type": "Feature", "geometry": {"type": "LineString", "coordinates": [[90.02319282163364, 69.23036264761774], [90.02710765415571, 69.23097795085593]]}, "properties": {"source": "18367107", "target": "13617660"}}, {"type": "Feature", "geometry": {"type": "LineString", "coordinates": [[90.02319282163364, 69.23036264761774], [90.02300915491298, 69.23169871745148]]}, "properties": {"source": "18367107", "target": "15785061"}}, {"type": "Feature", "geometry": {"type": "LineString", "coordinates": [[90.02319282163364, 69.23036264761774], [90.02266542724033, 69.23082422750352]]}, "properties": {"source": "18367107", "target": "16002969"}}, {"type": "Feature", "geometry": {"type": "LineString", "coordinates": [[90.02319282163364, 69.23036264761774], [90.02741218640676, 69.23064068997596]]}, "properties": {"source": "18367107", "target": "18341053"}}, {"type": "Feature", "geometry": {"type": "LineString", "coordinates": [[90.02319282163364, 69.23036264761774], [90.02419835001228, 69.22984269691847]]}, "properties": {"source": "18367107", "target": "7327808"}}, {"type": "Feature", "geometry": {"type": "LineString", "coordinates": [[90.02611290675634, 69.23078798818233], [90.02507135579475, 69.23165369079729]]}, "properties": {"source": "25168001", "target": "17671085"}}, {"type": "Feature", "geometry": {"type": "LineString", "coordinates": [[90.02611290675634, 69.23078798818233], [90.02284707606259, 69.23008820004725]]}, "properties": {"source": "25168001", "target": "16037472"}}, {"type": "Feature", "geometry": {"type": "LineString", "coordinates": [[90.02611290675634, 69.23078798818233], [90.02266542724033, 69.23082422750352]]}, "properties": {"source": "25168001", "target": "16002969"}}, {"type": "Feature", "geometry": {"type": "LineString", "coordinates": [[90.02611290675634, 69.23078798818233], [90.02741218640676, 69.23064068997596]]}, "properties": {"source": "25168001", "target": "18341053"}}, {"type": "Feature", "geometry": {"type": "LineString", "coordinates": [[90.02611290675634, 69.23078798818233], [90.02335479195165, 69.23065496686033]]}, "properties": {"source": "25168001", "target": "784415"}}, {"type": "Feature", "geometry": {"type": "LineString", "coordinates": [[90.02594925918072, 69.23034477890596], [90.02507135579475, 69.23165369079729]]}, "properties": {"source": "22044945", "target": "17671085"}}, {"type": "Feature", "geometry": {"type": "LineString", "coordinates": [[90.02594925918072, 69.23034477890596], [90.02284707606259, 69.23008820004725]]}, "properties": {"source": "22044945", "target": "16037472"}}, {"type": "Feature", "geometry": {"type": "LineString", "coordinates": [[90.02594925918072, 69.23034477890596], [90.02266542724033, 69.23082422750352]]}, "properties": {"source": "22044945", "target": "16002969"}}, {"type": "Feature", "geometry": {"type": "LineString", "coordinates": [[90.02594925918072, 69.23034477890596], [90.02741218640676, 69.23064068997596]]}, "properties": {"source": "22044945", "target": "18341053"}}, {"type": "Feature", "geometry": {"type": "LineString", "coordinates": [[90.02843499899927, 69.23028008319918], [90.02611290675634, 69.23078798818233]]}, "properties": {"source": "18619795", "target": "25168001"}}, {"type": "Feature", "geometry": {"type": "LineString", "coordinates": [[90.02843499899927, 69.23028008319918], [90.02594925918072, 69.23034477890596]]}, "properties": {"source": "18619795", "target": "22044945"}}, {"type": "Feature", "geometry": {"type": "LineString", "coordinates": [[90.02843499899927, 69.23028008319918], [90.02448781769755, 69.22987105218485]]}, "properties": {"source": "18619795", "target": "17670019"}}, {"type": "Feature", "geometry": {"type": "LineString", "coordinates": [[90.02319282163364, 69.23036264761774], [90.02611290675634, 69.23078798818233]]}, "properties": {"source": "18367107", "target": "25168001"}}, {"type": "Feature", "geometry": {"type": "LineString", "coordinates": [[90.02319282163364, 69.23036264761774], [90.02594925918072, 69.23034477890596]]}, "properties": {"source": "18367107", "target": "22044945"}}, {"type": "Feature", "geometry": {"type": "LineString", "coordinates": [[90.02319282163364, 69.23036264761774], [90.02843499899927, 69.23028008319918]]}, "properties": {"source": "18367107", "target": "18619795"}}, {"type": "Feature", "geometry": {"type": "LineString", "coordinates": [[90.02319282163364, 69.23036264761774], [90.02448781769755, 69.22987105218485]]}, "properties": {"source": "18367107", "target": "17670019"}}, {"type": "Feature", "geometry": {"type": "LineString", "coordinates": [[90.02606867520939, 69.23124251119935], [90.02611290675634, 69.23078798818233]]}, "properties": {"source": "9409988", "target": "25168001"}}, {"type": "Feature", "geometry": {"type": "LineString", "coordinates": [[90.02606867520939, 69.23124251119935], [90.02594925918072, 69.23034477890596]]}, "properties": {"source": "9409988", "target": "22044945"}}, {"type": "Feature", "geometry": {"type": "LineString", "coordinates": [[90.02606867520939, 69.23124251119935], [90.02843499899927, 69.23028008319918]]}, "properties": {"source": "9409988", "target": "18619795"}}, {"type": "Feature", "geometry": {"type": "LineString", "coordinates": [[90.02606867520939, 69.23124251119935], [90.02507135579475, 69.23165369079729]]}, "properties": {"source": "9409988", "target": "17671085"}}, {"type": "Feature", "geometry": {"type": "LineString", "coordinates": [[90.02606867520939, 69.23124251119935], [90.02608730809402, 69.23090488854044]]}, "properties": {"source": "9409988", "target": "18245858"}}, {"type": "Feature", "geometry": {"type": "LineString", "coordinates": [[90.02606867520939, 69.23124251119935], [90.0278289175991, 69.23055895247722]]}, "properties": {"source": "9409988", "target": "18248179"}}, {"type": "Feature", "geometry": {"type": "LineString", "coordinates": [[90.02606867520939, 69.23124251119935], [90.02741218640676, 69.23064068997596]]}, "properties": {"source": "9409988", "target": "18341053"}}, {"type": "Feature", "geometry": {"type": "LineString", "coordinates": [[90.02606867520939, 69.23124251119935], [90.02419835001228, 69.22984269691847]]}, "properties": {"source": "9409988", "target": "7327808"}}, {"type": "Feature", "geometry": {"type": "LineString", "coordinates": [[90.0278289175991, 69.23055895247722], [90.02611290675634, 69.23078798818233]]}, "properties": {"source": "18248179", "target": "25168001"}}, {"type": "Feature", "geometry": {"type": "LineString", "coordinates": [[90.0278289175991, 69.23055895247722], [90.02594925918072, 69.23034477890596]]}, "properties": {"source": "18248179", "target": "22044945"}}, {"type": "Feature", "geometry": {"type": "LineString", "coordinates": [[90.0278289175991, 69.23055895247722], [90.02843499899927, 69.23028008319918]]}, "properties": {"source": "18248179", "target": "18619795"}}, {"type": "Feature", "geometry": {"type": "LineString", "coordinates": [[90.0278289175991, 69.23055895247722], [90.02448781769755, 69.22987105218485]]}, "properties": {"source": "18248179", "target": "17670019"}}, {"type": "Feature", "geometry": {"type": "LineString", "coordinates": [[90.02319282163364, 69.23036264761774], [90.02880316573925, 69.23052213549894]]}, "properties": {"source": "18367107", "target": "14060654"}}, {"type": "Feature", "geometry": {"type": "LineString", "coordinates": [[90.02319282163364, 69.23036264761774], [90.0289279680357, 69.23019141569665]]}, "properties": {"source": "18367107", "target": "18193455"}}, {"type": "Feature", "geometry": {"type": "LineString", "coordinates": [[90.02319282163364, 69.23036264761774], [90.02335479195165, 69.23065496686033]]}, "properties": {"source": "18367107", "target": "784415"}}, {"type": "Feature", "geometry": {"type": "LineString", "coordinates": [[90.02611290675634, 69.23078798818233], [90.02594925918072, 69.23034477890596]]}, "properties": {"source": "25168001", "target": "22044945"}}, {"type": "Feature", "geometry": {"type": "LineString", "coordinates": [[90.02594880270573, 69.22984422885449], [90.02710765415571, 69.23097795085593]]}, "properties": {"source": "17671131", "target": "13617660"}}, {"type": "Feature", "geometry": {"type": "LineString", "coordinates": [[90.02594880270573, 69.22984422885449], [90.02300915491298, 69.23169871745148]]}, "properties": {"source": "17671131", "target": "15785061"}}, {"type": "Feature", "geometry": {"type": "LineString", "coordinates": [[90.02594880270573, 69.22984422885449], [90.02266542724033, 69.23082422750352]]}, "properties": {"source": "17671131", "target": "16002969"}}, {"type": "Feature", "geometry": {"type": "LineString", "coordinates": [[90.02594880270573, 69.22984422885449], [90.02741218640676, 69.23064068997596]]}, "properties": {"source": "17671131", "target": "18341053"}}, {"type": "Feature", "geometry": {"type": "LineString", "coordinates": [[90.02594880270573, 69.22984422885449], [90.02880316573925, 69.23052213549894]]}, "properties": {"source": "17671131", "target": "14060654"}}, {"type": "Feature", "geometry": {"type": "LineString", "coordinates": [[90.02448781769755, 69.22987105218485], [90.02611290675634, 69.23078798818233]]}, "properties": {"source": "17670019", "target": "25168001"}}, {"type": "Feature", "geometry": {"type": "LineString", "coordinates": [[90.02448781769755, 69.22987105218485], [90.02594925918072, 69.23034477890596]]}, "properties": {"source": "17670019", "target": "22044945"}}, {"type": "Feature", "geometry": {"type": "LineString", "coordinates": [[90.02448781769755, 69.22987105218485], [90.02507135579475, 69.23165369079729]]}, "properties": {"source": "17670019", "target": "17671085"}}, {"type": "Feature", "geometry": {"type": "LineString", "coordinates": [[90.02448781769755, 69.22987105218485], [90.02284707606259, 69.23008820004725]]}, "properties": {"source": "17670019", "target": "16037472"}}, {"type": "Feature", "geometry": {"type": "LineString", "coordinates": [[90.02448781769755, 69.22987105218485], [90.02266542724033, 69.23082422750352]]}, "properties": {"source": "17670019", "target": "16002969"}}, {"type": "Feature", "geometry": {"type": "LineString", "coordinates": [[90.02448781769755, 69.22987105218485], [90.02556070244191, 69.23062723509332]]}, "properties": {"source": "17670019", "target": "13628659"}}, {"type": "Feature", "geometry": {"type": "LineString", "coordinates": [[90.02507135579475, 69.23165369079729], [90.02741218640676, 69.23064068997596]]}, "properties": {"source": "17671085", "target": "18341053"}}, {"type": "Feature", "geometry": {"type": "LineString", "coordinates": [[90.02608730809402, 69.23090488854044], [90.02611290675634, 69.23078798818233]]}, "properties": {"source": "18245858", "target": "25168001"}}, {"type": "Feature", "geometry": {"type": "LineString", "coordinates": [[90.02608730809402, 69.23090488854044], [90.02594925918072, 69.23034477890596]]}, "properties": {"source": "18245858", "target": "22044945"}}, {"type": "Feature", "geometry": {"type": "LineString", "coordinates": [[90.02608730809402, 69.23090488854044], [90.02843499899927, 69.23028008319918]]}, "properties": {"source": "18245858", "target": "18619795"}}, {"type": "Feature", "geometry": {"type": "LineString", "coordinates": [[90.02608730809402, 69.23090488854044], [90.02448781769755, 69.22987105218485]]}, "properties": {"source": "18245858", "target": "17670019"}}, {"type": "Feature", "geometry": {"type": "LineString", "coordinates": [[90.02529882421061, 69.23157069995412], [90.02843499899927, 69.23028008319918]]}, "properties": {"source": "16096141", "target": "18619795"}}, {"type": "Feature", "geometry": {"type": "LineString", "coordinates": [[90.02529882421061, 69.23157069995412], [90.02448781769755, 69.22987105218485]]}, "properties": {"source": "16096141", "target": "17670019"}}, {"type": "Feature", "geometry": {"type": "LineString", "coordinates": [[90.02529882421061, 69.23157069995412], [90.02507135579475, 69.23165369079729]]}, "properties": {"source": "16096141", "target": "17671085"}}, {"type": "Feature", "geometry": {"type": "LineString", "coordinates": [[90.02529882421061, 69.23157069995412], [90.02284707606259, 69.23008820004725]]}, "properties": {"source": "16096141", "target": "16037472"}}, {"type": "Feature", "geometry": {"type": "LineString", "coordinates": [[90.02529882421061, 69.23157069995412], [90.02608730809402, 69.23090488854044]]}, "properties": {"source": "16096141", "target": "18245858"}}, {"type": "Feature", "geometry": {"type": "LineString", "coordinates": [[90.02529882421061, 69.23157069995412], [90.0278289175991, 69.23055895247722]]}, "properties": {"source": "16096141", "target": "18248179"}}, {"type": "Feature", "geometry": {"type": "LineString", "coordinates": [[90.02529882421061, 69.23157069995412], [90.02532145388119, 69.23094349099006]]}, "properties": {"source": "16096141", "target": "12135994"}}, {"type": "Feature", "geometry": {"type": "LineString", "coordinates": [[90.02529882421061, 69.23157069995412], [90.02295692201511, 69.22988502592858]]}, "properties": {"source": "16096141", "target": "15722237"}}, {"type": "Feature", "geometry": {"type": "LineString", "coordinates": [[90.02529882421061, 69.23157069995412], [90.02710765415571, 69.23097795085593]]}, "properties": {"source": "16096141", "target": "13617660"}}, {"type": "Feature", "geometry": {"type": "LineString", "coordinates": [[90.02529882421061, 69.23157069995412], [90.02300915491298, 69.23169871745148]]}, "properties": {"source": "16096141", "target": "15785061"}}, {"type": "Feature", "geometry": {"type": "LineString", "coordinates": [[90.02529882421061, 69.23157069995412], [90.02266542724033, 69.23082422750352]]}, "properties": {"source": "16096141", "target": "16002969"}}, {"type": "Feature", "geometry": {"type": "LineString", "coordinates": [[90.02284707606259, 69.23008820004725], [90.02507135579475, 69.23165369079729]]}, "properties": {"source": "16037472", "target": "17671085"}}, {"type": "Feature", "geometry": {"type": "LineString", "coordinates": [[90.0278289175991, 69.23055895247722], [90.02507135579475, 69.23165369079729]]}, "properties": {"source": "18248179", "target": "17671085"}}, {"type": "Feature", "geometry": {"type": "LineString", "coordinates": [[90.0278289175991, 69.23055895247722], [90.02741218640676, 69.23064068997596]]}, "properties": {"source": "18248179", "target": "18341053"}}, {"type": "Feature", "geometry": {"type": "LineString", "coordinates": [[90.02532145388119, 69.23094349099006], [90.02611290675634, 69.23078798818233]]}, "properties": {"source": "12135994", "target": "25168001"}}, {"type": "Feature", "geometry": {"type": "LineString", "coordinates": [[90.02532145388119, 69.23094349099006], [90.02594925918072, 69.23034477890596]]}, "properties": {"source": "12135994", "target": "22044945"}}, {"type": "Feature", "geometry": {"type": "LineString", "coordinates": [[90.02532145388119, 69.23094349099006], [90.02843499899927, 69.23028008319918]]}, "properties": {"source": "12135994", "target": "18619795"}}, {"type": "Feature", "geometry": {"type": "LineString", "coordinates": [[90.02532145388119, 69.23094349099006], [90.02448781769755, 69.22987105218485]]}, "properties": {"source": "12135994", "target": "17670019"}}, {"type": "Feature", "geometry": {"type": "LineString", "coordinates": [[90.02532145388119, 69.23094349099006], [90.02507135579475, 69.23165369079729]]}, "properties": {"source": "12135994", "target": "17671085"}}, {"type": "Feature", "geometry": {"type": "LineString", "coordinates": [[90.02532145388119, 69.23094349099006], [90.02284707606259, 69.23008820004725]]}, "properties": {"source": "12135994", "target": "16037472"}}, {"type": "Feature", "geometry": {"type": "LineString", "coordinates": [[90.02295692201511, 69.22988502592858], [90.02611290675634, 69.23078798818233]]}, "properties": {"source": "15722237", "target": "25168001"}}, {"type": "Feature", "geometry": {"type": "LineString", "coordinates": [[90.02295692201511, 69.22988502592858], [90.02594925918072, 69.23034477890596]]}, "properties": {"source": "15722237", "target": "22044945"}}, {"type": "Feature", "geometry": {"type": "LineString", "coordinates": [[90.02295692201511, 69.22988502592858], [90.02448781769755, 69.22987105218485]]}, "properties": {"source": "15722237", "target": "17670019"}}, {"type": "Feature", "geometry": {"type": "LineString", "coordinates": [[90.02295692201511, 69.22988502592858], [90.02507135579475, 69.23165369079729]]}, "properties": {"source": "15722237", "target": "17671085"}}, {"type": "Feature", "geometry": {"type": "LineString", "coordinates": [[90.02295692201511, 69.22988502592858], [90.02284707606259, 69.23008820004725]]}, "properties": {"source": "15722237", "target": "16037472"}}, {"type": "Feature", "geometry": {"type": "LineString", "coordinates": [[90.02710765415571, 69.23097795085593], [90.02611290675634, 69.23078798818233]]}, "properties": {"source": "13617660", "target": "25168001"}}, {"type": "Feature", "geometry": {"type": "LineString", "coordinates": [[90.02710765415571, 69.23097795085593], [90.02594925918072, 69.23034477890596]]}, "properties": {"source": "13617660", "target": "22044945"}}, {"type": "Feature", "geometry": {"type": "LineString", "coordinates": [[90.02710765415571, 69.23097795085593], [90.02448781769755, 69.22987105218485]]}, "properties": {"source": "13617660", "target": "17670019"}}, {"type": "Feature", "geometry": {"type": "LineString", "coordinates": [[90.02843499899927, 69.23028008319918], [90.02507135579475, 69.23165369079729]]}, "properties": {"source": "18619795", "target": "17671085"}}, {"type": "Feature", "geometry": {"type": "LineString", "coordinates": [[90.02843499899927, 69.23028008319918], [90.02284707606259, 69.23008820004725]]}, "properties": {"source": "18619795", "target": "16037472"}}, {"type": "Feature", "geometry": {"type": "LineString", "coordinates": [[90.02843499899927, 69.23028008319918], [90.02295692201511, 69.22988502592858]]}, "properties": {"source": "18619795", "target": "15722237"}}, {"type": "Feature", "geometry": {"type": "LineString", "coordinates": [[90.02843499899927, 69.23028008319918], [90.02266542724033, 69.23082422750352]]}, "properties": {"source": "18619795", "target": "16002969"}}, {"type": "Feature", "geometry": {"type": "LineString", "coordinates": [[90.02843499899927, 69.23028008319918], [90.02741218640676, 69.23064068997596]]}, "properties": {"source": "18619795", "target": "18341053"}}, {"type": "Feature", "geometry": {"type": "LineString", "coordinates": [[90.02843499899927, 69.23028008319918], [90.0289279680357, 69.23019141569665]]}, "properties": {"source": "18619795", "target": "18193455"}}, {"type": "Feature", "geometry": {"type": "LineString", "coordinates": [[90.02843499899927, 69.23028008319918], [90.02335479195165, 69.23065496686033]]}, "properties": {"source": "18619795", "target": "784415"}}, {"type": "Feature", "geometry": {"type": "LineString", "coordinates": [[90.02594880270573, 69.22984422885449], [90.02319282163364, 69.23036264761774]]}, "properties": {"source": "17671131", "target": "18367107"}}, {"type": "Feature", "geometry": {"type": "LineString", "coordinates": [[90.02594880270573, 69.22984422885449], [90.02611290675634, 69.23078798818233]]}, "properties": {"source": "17671131", "target": "25168001"}}, {"type": "Feature", "geometry": {"type": "LineString", "coordinates": [[90.02594880270573, 69.22984422885449], [90.02594925918072, 69.23034477890596]]}, "properties": {"source": "17671131", "target": "22044945"}}, {"type": "Feature", "geometry": {"type": "LineString", "coordinates": [[90.02594880270573, 69.22984422885449], [90.02843499899927, 69.23028008319918]]}, "properties": {"source": "17671131", "target": "18619795"}}, {"type": "Feature", "geometry": {"type": "LineString", "coordinates": [[90.02594880270573, 69.22984422885449], [90.02448781769755, 69.22987105218485]]}, "properties": {"source": "17671131", "target": "17670019"}}, {"type": "Feature", "geometry": {"type": "LineString", "coordinates": [[90.02594880270573, 69.22984422885449], [90.02507135579475, 69.23165369079729]]}, "properties": {"source": "17671131", "target": "17671085"}}, {"type": "Feature", "geometry": {"type": "LineString", "coordinates": [[90.02594880270573, 69.22984422885449], [90.02529882421061, 69.23157069995412]]}, "properties": {"source": "17671131", "target": "16096141"}}, {"type": "Feature", "geometry": {"type": "LineString", "coordinates": [[90.02594880270573, 69.22984422885449], [90.02284707606259, 69.23008820004725]]}, "properties": {"source": "17671131", "target": "16037472"}}, {"type": "Feature", "geometry": {"type": "LineString", "coordinates": [[90.02594880270573, 69.22984422885449], [90.02608730809402, 69.23090488854044]]}, "properties": {"source": "17671131", "target": "18245858"}}, {"type": "Feature", "geometry": {"type": "LineString", "coordinates": [[90.02594880270573, 69.22984422885449], [90.02606867520939, 69.23124251119935]]}, "properties": {"source": "17671131", "target": "9409988"}}, {"type": "Feature", "geometry": {"type": "LineString", "coordinates": [[90.02594880270573, 69.22984422885449], [90.0278289175991, 69.23055895247722]]}, "properties": {"source": "17671131", "target": "18248179"}}, {"type": "Feature", "geometry": {"type": "LineString", "coordinates": [[90.02594880270573, 69.22984422885449], [90.02532145388119, 69.23094349099006]]}, "properties": {"source": "17671131", "target": "12135994"}}, {"type": "Feature", "geometry": {"type": "LineString", "coordinates": [[90.02594880270573, 69.22984422885449], [90.02295692201511, 69.22988502592858]]}, "properties": {"source": "17671131", "target": "15722237"}}, {"type": "Feature", "geometry": {"type": "LineString", "coordinates": [[90.02608730809402, 69.23090488854044], [90.02507135579475, 69.23165369079729]]}, "properties": {"source": "18245858", "target": "17671085"}}, {"type": "Feature", "geometry": {"type": "LineString", "coordinates": [[90.02608730809402, 69.23090488854044], [90.02284707606259, 69.23008820004725]]}, "properties": {"source": "18245858", "target": "16037472"}}, {"type": "Feature", "geometry": {"type": "LineString", "coordinates": [[90.02608730809402, 69.23090488854044], [90.0278289175991, 69.23055895247722]]}, "properties": {"source": "18245858", "target": "18248179"}}, {"type": "Feature", "geometry": {"type": "LineString", "coordinates": [[90.02608730809402, 69.23090488854044], [90.02741218640676, 69.23064068997596]]}, "properties": {"source": "18245858", "target": "18341053"}}, {"type": "Feature", "geometry": {"type": "LineString", "coordinates": [[90.0251478144362, 69.23163210741365], [90.02319282163364, 69.23036264761774]]}, "properties": {"source": "18270649", "target": "18367107"}}, {"type": "Feature", "geometry": {"type": "LineString", "coordinates": [[90.0251478144362, 69.23163210741365], [90.02611290675634, 69.23078798818233]]}, "properties": {"source": "18270649", "target": "25168001"}}, {"type": "Feature", "geometry": {"type": "LineString", "coordinates": [[90.0251478144362, 69.23163210741365], [90.02594925918072, 69.23034477890596]]}, "properties": {"source": "18270649", "target": "22044945"}}, {"type": "Feature", "geometry": {"type": "LineString", "coordinates": [[90.0251478144362, 69.23163210741365], [90.02843499899927, 69.23028008319918]]}, "properties": {"source": "18270649", "target": "18619795"}}, {"type": "Feature", "geometry": {"type": "LineString", "coordinates": [[90.0251478144362, 69.23163210741365], [90.02594880270573, 69.22984422885449]]}, "properties": {"source": "18270649", "target": "17671131"}}, {"type": "Feature", "geometry": {"type": "LineString", "coordinates": [[90.0251478144362, 69.23163210741365], [90.02448781769755, 69.22987105218485]]}, "properties": {"source": "18270649", "target": "17670019"}}, {"type": "Feature", "geometry": {"type": "LineString", "coordinates": [[90.0251478144362, 69.23163210741365], [90.02507135579475, 69.23165369079729]]}, "properties": {"source": "18270649", "target": "17671085"}}, {"type": "Feature", "geometry": {"type": "LineString", "coordinates": [[90.0251478144362, 69.23163210741365], [90.02529882421061, 69.23157069995412]]}, "properties": {"source": "18270649", "target": "16096141"}}, {"type": "Feature", "geometry": {"type": "LineString", "coordinates": [[90.0251478144362, 69.23163210741365], [90.02284707606259, 69.23008820004725]]}, "properties": {"source": "18270649", "target": "16037472"}}, {"type": "Feature", "geometry": {"type": "LineString", "coordinates": [[90.0251478144362, 69.23163210741365], [90.02608730809402, 69.23090488854044]]}, "properties": {"source": "18270649", "target": "18245858"}}, {"type": "Feature", "geometry": {"type": "LineString", "coordinates": [[90.0251478144362, 69.23163210741365], [90.02606867520939, 69.23124251119935]]}, "properties": {"source": "18270649", "target": "9409988"}}, {"type": "Feature", "geometry": {"type": "LineString", "coordinates": [[90.0251478144362, 69.23163210741365], [90.0278289175991, 69.23055895247722]]}, "properties": {"source": "18270649", "target": "18248179"}}, {"type": "Feature", "geometry": {"type": "LineString", "coordinates": [[90.02419835001228, 69.22984269691847], [90.02843499899927, 69.23028008319918]]}, "properties": {"source": "7327808", "target": "18619795"}}, {"type": "Feature", "geometry": {"type": "LineString", "coordinates": [[90.0289279680357, 69.23019141569665], [90.02611290675634, 69.23078798818233]]}, "properties": {"source": "18193455", "target": "25168001"}}, {"type": "Feature", "geometry": {"type": "LineString", "coordinates": [[90.0289279680357, 69.23019141569665], [90.02594925918072, 69.23034477890596]]}, "properties": {"source": "18193455", "target": "22044945"}}, {"type": "Feature", "geometry": {"type": "LineString", "coordinates": [[90.02335479195165, 69.23065496686033], [90.02594925918072, 69.23034477890596]]}, "properties": {"source": "784415", "target": "22044945"}}, {"type": "Feature", "geometry": {"type": "LineString", "coordinates": [[90.02313462120975, 69.23106972020014], [90.02448781769755, 69.22987105218485]]}, "properties": {"source": "18242674", "target": "17670019"}}, {"type": "Feature", "geometry": {"type": "LineString", "coordinates": [[90.02313462120975, 69.23106972020014], [90.02544271151612, 69.23049353890983]]}, "properties": {"source": "18242674", "target": "17665567"}}, {"type": "Feature", "geometry": {"type": "LineString", "coordinates": [[90.02313462120975, 69.23106972020014], [90.02556070244191, 69.23062723509332]]}, "properties": {"source": "18242674", "target": "13628659"}}, {"type": "Feature", "geometry": {"type": "LineString", "coordinates": [[90.0276408588885, 69.22999986715965], [90.02611290675634, 69.23078798818233]]}, "properties": {"source": "46286", "target": "25168001"}}, {"type": "Feature", "geometry": {"type": "LineString", "coordinates": [[90.0276408588885, 69.22999986715965], [90.02594925918072, 69.23034477890596]]}, "properties": {"source": "46286", "target": "22044945"}}, {"type": "Feature", "geometry": {"type": "LineString", "coordinates": [[90.0276408588885, 69.22999986715965], [90.02843499899927, 69.23028008319918]]}, "properties": {"source": "46286", "target": "18619795"}}, {"type": "Feature", "geometry": {"type": "LineString", "coordinates": [[90.02544271151612, 69.23049353890983], [90.02448781769755, 69.22987105218485]]}, "properties": {"source": "17665567", "target": "17670019"}}, {"type": "Feature", "geometry": {"type": "LineString", "coordinates": [[90.02544271151612, 69.23049353890983], [90.0245576506997, 69.23016488026673]]}, "properties": {"source": "17665567", "target": "16176217"}}, {"type": "Feature", "geometry": {"type": "LineString", "coordinates": [[90.02710765415571, 69.23097795085593], [90.02507135579475, 69.23165369079729]]}, "properties": {"source": "13617660", "target": "17671085"}}, {"type": "Feature", "geometry": {"type": "LineString", "coordinates": [[90.02710765415571, 69.23097795085593], [90.02284707606259, 69.23008820004725]]}, "properties": {"source": "13617660", "target": "16037472"}}, {"type": "Feature", "geometry": {"type": "LineString", "coordinates": [[90.02300915491298, 69.23169871745148], [90.02611290675634, 69.23078798818233]]}, "properties": {"source": "15785061", "target": "25168001"}}, {"type": "Feature", "geometry": {"type": "LineString", "coordinates": [[90.02300915491298, 69.23169871745148], [90.02594925918072, 69.23034477890596]]}, "properties": {"source": "15785061", "target": "22044945"}}, {"type": "Feature", "geometry": {"type": "LineString", "coordinates": [[90.02484810022719, 69.23164283481768], [90.02843499899927, 69.23028008319918]]}, "properties": {"source": "15856198", "target": "18619795"}}, {"type": "Feature", "geometry": {"type": "LineString", "coordinates": [[90.02484810022719, 69.23164283481768], [90.02594880270573, 69.22984422885449]]}, "properties": {"source": "15856198", "target": "17671131"}}, {"type": "Feature", "geometry": {"type": "LineString", "coordinates": [[90.02484810022719, 69.23164283481768], [90.02448781769755, 69.22987105218485]]}, "properties": {"source": "15856198", "target": "17670019"}}, {"type": "Feature", "geometry": {"type": "LineString", "coordinates": [[90.02484810022719, 69.23164283481768], [90.02507135579475, 69.23165369079729]]}, "properties": {"source": "15856198", "target": "17671085"}}, {"type": "Feature", "geometry": {"type": "LineString", "coordinates": [[90.02484810022719, 69.23164283481768], [90.02529882421061, 69.23157069995412]]}, "properties": {"source": "15856198", "target": "16096141"}}, {"type": "Feature", "geometry": {"type": "LineString", "coordinates": [[90.02484810022719, 69.23164283481768], [90.02284707606259, 69.23008820004725]]}, "properties": {"source": "15856198", "target": "16037472"}}, {"type": "Feature", "geometry": {"type": "LineString", "coordinates": [[90.02484810022719, 69.23164283481768], [90.02608730809402, 69.23090488854044]]}, "properties": {"source": "15856198", "target": "18245858"}}, {"type": "Feature", "geometry": {"type": "LineString", "coordinates": [[90.02484810022719, 69.23164283481768], [90.02532145388119, 69.23094349099006]]}, "properties": {"source": "15856198", "target": "12135994"}}, {"type": "Feature", "geometry": {"type": "LineString", "coordinates": [[90.02484810022719, 69.23164283481768], [90.02295692201511, 69.22988502592858]]}, "properties": {"source": "15856198", "target": "15722237"}}, {"type": "Feature", "geometry": {"type": "LineString", "coordinates": [[90.02484810022719, 69.23164283481768], [90.02710765415571, 69.23097795085593]]}, "properties": {"source": "15856198", "target": "13617660"}}, {"type": "Feature", "geometry": {"type": "LineString", "coordinates": [[90.02484810022719, 69.23164283481768], [90.02300915491298, 69.23169871745148]]}, "properties": {"source": "15856198", "target": "15785061"}}, {"type": "Feature", "geometry": {"type": "LineString", "coordinates": [[90.02484810022719, 69.23164283481768], [90.02880316573925, 69.23052213549894]]}, "properties": {"source": "15856198", "target": "14060654"}}, {"type": "Feature", "geometry": {"type": "LineString", "coordinates": [[90.02507135579475, 69.23165369079729], [90.02880316573925, 69.23052213549894]]}, "properties": {"source": "17671085", "target": "14060654"}}, {"type": "Feature", "geometry": {"type": "LineString", "coordinates": [[90.02529882421061, 69.23157069995412], [90.02319282163364, 69.23036264761774]]}, "properties": {"source": "16096141", "target": "18367107"}}, {"type": "Feature", "geometry": {"type": "LineString", "coordinates": [[90.02529882421061, 69.23157069995412], [90.02611290675634, 69.23078798818233]]}, "properties": {"source": "16096141", "target": "25168001"}}, {"type": "Feature", "geometry": {"type": "LineString", "coordinates": [[90.02529882421061, 69.23157069995412], [90.02594925918072, 69.23034477890596]]}, "properties": {"source": "16096141", "target": "22044945"}}, {"type": "Feature", "geometry": {"type": "LineString", "coordinates": [[90.02300915491298, 69.23169871745148], [90.02448781769755, 69.22987105218485]]}, "properties": {"source": "15785061", "target": "17670019"}}, {"type": "Feature", "geometry": {"type": "LineString", "coordinates": [[90.02300915491298, 69.23169871745148], [90.02507135579475, 69.23165369079729]]}, "properties": {"source": "15785061", "target": "17671085"}}, {"type": "Feature", "geometry": {"type": "LineString", "coordinates": [[90.02300915491298, 69.23169871745148], [90.02284707606259, 69.23008820004725]]}, "properties": {"source": "15785061", "target": "16037472"}}, {"type": "Feature", "geometry": {"type": "LineString", "coordinates": [[90.02266542724033, 69.23082422750352], [90.02507135579475, 69.23165369079729]]}, "properties": {"source": "16002969", "target": "17671085"}}, {"type": "Feature", "geometry": {"type": "LineString", "coordinates": [[90.02266542724033, 69.23082422750352], [90.02284707606259, 69.23008820004725]]}, "properties": {"source": "16002969", "target": "16037472"}}, {"type": "Feature", "geometry": {"type": "LineString", "coordinates": [[90.02626730549889, 69.23051339179966], [90.02319282163364, 69.23036264761774]]}, "properties": {"source": "3097716", "target": "18367107"}}, {"type": "Feature", "geometry": {"type": "LineString", "coordinates": [[90.02626730549889, 69.23051339179966], [90.02611290675634, 69.23078798818233]]}, "properties": {"source": "3097716", "target": "25168001"}}, {"type": "Feature", "geometry": {"type": "LineString", "coordinates": [[90.02626730549889, 69.23051339179966], [90.02594925918072, 69.23034477890596]]}, "properties": {"source": "3097716", "target": "22044945"}}, {"type": "Feature", "geometry": {"type": "LineString", "coordinates": [[90.02626730549889, 69.23051339179966], [90.02843499899927, 69.23028008319918]]}, "properties": {"source": "3097716", "target": "18619795"}}, {"type": "Feature", "geometry": {"type": "LineString", "coordinates": [[90.02626730549889, 69.23051339179966], [90.02606867520939, 69.23124251119935]]}, "properties": {"source": "3097716", "target": "9409988"}}, {"type": "Feature", "geometry": {"type": "LineString", "coordinates": [[90.02419835001228, 69.22984269691847], [90.02611290675634, 69.23078798818233]]}, "properties": {"source": "7327808", "target": "25168001"}}, {"type": "Feature", "geometry": {"type": "LineString", "coordinates": [[90.02419835001228, 69.22984269691847], [90.02594925918072, 69.23034477890596]]}, "properties": {"source": "7327808", "target": "22044945"}}, {"type": "Feature", "geometry": {"type": "LineString", "coordinates": [[90.02284707606259, 69.23008820004725], [90.02880316573925, 69.23052213549894]]}, "properties": {"source": "16037472", "target": "14060654"}}, {"type": "Feature", "geometry": {"type": "LineString", "coordinates": [[90.02484810022719, 69.23164283481768], [90.02319282163364, 69.23036264761774]]}, "properties": {"source": "15856198", "target": "18367107"}}, {"type": "Feature", "geometry": {"type": "LineString", "coordinates": [[90.02484810022719, 69.23164283481768], [90.02611290675634, 69.23078798818233]]}, "properties": {"source": "15856198", "target": "25168001"}}, {"type": "Feature", "geometry": {"type": "LineString", "coordinates": [[90.02484810022719, 69.23164283481768], [90.02594925918072, 69.23034477890596]]}, "properties": {"source": "15856198", "target": "22044945"}}]}