{"type": "FeatureCollection", "features": [{"type": "Feature", "geometry": {"type": "LineString", "coordinates": [[-73.41090112738462, 69.23178322917562], [-73.41418492658647, 69.23002500981266]]}, "properties": {"source": "256610", "target": "3171268"}}, {"type": "Feature", "geometry": {"type": "LineString", "coordinates": [[-73.41090112738462, 69.23178322917562], [-73.41208795095778, 69.2320330280694]]}, "properties": {"source": "256610", "target": "1102924"}}, {"type": "Feature", "geometry": {"type": "LineString", "coordinates": [[-73.40584079300544, 69.23244449273125], [-73.4100210232324, 69.23261888333886]]}, "properties": {"source": "18653112", "target": "1170328"}}, {"type": "Feature", "geometry": {"type": "LineString", "coordinates": [[-73.40584079300544, 69.23244449273125], [-73.4079240810537, 69.23142138062812]]}, "properties": {"source": "18653112", "target": "19649136"}}, {"type": "Feature", "geometry": {"type": "LineString", "coordinates": [[-73.40584079300544, 69.23244449273125], [-73.41519827779526, 69.2321503339264]]}, "properties": {"source": "18653112", "target": "2206578"}}, {"type": "Feature", "geometry": {"type": "LineString", "coordinates": [[-73.40584079300544, 69.23244449273125], [-73.41280821818694, 69.23317413499552]]}, "properties": {"source": "18653112", "target": "1009393"}}, {"type": "Feature", "geometry": {"type": "LineString", "coordinates": [[-73.40584079300544, 69.23244449273125], [-73.41208795095778, 69.2320330280694]]}, "properties": {"source": "18653112", "target": "1102924"}}, {"type": "Feature", "geometry": {"type": "LineString", "coordinates": [[-73.40584079300544, 69.23244449273125], [-73.41099440858672, 69.23306450200238]]}, "properties": {"source": "18653112", "target": "174111"}}, {"type": "Feature", "geometry": {"type": "LineString", "coordinates": [[-73.40584079300544, 69.23244449273125], [-73.40654436098228, 69.23075224910184]]}, "properties": {"source": "18653112", "target": "190100"}}, {"type": "Feature", "geometry": {"type": "LineString", "coordinates": [[-73.41387612337108, 69.23070614687546], [-73.41511789802804, 69.23335362268145]]}, "properties": {"source": "10804", "target": "14899"}}, {"type": "Feature", "geometry": {"type": "LineString", "coordinates": [[-73.41242154605163, 69.232813879957], [-73.41034860359625, 69.2325842211037]]}, "properties": {"source": "2394854", "target": "340535"}}, {"type": "Feature", "geometry": {"type": "LineString", "coordinates": [[-73.41242154605163, 69.232813879957], [-73.41395895251065, 69.23263444805627]]}, "properties": {"source": "2394854", "target": "14901"}}, {"type": "Feature", "geometry": {"type": "LineString", "coordinates": [[-73.40434823877767, 69.23292814226394], [-73.41511789802804, 69.23335362268145]]}, "properties": {"source": "125453", "target": "14899"}}, {"type": "Feature", "geometry": {"type": "LineString", "coordinates": [[-73.40730665242258, 69.23287372193556], [-73.40982936130051, 69.23296769711158]]}, "properties": {"source": "176776", "target": "311771"}}, {"type": "Feature", "geometry": {"type": "LineString", "coordinates": [[-73.40730665242258, 69.23287372193556], [-73.40435734576565, 69.23065183950558]]}, "properties": {"source": "176776", "target": "1974343"}}, {"type": "Feature", "geometry": {"type": "LineString", "coordinates": [[-73.40730665242258, 69.23287372193556], [-73.4079240810537, 69.23142138062812]]}, "properties": {"source": "176776", "target": "19649136"}}, {"type": "Feature", "geometry": {"type": "LineString", "coordinates": [[-73.40730665242258, 69.23287372193556], [-73.40997594195322, 69.23044410428881]]}, "properties": {"source": "176776", "target": "10806"}}, {"type": "Feature", "geometry": {"type": "LineString", "coordinates": [[-73.40730665242258, 69.23287372193556], [-73.41519827779526, 69.2321503339264]]}, "properties": {"source": "176776", "target": "2206578"}}, {"type": "Feature", "geometry": {"type": "LineString", "coordinates": [[-73.40730665242258, 69.23287372193556], [-73.40584079300544, 69.23244449273125]]}, "properties": {"source": "176776", "target": "18653112"}}, {"type": "Feature", "geometry": {"type": "LineString", "coordinates": [[-73.40730665242258, 69.23287372193556], [-73.41242154605163, 69.232813879957]]}, "properties": {"source": "176776", "target": "2394854"}}, {"type": "Feature", "geometry": {"type": "LineString", "coordinates": [[-73.41034860359625, 69.2325842211037], [-73.41418492658647, 69.23002500981266]]}, "properties": {"source": "340535", "target": "3171268"}}, {"type": "Feature", "geometry": {"type": "LineString", "coordinates": [[-73.4058879413989, 69.23084075181737], [-73.41519827779526, 69.2321503339264]]}, "properties": {"source": "10805", "target": "2206578"}}, {"type": "Feature", "geometry": {"type": "LineString", "coordinates": [[-73.41510666723258, 69.23258776303521], [-73.41485137414469, 69.23137417987843]]}, "properties": {"source": "21092974", "target": "218965"}}, {"type": "Feature", "geometry": {"type": "LineString", "coordinates": [[-73.41510666723258, 69.23258776303521], [-73.41304593718952, 69.23231732231056]]}, "properties": {"source": "21092974", "target": "17784798"}}, {"type": "Feature", "geometry": {"type": "LineString", "coordinates": [[-73.41510666723258, 69.23258776303521], [-73.41323933376523, 69.23172929036926]]}, "properties": {"source": "21092974", "target": "1813846"}}, {"type": "Feature", "geometry": {"type": "LineString", "coordinates": [[-73.41510666723258, 69.23258776303521], [-73.41192755048158, 69.22984095102285]]}, "properties": {"source": "21092974", "target": "19511881"}}, {"type": "Feature", "geometry": {"type": "LineString", "coordinates": [[-73.41510666723258, 69.23258776303521], [-73.40696820572596, 69.23017848351085]]}, "properties": {"source": "21092974", "target": "2193729"}}, {"type": "Feature", "geometry": {"type": "LineString", "coordinates": [[-73.41510666723258, 69.23258776303521], [-73.41075443274512, 69.23126891551144]]}, "properties": {"source": "21092974", "target": "2775324"}}, {"type": "Feature", "geometry": {"type": "LineString", "coordinates": [[-73.40622255172057, 69.2304644758087], [-73.40997594195322, 69.23044410428881]]}, "properties": {"source": "10801", "target": "10806"}}, {"type": "Feature", "geometry": {"type": "LineString", "coordinates": [[-73.40622255172057, 69.2304644758087], [-73.4058879413989, 69.23084075181737]]}, "properties": {"source": "10801", "target": "10805"}}, {"type": "Feature", "geometry": {"type": "LineString", "coordinates": [[-73.41121170765558, 69.23340622596149], [-73.40982936130051, 69.23296769711158]]}, "properties": {"source": "1049815", "target": "311771"}}, {"type": "Feature", "geometry": {"type": "LineString", "coordinates": [[-73.41121170765558, 69.23340622596149], [-73.41520086956247, 69.23170503769785]]}, "properties": {"source": "1049815", "target": "3949900"}}, {"type": "Feature", "geometry": {"type": "LineString", "coordinates": [[-73.41121170765558, 69.23340622596149], [-73.4148292517801, 69.23197055601366]]}, "properties": {"source": "1049815", "target": "2843435"}}, {"type": "Feature", "geometry": {"type": "LineString", "coordinates": [[-73.41121170765558, 69.23340622596149], [-73.41242154605163, 69.232813879957]]}, "properties": {"source": "1049815", "target": "2394854"}}, {"type": "Feature", "geometry": {"type": "LineString", "coordinates": [[-73.41090112738462, 69.23178322917562], [-73.4100210232324, 69.23261888333886]]}, "properties": {"source": "256610", "target": "1170328"}}, {"type": "Feature", "geometry": {"type": "LineString", "coordinates": [[-73.41090112738462, 69.23178322917562], [-73.4079240810537, 69.23142138062812]]}, "properties": {"source": "256610", "target": "19649136"}}, {"type": "Feature", "geometry": {"type": "LineString", "coordinates": [[-73.41090112738462, 69.23178322917562], [-73.41519827779526, 69.2321503339264]]}, "properties": {"source": "256610", "target": "2206578"}}, {"type": "Feature", "geometry": {"type": "LineString", "coordinates": [[-73.41090112738462, 69.23178322917562], [-73.40584079300544, 69.23244449273125]]}, "properties": {"source": "256610", "target": "18653112"}}, {"type": "Feature", "geometry": {"type": "LineString", "coordinates": [[-73.41090112738462, 69.23178322917562], [-73.41508384803697, 69.23227071919118]]}, "properties": {"source": "256610", "target": "267215"}}, {"type": "Feature", "geometry": {"type": "LineString", "coordinates": [[-73.41090112738462, 69.23178322917562], [-73.41034860359625, 69.2325842211037]]}, "properties": {"source": "256610", "target": "340535"}}, {"type": "Feature", "geometry": {"type": "LineString", "coordinates": [[-73.41090112738462, 69.23178322917562], [-73.41280821818694, 69.23317413499552]]}, "properties": {"source": "256610", "target": "1009393"}}, {"type": "Feature", "geometry": {"type": "LineString", "coordinates": [[-73.41084687779934, 69.23225012428927], [-73.40997594195322, 69.23044410428881]]}, "properties": {"source": "14895", "target": "10806"}}, {"type": "Feature", "geometry": {"type": "LineString", "coordinates": [[-73.41084687779934, 69.23225012428927], [-73.41511789802804, 69.23335362268145]]}, "properties": {"source": "14895", "target": "14899"}}, {"type": "Feature", "geometry": {"type": "LineString", "coordinates": [[-73.41084687779934, 69.23225012428927], [-73.41387612337108, 69.23070614687546]]}, "properties": {"source": "14895", "target": "10804"}}, {"type": "Feature", "geometry": {"type": "LineString", "coordinates": [[-73.41084687779934, 69.23225012428927], [-73.40434823877767, 69.23292814226394]]}, "properties": {"source": "14895", "target": "125453"}}, {"type": "Feature", "geometry": {"type": "LineString", "coordinates": [[-73.41084687779934, 69.23225012428927], [-73.4058879413989, 69.23084075181737]]}, "properties": {"source": "14895", "target": "10805"}}, {"type": "Feature", "geometry": {"type": "LineString", "coordinates": [[-73.41084687779934, 69.23225012428927], [-73.41277748541698, 69.22982826208289]]}, "properties": {"source": "14895", "target": "874980"}}, {"type": "Feature", "geometry": {"type": "LineString", "coordinates": [[-73.41084687779934, 69.23225012428927], [-73.40963681960879, 69.23092856488012]]}, "properties": {"source": "14895", "target": "124662"}}, {"type": "Feature", "geometry": {"type": "LineString", "coordinates": [[-73.41090112738462, 69.23178322917562], [-73.40982936130051, 69.23296769711158]]}, "properties": {"source": "256610", "target": "311771"}}, {"type": "Feature", "geometry": {"type": "LineString", "coordinates": [[-73.41090112738462, 69.23178322917562], [-73.40435734576565, 69.23065183950558]]}, "properties": {"source": "256610", "target": "1974343"}}, {"type": "Feature", "geometry": {"type": "LineString", "coordinates": [[-73.41508384803697, 69.23227071919118], [-73.4079240810537, 69.23142138062812]]}, "properties": {"source": "267215", "target": "19649136"}}, {"type": "Feature", "geometry": {"type": "LineString", "coordinates": [[-73.41508384803697, 69.23227071919118], [-73.40997594195322, 69.23044410428881]]}, "properties": {"source": "267215", "target": "10806"}}, {"type": "Feature", "geometry": {"type": "LineString", "coordinates": [[-73.41508384803697, 69.23227071919118], [-73.4058879413989, 69.23084075181737]]}, "properties": {"source": "267215", "target": "10805"}}, {"type": "Feature", "geometry": {"type": "LineString", "coordinates": [[-73.41508384803697, 69.23227071919118], [-73.40622255172057, 69.2304644758087]]}, "properties": {"source": "267215", "target": "10801"}}, {"type": "Feature", "geometry": {"type": "LineString", "coordinates": [[-73.41511789802804, 69.23335362268145], [-73.41277748541698, 69.22982826208289]]}, "properties": {"source": "14899", "target": "874980"}}, {"type": "Feature", "geometry": {"type": "LineString", "coordinates": [[-73.41387612337108, 69.23070614687546], [-73.40997594195322, 69.23044410428881]]}, "properties": {"source": "10804", "target": "10806"}}, {"type": "Feature", "geometry": {"type": "LineString", "coordinates": [[-73.41387612337108, 69.23070614687546], [-73.41519827779526, 69.2321503339264]]}, "properties": {"source": "10804", "target": "2206578"}}, {"type": "Feature", "geometry": {"type": "LineString", "coordinates": [[-73.41219825637982, 69.2302838985718], [-73.41520086956247, 69.23170503769785]]}, "properties": {"source": "3420209", "target": "3949900"}}, {"type": "Feature", "geometry": {"type": "LineString", "coordinates": [[-73.41219825637982, 69.2302838985718], [-73.4148292517801, 69.23197055601366]]}, "properties": {"source": "3420209", "target": "2843435"}}, {"type": "Feature", "geometry": {"type": "LineString", "coordinates": [[-73.41219825637982, 69.2302838985718], [-73.41242154605163, 69.232813879957]]}, "properties": {"source": "3420209", "target": "2394854"}}, {"type": "Feature", "geometry": {"type": "LineString", "coordinates": [[-73.41219825637982, 69.2302838985718], [-73.41034860359625, 69.2325842211037]]}, "properties": {"source": "3420209", "target": "340535"}}, {"type": "Feature", "geometry": {"type": "LineString", "coordinates": [[-73.41250834521847, 69.2309087210551], [-73.40584079300544, 69.23244449273125]]}, "properties": {"source": "1524402", "target": "18653112"}}, {"type": "Feature", "geometry": {"type": "LineString", "coordinates": [[-73.41250834521847, 69.2309087210551], [-73.40434823877767, 69.23292814226394]]}, "properties": {"source": "1524402", "target": "125453"}}, {"type": "Feature", "geometry": {"type": "LineString", "coordinates": [[-73.41250834521847, 69.2309087210551], [-73.41099440858672, 69.23306450200238]]}, "properties": {"source": "1524402", "target": "174111"}}, {"type": "Feature", "geometry": {"type": "LineString", "coordinates": [[-73.41250834521847, 69.2309087210551], [-73.40654436098228, 69.23075224910184]]}, "properties": {"source": "1524402", "target": "190100"}}, {"type": "Feature", "geometry": {"type": "LineString", "coordinates": [[-73.41250834521847, 69.2309087210551], [-73.41503822180827, 69.23034244858215]]}, "properties": {"source": "1524402", "target": "17367606"}}, {"type": "Feature", "geometry": {"type": "LineString", "coordinates": [[-73.4079240810537, 69.23142138062812], [-73.40654436098228, 69.23075224910184]]}, "properties": {"source": "19649136", "target": "190100"}}, {"type": "Feature", "geometry": {"type": "LineString", "coordinates": [[-73.40997594195322, 69.23044410428881], [-73.41519827779526, 69.2321503339264]]}, "properties": {"source": "10806", "target": "2206578"}}, {"type": "Feature", "geometry": {"type": "LineString", "coordinates": [[-73.40997594195322, 69.23044410428881], [-73.41511789802804, 69.23335362268145]]}, "properties": {"source": "10806", "target": "14899"}}, {"type": "Feature", "geometry": {"type": "LineString", "coordinates": [[-73.40997594195322, 69.23044410428881], [-73.4058879413989, 69.23084075181737]]}, "properties": {"source": "10806", "target": "10805"}}, {"type": "Feature", "geometry": {"type": "LineString", "coordinates": [[-73.41084687779934, 69.23225012428927], [-73.40982936130051, 69.23296769711158]]}, "properties": {"source": "14895", "target": "311771"}}, {"type": "Feature", "geometry": {"type": "LineString", "coordinates": [[-73.41084687779934, 69.23225012428927], [-73.41520086956247, 69.23170503769785]]}, "properties": {"source": "14895", "target": "3949900"}}, {"type": "Feature", "geometry": {"type": "LineString", "coordinates": [[-73.41084687779934, 69.23225012428927], [-73.4082334605393, 69.23062271087971]]}, "properties": {"source": "14895", "target": "14896"}}, {"type": "Feature", "geometry": {"type": "LineString", "coordinates": [[-73.4041988967405, 69.23271600391104], [-73.41034860359625, 69.2325842211037]]}, "properties": {"source": "417960", "target": "340535"}}, {"type": "Feature", "geometry": {"type": "LineString", "coordinates": [[-73.4041988967405, 69.23271600391104], [-73.41418492658647, 69.23002500981266]]}, "properties": {"source": "417960", "target": "3171268"}}, {"type": "Feature", "geometry": {"type": "LineString", "coordinates": [[-73.41192755048158, 69.22984095102285], [-73.41485137414469, 69.23137417987843]]}, "properties": {"source": "19511881", "target": "218965"}}, {"type": "Feature", "geometry": {"type": "LineString", "coordinates": [[-73.41192755048158, 69.22984095102285], [-73.41304593718952, 69.23231732231056]]}, "properties": {"source": "19511881", "target": "17784798"}}, {"type": "Feature", "geometry": {"type": "LineString", "coordinates": [[-73.41192755048158, 69.22984095102285], [-73.41323933376523, 69.23172929036926]]}, "properties": {"source": "19511881", "target": "1813846"}}, {"type": "Feature", "geometry": {"type": "LineString", "coordinates": [[-73.41099440858672, 69.23306450200238], [-73.4079240810537, 69.23142138062812]]}, "properties": {"source": "174111", "target": "19649136"}}, {"type": "Feature", "geometry": {"type": "LineString", "coordinates": [[-73.40483786051172, 69.23333931502256], [-73.41510666723258, 69.23258776303521]]}, "properties": {"source": "23158615", "target": "21092974"}}, {"type": "Feature", "geometry": {"type": "LineString", "coordinates": [[-73.40483786051172, 69.23333931502256], [-73.41304593718952, 69.23231732231056]]}, "properties": {"source": "23158615", "target": "17784798"}}, {"type": "Feature", "geometry": {"type": "LineString", "coordinates": [[-73.40483786051172, 69.23333931502256], [-73.41323933376523, 69.23172929036926]]}, "properties": {"source": "23158615", "target": "1813846"}}, {"type": "Feature", "geometry": {"type": "LineString", "coordinates": [[-73.41121170765558, 69.23340622596149], [-73.41277748541698, 69.22982826208289]]}, "properties": {"source": "1049815", "target": "874980"}}, {"type": "Feature", "geometry": {"type": "LineString", "coordinates": [[-73.41121170765558, 69.23340622596149], [-73.40524962932743, 69.23206388044]]}, "properties": {"source": "1049815", "target": "3593509"}}, {"type": "Feature", "geometry": {"type": "LineString", "coordinates": [[-73.41304593718952, 69.23231732231056], [-73.41323933376523, 69.23172929036926]]}, "properties": {"source": "17784798", "target": "1813846"}}, {"type": "Feature", "geometry": {"type": "LineString", "coordinates": [[-73.41280821818694, 69.23317413499552], [-73.40982936130051, 69.23296769711158]]}, "properties": {"source": "1009393", "target": "311771"}}, {"type": "Feature", "geometry": {"type": "LineString", "coordinates": [[-73.41280821818694, 69.23317413499552], [-73.4079240810537, 69.23142138062812]]}, "properties": {"source": "1009393", "target": "19649136"}}, {"type": "Feature", "geometry": {"type": "LineString", "coordinates": [[-73.41280821818694, 69.23317413499552], [-73.40434823877767, 69.23292814226394]]}, "properties": {"source": "1009393", "target": "125453"}}, {"type": "Feature", "geometry": {"type": "LineString", "coordinates": [[-73.41219825637982, 69.2302838985718], [-73.40982936130051, 69.23296769711158]]}, "properties": {"source": "3420209", "target": "311771"}}, {"type": "Feature", "geometry": {"type": "LineString", "coordinates": [[-73.40636306518039, 69.23102873776602], [-73.40435734576565, 69.23065183950558]]}, "properties": {"source": "22529430", "target": "1974343"}}, {"type": "Feature", "geometry": {"type": "LineString", "coordinates": [[-73.40636306518039, 69.23102873776602], [-73.40841561001278, 69.23323331433417]]}, "properties": {"source": "22529430", "target": "18949486"}}, {"type": "Feature", "geometry": {"type": "LineString", "coordinates": [[-73.40636306518039, 69.23102873776602], [-73.40999008696325, 69.23221193603581]]}, "properties": {"source": "22529430", "target": "18745811"}}, {"type": "Feature", "geometry": {"type": "LineString", "coordinates": [[-73.40696820572596, 69.23017848351085], [-73.41304593718952, 69.23231732231056]]}, "properties": {"source": "2193729", "target": "17784798"}}, {"type": "Feature", "geometry": {"type": "LineString", "coordinates": [[-73.40696820572596, 69.23017848351085], [-73.41323933376523, 69.23172929036926]]}, "properties": {"source": "2193729", "target": "1813846"}}, {"type": "Feature", "geometry": {"type": "LineString", "coordinates": [[-73.40963681960879, 69.23092856488012], [-73.40434823877767, 69.23292814226394]]}, "properties": {"source": "124662", "target": "125453"}}, {"type": "Feature", "geometry": {"type": "LineString", "coordinates": [[-73.40841561001278, 69.23323331433417], [-73.40999008696325, 69.23221193603581]]}, "properties": {"source": "18949486", "target": "18745811"}}, {"type": "Feature", "geometry": {"type": "LineString", "coordinates": [[-73.40481339084839, 69.23201443047665], [-73.4041988967405, 69.23271600391104]]}, "properties": {"source": "6491078", "target": "417960"}}, {"type": "Feature", "geometry": {"type": "LineString", "coordinates": [[-73.41087902663875, 69.23346553786976], [-73.4148292517801, 69.23197055601366]]}, "properties": {"source": "3462255", "target": "2843435"}}, {"type": "Feature", "geometry": {"type": "LineString", "coordinates": [[-73.41252286345629, 69.23141845367968], [-73.40982936130051, 69.23296769711158]]}, "properties": {"source": "10807", "target": "311771"}}, {"type": "Feature", "geometry": {"type": "LineString", "coordinates": [[-73.41252286345629, 69.23141845367968], [-73.41520086956247, 69.23170503769785]]}, "properties": {"source": "10807", "target": "3949900"}}, {"type": "Feature", "geometry": {"type": "LineString", "coordinates": [[-73.41252286345629, 69.23141845367968], [-73.4082334605393, 69.23062271087971]]}, "properties": {"source": "10807", "target": "14896"}}, {"type": "Feature", "geometry": {"type": "LineString", "coordinates": [[-73.41252286345629, 69.23141845367968], [-73.4100210232324, 69.23261888333886]]}, "properties": {"source": "10807", "target": "1170328"}}, {"type": "Feature", "geometry": {"type": "LineString", "coordinates": [[-73.41252286345629, 69.23141845367968], [-73.40997594195322, 69.23044410428881]]}, "properties": {"source": "10807", "target": "10806"}}, {"type": "Feature", "geometry": {"type": "LineString", "coordinates": [[-73.41252286345629, 69.23141845367968], [-73.41519827779526, 69.2321503339264]]}, "properties": {"source": "10807", "target": "2206578"}}, {"type": "Feature", "geometry": {"type": "LineString", "coordinates": [[-73.41252286345629, 69.23141845367968], [-73.41084687779934, 69.23225012428927]]}, "properties": {"source": "10807", "target": "14895"}}, {"type": "Feature", "geometry": {"type": "LineString", "coordinates": [[-73.40976095967177, 69.23253599602904], [-73.40434823877767, 69.23292814226394]]}, "properties": {"source": "10808", "target": "125453"}}, {"type": "Feature", "geometry": {"type": "LineString", "coordinates": [[-73.40976095967177, 69.23253599602904], [-73.41277748541698, 69.22982826208289]]}, "properties": {"source": "10808", "target": "874980"}}, {"type": "Feature", "geometry": {"type": "LineString", "coordinates": [[-73.41187925427052, 69.2318419471369], [-73.41520086956247, 69.23170503769785]]}, "properties": {"source": "11045", "target": "3949900"}}, {"type": "Feature", "geometry": {"type": "LineString", "coordinates": [[-73.41187925427052, 69.2318419471369], [-73.4082334605393, 69.23062271087971]]}, "properties": {"source": "11045", "target": "14896"}}, {"type": "Feature", "geometry": {"type": "LineString", "coordinates": [[-73.41187925427052, 69.2318419471369], [-73.40997594195322, 69.23044410428881]]}, "properties": {"source": "11045", "target": "10806"}}, {"type": "Feature", "geometry": {"type": "LineString", "coordinates": [[-73.41187925427052, 69.2318419471369], [-73.41519827779526, 69.2321503339264]]}, "properties": {"source": "11045", "target": "2206578"}}, {"type": "Feature", "geometry": {"type": "LineString", "coordinates": [[-73.41187925427052, 69.2318419471369], [-73.41084687779934, 69.23225012428927]]}, "properties": {"source": "11045", "target": "14895"}}, {"type": "Feature", "geometry": {"type": "LineString", "coordinates": [[-73.41187925427052, 69.2318419471369], [-73.41508384803697, 69.23227071919118]]}, "properties": {"source": "11045", "target": "267215"}}, {"type": "Feature", "geometry": {"type": "LineString", "coordinates": [[-73.41187925427052, 69.2318419471369], [-73.4058879413989, 69.23084075181737]]}, "properties": {"source": "11045", "target": "10805"}}, {"type": "Feature", "geometry": {"type": "LineString", "coordinates": [[-73.41187925427052, 69.2318419471369], [-73.40622255172057, 69.2304644758087]]}, "properties": {"source": "11045", "target": "10801"}}, {"type": "Feature", "geometry": {"type": "LineString", "coordinates": [[-73.41187925427052, 69.2318419471369], [-73.41086615773321, 69.23237955751372]]}, "properties": {"source": "11045", "target": "605360"}}, {"type": "Feature", "geometry": {"type": "LineString", "coordinates": [[-73.41485137414469, 69.23137417987843], [-73.40435734576565, 69.23065183950558]]}, "properties": {"source": "218965", "target": "1974343"}}, {"type": "Feature", "geometry": {"type": "LineString", "coordinates": [[-73.41485137414469, 69.23137417987843], [-73.4079240810537, 69.23142138062812]]}, "properties": {"source": "218965", "target": "19649136"}}, {"type": "Feature", "geometry": {"type": "LineString", "coordinates": [[-73.41485137414469, 69.23137417987843], [-73.41519827779526, 69.2321503339264]]}, "properties": {"source": "218965", "target": "2206578"}}, {"type": "Feature", "geometry": {"type": "LineString", "coordinates": [[-73.41485137414469, 69.23137417987843], [-73.40584079300544, 69.23244449273125]]}, "properties": {"source": "218965", "target": "18653112"}}, {"type": "Feature", "geometry": {"type": "LineString", "coordinates": [[-73.41485137414469, 69.23137417987843], [-73.41304593718952, 69.23231732231056]]}, "properties": {"source": "218965", "target": "17784798"}}, {"type": "Feature", "geometry": {"type": "LineString", "coordinates": [[-73.40982936130051, 69.23296769711158], [-73.41034860359625, 69.2325842211037]]}, "properties": {"source": "311771", "target": "340535"}}, {"type": "Feature", "geometry": {"type": "LineString", "coordinates": [[-73.40982936130051, 69.23296769711158], [-73.41418492658647, 69.23002500981266]]}, "properties": {"source": "311771", "target": "3171268"}}, {"type": "Feature", "geometry": {"type": "LineString", "coordinates": [[-73.40982936130051, 69.23296769711158], [-73.4041988967405, 69.23271600391104]]}, "properties": {"source": "311771", "target": "417960"}}, {"type": "Feature", "geometry": {"type": "LineString", "coordinates": [[-73.40982936130051, 69.23296769711158], [-73.41395895251065, 69.23263444805627]]}, "properties": {"source": "311771", "target": "14901"}}, {"type": "Feature", "geometry": {"type": "LineString", "coordinates": [[-73.41520086956247, 69.23170503769785], [-73.40982936130051, 69.23296769711158]]}, "properties": {"source": "3949900", "target": "311771"}}, {"type": "Feature", "geometry": {"type": "LineString", "coordinates": [[-73.41520086956247, 69.23170503769785], [-73.4100210232324, 69.23261888333886]]}, "properties": {"source": "3949900", "target": "1170328"}}, {"type": "Feature", "geometry": {"type": "LineString", "coordinates": [[-73.41520086956247, 69.23170503769785], [-73.40976095967177, 69.23253599602904]]}, "properties": {"source": "3949900", "target": "10808"}}, {"type": "Feature", "geometry": {"type": "LineString", "coordinates": [[-73.41520086956247, 69.23170503769785], [-73.4148292517801, 69.23197055601366]]}, "properties": {"source": "3949900", "target": "2843435"}}, {"type": "Feature", "geometry": {"type": "LineString", "coordinates": [[-73.41520086956247, 69.23170503769785], [-73.41387612337108, 69.23070614687546]]}, "properties": {"source": "3949900", "target": "10804"}}, {"type": "Feature", "geometry": {"type": "LineString", "coordinates": [[-73.4082334605393, 69.23062271087971], [-73.41508384803697, 69.23227071919118]]}, "properties": {"source": "14896", "target": "267215"}}, {"type": "Feature", "geometry": {"type": "LineString", "coordinates": [[-73.4082334605393, 69.23062271087971], [-73.41511789802804, 69.23335362268145]]}, "properties": {"source": "14896", "target": "14899"}}, {"type": "Feature", "geometry": {"type": "LineString", "coordinates": [[-73.4082334605393, 69.23062271087971], [-73.40434823877767, 69.23292814226394]]}, "properties": {"source": "14896", "target": "125453"}}, {"type": "Feature", "geometry": {"type": "LineString", "coordinates": [[-73.4082334605393, 69.23062271087971], [-73.4058879413989, 69.23084075181737]]}, "properties": {"source": "14896", "target": "10805"}}, {"type": "Feature", "geometry": {"type": "LineString", "coordinates": [[-73.4082334605393, 69.23062271087971], [-73.40622255172057, 69.2304644758087]]}, "properties": {"source": "14896", "target": "10801"}}, {"type": "Feature", "geometry": {"type": "LineString", "coordinates": [[-73.4082334605393, 69.23062271087971], [-73.41277748541698, 69.22982826208289]]}, "properties": {"source": "14896", "target": "874980"}}, {"type": "Feature", "geometry": {"type": "LineString", "coordinates": [[-73.4082334605393, 69.23062271087971], [-73.41394694527668, 69.23101308652326]]}, "properties": {"source": "14896", "target": "10802"}}, {"type": "Feature", "geometry": {"type": "LineString", "coordinates": [[-73.40435734576565, 69.23065183950558], [-73.4079240810537, 69.23142138062812]]}, "properties": {"source": "1974343", "target": "19649136"}}, {"type": "Feature", "geometry": {"type": "LineString", "coordinates": [[-73.40435734576565, 69.23065183950558], [-73.41519827779526, 69.2321503339264]]}, "properties": {"source": "1974343", "target": "2206578"}}, {"type": "Feature", "geometry": {"type": "LineString", "coordinates": [[-73.40435734576565, 69.23065183950558], [-73.40584079300544, 69.23244449273125]]}, "properties": {"source": "1974343", "target": "18653112"}}, {"type": "Feature", "geometry": {"type": "LineString", "coordinates": [[-73.40435734576565, 69.23065183950558], [-73.41280821818694, 69.23317413499552]]}, "properties": {"source": "1974343", "target": "1009393"}}, {"type": "Feature", "geometry": {"type": "LineString", "coordinates": [[-73.40435734576565, 69.23065183950558], [-73.41208795095778, 69.2320330280694]]}, "properties": {"source": "1974343", "target": "1102924"}}, {"type": "Feature", "geometry": {"type": "LineString", "coordinates": [[-73.40435734576565, 69.23065183950558], [-73.41099440858672, 69.23306450200238]]}, "properties": {"source": "1974343", "target": "174111"}}, {"type": "Feature", "geometry": {"type": "LineString", "coordinates": [[-73.40435734576565, 69.23065183950558], [-73.40654436098228, 69.23075224910184]]}, "properties": {"source": "1974343", "target": "190100"}}, {"type": "Feature", "geometry": {"type": "LineString", "coordinates": [[-73.40435734576565, 69.23065183950558], [-73.40841561001278, 69.23323331433417]]}, "properties": {"source": "1974343", "target": "18949486"}}, {"type": "Feature", "geometry": {"type": "LineString", "coordinates": [[-73.40435734576565, 69.23065183950558], [-73.40999008696325, 69.23221193603581]]}, "properties": {"source": "1974343", "target": "18745811"}}, {"type": "Feature", "geometry": {"type": "LineString", "coordinates": [[-73.40982936130051, 69.23296769711158], [-73.4100210232324, 69.23261888333886]]}, "properties": {"source": "311771", "target": "1170328"}}, {"type": "Feature", "geometry": {"type": "LineString", "coordinates": [[-73.40982936130051, 69.23296769711158], [-73.40997594195322, 69.23044410428881]]}, "properties": {"source": "311771", "target": "10806"}}, {"type": "Feature", "geometry": {"type": "LineString", "coordinates": [[-73.40982936130051, 69.23296769711158], [-73.41519827779526, 69.2321503339264]]}, "properties": {"source": "311771", "target": "2206578"}}, {"type": "Feature", "geometry": {"type": "LineString", "coordinates": [[-73.40982936130051, 69.23296769711158], [-73.41508384803697, 69.23227071919118]]}, "properties": {"source": "311771", "target": "267215"}}, {"type": "Feature", "geometry": {"type": "LineString", "coordinates": [[-73.40982936130051, 69.23296769711158], [-73.41511789802804, 69.23335362268145]]}, "properties": {"source": "311771", "target": "14899"}}, {"type": "Feature", "geometry": {"type": "LineString", "coordinates": [[-73.40982936130051, 69.23296769711158], [-73.41387612337108, 69.23070614687546]]}, "properties": {"source": "311771", "target": "10804"}}, {"type": "Feature", "geometry": {"type": "LineString", "coordinates": [[-73.40982936130051, 69.23296769711158], [-73.41242154605163, 69.232813879957]]}, "properties": {"source": "311771", "target": "2394854"}}, {"type": "Feature", "geometry": {"type": "LineString", "coordinates": [[-73.41485137414469, 69.23137417987843], [-73.41323933376523, 69.23172929036926]]}, "properties": {"source": "218965", "target": "1813846"}}, {"type": "Feature", "geometry": {"type": "LineString", "coordinates": [[-73.41485137414469, 69.23137417987843], [-73.41075443274512, 69.23126891551144]]}, "properties": {"source": "218965", "target": "2775324"}}, {"type": "Feature", "geometry": {"type": "LineString", "coordinates": [[-73.41485137414469, 69.23137417987843], [-73.4070566382879, 69.23154910183001]]}, "properties": {"source": "218965", "target": "2093902"}}, {"type": "Feature", "geometry": {"type": "LineString", "coordinates": [[-73.4148292517801, 69.23197055601366], [-73.40982936130051, 69.23296769711158]]}, "properties": {"source": "2843435", "target": "311771"}}, {"type": "Feature", "geometry": {"type": "LineString", "coordinates": [[-73.4148292517801, 69.23197055601366], [-73.41508384803697, 69.23227071919118]]}, "properties": {"source": "2843435", "target": "267215"}}, {"type": "Feature", "geometry": {"type": "LineString", "coordinates": [[-73.4148292517801, 69.23197055601366], [-73.41242154605163, 69.232813879957]]}, "properties": {"source": "2843435", "target": "2394854"}}, {"type": "Feature", "geometry": {"type": "LineString", "coordinates": [[-73.4148292517801, 69.23197055601366], [-73.40730665242258, 69.23287372193556]]}, "properties": {"source": "2843435", "target": "176776"}}, {"type": "Feature", "geometry": {"type": "LineString", "coordinates": [[-73.4148292517801, 69.23197055601366], [-73.41034860359625, 69.2325842211037]]}, "properties": {"source": "2843435", "target": "340535"}}, {"type": "Feature", "geometry": {"type": "LineString", "coordinates": [[-73.4148292517801, 69.23197055601366], [-73.41395895251065, 69.23263444805627]]}, "properties": {"source": "2843435", "target": "14901"}}, {"type": "Feature", "geometry": {"type": "LineString", "coordinates": [[-73.41394694527668, 69.23101308652326], [-73.40997594195322, 69.23044410428881]]}, "properties": {"source": "10802", "target": "10806"}}, {"type": "Feature", "geometry": {"type": "LineString", "coordinates": [[-73.41394694527668, 69.23101308652326], [-73.41511789802804, 69.23335362268145]]}, "properties": {"source": "10802", "target": "14899"}}, {"type": "Feature", "geometry": {"type": "LineString", "coordinates": [[-73.41394694527668, 69.23101308652326], [-73.40622255172057, 69.2304644758087]]}, "properties": {"source": "10802", "target": "10801"}}, {"type": "Feature", "geometry": {"type": "LineString", "coordinates": [[-73.41394694527668, 69.23101308652326], [-73.41086615773321, 69.23237955751372]]}, "properties": {"source": "10802", "target": "605360"}}, {"type": "Feature", "geometry": {"type": "LineString", "coordinates": [[-73.41086615773321, 69.23237955751372], [-73.41511789802804, 69.23335362268145]]}, "properties": {"source": "605360", "target": "14899"}}, {"type": "Feature", "geometry": {"type": "LineString", "coordinates": [[-73.41208795095778, 69.2320330280694], [-73.4079240810537, 69.23142138062812]]}, "properties": {"source": "1102924", "target": "19649136"}}, {"type": "Feature", "geometry": {"type": "LineString", "coordinates": [[-73.41208795095778, 69.2320330280694], [-73.40434823877767, 69.23292814226394]]}, "properties": {"source": "1102924", "target": "125453"}}, {"type": "Feature", "geometry": {"type": "LineString", "coordinates": [[-73.4082334605393, 69.23062271087971], [-73.41086615773321, 69.23237955751372]]}, "properties": {"source": "14896", "target": "605360"}}, {"type": "Feature", "geometry": {"type": "LineString", "coordinates": [[-73.4082334605393, 69.23062271087971], [-73.40963681960879, 69.23092856488012]]}, "properties": {"source": "14896", "target": "124662"}}, {"type": "Feature", "geometry": {"type": "LineString", "coordinates": [[-73.4100210232324, 69.23261888333886], [-73.4079240810537, 69.23142138062812]]}, "properties": {"source": "1170328", "target": "19649136"}}, {"type": "Feature", "geometry": {"type": "LineString", "coordinates": [[-73.4100210232324, 69.23261888333886], [-73.41387612337108, 69.23070614687546]]}, "properties": {"source": "1170328", "target": "10804"}}, {"type": "Feature", "geometry": {"type": "LineString", "coordinates": [[-73.4100210232324, 69.23261888333886], [-73.41242154605163, 69.232813879957]]}, "properties": {"source": "1170328", "target": "2394854"}}, {"type": "Feature", "geometry": {"type": "LineString", "coordinates": [[-73.4100210232324, 69.23261888333886], [-73.40434823877767, 69.23292814226394]]}, "properties": {"source": "1170328", "target": "125453"}}, {"type": "Feature", "geometry": {"type": "LineString", "coordinates": [[-73.4100210232324, 69.23261888333886], [-73.41418492658647, 69.23002500981266]]}, "properties": {"source": "1170328", "target": "3171268"}}, {"type": "Feature", "geometry": {"type": "LineString", "coordinates": [[-73.4100210232324, 69.23261888333886], [-73.41277748541698, 69.22982826208289]]}, "properties": {"source": "1170328", "target": "874980"}}, {"type": "Feature", "geometry": {"type": "LineString", "coordinates": [[-73.4079240810537, 69.23142138062812], [-73.41519827779526, 69.2321503339264]]}, "properties": {"source": "19649136", "target": "2206578"}}, {"type": "Feature", "geometry": {"type": "LineString", "coordinates": [[-73.40976095967177, 69.23253599602904], [-73.40982936130051, 69.23296769711158]]}, "properties": {"source": "10808", "target": "311771"}}, {"type": "Feature", "geometry": {"type": "LineString", "coordinates": [[-73.40976095967177, 69.23253599602904], [-73.40435734576565, 69.23065183950558]]}, "properties": {"source": "10808", "target": "1974343"}}, {"type": "Feature", "geometry": {"type": "LineString", "coordinates": [[-73.40976095967177, 69.23253599602904], [-73.4100210232324, 69.23261888333886]]}, "properties": {"source": "10808", "target": "1170328"}}, {"type": "Feature", "geometry": {"type": "LineString", "coordinates": [[-73.40976095967177, 69.23253599602904], [-73.4079240810537, 69.23142138062812]]}, "properties": {"source": "10808", "target": "19649136"}}, {"type": "Feature", "geometry": {"type": "LineString", "coordinates": [[-73.40976095967177, 69.23253599602904], [-73.41519827779526, 69.2321503339264]]}, "properties": {"source": "10808", "target": "2206578"}}, {"type": "Feature", "geometry": {"type": "LineString", "coordinates": [[-73.40976095967177, 69.23253599602904], [-73.41090112738462, 69.23178322917562]]}, "properties": {"source": "10808", "target": "256610"}}, {"type": "Feature", "geometry": {"type": "LineString", "coordinates": [[-73.40976095967177, 69.23253599602904], [-73.41387612337108, 69.23070614687546]]}, "properties": {"source": "10808", "target": "10804"}}, {"type": "Feature", "geometry": {"type": "LineString", "coordinates": [[-73.41252286345629, 69.23141845367968], [-73.40976095967177, 69.23253599602904]]}, "properties": {"source": "10807", "target": "10808"}}, {"type": "Feature", "geometry": {"type": "LineString", "coordinates": [[-73.41252286345629, 69.23141845367968], [-73.41187925427052, 69.2318419471369]]}, "properties": {"source": "10807", "target": "11045"}}, {"type": "Feature", "geometry": {"type": "LineString", "coordinates": [[-73.41252286345629, 69.23141845367968], [-73.41508384803697, 69.23227071919118]]}, "properties": {"source": "10807", "target": "267215"}}, {"type": "Feature", "geometry": {"type": "LineString", "coordinates": [[-73.41252286345629, 69.23141845367968], [-73.41511789802804, 69.23335362268145]]}, "properties": {"source": "10807", "target": "14899"}}, {"type": "Feature", "geometry": {"type": "LineString", "coordinates": [[-73.41252286345629, 69.23141845367968], [-73.41387612337108, 69.23070614687546]]}, "properties": {"source": "10807", "target": "10804"}}, {"type": "Feature", "geometry": {"type": "LineString", "coordinates": [[-73.41252286345629, 69.23141845367968], [-73.4058879413989, 69.23084075181737]]}, "properties": {"source": "10807", "target": "10805"}}, {"type": "Feature", "geometry": {"type": "LineString", "coordinates": [[-73.41252286345629, 69.23141845367968], [-73.40622255172057, 69.2304644758087]]}, "properties": {"source": "10807", "target": "10801"}}, {"type": "Feature", "geometry": {"type": "LineString", "coordinates": [[-73.4082334605393, 69.23062271087971], [-73.40982936130051, 69.23296769711158]]}, "properties": {"source": "14896", "target": "311771"}}, {"type": "Feature", "geometry": {"type": "LineString", "coordinates": [[-73.4082334605393, 69.23062271087971], [-73.40997594195322, 69.23044410428881]]}, "properties": {"source": "14896", "target": "10806"}}, {"type": "Feature", "geometry": {"type": "LineString", "coordinates": [[-73.41520086956247, 69.23170503769785], [-73.41242154605163, 69.232813879957]]}, "properties": {"source": "3949900", "target": "2394854"}}, {"type": "Feature", "geometry": {"type": "LineString", "coordinates": [[-73.41520086956247, 69.23170503769785], [-73.41034860359625, 69.2325842211037]]}, "properties": {"source": "3949900", "target": "340535"}}, {"type": "Feature", "geometry": {"type": "LineString", "coordinates": [[-73.41520086956247, 69.23170503769785], [-73.41418492658647, 69.23002500981266]]}, "properties": {"source": "3949900", "target": "3171268"}}, {"type": "Feature", "geometry": {"type": "LineString", "coordinates": [[-73.41520086956247, 69.23170503769785], [-73.41086615773321, 69.23237955751372]]}, "properties": {"source": "3949900", "target": "605360"}}, {"type": "Feature", "geometry": {"type": "LineString", "coordinates": [[-73.41520086956247, 69.23170503769785], [-73.4041988967405, 69.23271600391104]]}, "properties": {"source": "3949900", "target": "417960"}}, {"type": "Feature", "geometry": {"type": "LineString", "coordinates": [[-73.41520086956247, 69.23170503769785], [-73.40481339084839, 69.23201443047665]]}, "properties": {"source": "3949900", "target": "6491078"}}, {"type": "Feature", "geometry": {"type": "LineString", "coordinates": [[-73.40435734576565, 69.23065183950558], [-73.4100210232324, 69.23261888333886]]}, "properties": {"source": "1974343", "target": "1170328"}}]}