{"type": "FeatureCollection", "features": [{"type": "Feature", "geometry": {"type": "LineString", "coordinates": [[118.2050627443648, 68.22706089384567], [118.18475466702398, 68.22378118885555]]}, "properties": {"source": "8359680", "target": "9655178"}}, {"type": "Feature", "geometry": {"type": "LineString", "coordinates": [[118.19512040958654, 68.23037624636007], [118.19391443923541, 68.22252722179425]]}, "properties": {"source": "7146600", "target": "806286"}}, {"type": "Feature", "geometry": {"type": "LineString", "coordinates": [[118.18425996227995, 68.22783269503401], [118.1991047866743, 68.22279427204862]]}, "properties": {"source": "13552641", "target": "22900585"}}, {"type": "Feature", "geometry": {"type": "LineString", "coordinates": [[118.18425996227995, 68.22783269503401], [118.20660006497286, 68.22831636860192]]}, "properties": {"source": "13552641", "target": "23197017"}}, {"type": "Feature", "geometry": {"type": "LineString", "coordinates": [[118.18285292924054, 68.22687154841856], [118.20831807879608, 68.22923425552432]]}, "properties": {"source": "3069967", "target": "33362054"}}, {"type": "Feature", "geometry": {"type": "LineString", "coordinates": [[118.19075194280919, 68.22298617580017], [118.19811270253723, 68.22667989258414]]}, "properties": {"source": "25303522", "target": "23355510"}}, {"type": "Feature", "geometry": {"type": "LineString", "coordinates": [[118.19075194280919, 68.22298617580017], [118.20166640487815, 68.22319162605632]]}, "properties": {"source": "25303522", "target": "21948990"}}, {"type": "Feature", "geometry": {"type": "LineString", "coordinates": [[118.19075194280919, 68.22298617580017], [118.2066497953586, 68.22806167808747]]}, "properties": {"source": "25303522", "target": "21622446"}}, {"type": "Feature", "geometry": {"type": "LineString", "coordinates": [[118.20597749244081, 68.22767299239706], [118.19868872972529, 68.22443286287648]]}, "properties": {"source": "259778", "target": "11456108"}}, {"type": "Feature", "geometry": {"type": "LineString", "coordinates": [[118.20597749244081, 68.22767299239706], [118.18763735769318, 68.2313758422506]]}, "properties": {"source": "259778", "target": "10405176"}}, {"type": "Feature", "geometry": {"type": "LineString", "coordinates": [[118.20597749244081, 68.22767299239706], [118.18576116956058, 68.22831805000911]]}, "properties": {"source": "259778", "target": "1074833"}}, {"type": "Feature", "geometry": {"type": "LineString", "coordinates": [[118.20597749244081, 68.22767299239706], [118.20831807879608, 68.22923425552432]]}, "properties": {"source": "259778", "target": "33362054"}}, {"type": "Feature", "geometry": {"type": "LineString", "coordinates": [[118.18662950658995, 68.22614398726668], [118.19642447115393, 68.22862019054509]]}, "properties": {"source": "1028138", "target": "8911912"}}, {"type": "Feature", "geometry": {"type": "LineString", "coordinates": [[118.18662950658995, 68.22614398726668], [118.18763735769318, 68.2313758422506]]}, "properties": {"source": "1028138", "target": "10405176"}}, {"type": "Feature", "geometry": {"type": "LineString", "coordinates": [[118.18662950658995, 68.22614398726668], [118.20597749244081, 68.22767299239706]]}, "properties": {"source": "1028138", "target": "259778"}}, {"type": "Feature", "geometry": {"type": "LineString", "coordinates": [[118.18662950658995, 68.22614398726668], [118.19829100063379, 68.22740009862207]]}, "properties": {"source": "1028138", "target": "1392947"}}, {"type": "Feature", "geometry": {"type": "LineString", "coordinates": [[118.18662950658995, 68.22614398726668], [118.19597277378341, 68.22287101158767]]}, "properties": {"source": "1028138", "target": "604075"}}, {"type": "Feature", "geometry": {"type": "LineString", "coordinates": [[118.18415548125085, 68.23156598030502], [118.19548626043814, 68.22910494704314]]}, "properties": {"source": "9921479", "target": "8391726"}}, {"type": "Feature", "geometry": {"type": "LineString", "coordinates": [[118.18333819268452, 68.22292593499662], [118.18336403601955, 68.22485360546523]]}, "properties": {"source": "956573", "target": "757448"}}, {"type": "Feature", "geometry": {"type": "LineString", "coordinates": [[118.18333819268452, 68.22292593499662], [118.1835829115314, 68.22876613395357]]}, "properties": {"source": "956573", "target": "793668"}}, {"type": "Feature", "geometry": {"type": "LineString", "coordinates": [[118.20130279051898, 68.23144075998496], [118.18888357298908, 68.22582880765907]]}, "properties": {"source": "16178685", "target": "18201606"}}, {"type": "Feature", "geometry": {"type": "LineString", "coordinates": [[118.20130279051898, 68.23144075998496], [118.20918797123039, 68.22280318545054]]}, "properties": {"source": "16178685", "target": "16101259"}}, {"type": "Feature", "geometry": {"type": "LineString", "coordinates": [[118.20130279051898, 68.23144075998496], [118.19264883519429, 68.22683281855649]]}, "properties": {"source": "16178685", "target": "1681041"}}, {"type": "Feature", "geometry": {"type": "LineString", "coordinates": [[118.20130279051898, 68.23144075998496], [118.18266347154855, 68.22779354804524]]}, "properties": {"source": "16178685", "target": "25423139"}}, {"type": "Feature", "geometry": {"type": "LineString", "coordinates": [[118.20130279051898, 68.23144075998496], [118.18562132175026, 68.2240753921786]]}, "properties": {"source": "16178685", "target": "15885960"}}, {"type": "Feature", "geometry": {"type": "LineString", "coordinates": [[118.19289694291422, 68.22819063943396], [118.19868872972529, 68.22443286287648]]}, "properties": {"source": "1976099", "target": "11456108"}}, {"type": "Feature", "geometry": {"type": "LineString", "coordinates": [[118.19289694291422, 68.22819063943396], [118.18763735769318, 68.2313758422506]]}, "properties": {"source": "1976099", "target": "10405176"}}, {"type": "Feature", "geometry": {"type": "LineString", "coordinates": [[118.19289694291422, 68.22819063943396], [118.20597749244081, 68.22767299239706]]}, "properties": {"source": "1976099", "target": "259778"}}, {"type": "Feature", "geometry": {"type": "LineString", "coordinates": [[118.19289694291422, 68.22819063943396], [118.19829100063379, 68.22740009862207]]}, "properties": {"source": "1976099", "target": "1392947"}}, {"type": "Feature", "geometry": {"type": "LineString", "coordinates": [[118.19289694291422, 68.22819063943396], [118.18680758293704, 68.22929978174949]]}, "properties": {"source": "1976099", "target": "1554778"}}, {"type": "Feature", "geometry": {"type": "LineString", "coordinates": [[118.20008294032209, 68.2265732756035], [118.18475466702398, 68.22378118885555]]}, "properties": {"source": "6002005", "target": "9655178"}}, {"type": "Feature", "geometry": {"type": "LineString", "coordinates": [[118.20008294032209, 68.2265732756035], [118.19873079196572, 68.22947587770983]]}, "properties": {"source": "6002005", "target": "7823974"}}, {"type": "Feature", "geometry": {"type": "LineString", "coordinates": [[118.20008294032209, 68.2265732756035], [118.20183881751933, 68.22249953598046]]}, "properties": {"source": "6002005", "target": "6641799"}}, {"type": "Feature", "geometry": {"type": "LineString", "coordinates": [[118.20008294032209, 68.2265732756035], [118.20134842703447, 68.22224690368986]]}, "properties": {"source": "6002005", "target": "13034940"}}, {"type": "Feature", "geometry": {"type": "LineString", "coordinates": [[118.19984359590381, 68.22980704978599], [118.1838861265328, 68.22307555679185]]}, "properties": {"source": "528766", "target": "36271088"}}, {"type": "Feature", "geometry": {"type": "LineString", "coordinates": [[118.20409828817395, 68.22727571983478], [118.18296457258373, 68.22770777780622]]}, "properties": {"source": "29893880", "target": "30323585"}}, {"type": "Feature", "geometry": {"type": "LineString", "coordinates": [[118.19744431477898, 68.22305153706287], [118.19253691367459, 68.22934894106675]]}, "properties": {"source": "12915074", "target": "17456037"}}, {"type": "Feature", "geometry": {"type": "LineString", "coordinates": [[118.19744431477898, 68.22305153706287], [118.20660006497286, 68.22831636860192]]}, "properties": {"source": "12915074", "target": "23197017"}}, {"type": "Feature", "geometry": {"type": "LineString", "coordinates": [[118.20827152123519, 68.2307597643892], [118.20829897153044, 68.2256959930397]]}, "properties": {"source": "970386", "target": "9586133"}}, {"type": "Feature", "geometry": {"type": "LineString", "coordinates": [[118.20827152123519, 68.2307597643892], [118.18541039378783, 68.22407408245382]]}, "properties": {"source": "970386", "target": "7012648"}}, {"type": "Feature", "geometry": {"type": "LineString", "coordinates": [[118.18576116956058, 68.22831805000911], [118.19642447115393, 68.22862019054509]]}, "properties": {"source": "1074833", "target": "8911912"}}, {"type": "Feature", "geometry": {"type": "LineString", "coordinates": [[118.18576116956058, 68.22831805000911], [118.19829100063379, 68.22740009862207]]}, "properties": {"source": "1074833", "target": "1392947"}}, {"type": "Feature", "geometry": {"type": "LineString", "coordinates": [[118.19253691367459, 68.22934894106675], [118.19737035568596, 68.22916915950265]]}, "properties": {"source": "17456037", "target": "17157646"}}, {"type": "Feature", "geometry": {"type": "LineString", "coordinates": [[118.19821010516779, 68.23065673394274], [118.20829897153044, 68.2256959930397]]}, "properties": {"source": "924763", "target": "9586133"}}, {"type": "Feature", "geometry": {"type": "LineString", "coordinates": [[118.19527857492182, 68.22333318840657], [118.19811270253723, 68.22667989258414]]}, "properties": {"source": "23168803", "target": "23355510"}}, {"type": "Feature", "geometry": {"type": "LineString", "coordinates": [[118.19527857492182, 68.22333318840657], [118.2066497953586, 68.22806167808747]]}, "properties": {"source": "23168803", "target": "21622446"}}, {"type": "Feature", "geometry": {"type": "LineString", "coordinates": [[118.19426972215308, 68.22242431793532], [118.1926667964596, 68.22279870594232]]}, "properties": {"source": "10867740", "target": "17179014"}}, {"type": "Feature", "geometry": {"type": "LineString", "coordinates": [[118.20853836207266, 68.230231754215], [118.19137068069284, 68.22347242457442]]}, "properties": {"source": "8459946", "target": "7190763"}}, {"type": "Feature", "geometry": {"type": "LineString", "coordinates": [[118.20422053295493, 68.23147628888773], [118.19467819441815, 68.23058460096951]]}, "properties": {"source": "25622739", "target": "22890307"}}, {"type": "Feature", "geometry": {"type": "LineString", "coordinates": [[118.20422053295493, 68.23147628888773], [118.19811270253723, 68.22667989258414]]}, "properties": {"source": "25622739", "target": "23355510"}}, {"type": "Feature", "geometry": {"type": "LineString", "coordinates": [[118.18285292924054, 68.22687154841856], [118.20597749244081, 68.22767299239706]]}, "properties": {"source": "3069967", "target": "259778"}}, {"type": "Feature", "geometry": {"type": "LineString", "coordinates": [[118.18285292924054, 68.22687154841856], [118.18576116956058, 68.22831805000911]]}, "properties": {"source": "3069967", "target": "1074833"}}, {"type": "Feature", "geometry": {"type": "LineString", "coordinates": [[118.19107582464108, 68.22285645629731], [118.19038020092597, 68.22832440628198]]}, "properties": {"source": "13623145", "target": "8687442"}}, {"type": "Feature", "geometry": {"type": "LineString", "coordinates": [[118.19947639077623, 68.22940567330022], [118.19548626043814, 68.22910494704314]]}, "properties": {"source": "11641196", "target": "8391726"}}, {"type": "Feature", "geometry": {"type": "LineString", "coordinates": [[118.19947639077623, 68.22940567330022], [118.18415548125085, 68.23156598030502]]}, "properties": {"source": "11641196", "target": "9921479"}}, {"type": "Feature", "geometry": {"type": "LineString", "coordinates": [[118.19947639077623, 68.22940567330022], [118.18783433581365, 68.22491554493914]]}, "properties": {"source": "11641196", "target": "9349285"}}, {"type": "Feature", "geometry": {"type": "LineString", "coordinates": [[118.20810845109474, 68.22590548640733], [118.20829897153044, 68.2256959930397]]}, "properties": {"source": "9317460", "target": "9586133"}}, {"type": "Feature", "geometry": {"type": "LineString", "coordinates": [[118.20810845109474, 68.22590548640733], [118.1926077311096, 68.22881979111426]]}, "properties": {"source": "9317460", "target": "9317565"}}, {"type": "Feature", "geometry": {"type": "LineString", "coordinates": [[118.20810845109474, 68.22590548640733], [118.18865637305362, 68.22408163826185]]}, "properties": {"source": "9317460", "target": "9317707"}}, {"type": "Feature", "geometry": {"type": "LineString", "coordinates": [[118.20810845109474, 68.22590548640733], [118.19821010516779, 68.23065673394274]]}, "properties": {"source": "9317460", "target": "924763"}}, {"type": "Feature", "geometry": {"type": "LineString", "coordinates": [[118.20810845109474, 68.22590548640733], [118.20647848110048, 68.22356422314655]]}, "properties": {"source": "9317460", "target": "10773927"}}, {"type": "Feature", "geometry": {"type": "LineString", "coordinates": [[118.20810845109474, 68.22590548640733], [118.19139614976257, 68.22975211120334]]}, "properties": {"source": "9317460", "target": "920686"}}, {"type": "Feature", "geometry": {"type": "LineString", "coordinates": [[118.18333819268452, 68.22292593499662], [118.20829897153044, 68.2256959930397]]}, "properties": {"source": "956573", "target": "9586133"}}, {"type": "Feature", "geometry": {"type": "LineString", "coordinates": [[118.18333819268452, 68.22292593499662], [118.18541039378783, 68.22407408245382]]}, "properties": {"source": "956573", "target": "7012648"}}, {"type": "Feature", "geometry": {"type": "LineString", "coordinates": [[118.18333819268452, 68.22292593499662], [118.20827152123519, 68.2307597643892]]}, "properties": {"source": "956573", "target": "970386"}}, {"type": "Feature", "geometry": {"type": "LineString", "coordinates": [[118.18333819268452, 68.22292593499662], [118.20372505665, 68.22878809122736]]}, "properties": {"source": "956573", "target": "9722870"}}, {"type": "Feature", "geometry": {"type": "LineString", "coordinates": [[118.20297113869259, 68.23014414281809], [118.19264883519429, 68.22683281855649]]}, "properties": {"source": "18265838", "target": "1681041"}}, {"type": "Feature", "geometry": {"type": "LineString", "coordinates": [[118.19816196435596, 68.22368992981765], [118.20561022330998, 68.2313359532719]]}, "properties": {"source": "33388493", "target": "12354079"}}, {"type": "Feature", "geometry": {"type": "LineString", "coordinates": [[118.19642447115393, 68.22862019054509], [118.18647999035903, 68.2233204380133]]}, "properties": {"source": "8911912", "target": "11139230"}}, {"type": "Feature", "geometry": {"type": "LineString", "coordinates": [[118.19642447115393, 68.22862019054509], [118.18763735769318, 68.2313758422506]]}, "properties": {"source": "8911912", "target": "10405176"}}, {"type": "Feature", "geometry": {"type": "LineString", "coordinates": [[118.19642447115393, 68.22862019054509], [118.185177144605, 68.22863833978892]]}, "properties": {"source": "8911912", "target": "10902606"}}, {"type": "Feature", "geometry": {"type": "LineString", "coordinates": [[118.19642447115393, 68.22862019054509], [118.20853836207266, 68.230231754215]]}, "properties": {"source": "8911912", "target": "8459946"}}, {"type": "Feature", "geometry": {"type": "LineString", "coordinates": [[118.19642447115393, 68.22862019054509], [118.20905106761444, 68.22864635442406]]}, "properties": {"source": "8911912", "target": "7075457"}}, {"type": "Feature", "geometry": {"type": "LineString", "coordinates": [[118.19642447115393, 68.22862019054509], [118.18800010221418, 68.22237002686751]]}, "properties": {"source": "8911912", "target": "1142520"}}, {"type": "Feature", "geometry": {"type": "LineString", "coordinates": [[118.1973543434006, 68.22263249342149], [118.20561022330998, 68.2313359532719]]}, "properties": {"source": "22893033", "target": "12354079"}}, {"type": "Feature", "geometry": {"type": "LineString", "coordinates": [[118.1973543434006, 68.22263249342149], [118.19467819441815, 68.23058460096951]]}, "properties": {"source": "22893033", "target": "22890307"}}, {"type": "Feature", "geometry": {"type": "LineString", "coordinates": [[118.1973543434006, 68.22263249342149], [118.19811270253723, 68.22667989258414]]}, "properties": {"source": "22893033", "target": "23355510"}}, {"type": "Feature", "geometry": {"type": "LineString", "coordinates": [[118.1973543434006, 68.22263249342149], [118.20166640487815, 68.22319162605632]]}, "properties": {"source": "22893033", "target": "21948990"}}, {"type": "Feature", "geometry": {"type": "LineString", "coordinates": [[118.1973543434006, 68.22263249342149], [118.2066497953586, 68.22806167808747]]}, "properties": {"source": "22893033", "target": "21622446"}}, {"type": "Feature", "geometry": {"type": "LineString", "coordinates": [[118.1973543434006, 68.22263249342149], [118.19107582464108, 68.22285645629731]]}, "properties": {"source": "22893033", "target": "13623145"}}, {"type": "Feature", "geometry": {"type": "LineString", "coordinates": [[118.1973543434006, 68.22263249342149], [118.18671893242157, 68.22442638448851]]}, "properties": {"source": "22893033", "target": "23419928"}}, {"type": "Feature", "geometry": {"type": "LineString", "coordinates": [[118.1973543434006, 68.22263249342149], [118.19075194280919, 68.22298617580017]]}, "properties": {"source": "22893033", "target": "25303522"}}, {"type": "Feature", "geometry": {"type": "LineString", "coordinates": [[118.20134842703447, 68.22224690368986], [118.20183881751933, 68.22249953598046]]}, "properties": {"source": "13034940", "target": "6641799"}}, {"type": "Feature", "geometry": {"type": "LineString", "coordinates": [[118.20134842703447, 68.22224690368986], [118.18855972588659, 68.2235267078176]]}, "properties": {"source": "13034940", "target": "14139278"}}, {"type": "Feature", "geometry": {"type": "LineString", "coordinates": [[118.18671893242157, 68.22442638448851], [118.20166640487815, 68.22319162605632]]}, "properties": {"source": "23419928", "target": "21948990"}}, {"type": "Feature", "geometry": {"type": "LineString", "coordinates": [[118.18671893242157, 68.22442638448851], [118.2066497953586, 68.22806167808747]]}, "properties": {"source": "23419928", "target": "21622446"}}, {"type": "Feature", "geometry": {"type": "LineString", "coordinates": [[118.18671893242157, 68.22442638448851], [118.19075194280919, 68.22298617580017]]}, "properties": {"source": "23419928", "target": "25303522"}}, {"type": "Feature", "geometry": {"type": "LineString", "coordinates": [[118.185177144605, 68.22863833978892], [118.18800010221418, 68.22237002686751]]}, "properties": {"source": "10902606", "target": "1142520"}}, {"type": "Feature", "geometry": {"type": "LineString", "coordinates": [[118.2099058936688, 68.22986721391231], [118.20829897153044, 68.2256959930397]]}, "properties": {"source": "83617", "target": "9586133"}}, {"type": "Feature", "geometry": {"type": "LineString", "coordinates": [[118.2099058936688, 68.22986721391231], [118.18333819268452, 68.22292593499662]]}, "properties": {"source": "83617", "target": "956573"}}, {"type": "Feature", "geometry": {"type": "LineString", "coordinates": [[118.2099058936688, 68.22986721391231], [118.18541039378783, 68.22407408245382]]}, "properties": {"source": "83617", "target": "7012648"}}, {"type": "Feature", "geometry": {"type": "LineString", "coordinates": [[118.2099058936688, 68.22986721391231], [118.20827152123519, 68.2307597643892]]}, "properties": {"source": "83617", "target": "970386"}}, {"type": "Feature", "geometry": {"type": "LineString", "coordinates": [[118.2099058936688, 68.22986721391231], [118.2097700735111, 68.22974628788364]]}, "properties": {"source": "83617", "target": "626701"}}, {"type": "Feature", "geometry": {"type": "LineString", "coordinates": [[118.2099058936688, 68.22986721391231], [118.19962570174715, 68.23028855731008]]}, "properties": {"source": "83617", "target": "654854"}}, {"type": "Feature", "geometry": {"type": "LineString", "coordinates": [[118.2099058936688, 68.22986721391231], [118.19299971233193, 68.22551514032833]]}, "properties": {"source": "83617", "target": "12910334"}}, {"type": "Feature", "geometry": {"type": "LineString", "coordinates": [[118.18285292924054, 68.22687154841856], [118.19868872972529, 68.22443286287648]]}, "properties": {"source": "3069967", "target": "11456108"}}, {"type": "Feature", "geometry": {"type": "LineString", "coordinates": [[118.18285292924054, 68.22687154841856], [118.18763735769318, 68.2313758422506]]}, "properties": {"source": "3069967", "target": "10405176"}}, {"type": "Feature", "geometry": {"type": "LineString", "coordinates": [[118.18285292924054, 68.22687154841856], [118.18662950658995, 68.22614398726668]]}, "properties": {"source": "3069967", "target": "1028138"}}, {"type": "Feature", "geometry": {"type": "LineString", "coordinates": [[118.19079880367133, 68.22860804561728], [118.2066497953586, 68.22806167808747]]}, "properties": {"source": "23168804", "target": "21622446"}}, {"type": "Feature", "geometry": {"type": "LineString", "coordinates": [[118.19079880367133, 68.22860804561728], [118.19527857492182, 68.22333318840657]]}, "properties": {"source": "23168804", "target": "23168803"}}, {"type": "Feature", "geometry": {"type": "LineString", "coordinates": [[118.19829100063379, 68.22740009862207], [118.18763735769318, 68.2313758422506]]}, "properties": {"source": "1392947", "target": "10405176"}}, {"type": "Feature", "geometry": {"type": "LineString", "coordinates": [[118.19873079196572, 68.22947587770983], [118.19769455331863, 68.22478992952082]]}, "properties": {"source": "7823974", "target": "13296330"}}, {"type": "Feature", "geometry": {"type": "LineString", "coordinates": [[118.18978380920424, 68.23044634492896], [118.185177144605, 68.22863833978892]]}, "properties": {"source": "2901482", "target": "10902606"}}, {"type": "Feature", "geometry": {"type": "LineString", "coordinates": [[118.18978380920424, 68.23044634492896], [118.18800010221418, 68.22237002686751]]}, "properties": {"source": "2901482", "target": "1142520"}}, {"type": "Feature", "geometry": {"type": "LineString", "coordinates": [[118.2033837525853, 68.22437990004923], [118.20561022330998, 68.2313359532719]]}, "properties": {"source": "10382265", "target": "12354079"}}, {"type": "Feature", "geometry": {"type": "LineString", "coordinates": [[118.2033837525853, 68.22437990004923], [118.19947639077623, 68.22940567330022]]}, "properties": {"source": "10382265", "target": "11641196"}}, {"type": "Feature", "geometry": {"type": "LineString", "coordinates": [[118.2033837525853, 68.22437990004923], [118.19548626043814, 68.22910494704314]]}, "properties": {"source": "10382265", "target": "8391726"}}, {"type": "Feature", "geometry": {"type": "LineString", "coordinates": [[118.2033837525853, 68.22437990004923], [118.18415548125085, 68.23156598030502]]}, "properties": {"source": "10382265", "target": "9921479"}}, {"type": "Feature", "geometry": {"type": "LineString", "coordinates": [[118.2033837525853, 68.22437990004923], [118.19976599812031, 68.2311599605055]]}, "properties": {"source": "10382265", "target": "6871121"}}, {"type": "Feature", "geometry": {"type": "LineString", "coordinates": [[118.2033837525853, 68.22437990004923], [118.19225162142658, 68.22482225416161]]}, "properties": {"source": "10382265", "target": "13205822"}}, {"type": "Feature", "geometry": {"type": "LineString", "coordinates": [[118.2033837525853, 68.22437990004923], [118.2077818969862, 68.2299295869552]]}, "properties": {"source": "10382265", "target": "4494189"}}, {"type": "Feature", "geometry": {"type": "LineString", "coordinates": [[118.19976599812031, 68.2311599605055], [118.19947639077623, 68.22940567330022]]}, "properties": {"source": "6871121", "target": "11641196"}}, {"type": "Feature", "geometry": {"type": "LineString", "coordinates": [[118.19976599812031, 68.2311599605055], [118.19873079196572, 68.22947587770983]]}, "properties": {"source": "6871121", "target": "7823974"}}, {"type": "Feature", "geometry": {"type": "LineString", "coordinates": [[118.19976599812031, 68.2311599605055], [118.20183881751933, 68.22249953598046]]}, "properties": {"source": "6871121", "target": "6641799"}}, {"type": "Feature", "geometry": {"type": "LineString", "coordinates": [[118.18415548125085, 68.23156598030502], [118.18475466702398, 68.22378118885555]]}, "properties": {"source": "9921479", "target": "9655178"}}, {"type": "Feature", "geometry": {"type": "LineString", "coordinates": [[118.18283794570954, 68.23058104068517], [118.19811270253723, 68.22667989258414]]}, "properties": {"source": "25111012", "target": "23355510"}}, {"type": "Feature", "geometry": {"type": "LineString", "coordinates": [[118.18283794570954, 68.23058104068517], [118.18671893242157, 68.22442638448851]]}, "properties": {"source": "25111012", "target": "23419928"}}, {"type": "Feature", "geometry": {"type": "LineString", "coordinates": [[118.18680758293704, 68.22929978174949], [118.19829100063379, 68.22740009862207]]}, "properties": {"source": "1554778", "target": "1392947"}}, {"type": "Feature", "geometry": {"type": "LineString", "coordinates": [[118.19313819298145, 68.22554481012256], [118.1838861265328, 68.22307555679185]]}, "properties": {"source": "32859670", "target": "36271088"}}, {"type": "Feature", "geometry": {"type": "LineString", "coordinates": [[118.2098543586348, 68.22598999804427], [118.1838861265328, 68.22307555679185]]}, "properties": {"source": "34330383", "target": "36271088"}}, {"type": "Feature", "geometry": {"type": "LineString", "coordinates": [[118.19137068069284, 68.22347242457442], [118.18763735769318, 68.2313758422506]]}, "properties": {"source": "7190763", "target": "10405176"}}, {"type": "Feature", "geometry": {"type": "LineString", "coordinates": [[118.18207876653446, 68.22315373783653], [118.19931486191825, 68.22364806538536]]}, "properties": {"source": "2333041", "target": "2901933"}}, {"type": "Feature", "geometry": {"type": "LineString", "coordinates": [[118.18904614829927, 68.22844207432507], [118.20166640487815, 68.22319162605632]]}, "properties": {"source": "20729812", "target": "21948990"}}, {"type": "Feature", "geometry": {"type": "LineString", "coordinates": [[118.18904614829927, 68.22844207432507], [118.2066497953586, 68.22806167808747]]}, "properties": {"source": "20729812", "target": "21622446"}}, {"type": "Feature", "geometry": {"type": "LineString", "coordinates": [[118.19391443923541, 68.22252722179425], [118.20829897153044, 68.2256959930397]]}, "properties": {"source": "806286", "target": "9586133"}}, {"type": "Feature", "geometry": {"type": "LineString", "coordinates": [[118.18266347154855, 68.22779354804524], [118.18562132175026, 68.2240753921786]]}, "properties": {"source": "25423139", "target": "15885960"}}, {"type": "Feature", "geometry": {"type": "LineString", "coordinates": [[118.19910851194732, 68.22458004278315], [118.19253691367459, 68.22934894106675]]}, "properties": {"source": "1633815", "target": "17456037"}}, {"type": "Feature", "geometry": {"type": "LineString", "coordinates": [[118.18971075287504, 68.22567600702425], [118.19426972215308, 68.22242431793532]]}, "properties": {"source": "10684280", "target": "10867740"}}, {"type": "Feature", "geometry": {"type": "LineString", "coordinates": [[118.1894580382205, 68.22752645216954], [118.20647848110048, 68.22356422314655]]}, "properties": {"source": "6610909", "target": "10773927"}}, {"type": "Feature", "geometry": {"type": "LineString", "coordinates": [[118.18415548125085, 68.23156598030502], [118.20474352733942, 68.2304204127253]]}, "properties": {"source": "9921479", "target": "7843045"}}, {"type": "Feature", "geometry": {"type": "LineString", "coordinates": [[118.19742707376838, 68.22685847132556], [118.20299429709922, 68.2273610009629]]}, "properties": {"source": "6634045", "target": "6892499"}}, {"type": "Feature", "geometry": {"type": "LineString", "coordinates": [[118.19742707376838, 68.22685847132556], [118.18207876653446, 68.22315373783653]]}, "properties": {"source": "6634045", "target": "2333041"}}, {"type": "Feature", "geometry": {"type": "LineString", "coordinates": [[118.19816196435596, 68.22368992981765], [118.19107582464108, 68.22285645629731]]}, "properties": {"source": "33388493", "target": "13623145"}}, {"type": "Feature", "geometry": {"type": "LineString", "coordinates": [[118.19816196435596, 68.22368992981765], [118.1838861265328, 68.22307555679185]]}, "properties": {"source": "33388493", "target": "36271088"}}, {"type": "Feature", "geometry": {"type": "LineString", "coordinates": [[118.19816196435596, 68.22368992981765], [118.19080867320673, 68.2249322133431]]}, "properties": {"source": "33388493", "target": "34934767"}}, {"type": "Feature", "geometry": {"type": "LineString", "coordinates": [[118.19816196435596, 68.22368992981765], [118.18296457258373, 68.22770777780622]]}, "properties": {"source": "33388493", "target": "30323585"}}, {"type": "Feature", "geometry": {"type": "LineString", "coordinates": [[118.19816196435596, 68.22368992981765], [118.19240219688413, 68.23057742945741]]}, "properties": {"source": "33388493", "target": "35294563"}}, {"type": "Feature", "geometry": {"type": "LineString", "coordinates": [[118.19816196435596, 68.22368992981765], [118.20566416863011, 68.22677310335737]]}, "properties": {"source": "33388493", "target": "6267775"}}, {"type": "Feature", "geometry": {"type": "LineString", "coordinates": [[118.19816196435596, 68.22368992981765], [118.19984359590381, 68.22980704978599]]}, "properties": {"source": "33388493", "target": "528766"}}, {"type": "Feature", "geometry": {"type": "LineString", "coordinates": [[118.19816196435596, 68.22368992981765], [118.20409828817395, 68.22727571983478]]}, "properties": {"source": "33388493", "target": "29893880"}}, {"type": "Feature", "geometry": {"type": "LineString", "coordinates": [[118.19816196435596, 68.22368992981765], [118.19313819298145, 68.22554481012256]]}, "properties": {"source": "33388493", "target": "32859670"}}, {"type": "Feature", "geometry": {"type": "LineString", "coordinates": [[118.19816196435596, 68.22368992981765], [118.2098543586348, 68.22598999804427]]}, "properties": {"source": "33388493", "target": "34330383"}}, {"type": "Feature", "geometry": {"type": "LineString", "coordinates": [[118.19775168739147, 68.22484553958526], [118.20829897153044, 68.2256959930397]]}, "properties": {"source": "9297427", "target": "9586133"}}, {"type": "Feature", "geometry": {"type": "LineString", "coordinates": [[118.19775168739147, 68.22484553958526], [118.19947639077623, 68.22940567330022]]}, "properties": {"source": "9297427", "target": "11641196"}}, {"type": "Feature", "geometry": {"type": "LineString", "coordinates": [[118.19775168739147, 68.22484553958526], [118.18333819268452, 68.22292593499662]]}, "properties": {"source": "9297427", "target": "956573"}}, {"type": "Feature", "geometry": {"type": "LineString", "coordinates": [[118.19775168739147, 68.22484553958526], [118.19548626043814, 68.22910494704314]]}, "properties": {"source": "9297427", "target": "8391726"}}, {"type": "Feature", "geometry": {"type": "LineString", "coordinates": [[118.18475466702398, 68.22378118885555], [118.19873079196572, 68.22947587770983]]}, "properties": {"source": "9655178", "target": "7823974"}}, {"type": "Feature", "geometry": {"type": "LineString", "coordinates": [[118.18475466702398, 68.22378118885555], [118.20183881751933, 68.22249953598046]]}, "properties": {"source": "9655178", "target": "6641799"}}, {"type": "Feature", "geometry": {"type": "LineString", "coordinates": [[118.20365217144365, 68.22522920896253], [118.18662950658995, 68.22614398726668]]}, "properties": {"source": "13234219", "target": "1028138"}}, {"type": "Feature", "geometry": {"type": "LineString", "coordinates": [[118.20365217144365, 68.22522920896253], [118.19829100063379, 68.22740009862207]]}, "properties": {"source": "13234219", "target": "1392947"}}, {"type": "Feature", "geometry": {"type": "LineString", "coordinates": [[118.20365217144365, 68.22522920896253], [118.18576116956058, 68.22831805000911]]}, "properties": {"source": "13234219", "target": "1074833"}}, {"type": "Feature", "geometry": {"type": "LineString", "coordinates": [[118.20365217144365, 68.22522920896253], [118.18680758293704, 68.22929978174949]]}, "properties": {"source": "13234219", "target": "1554778"}}, {"type": "Feature", "geometry": {"type": "LineString", "coordinates": [[118.20668889316318, 68.22629660855296], [118.19642447115393, 68.22862019054509]]}, "properties": {"source": "13185171", "target": "8911912"}}, {"type": "Feature", "geometry": {"type": "LineString", "coordinates": [[118.20668889316318, 68.22629660855296], [118.18647999035903, 68.2233204380133]]}, "properties": {"source": "13185171", "target": "11139230"}}, {"type": "Feature", "geometry": {"type": "LineString", "coordinates": [[118.20668889316318, 68.22629660855296], [118.185177144605, 68.22863833978892]]}, "properties": {"source": "13185171", "target": "10902606"}}, {"type": "Feature", "geometry": {"type": "LineString", "coordinates": [[118.20668889316318, 68.22629660855296], [118.18978380920424, 68.23044634492896]]}, "properties": {"source": "13185171", "target": "2901482"}}, {"type": "Feature", "geometry": {"type": "LineString", "coordinates": [[118.20668889316318, 68.22629660855296], [118.20905106761444, 68.22864635442406]]}, "properties": {"source": "13185171", "target": "7075457"}}, {"type": "Feature", "geometry": {"type": "LineString", "coordinates": [[118.18541039378783, 68.22407408245382], [118.20829897153044, 68.2256959930397]]}, "properties": {"source": "7012648", "target": "9586133"}}, {"type": "Feature", "geometry": {"type": "LineString", "coordinates": [[118.18541039378783, 68.22407408245382], [118.2097700735111, 68.22974628788364]]}, "properties": {"source": "7012648", "target": "626701"}}, {"type": "Feature", "geometry": {"type": "LineString", "coordinates": [[118.19079880367133, 68.22860804561728], [118.19811270253723, 68.22667989258414]]}, "properties": {"source": "23168804", "target": "23355510"}}, {"type": "Feature", "geometry": {"type": "LineString", "coordinates": [[118.19079880367133, 68.22860804561728], [118.20166640487815, 68.22319162605632]]}, "properties": {"source": "23168804", "target": "21948990"}}, {"type": "Feature", "geometry": {"type": "LineString", "coordinates": [[118.20668889316318, 68.22629660855296], [118.20089612628436, 68.23016971031299]]}, "properties": {"source": "13185171", "target": "2684376"}}, {"type": "Feature", "geometry": {"type": "LineString", "coordinates": [[118.18415548125085, 68.23156598030502], [118.18783433581365, 68.22491554493914]]}, "properties": {"source": "9921479", "target": "9349285"}}, {"type": "Feature", "geometry": {"type": "LineString", "coordinates": [[118.20183881751933, 68.22249953598046], [118.19873079196572, 68.22947587770983]]}, "properties": {"source": "6641799", "target": "7823974"}}, {"type": "Feature", "geometry": {"type": "LineString", "coordinates": [[118.20089612628436, 68.23016971031299], [118.185177144605, 68.22863833978892]]}, "properties": {"source": "2684376", "target": "10902606"}}, {"type": "Feature", "geometry": {"type": "LineString", "coordinates": [[118.20089612628436, 68.23016971031299], [118.18978380920424, 68.23044634492896]]}, "properties": {"source": "2684376", "target": "2901482"}}, {"type": "Feature", "geometry": {"type": "LineString", "coordinates": [[118.20474352733942, 68.2304204127253], [118.18783433581365, 68.22491554493914]]}, "properties": {"source": "7843045", "target": "9349285"}}, {"type": "Feature", "geometry": {"type": "LineString", "coordinates": [[118.19225162142658, 68.22482225416161], [118.20561022330998, 68.2313359532719]]}, "properties": {"source": "13205822", "target": "12354079"}}, {"type": "Feature", "geometry": {"type": "LineString", "coordinates": [[118.19225162142658, 68.22482225416161], [118.18644510616127, 68.22668709466689]]}, "properties": {"source": "13205822", "target": "11456153"}}, {"type": "Feature", "geometry": {"type": "LineString", "coordinates": [[118.19225162142658, 68.22482225416161], [118.19947639077623, 68.22940567330022]]}, "properties": {"source": "13205822", "target": "11641196"}}, {"type": "Feature", "geometry": {"type": "LineString", "coordinates": [[118.19225162142658, 68.22482225416161], [118.19426972215308, 68.22242431793532]]}, "properties": {"source": "13205822", "target": "10867740"}}, {"type": "Feature", "geometry": {"type": "LineString", "coordinates": [[118.19225162142658, 68.22482225416161], [118.2077818969862, 68.2299295869552]]}, "properties": {"source": "13205822", "target": "4494189"}}, {"type": "Feature", "geometry": {"type": "LineString", "coordinates": [[118.20130279051898, 68.23144075998496], [118.20297113869259, 68.23014414281809]]}, "properties": {"source": "16178685", "target": "18265838"}}, {"type": "Feature", "geometry": {"type": "LineString", "coordinates": [[118.18425996227995, 68.22783269503401], [118.20297113869259, 68.23014414281809]]}, "properties": {"source": "13552641", "target": "18265838"}}, {"type": "Feature", "geometry": {"type": "LineString", "coordinates": [[118.18425996227995, 68.22783269503401], [118.19744431477898, 68.22305153706287]]}, "properties": {"source": "13552641", "target": "12915074"}}, {"type": "Feature", "geometry": {"type": "LineString", "coordinates": [[118.18425996227995, 68.22783269503401], [118.19253691367459, 68.22934894106675]]}, "properties": {"source": "13552641", "target": "17456037"}}, {"type": "Feature", "geometry": {"type": "LineString", "coordinates": [[118.18425996227995, 68.22783269503401], [118.19522934050985, 68.2274358320239]]}, "properties": {"source": "13552641", "target": "16498716"}}, {"type": "Feature", "geometry": {"type": "LineString", "coordinates": [[118.19976599812031, 68.2311599605055], [118.20474352733942, 68.2304204127253]]}, "properties": {"source": "6871121", "target": "7843045"}}, {"type": "Feature", "geometry": {"type": "LineString", "coordinates": [[118.20422053295493, 68.23147628888773], [118.18671893242157, 68.22442638448851]]}, "properties": {"source": "25622739", "target": "23419928"}}, {"type": "Feature", "geometry": {"type": "LineString", "coordinates": [[118.20422053295493, 68.23147628888773], [118.19075194280919, 68.22298617580017]]}, "properties": {"source": "25622739", "target": "25303522"}}, {"type": "Feature", "geometry": {"type": "LineString", "coordinates": [[118.20082775763814, 68.22768719770903], [118.19075194280919, 68.22298617580017]]}, "properties": {"source": "25331975", "target": "25303522"}}, {"type": "Feature", "geometry": {"type": "LineString", "coordinates": [[118.1991047866743, 68.22279427204862], [118.20297113869259, 68.23014414281809]]}, "properties": {"source": "22900585", "target": "18265838"}}, {"type": "Feature", "geometry": {"type": "LineString", "coordinates": [[118.1991047866743, 68.22279427204862], [118.19744431477898, 68.22305153706287]]}, "properties": {"source": "22900585", "target": "12915074"}}, {"type": "Feature", "geometry": {"type": "LineString", "coordinates": [[118.1991047866743, 68.22279427204862], [118.20660006497286, 68.22831636860192]]}, "properties": {"source": "22900585", "target": "23197017"}}, {"type": "Feature", "geometry": {"type": "LineString", "coordinates": [[118.18460663129468, 68.22414893835875], [118.18333819268452, 68.22292593499662]]}, "properties": {"source": "920342", "target": "956573"}}, {"type": "Feature", "geometry": {"type": "LineString", "coordinates": [[118.18460663129468, 68.22414893835875], [118.18336403601955, 68.22485360546523]]}, "properties": {"source": "920342", "target": "757448"}}, {"type": "Feature", "geometry": {"type": "LineString", "coordinates": [[118.18460663129468, 68.22414893835875], [118.1835829115314, 68.22876613395357]]}, "properties": {"source": "920342", "target": "793668"}}, {"type": "Feature", "geometry": {"type": "LineString", "coordinates": [[118.19042064953595, 68.22468996255358], [118.19467819441815, 68.23058460096951]]}, "properties": {"source": "183159", "target": "22890307"}}, {"type": "Feature", "geometry": {"type": "LineString", "coordinates": [[118.19042064953595, 68.22468996255358], [118.20166640487815, 68.22319162605632]]}, "properties": {"source": "183159", "target": "21948990"}}, {"type": "Feature", "geometry": {"type": "LineString", "coordinates": [[118.19042064953595, 68.22468996255358], [118.2066497953586, 68.22806167808747]]}, "properties": {"source": "183159", "target": "21622446"}}, {"type": "Feature", "geometry": {"type": "LineString", "coordinates": [[118.19470916067161, 68.22377502500618], [118.19642447115393, 68.22862019054509]]}, "properties": {"source": "11703961", "target": "8911912"}}, {"type": "Feature", "geometry": {"type": "LineString", "coordinates": [[118.19470916067161, 68.22377502500618], [118.18647999035903, 68.2233204380133]]}, "properties": {"source": "11703961", "target": "11139230"}}, {"type": "Feature", "geometry": {"type": "LineString", "coordinates": [[118.19470916067161, 68.22377502500618], [118.18978380920424, 68.23044634492896]]}, "properties": {"source": "11703961", "target": "2901482"}}, {"type": "Feature", "geometry": {"type": "LineString", "coordinates": [[118.19470916067161, 68.22377502500618], [118.20089612628436, 68.23016971031299]]}, "properties": {"source": "11703961", "target": "2684376"}}, {"type": "Feature", "geometry": {"type": "LineString", "coordinates": [[118.18877548966117, 68.22763831955984], [118.20348658043872, 68.22263423004344]]}, "properties": {"source": "9317643", "target": "953284"}}, {"type": "Feature", "geometry": {"type": "LineString", "coordinates": [[118.19385438240289, 68.22726720785337], [118.20853836207266, 68.230231754215]]}, "properties": {"source": "9721666", "target": "8459946"}}, {"type": "Feature", "geometry": {"type": "LineString", "coordinates": [[118.1852519053034, 68.22910232604477], [118.18647999035903, 68.2233204380133]]}, "properties": {"source": "478957", "target": "11139230"}}, {"type": "Feature", "geometry": {"type": "LineString", "coordinates": [[118.1852519053034, 68.22910232604477], [118.185177144605, 68.22863833978892]]}, "properties": {"source": "478957", "target": "10902606"}}, {"type": "Feature", "geometry": {"type": "LineString", "coordinates": [[118.1852519053034, 68.22910232604477], [118.18978380920424, 68.23044634492896]]}, "properties": {"source": "478957", "target": "2901482"}}, {"type": "Feature", "geometry": {"type": "LineString", "coordinates": [[118.19264883519429, 68.22683281855649], [118.18888357298908, 68.22582880765907]]}, "properties": {"source": "1681041", "target": "18201606"}}, {"type": "Feature", "geometry": {"type": "LineString", "coordinates": [[118.18336403601955, 68.22485360546523], [118.1835829115314, 68.22876613395357]]}, "properties": {"source": "757448", "target": "793668"}}, {"type": "Feature", "geometry": {"type": "LineString", "coordinates": [[118.18823086882281, 68.22782565519668], [118.18285292924054, 68.22687154841856]]}, "properties": {"source": "26803746", "target": "3069967"}}, {"type": "Feature", "geometry": {"type": "LineString", "coordinates": [[118.18823086882281, 68.22782565519668], [118.20597749244081, 68.22767299239706]]}, "properties": {"source": "26803746", "target": "259778"}}, {"type": "Feature", "geometry": {"type": "LineString", "coordinates": [[118.18823086882281, 68.22782565519668], [118.19289694291422, 68.22819063943396]]}, "properties": {"source": "26803746", "target": "1976099"}}, {"type": "Feature", "geometry": {"type": "LineString", "coordinates": [[118.19240219688413, 68.23057742945741], [118.1838861265328, 68.22307555679185]]}, "properties": {"source": "35294563", "target": "36271088"}}, {"type": "Feature", "geometry": {"type": "LineString", "coordinates": [[118.19240219688413, 68.23057742945741], [118.19080867320673, 68.2249322133431]]}, "properties": {"source": "35294563", "target": "34934767"}}, {"type": "Feature", "geometry": {"type": "LineString", "coordinates": [[118.20566416863011, 68.22677310335737], [118.1838861265328, 68.22307555679185]]}, "properties": {"source": "6267775", "target": "36271088"}}, {"type": "Feature", "geometry": {"type": "LineString", "coordinates": [[118.20566416863011, 68.22677310335737], [118.19080867320673, 68.2249322133431]]}, "properties": {"source": "6267775", "target": "34934767"}}, {"type": "Feature", "geometry": {"type": "LineString", "coordinates": [[118.18877548966117, 68.22763831955984], [118.20810845109474, 68.22590548640733]]}, "properties": {"source": "9317643", "target": "9317460"}}, {"type": "Feature", "geometry": {"type": "LineString", "coordinates": [[118.1852519053034, 68.22910232604477], [118.20089612628436, 68.23016971031299]]}, "properties": {"source": "478957", "target": "2684376"}}, {"type": "Feature", "geometry": {"type": "LineString", "coordinates": [[118.20660006497286, 68.22831636860192], [118.20297113869259, 68.23014414281809]]}, "properties": {"source": "23197017", "target": "18265838"}}, {"type": "Feature", "geometry": {"type": "LineString", "coordinates": [[118.19385438240289, 68.22726720785337], [118.19642447115393, 68.22862019054509]]}, "properties": {"source": "9721666", "target": "8911912"}}, {"type": "Feature", "geometry": {"type": "LineString", "coordinates": [[118.19522934050985, 68.2274358320239], [118.20297113869259, 68.23014414281809]]}, "properties": {"source": "16498716", "target": "18265838"}}, {"type": "Feature", "geometry": {"type": "LineString", "coordinates": [[118.19522934050985, 68.2274358320239], [118.19744431477898, 68.22305153706287]]}, "properties": {"source": "16498716", "target": "12915074"}}, {"type": "Feature", "geometry": {"type": "LineString", "coordinates": [[118.19522934050985, 68.2274358320239], [118.19253691367459, 68.22934894106675]]}, "properties": {"source": "16498716", "target": "17456037"}}, {"type": "Feature", "geometry": {"type": "LineString", "coordinates": [[118.19522934050985, 68.2274358320239], [118.19737035568596, 68.22916915950265]]}, "properties": {"source": "16498716", "target": "17157646"}}, {"type": "Feature", "geometry": {"type": "LineString", "coordinates": [[118.20704316685885, 68.2281152964243], [118.19467819441815, 68.23058460096951]]}, "properties": {"source": "18525883", "target": "22890307"}}, {"type": "Feature", "geometry": {"type": "LineString", "coordinates": [[118.20704316685885, 68.2281152964243], [118.20166640487815, 68.22319162605632]]}, "properties": {"source": "18525883", "target": "21948990"}}, {"type": "Feature", "geometry": {"type": "LineString", "coordinates": [[118.20704316685885, 68.2281152964243], [118.2066497953586, 68.22806167808747]]}, "properties": {"source": "18525883", "target": "21622446"}}, {"type": "Feature", "geometry": {"type": "LineString", "coordinates": [[118.20704316685885, 68.2281152964243], [118.19079880367133, 68.22860804561728]]}, "properties": {"source": "18525883", "target": "23168804"}}, {"type": "Feature", "geometry": {"type": "LineString", "coordinates": [[118.19139614976257, 68.22975211120334], [118.1926077311096, 68.22881979111426]]}, "properties": {"source": "920686", "target": "9317565"}}, {"type": "Feature", "geometry": {"type": "LineString", "coordinates": [[118.20372505665, 68.22878809122736], [118.20829897153044, 68.2256959930397]]}, "properties": {"source": "9722870", "target": "9586133"}}, {"type": "Feature", "geometry": {"type": "LineString", "coordinates": [[118.20372505665, 68.22878809122736], [118.18541039378783, 68.22407408245382]]}, "properties": {"source": "9722870", "target": "7012648"}}, {"type": "Feature", "geometry": {"type": "LineString", "coordinates": [[118.20372505665, 68.22878809122736], [118.20827152123519, 68.2307597643892]]}, "properties": {"source": "9722870", "target": "970386"}}, {"type": "Feature", "geometry": {"type": "LineString", "coordinates": [[118.20134842703447, 68.22224690368986], [118.18475466702398, 68.22378118885555]]}, "properties": {"source": "13034940", "target": "9655178"}}, {"type": "Feature", "geometry": {"type": "LineString", "coordinates": [[118.20134842703447, 68.22224690368986], [118.19873079196572, 68.22947587770983]]}, "properties": {"source": "13034940", "target": "7823974"}}, {"type": "Feature", "geometry": {"type": "LineString", "coordinates": [[118.1973543434006, 68.22263249342149], [118.19079880367133, 68.22860804561728]]}, "properties": {"source": "22893033", "target": "23168804"}}, {"type": "Feature", "geometry": {"type": "LineString", "coordinates": [[118.1973543434006, 68.22263249342149], [118.19527857492182, 68.22333318840657]]}, "properties": {"source": "22893033", "target": "23168803"}}, {"type": "Feature", "geometry": {"type": "LineString", "coordinates": [[118.18877548966117, 68.22763831955984], [118.18865637305362, 68.22408163826185]]}, "properties": {"source": "9317643", "target": "9317707"}}, {"type": "Feature", "geometry": {"type": "LineString", "coordinates": [[118.18877548966117, 68.22763831955984], [118.19821010516779, 68.23065673394274]]}, "properties": {"source": "9317643", "target": "924763"}}, {"type": "Feature", "geometry": {"type": "LineString", "coordinates": [[118.18877548966117, 68.22763831955984], [118.20647848110048, 68.22356422314655]]}, "properties": {"source": "9317643", "target": "10773927"}}, {"type": "Feature", "geometry": {"type": "LineString", "coordinates": [[118.18877548966117, 68.22763831955984], [118.19139614976257, 68.22975211120334]]}, "properties": {"source": "9317643", "target": "920686"}}, {"type": "Feature", "geometry": {"type": "LineString", "coordinates": [[118.20781940098965, 68.22226793877894], [118.20829897153044, 68.2256959930397]]}, "properties": {"source": "9317946", "target": "9586133"}}, {"type": "Feature", "geometry": {"type": "LineString", "coordinates": [[118.20781940098965, 68.22226793877894], [118.1926077311096, 68.22881979111426]]}, "properties": {"source": "9317946", "target": "9317565"}}, {"type": "Feature", "geometry": {"type": "LineString", "coordinates": [[118.20781940098965, 68.22226793877894], [118.19001092395433, 68.23143915996067]]}, "properties": {"source": "9317946", "target": "9317615"}}, {"type": "Feature", "geometry": {"type": "LineString", "coordinates": [[118.20781940098965, 68.22226793877894], [118.18865637305362, 68.22408163826185]]}, "properties": {"source": "9317946", "target": "9317707"}}, {"type": "Feature", "geometry": {"type": "LineString", "coordinates": [[118.20781940098965, 68.22226793877894], [118.19821010516779, 68.23065673394274]]}, "properties": {"source": "9317946", "target": "924763"}}, {"type": "Feature", "geometry": {"type": "LineString", "coordinates": [[118.20781940098965, 68.22226793877894], [118.20647848110048, 68.22356422314655]]}, "properties": {"source": "9317946", "target": "10773927"}}, {"type": "Feature", "geometry": {"type": "LineString", "coordinates": [[118.20781940098965, 68.22226793877894], [118.19139614976257, 68.22975211120334]]}, "properties": {"source": "9317946", "target": "920686"}}, {"type": "Feature", "geometry": {"type": "LineString", "coordinates": [[118.18644510616127, 68.22668709466689], [118.19642447115393, 68.22862019054509]]}, "properties": {"source": "11456153", "target": "8911912"}}, {"type": "Feature", "geometry": {"type": "LineString", "coordinates": [[118.18644510616127, 68.22668709466689], [118.19947639077623, 68.22940567330022]]}, "properties": {"source": "11456153", "target": "11641196"}}, {"type": "Feature", "geometry": {"type": "LineString", "coordinates": [[118.20781940098965, 68.22226793877894], [118.20810845109474, 68.22590548640733]]}, "properties": {"source": "9317946", "target": "9317460"}}, {"type": "Feature", "geometry": {"type": "LineString", "coordinates": [[118.18644510616127, 68.22668709466689], [118.19548626043814, 68.22910494704314]]}, "properties": {"source": "11456153", "target": "8391726"}}, {"type": "Feature", "geometry": {"type": "LineString", "coordinates": [[118.18644510616127, 68.22668709466689], [118.20117268900083, 68.22252448789027]]}, "properties": {"source": "11456153", "target": "9808840"}}, {"type": "Feature", "geometry": {"type": "LineString", "coordinates": [[118.19868872972529, 68.22443286287648], [118.19642447115393, 68.22862019054509]]}, "properties": {"source": "11456108", "target": "8911912"}}, {"type": "Feature", "geometry": {"type": "LineString", "coordinates": [[118.19868872972529, 68.22443286287648], [118.18763735769318, 68.2313758422506]]}, "properties": {"source": "11456108", "target": "10405176"}}, {"type": "Feature", "geometry": {"type": "LineString", "coordinates": [[118.19868872972529, 68.22443286287648], [118.19829100063379, 68.22740009862207]]}, "properties": {"source": "11456108", "target": "1392947"}}, {"type": "Feature", "geometry": {"type": "LineString", "coordinates": [[118.19868872972529, 68.22443286287648], [118.20853836207266, 68.230231754215]]}, "properties": {"source": "11456108", "target": "8459946"}}, {"type": "Feature", "geometry": {"type": "LineString", "coordinates": [[118.19868872972529, 68.22443286287648], [118.19137068069284, 68.22347242457442]]}, "properties": {"source": "11456108", "target": "7190763"}}, {"type": "Feature", "geometry": {"type": "LineString", "coordinates": [[118.19548626043814, 68.22910494704314], [118.18475466702398, 68.22378118885555]]}, "properties": {"source": "8391726", "target": "9655178"}}, {"type": "Feature", "geometry": {"type": "LineString", "coordinates": [[118.19548626043814, 68.22910494704314], [118.19426972215308, 68.22242431793532]]}, "properties": {"source": "8391726", "target": "10867740"}}, {"type": "Feature", "geometry": {"type": "LineString", "coordinates": [[118.19548626043814, 68.22910494704314], [118.18783433581365, 68.22491554493914]]}, "properties": {"source": "8391726", "target": "9349285"}}, {"type": "Feature", "geometry": {"type": "LineString", "coordinates": [[118.1838861265328, 68.22307555679185], [118.18296457258373, 68.22770777780622]]}, "properties": {"source": "36271088", "target": "30323585"}}, {"type": "Feature", "geometry": {"type": "LineString", "coordinates": [[118.18647999035903, 68.2233204380133], [118.185177144605, 68.22863833978892]]}, "properties": {"source": "11139230", "target": "10902606"}}, {"type": "Feature", "geometry": {"type": "LineString", "coordinates": [[118.18647999035903, 68.2233204380133], [118.18978380920424, 68.23044634492896]]}, "properties": {"source": "11139230", "target": "2901482"}}, {"type": "Feature", "geometry": {"type": "LineString", "coordinates": [[118.18647999035903, 68.2233204380133], [118.18800010221418, 68.22237002686751]]}, "properties": {"source": "11139230", "target": "1142520"}}, {"type": "Feature", "geometry": {"type": "LineString", "coordinates": [[118.19548626043814, 68.22910494704314], [118.20474352733942, 68.2304204127253]]}, "properties": {"source": "8391726", "target": "7843045"}}, {"type": "Feature", "geometry": {"type": "LineString", "coordinates": [[118.18647999035903, 68.2233204380133], [118.20089612628436, 68.23016971031299]]}, "properties": {"source": "11139230", "target": "2684376"}}, {"type": "Feature", "geometry": {"type": "LineString", "coordinates": [[118.20008294032209, 68.2265732756035], [118.18855972588659, 68.2235267078176]]}, "properties": {"source": "6002005", "target": "14139278"}}, {"type": "Feature", "geometry": {"type": "LineString", "coordinates": [[118.19744431477898, 68.22305153706287], [118.20297113869259, 68.23014414281809]]}, "properties": {"source": "12915074", "target": "18265838"}}, {"type": "Feature", "geometry": {"type": "LineString", "coordinates": [[118.19467819441815, 68.23058460096951], [118.20166640487815, 68.22319162605632]]}, "properties": {"source": "22890307", "target": "21948990"}}, {"type": "Feature", "geometry": {"type": "LineString", "coordinates": [[118.19467819441815, 68.23058460096951], [118.2066497953586, 68.22806167808747]]}, "properties": {"source": "22890307", "target": "21622446"}}, {"type": "Feature", "geometry": {"type": "LineString", "coordinates": [[118.19467819441815, 68.23058460096951], [118.18671893242157, 68.22442638448851]]}, "properties": {"source": "22890307", "target": "23419928"}}, {"type": "Feature", "geometry": {"type": "LineString", "coordinates": [[118.19467819441815, 68.23058460096951], [118.19075194280919, 68.22298617580017]]}, "properties": {"source": "22890307", "target": "25303522"}}, {"type": "Feature", "geometry": {"type": "LineString", "coordinates": [[118.19467819441815, 68.23058460096951], [118.19079880367133, 68.22860804561728]]}, "properties": {"source": "22890307", "target": "23168804"}}, {"type": "Feature", "geometry": {"type": "LineString", "coordinates": [[118.19467819441815, 68.23058460096951], [118.19527857492182, 68.22333318840657]]}, "properties": {"source": "22890307", "target": "23168803"}}, {"type": "Feature", "geometry": {"type": "LineString", "coordinates": [[118.19467819441815, 68.23058460096951], [118.19973505349736, 68.22643451895283]]}, "properties": {"source": "22890307", "target": "28095562"}}, {"type": "Feature", "geometry": {"type": "LineString", "coordinates": [[118.19811270253723, 68.22667989258414], [118.2066497953586, 68.22806167808747]]}, "properties": {"source": "23355510", "target": "21622446"}}, {"type": "Feature", "geometry": {"type": "LineString", "coordinates": [[118.20166640487815, 68.22319162605632], [118.19811270253723, 68.22667989258414]]}, "properties": {"source": "21948990", "target": "23355510"}}, {"type": "Feature", "geometry": {"type": "LineString", "coordinates": [[118.20166640487815, 68.22319162605632], [118.2066497953586, 68.22806167808747]]}, "properties": {"source": "21948990", "target": "21622446"}}, {"type": "Feature", "geometry": {"type": "LineString", "coordinates": [[118.20166640487815, 68.22319162605632], [118.19527857492182, 68.22333318840657]]}, "properties": {"source": "21948990", "target": "23168803"}}, {"type": "Feature", "geometry": {"type": "LineString", "coordinates": [[118.20166640487815, 68.22319162605632], [118.19973505349736, 68.22643451895283]]}, "properties": {"source": "21948990", "target": "28095562"}}, {"type": "Feature", "geometry": {"type": "LineString", "coordinates": [[118.20297113869259, 68.23014414281809], [118.19253691367459, 68.22934894106675]]}, "properties": {"source": "18265838", "target": "17456037"}}, {"type": "Feature", "geometry": {"type": "LineString", "coordinates": [[118.20297113869259, 68.23014414281809], [118.18888357298908, 68.22582880765907]]}, "properties": {"source": "18265838", "target": "18201606"}}, {"type": "Feature", "geometry": {"type": "LineString", "coordinates": [[118.20365217144365, 68.22522920896253], [118.19868872972529, 68.22443286287648]]}, "properties": {"source": "13234219", "target": "11456108"}}, {"type": "Feature", "geometry": {"type": "LineString", "coordinates": [[118.20365217144365, 68.22522920896253], [118.18763735769318, 68.2313758422506]]}, "properties": {"source": "13234219", "target": "10405176"}}, {"type": "Feature", "geometry": {"type": "LineString", "coordinates": [[118.18475466702398, 68.22378118885555], [118.18783433581365, 68.22491554493914]]}, "properties": {"source": "9655178", "target": "9349285"}}, {"type": "Feature", "geometry": {"type": "LineString", "coordinates": [[118.18475466702398, 68.22378118885555], [118.19769455331863, 68.22478992952082]]}, "properties": {"source": "9655178", "target": "13296330"}}, {"type": "Feature", "geometry": {"type": "LineString", "coordinates": [[118.19080867320673, 68.2249322133431], [118.19107582464108, 68.22285645629731]]}, "properties": {"source": "34934767", "target": "13623145"}}, {"type": "Feature", "geometry": {"type": "LineString", "coordinates": [[118.19080867320673, 68.2249322133431], [118.1838861265328, 68.22307555679185]]}, "properties": {"source": "34934767", "target": "36271088"}}, {"type": "Feature", "geometry": {"type": "LineString", "coordinates": [[118.19080867320673, 68.2249322133431], [118.18296457258373, 68.22770777780622]]}, "properties": {"source": "34934767", "target": "30323585"}}, {"type": "Feature", "geometry": {"type": "LineString", "coordinates": [[118.19080867320673, 68.2249322133431], [118.19984359590381, 68.22980704978599]]}, "properties": {"source": "34934767", "target": "528766"}}, {"type": "Feature", "geometry": {"type": "LineString", "coordinates": [[118.19080867320673, 68.2249322133431], [118.19313819298145, 68.22554481012256]]}, "properties": {"source": "34934767", "target": "32859670"}}, {"type": "Feature", "geometry": {"type": "LineString", "coordinates": [[118.19080867320673, 68.2249322133431], [118.2098543586348, 68.22598999804427]]}, "properties": {"source": "34934767", "target": "34330383"}}, {"type": "Feature", "geometry": {"type": "LineString", "coordinates": [[118.20117268900083, 68.22252448789027], [118.19642447115393, 68.22862019054509]]}, "properties": {"source": "9808840", "target": "8911912"}}, {"type": "Feature", "geometry": {"type": "LineString", "coordinates": [[118.20117268900083, 68.22252448789027], [118.19868872972529, 68.22443286287648]]}, "properties": {"source": "9808840", "target": "11456108"}}, {"type": "Feature", "geometry": {"type": "LineString", "coordinates": [[118.20117268900083, 68.22252448789027], [118.18763735769318, 68.2313758422506]]}, "properties": {"source": "9808840", "target": "10405176"}}, {"type": "Feature", "geometry": {"type": "LineString", "coordinates": [[118.20117268900083, 68.22252448789027], [118.18662950658995, 68.22614398726668]]}, "properties": {"source": "9808840", "target": "1028138"}}, {"type": "Feature", "geometry": {"type": "LineString", "coordinates": [[118.20117268900083, 68.22252448789027], [118.18576116956058, 68.22831805000911]]}, "properties": {"source": "9808840", "target": "1074833"}}, {"type": "Feature", "geometry": {"type": "LineString", "coordinates": [[118.20117268900083, 68.22252448789027], [118.20853836207266, 68.230231754215]]}, "properties": {"source": "9808840", "target": "8459946"}}, {"type": "Feature", "geometry": {"type": "LineString", "coordinates": [[118.19486689185203, 68.23045910103653], [118.19426972215308, 68.22242431793532]]}, "properties": {"source": "173467", "target": "10867740"}}, {"type": "Feature", "geometry": {"type": "LineString", "coordinates": [[118.19742707376838, 68.22685847132556], [118.19931486191825, 68.22364806538536]]}, "properties": {"source": "6634045", "target": "2901933"}}, {"type": "Feature", "geometry": {"type": "LineString", "coordinates": [[118.19142748673255, 68.22354894570469], [118.20561022330998, 68.2313359532719]]}, "properties": {"source": "28350058", "target": "12354079"}}, {"type": "Feature", "geometry": {"type": "LineString", "coordinates": [[118.19142748673255, 68.22354894570469], [118.19107582464108, 68.22285645629731]]}, "properties": {"source": "28350058", "target": "13623145"}}, {"type": "Feature", "geometry": {"type": "LineString", "coordinates": [[118.19142748673255, 68.22354894570469], [118.18296457258373, 68.22770777780622]]}, "properties": {"source": "28350058", "target": "30323585"}}, {"type": "Feature", "geometry": {"type": "LineString", "coordinates": [[118.19142748673255, 68.22354894570469], [118.20409828817395, 68.22727571983478]]}, "properties": {"source": "28350058", "target": "29893880"}}, {"type": "Feature", "geometry": {"type": "LineString", "coordinates": [[118.20918797123039, 68.22280318545054], [118.20297113869259, 68.23014414281809]]}, "properties": {"source": "16101259", "target": "18265838"}}, {"type": "Feature", "geometry": {"type": "LineString", "coordinates": [[118.20918797123039, 68.22280318545054], [118.18888357298908, 68.22582880765907]]}, "properties": {"source": "16101259", "target": "18201606"}}, {"type": "Feature", "geometry": {"type": "LineString", "coordinates": [[118.20918797123039, 68.22280318545054], [118.19264883519429, 68.22683281855649]]}, "properties": {"source": "16101259", "target": "1681041"}}, {"type": "Feature", "geometry": {"type": "LineString", "coordinates": [[118.2077818969862, 68.2299295869552], [118.19947639077623, 68.22940567330022]]}, "properties": {"source": "4494189", "target": "11641196"}}, {"type": "Feature", "geometry": {"type": "LineString", "coordinates": [[118.2077818969862, 68.2299295869552], [118.20008294032209, 68.2265732756035]]}, "properties": {"source": "4494189", "target": "6002005"}}, {"type": "Feature", "geometry": {"type": "LineString", "coordinates": [[118.2079973646014, 68.22569946282948], [118.18333819268452, 68.22292593499662]]}, "properties": {"source": "9010453", "target": "956573"}}, {"type": "Feature", "geometry": {"type": "LineString", "coordinates": [[118.2079973646014, 68.22569946282948], [118.18460663129468, 68.22414893835875]]}, "properties": {"source": "9010453", "target": "920342"}}, {"type": "Feature", "geometry": {"type": "LineString", "coordinates": [[118.2079973646014, 68.22569946282948], [118.18336403601955, 68.22485360546523]]}, "properties": {"source": "9010453", "target": "757448"}}, {"type": "Feature", "geometry": {"type": "LineString", "coordinates": [[118.2079973646014, 68.22569946282948], [118.1835829115314, 68.22876613395357]]}, "properties": {"source": "9010453", "target": "793668"}}, {"type": "Feature", "geometry": {"type": "LineString", "coordinates": [[118.18524783253753, 68.22527476892202], [118.20474352733942, 68.2304204127253]]}, "properties": {"source": "8140480", "target": "7843045"}}, {"type": "Feature", "geometry": {"type": "LineString", "coordinates": [[118.19775168739147, 68.22484553958526], [118.2099058936688, 68.22986721391231]]}, "properties": {"source": "9297427", "target": "83617"}}, {"type": "Feature", "geometry": {"type": "LineString", "coordinates": [[118.19775168739147, 68.22484553958526], [118.18415548125085, 68.23156598030502]]}, "properties": {"source": "9297427", "target": "9921479"}}, {"type": "Feature", "geometry": {"type": "LineString", "coordinates": [[118.19976599812031, 68.2311599605055], [118.20299429709922, 68.2273610009629]]}, "properties": {"source": "6871121", "target": "6892499"}}, {"type": "Feature", "geometry": {"type": "LineString", "coordinates": [[118.20348658043872, 68.22263423004344], [118.20829897153044, 68.2256959930397]]}, "properties": {"source": "953284", "target": "9586133"}}, {"type": "Feature", "geometry": {"type": "LineString", "coordinates": [[118.20348658043872, 68.22263423004344], [118.1926077311096, 68.22881979111426]]}, "properties": {"source": "953284", "target": "9317565"}}, {"type": "Feature", "geometry": {"type": "LineString", "coordinates": [[118.20348658043872, 68.22263423004344], [118.19001092395433, 68.23143915996067]]}, "properties": {"source": "953284", "target": "9317615"}}, {"type": "Feature", "geometry": {"type": "LineString", "coordinates": [[118.20348658043872, 68.22263423004344], [118.18865637305362, 68.22408163826185]]}, "properties": {"source": "953284", "target": "9317707"}}, {"type": "Feature", "geometry": {"type": "LineString", "coordinates": [[118.1867889300928, 68.22980924054505], [118.19642447115393, 68.22862019054509]]}, "properties": {"source": "13272303", "target": "8911912"}}, {"type": "Feature", "geometry": {"type": "LineString", "coordinates": [[118.1867889300928, 68.22980924054505], [118.18647999035903, 68.2233204380133]]}, "properties": {"source": "13272303", "target": "11139230"}}, {"type": "Feature", "geometry": {"type": "LineString", "coordinates": [[118.1867889300928, 68.22980924054505], [118.185177144605, 68.22863833978892]]}, "properties": {"source": "13272303", "target": "10902606"}}, {"type": "Feature", "geometry": {"type": "LineString", "coordinates": [[118.1867889300928, 68.22980924054505], [118.18978380920424, 68.23044634492896]]}, "properties": {"source": "13272303", "target": "2901482"}}, {"type": "Feature", "geometry": {"type": "LineString", "coordinates": [[118.1867889300928, 68.22980924054505], [118.20668889316318, 68.22629660855296]]}, "properties": {"source": "13272303", "target": "13185171"}}, {"type": "Feature", "geometry": {"type": "LineString", "coordinates": [[118.1867889300928, 68.22980924054505], [118.2057189948028, 68.22469318685432]]}, "properties": {"source": "13272303", "target": "16251588"}}, {"type": "Feature", "geometry": {"type": "LineString", "coordinates": [[118.20348658043872, 68.22263423004344], [118.20781940098965, 68.22226793877894]]}, "properties": {"source": "953284", "target": "9317946"}}, {"type": "Feature", "geometry": {"type": "LineString", "coordinates": [[118.20348658043872, 68.22263423004344], [118.20810845109474, 68.22590548640733]]}, "properties": {"source": "953284", "target": "9317460"}}, {"type": "Feature", "geometry": {"type": "LineString", "coordinates": [[118.1867889300928, 68.22980924054505], [118.20089612628436, 68.23016971031299]]}, "properties": {"source": "13272303", "target": "2684376"}}, {"type": "Feature", "geometry": {"type": "LineString", "coordinates": [[118.20082775763814, 68.22768719770903], [118.19811270253723, 68.22667989258414]]}, "properties": {"source": "25331975", "target": "23355510"}}, {"type": "Feature", "geometry": {"type": "LineString", "coordinates": [[118.20082775763814, 68.22768719770903], [118.18671893242157, 68.22442638448851]]}, "properties": {"source": "25331975", "target": "23419928"}}, {"type": "Feature", "geometry": {"type": "LineString", "coordinates": [[118.20299429709922, 68.2273610009629], [118.19873079196572, 68.22947587770983]]}, "properties": {"source": "6892499", "target": "7823974"}}, {"type": "Feature", "geometry": {"type": "LineString", "coordinates": [[118.20299429709922, 68.2273610009629], [118.20183881751933, 68.22249953598046]]}, "properties": {"source": "6892499", "target": "6641799"}}, {"type": "Feature", "geometry": {"type": "LineString", "coordinates": [[118.20905106761444, 68.22864635442406], [118.18647999035903, 68.2233204380133]]}, "properties": {"source": "7075457", "target": "11139230"}}, {"type": "Feature", "geometry": {"type": "LineString", "coordinates": [[118.20905106761444, 68.22864635442406], [118.185177144605, 68.22863833978892]]}, "properties": {"source": "7075457", "target": "10902606"}}, {"type": "Feature", "geometry": {"type": "LineString", "coordinates": [[118.20905106761444, 68.22864635442406], [118.20598126373955, 68.2278170737782]]}, "properties": {"source": "7075457", "target": "4561438"}}, {"type": "Feature", "geometry": {"type": "LineString", "coordinates": [[118.18855972588659, 68.2235267078176], [118.18475466702398, 68.22378118885555]]}, "properties": {"source": "14139278", "target": "9655178"}}, {"type": "Feature", "geometry": {"type": "LineString", "coordinates": [[118.18855972588659, 68.2235267078176], [118.19873079196572, 68.22947587770983]]}, "properties": {"source": "14139278", "target": "7823974"}}, {"type": "Feature", "geometry": {"type": "LineString", "coordinates": [[118.18855972588659, 68.2235267078176], [118.20183881751933, 68.22249953598046]]}, "properties": {"source": "14139278", "target": "6641799"}}, {"type": "Feature", "geometry": {"type": "LineString", "coordinates": [[118.18485993307672, 68.22648200141333], [118.19642447115393, 68.22862019054509]]}, "properties": {"source": "9548600", "target": "8911912"}}, {"type": "Feature", "geometry": {"type": "LineString", "coordinates": [[118.18485993307672, 68.22648200141333], [118.20117268900083, 68.22252448789027]]}, "properties": {"source": "9548600", "target": "9808840"}}, {"type": "Feature", "geometry": {"type": "LineString", "coordinates": [[118.18485993307672, 68.22648200141333], [118.20853836207266, 68.230231754215]]}, "properties": {"source": "9548600", "target": "8459946"}}, {"type": "Feature", "geometry": {"type": "LineString", "coordinates": [[118.18485993307672, 68.22648200141333], [118.19385438240289, 68.22726720785337]]}, "properties": {"source": "9548600", "target": "9721666"}}, {"type": "Feature", "geometry": {"type": "LineString", "coordinates": [[118.19742707376838, 68.22685847132556], [118.19976599812031, 68.2311599605055]]}, "properties": {"source": "6634045", "target": "6871121"}}, {"type": "Feature", "geometry": {"type": "LineString", "coordinates": [[118.20299429709922, 68.2273610009629], [118.20474352733942, 68.2304204127253]]}, "properties": {"source": "6892499", "target": "7843045"}}, {"type": "Feature", "geometry": {"type": "LineString", "coordinates": [[118.20561022330998, 68.2313359532719], [118.19038020092597, 68.22832440628198]]}, "properties": {"source": "12354079", "target": "8687442"}}, {"type": "Feature", "geometry": {"type": "LineString", "coordinates": [[118.19467819441815, 68.23058460096951], [118.19811270253723, 68.22667989258414]]}, "properties": {"source": "22890307", "target": "23355510"}}, {"type": "Feature", "geometry": {"type": "LineString", "coordinates": [[118.18644510616127, 68.22668709466689], [118.18285292924054, 68.22687154841856]]}, "properties": {"source": "11456153", "target": "3069967"}}, {"type": "Feature", "geometry": {"type": "LineString", "coordinates": [[118.18644510616127, 68.22668709466689], [118.18415548125085, 68.23156598030502]]}, "properties": {"source": "11456153", "target": "9921479"}}, {"type": "Feature", "geometry": {"type": "LineString", "coordinates": [[118.18644510616127, 68.22668709466689], [118.19829100063379, 68.22740009862207]]}, "properties": {"source": "11456153", "target": "1392947"}}, {"type": "Feature", "geometry": {"type": "LineString", "coordinates": [[118.18644510616127, 68.22668709466689], [118.20365217144365, 68.22522920896253]]}, "properties": {"source": "11456153", "target": "13234219"}}, {"type": "Feature", "geometry": {"type": "LineString", "coordinates": [[118.19001092395433, 68.23143915996067], [118.20829897153044, 68.2256959930397]]}, "properties": {"source": "9317615", "target": "9586133"}}, {"type": "Feature", "geometry": {"type": "LineString", "coordinates": [[118.19001092395433, 68.23143915996067], [118.1926077311096, 68.22881979111426]]}, "properties": {"source": "9317615", "target": "9317565"}}, {"type": "Feature", "geometry": {"type": "LineString", "coordinates": [[118.19001092395433, 68.23143915996067], [118.18865637305362, 68.22408163826185]]}, "properties": {"source": "9317615", "target": "9317707"}}, {"type": "Feature", "geometry": {"type": "LineString", "coordinates": [[118.19001092395433, 68.23143915996067], [118.19821010516779, 68.23065673394274]]}, "properties": {"source": "9317615", "target": "924763"}}, {"type": "Feature", "geometry": {"type": "LineString", "coordinates": [[118.19001092395433, 68.23143915996067], [118.20647848110048, 68.22356422314655]]}, "properties": {"source": "9317615", "target": "10773927"}}, {"type": "Feature", "geometry": {"type": "LineString", "coordinates": [[118.19001092395433, 68.23143915996067], [118.19139614976257, 68.22975211120334]]}, "properties": {"source": "9317615", "target": "920686"}}, {"type": "Feature", "geometry": {"type": "LineString", "coordinates": [[118.19107582464108, 68.22285645629731], [118.19467819441815, 68.23058460096951]]}, "properties": {"source": "13623145", "target": "22890307"}}, {"type": "Feature", "geometry": {"type": "LineString", "coordinates": [[118.19107582464108, 68.22285645629731], [118.19811270253723, 68.22667989258414]]}, "properties": {"source": "13623145", "target": "23355510"}}, {"type": "Feature", "geometry": {"type": "LineString", "coordinates": [[118.19107582464108, 68.22285645629731], [118.20297113869259, 68.23014414281809]]}, "properties": {"source": "13623145", "target": "18265838"}}, {"type": "Feature", "geometry": {"type": "LineString", "coordinates": [[118.19001092395433, 68.23143915996067], [118.20810845109474, 68.22590548640733]]}, "properties": {"source": "9317615", "target": "9317460"}}, {"type": "Feature", "geometry": {"type": "LineString", "coordinates": [[118.19107582464108, 68.22285645629731], [118.1838861265328, 68.22307555679185]]}, "properties": {"source": "13623145", "target": "36271088"}}, {"type": "Feature", "geometry": {"type": "LineString", "coordinates": [[118.19107582464108, 68.22285645629731], [118.18888357298908, 68.22582880765907]]}, "properties": {"source": "13623145", "target": "18201606"}}, {"type": "Feature", "geometry": {"type": "LineString", "coordinates": [[118.19775168739147, 68.22484553958526], [118.18541039378783, 68.22407408245382]]}, "properties": {"source": "9297427", "target": "7012648"}}, {"type": "Feature", "geometry": {"type": "LineString", "coordinates": [[118.19775168739147, 68.22484553958526], [118.20827152123519, 68.2307597643892]]}, "properties": {"source": "9297427", "target": "970386"}}, {"type": "Feature", "geometry": {"type": "LineString", "coordinates": [[118.19775168739147, 68.22484553958526], [118.18783433581365, 68.22491554493914]]}, "properties": {"source": "9297427", "target": "9349285"}}, {"type": "Feature", "geometry": {"type": "LineString", "coordinates": [[118.19775168739147, 68.22484553958526], [118.20372505665, 68.22878809122736]]}, "properties": {"source": "9297427", "target": "9722870"}}, {"type": "Feature", "geometry": {"type": "LineString", "coordinates": [[118.1926077311096, 68.22881979111426], [118.20829897153044, 68.2256959930397]]}, "properties": {"source": "9317565", "target": "9586133"}}, {"type": "Feature", "geometry": {"type": "LineString", "coordinates": [[118.1926077311096, 68.22881979111426], [118.18865637305362, 68.22408163826185]]}, "properties": {"source": "9317565", "target": "9317707"}}, {"type": "Feature", "geometry": {"type": "LineString", "coordinates": [[118.1926077311096, 68.22881979111426], [118.19821010516779, 68.23065673394274]]}, "properties": {"source": "9317565", "target": "924763"}}, {"type": "Feature", "geometry": {"type": "LineString", "coordinates": [[118.1926077311096, 68.22881979111426], [118.20647848110048, 68.22356422314655]]}, "properties": {"source": "9317565", "target": "10773927"}}, {"type": "Feature", "geometry": {"type": "LineString", "coordinates": [[118.1926077311096, 68.22881979111426], [118.18217060286293, 68.22932707502466]]}, "properties": {"source": "9317565", "target": "15786695"}}, {"type": "Feature", "geometry": {"type": "LineString", "coordinates": [[118.18877548966117, 68.22763831955984], [118.20829897153044, 68.2256959930397]]}, "properties": {"source": "9317643", "target": "9586133"}}, {"type": "Feature", "geometry": {"type": "LineString", "coordinates": [[118.18877548966117, 68.22763831955984], [118.1926077311096, 68.22881979111426]]}, "properties": {"source": "9317643", "target": "9317565"}}, {"type": "Feature", "geometry": {"type": "LineString", "coordinates": [[118.18877548966117, 68.22763831955984], [118.19001092395433, 68.23143915996067]]}, "properties": {"source": "9317643", "target": "9317615"}}, {"type": "Feature", "geometry": {"type": "LineString", "coordinates": [[118.19775168739147, 68.22484553958526], [118.20474352733942, 68.2304204127253]]}, "properties": {"source": "9297427", "target": "7843045"}}, {"type": "Feature", "geometry": {"type": "LineString", "coordinates": [[118.18877548966117, 68.22763831955984], [118.20781940098965, 68.22226793877894]]}, "properties": {"source": "9317643", "target": "9317946"}}, {"type": "Feature", "geometry": {"type": "LineString", "coordinates": [[118.20117268900083, 68.22252448789027], [118.19385438240289, 68.22726720785337]]}, "properties": {"source": "9808840", "target": "9721666"}}, {"type": "Feature", "geometry": {"type": "LineString", "coordinates": [[118.18671893242157, 68.22442638448851], [118.19811270253723, 68.22667989258414]]}, "properties": {"source": "23419928", "target": "23355510"}}, {"type": "Feature", "geometry": {"type": "LineString", "coordinates": [[118.1973543434006, 68.22263249342149], [118.20422053295493, 68.23147628888773]]}, "properties": {"source": "22893033", "target": "25622739"}}, {"type": "Feature", "geometry": {"type": "LineString", "coordinates": [[118.1973543434006, 68.22263249342149], [118.20704316685885, 68.2281152964243]]}, "properties": {"source": "22893033", "target": "18525883"}}, {"type": "Feature", "geometry": {"type": "LineString", "coordinates": [[118.1973543434006, 68.22263249342149], [118.20082775763814, 68.22768719770903]]}, "properties": {"source": "22893033", "target": "25331975"}}, {"type": "Feature", "geometry": {"type": "LineString", "coordinates": [[118.1973543434006, 68.22263249342149], [118.19042064953595, 68.22468996255358]]}, "properties": {"source": "22893033", "target": "183159"}}, {"type": "Feature", "geometry": {"type": "LineString", "coordinates": [[118.1973543434006, 68.22263249342149], [118.18283794570954, 68.23058104068517]]}, "properties": {"source": "22893033", "target": "25111012"}}, {"type": "Feature", "geometry": {"type": "LineString", "coordinates": [[118.20829897153044, 68.2256959930397], [118.18865637305362, 68.22408163826185]]}, "properties": {"source": "9586133", "target": "9317707"}}, {"type": "Feature", "geometry": {"type": "LineString", "coordinates": [[118.20561022330998, 68.2313359532719], [118.19811270253723, 68.22667989258414]]}, "properties": {"source": "12354079", "target": "23355510"}}, {"type": "Feature", "geometry": {"type": "LineString", "coordinates": [[118.20561022330998, 68.2313359532719], [118.20297113869259, 68.23014414281809]]}, "properties": {"source": "12354079", "target": "18265838"}}, {"type": "Feature", "geometry": {"type": "LineString", "coordinates": [[118.20561022330998, 68.2313359532719], [118.18644510616127, 68.22668709466689]]}, "properties": {"source": "12354079", "target": "11456153"}}, {"type": "Feature", "geometry": {"type": "LineString", "coordinates": [[118.20561022330998, 68.2313359532719], [118.19947639077623, 68.22940567330022]]}, "properties": {"source": "12354079", "target": "11641196"}}, {"type": "Feature", "geometry": {"type": "LineString", "coordinates": [[118.20561022330998, 68.2313359532719], [118.19548626043814, 68.22910494704314]]}, "properties": {"source": "12354079", "target": "8391726"}}, {"type": "Feature", "geometry": {"type": "LineString", "coordinates": [[118.20561022330998, 68.2313359532719], [118.1838861265328, 68.22307555679185]]}, "properties": {"source": "12354079", "target": "36271088"}}, {"type": "Feature", "geometry": {"type": "LineString", "coordinates": [[118.20561022330998, 68.2313359532719], [118.19426972215308, 68.22242431793532]]}, "properties": {"source": "12354079", "target": "10867740"}}, {"type": "Feature", "geometry": {"type": "LineString", "coordinates": [[118.20561022330998, 68.2313359532719], [118.18888357298908, 68.22582880765907]]}, "properties": {"source": "12354079", "target": "18201606"}}]}